<?xml version="1.0" encoding="UTF-8"?>
<gpx creator="StravaGPX" version="1.1" xmlns="http://www.topografix.com/GPX/1/1">
 <metadata>
  <time>2025-07-02T18:56:10Z</time>
 </metadata>
 <trk>
  <name>Evening Ride</name>
  <type>1</type>
  <trkseg>
   <trkpt lat="52.503575" lon="13.4082">
    <ele>37.6</ele>
    <time>2025-07-02T18:56:10.000Z</time>
   </trkpt>
   <trkpt lat="52.503559" lon="13.408195">
    <ele>38</ele>
    <time>2025-07-02T18:56:11.000Z</time>
   </trkpt>
   <trkpt lat="52.503555" lon="13.40818">
    <ele>38</ele>
    <time>2025-07-02T18:56:12.000Z</time>
   </trkpt>
   <trkpt lat="52.503567" lon="13.408163">
    <ele>38</ele>
    <time>2025-07-02T18:56:14.000Z</time>
   </trkpt>
   <trkpt lat="52.503577" lon="13.408179">
    <ele>38</ele>
    <time>2025-07-02T18:56:16.000Z</time>
   </trkpt>
   <trkpt lat="52.503533" lon="13.407277">
    <ele>38</ele>
    <time>2025-07-02T18:56:33.000Z</time>
   </trkpt>
   <trkpt lat="52.503667" lon="13.407393">
    <ele>38</ele>
    <time>2025-07-02T18:56:37.000Z</time>
   </trkpt>
   <trkpt lat="52.503703" lon="13.407411">
    <ele>38</ele>
    <time>2025-07-02T18:56:38.000Z</time>
   </trkpt>
   <trkpt lat="52.503741" lon="13.407442">
    <ele>38</ele>
    <time>2025-07-02T18:56:39.000Z</time>
   </trkpt>
   <trkpt lat="52.503917" lon="13.407543">
    <ele>37.8</ele>
    <time>2025-07-02T18:56:44.000Z</time>
   </trkpt>
   <trkpt lat="52.504162" lon="13.407775">
    <ele>37.6</ele>
    <time>2025-07-02T18:56:52.000Z</time>
   </trkpt>
   <trkpt lat="52.504309" lon="13.407925">
    <ele>37.6</ele>
    <time>2025-07-02T18:56:57.000Z</time>
   </trkpt>
   <trkpt lat="52.504318" lon="13.408036">
    <ele>37.8</ele>
    <time>2025-07-02T18:56:59.000Z</time>
   </trkpt>
   <trkpt lat="52.504308" lon="13.408097">
    <ele>37.8</ele>
    <time>2025-07-02T18:57:00.000Z</time>
   </trkpt>
   <trkpt lat="52.504177" lon="13.408556">
    <ele>37.8</ele>
    <time>2025-07-02T18:57:08.000Z</time>
   </trkpt>
   <trkpt lat="52.504146" lon="13.4088">
    <ele>37.8</ele>
    <time>2025-07-02T18:57:13.000Z</time>
   </trkpt>
   <trkpt lat="52.504042" lon="13.409246">
    <ele>37.6</ele>
    <time>2025-07-02T18:57:21.000Z</time>
   </trkpt>
   <trkpt lat="52.503966" lon="13.40947">
    <ele>37.6</ele>
    <time>2025-07-02T18:57:25.000Z</time>
   </trkpt>
   <trkpt lat="52.503855" lon="13.409842">
    <ele>37.8</ele>
    <time>2025-07-02T18:57:32.000Z</time>
   </trkpt>
   <trkpt lat="52.503768" lon="13.410051">
    <ele>37.8</ele>
    <time>2025-07-02T18:57:36.000Z</time>
   </trkpt>
   <trkpt lat="52.503611" lon="13.410181">
    <ele>37.8</ele>
    <time>2025-07-02T18:57:40.000Z</time>
   </trkpt>
   <trkpt lat="52.503362" lon="13.410415">
    <ele>38</ele>
    <time>2025-07-02T18:57:47.000Z</time>
   </trkpt>
   <trkpt lat="52.50333" lon="13.410544">
    <ele>38</ele>
    <time>2025-07-02T18:57:49.000Z</time>
   </trkpt>
   <trkpt lat="52.503349" lon="13.410623">
    <ele>38</ele>
    <time>2025-07-02T18:57:50.000Z</time>
   </trkpt>
   <trkpt lat="52.503366" lon="13.410705">
    <ele>38.2</ele>
    <time>2025-07-02T18:57:51.000Z</time>
   </trkpt>
   <trkpt lat="52.503432" lon="13.411017">
    <ele>38.2</ele>
    <time>2025-07-02T18:57:55.000Z</time>
   </trkpt>
   <trkpt lat="52.503426" lon="13.411181">
    <ele>38</ele>
    <time>2025-07-02T18:57:57.000Z</time>
   </trkpt>
   <trkpt lat="52.50339" lon="13.411333">
    <ele>38</ele>
    <time>2025-07-02T18:57:59.000Z</time>
   </trkpt>
   <trkpt lat="52.503357" lon="13.411466">
    <ele>37.8</ele>
    <time>2025-07-02T18:58:01.000Z</time>
   </trkpt>
   <trkpt lat="52.503281" lon="13.411761">
    <ele>37.8</ele>
    <time>2025-07-02T18:58:05.000Z</time>
   </trkpt>
   <trkpt lat="52.503268" lon="13.411829">
    <ele>37.8</ele>
    <time>2025-07-02T18:58:06.000Z</time>
   </trkpt>
   <trkpt lat="52.503247" lon="13.411976">
    <ele>37.8</ele>
    <time>2025-07-02T18:58:08.000Z</time>
   </trkpt>
   <trkpt lat="52.503224" lon="13.412059">
    <ele>37.8</ele>
    <time>2025-07-02T18:58:09.000Z</time>
   </trkpt>
   <trkpt lat="52.503083" lon="13.412506">
    <ele>37.8</ele>
    <time>2025-07-02T18:58:15.000Z</time>
   </trkpt>
   <trkpt lat="52.503063" lon="13.412578">
    <ele>37.8</ele>
    <time>2025-07-02T18:58:16.000Z</time>
   </trkpt>
   <trkpt lat="52.503017" lon="13.412808">
    <ele>37.8</ele>
    <time>2025-07-02T18:58:19.000Z</time>
   </trkpt>
   <trkpt lat="52.502977" lon="13.412944">
    <ele>37.8</ele>
    <time>2025-07-02T18:58:21.000Z</time>
   </trkpt>
   <trkpt lat="52.50285" lon="13.413374">
    <ele>37.6</ele>
    <time>2025-07-02T18:58:27.000Z</time>
   </trkpt>
   <trkpt lat="52.502789" lon="13.413508">
    <ele>37.6</ele>
    <time>2025-07-02T18:58:29.000Z</time>
   </trkpt>
   <trkpt lat="52.502732" lon="13.413737">
    <ele>37.6</ele>
    <time>2025-07-02T18:58:32.000Z</time>
   </trkpt>
   <trkpt lat="52.502686" lon="13.413882">
    <ele>37.6</ele>
    <time>2025-07-02T18:58:34.000Z</time>
   </trkpt>
   <trkpt lat="52.502564" lon="13.414299">
    <ele>37.8</ele>
    <time>2025-07-02T18:58:40.000Z</time>
   </trkpt>
   <trkpt lat="52.502552" lon="13.414367">
    <ele>37.8</ele>
    <time>2025-07-02T18:58:41.000Z</time>
   </trkpt>
   <trkpt lat="52.50251" lon="13.414589">
    <ele>37.8</ele>
    <time>2025-07-02T18:58:45.000Z</time>
   </trkpt>
   <trkpt lat="52.502504" lon="13.414625">
    <ele>37.8</ele>
    <time>2025-07-02T18:58:46.000Z</time>
   </trkpt>
   <trkpt lat="52.502485" lon="13.414696">
    <ele>37.8</ele>
    <time>2025-07-02T18:58:48.000Z</time>
   </trkpt>
   <trkpt lat="52.502474" lon="13.414732">
    <ele>37.8</ele>
    <time>2025-07-02T18:58:49.000Z</time>
   </trkpt>
   <trkpt lat="52.502367" lon="13.414854">
    <ele>37.8</ele>
    <time>2025-07-02T18:58:52.000Z</time>
   </trkpt>
   <trkpt lat="52.502314" lon="13.414951">
    <ele>37.8</ele>
    <time>2025-07-02T18:58:54.000Z</time>
   </trkpt>
   <trkpt lat="52.502266" lon="13.415119">
    <ele>37.8</ele>
    <time>2025-07-02T18:58:57.000Z</time>
   </trkpt>
   <trkpt lat="52.502242" lon="13.415185">
    <ele>37.8</ele>
    <time>2025-07-02T18:58:58.000Z</time>
   </trkpt>
   <trkpt lat="52.502166" lon="13.41542">
    <ele>37.8</ele>
    <time>2025-07-02T18:59:01.000Z</time>
   </trkpt>
   <trkpt lat="52.502042" lon="13.415939">
    <ele>37.6</ele>
    <time>2025-07-02T18:59:08.000Z</time>
   </trkpt>
   <trkpt lat="52.501976" lon="13.416514">
    <ele>37.6</ele>
    <time>2025-07-02T18:59:14.000Z</time>
   </trkpt>
   <trkpt lat="52.501967" lon="13.416609">
    <ele>37.6</ele>
    <time>2025-07-02T18:59:15.000Z</time>
   </trkpt>
   <trkpt lat="52.501887" lon="13.416899">
    <ele>37.6</ele>
    <time>2025-07-02T18:59:18.000Z</time>
   </trkpt>
   <trkpt lat="52.501834" lon="13.41708">
    <ele>37.6</ele>
    <time>2025-07-02T18:59:20.000Z</time>
   </trkpt>
   <trkpt lat="52.501753" lon="13.417348">
    <ele>37.6</ele>
    <time>2025-07-02T18:59:23.000Z</time>
   </trkpt>
   <trkpt lat="52.501708" lon="13.41751">
    <ele>37.4</ele>
    <time>2025-07-02T18:59:25.000Z</time>
   </trkpt>
   <trkpt lat="52.501608" lon="13.417971">
    <ele>37.2</ele>
    <time>2025-07-02T18:59:30.000Z</time>
   </trkpt>
   <trkpt lat="52.501569" lon="13.418166">
    <ele>37.2</ele>
    <time>2025-07-02T18:59:32.000Z</time>
   </trkpt>
   <trkpt lat="52.501553" lon="13.418236">
    <ele>37.2</ele>
    <time>2025-07-02T18:59:33.000Z</time>
   </trkpt>
   <trkpt lat="52.501491" lon="13.418532">
    <ele>37.2</ele>
    <time>2025-07-02T18:59:36.000Z</time>
   </trkpt>
   <trkpt lat="52.501372" lon="13.41894">
    <ele>37</ele>
    <time>2025-07-02T18:59:40.000Z</time>
   </trkpt>
   <trkpt lat="52.501299" lon="13.419239">
    <ele>37</ele>
    <time>2025-07-02T18:59:43.000Z</time>
   </trkpt>
   <trkpt lat="52.501231" lon="13.419424">
    <ele>36.8</ele>
    <time>2025-07-02T18:59:45.000Z</time>
   </trkpt>
   <trkpt lat="52.501124" lon="13.419815">
    <ele>36.8</ele>
    <time>2025-07-02T18:59:49.000Z</time>
   </trkpt>
   <trkpt lat="52.50102" lon="13.4202">
    <ele>36.8</ele>
    <time>2025-07-02T18:59:53.000Z</time>
   </trkpt>
   <trkpt lat="52.500865" lon="13.420769">
    <ele>36.8</ele>
    <time>2025-07-02T18:59:59.000Z</time>
   </trkpt>
   <trkpt lat="52.500814" lon="13.420949">
    <ele>36.8</ele>
    <time>2025-07-02T19:00:01.000Z</time>
   </trkpt>
   <trkpt lat="52.500655" lon="13.421661">
    <ele>37.2</ele>
    <time>2025-07-02T19:00:09.000Z</time>
   </trkpt>
   <trkpt lat="52.500586" lon="13.421926">
    <ele>37.2</ele>
    <time>2025-07-02T19:00:12.000Z</time>
   </trkpt>
   <trkpt lat="52.500549" lon="13.422076">
    <ele>37.4</ele>
    <time>2025-07-02T19:00:14.000Z</time>
   </trkpt>
   <trkpt lat="52.500532" lon="13.422159">
    <ele>37.4</ele>
    <time>2025-07-02T19:00:15.000Z</time>
   </trkpt>
   <trkpt lat="52.500497" lon="13.422313">
    <ele>37.4</ele>
    <time>2025-07-02T19:00:17.000Z</time>
   </trkpt>
   <trkpt lat="52.500464" lon="13.422467">
    <ele>37.4</ele>
    <time>2025-07-02T19:00:19.000Z</time>
   </trkpt>
   <trkpt lat="52.500447" lon="13.422598">
    <ele>37.4</ele>
    <time>2025-07-02T19:00:21.000Z</time>
   </trkpt>
   <trkpt lat="52.50041" lon="13.422698">
    <ele>37.6</ele>
    <time>2025-07-02T19:00:23.000Z</time>
   </trkpt>
   <trkpt lat="52.50029" lon="13.422858">
    <ele>37.6</ele>
    <time>2025-07-02T19:00:27.000Z</time>
   </trkpt>
   <trkpt lat="52.500279" lon="13.422871">
    <ele>37.6</ele>
    <time>2025-07-02T19:00:28.000Z</time>
   </trkpt>
   <trkpt lat="52.500274" lon="13.422888">
    <ele>37.8</ele>
    <time>2025-07-02T19:00:31.000Z</time>
   </trkpt>
   <trkpt lat="52.500274" lon="13.422888">
    <ele>37.8</ele>
    <time>2025-07-02T19:00:33.000Z</time>
   </trkpt>
   <trkpt lat="52.50027" lon="13.422892">
    <ele>37.8</ele>
    <time>2025-07-02T19:00:34.000Z</time>
   </trkpt>
   <trkpt lat="52.500253" lon="13.422937">
    <ele>37.8</ele>
    <time>2025-07-02T19:00:36.000Z</time>
   </trkpt>
   <trkpt lat="52.500217" lon="13.423074">
    <ele>37.8</ele>
    <time>2025-07-02T19:00:39.000Z</time>
   </trkpt>
   <trkpt lat="52.500198" lon="13.423135">
    <ele>37.8</ele>
    <time>2025-07-02T19:00:40.000Z</time>
   </trkpt>
   <trkpt lat="52.500162" lon="13.423271">
    <ele>37.8</ele>
    <time>2025-07-02T19:00:42.000Z</time>
   </trkpt>
   <trkpt lat="52.500144" lon="13.423358">
    <ele>37.8</ele>
    <time>2025-07-02T19:00:43.000Z</time>
   </trkpt>
   <trkpt lat="52.500109" lon="13.423516">
    <ele>37.8</ele>
    <time>2025-07-02T19:00:45.000Z</time>
   </trkpt>
   <trkpt lat="52.500059" lon="13.423658">
    <ele>37.8</ele>
    <time>2025-07-02T19:00:47.000Z</time>
   </trkpt>
   <trkpt lat="52.499964" lon="13.423991">
    <ele>37.6</ele>
    <time>2025-07-02T19:00:51.000Z</time>
   </trkpt>
   <trkpt lat="52.499925" lon="13.424132">
    <ele>37.6</ele>
    <time>2025-07-02T19:00:53.000Z</time>
   </trkpt>
   <trkpt lat="52.49977" lon="13.424698">
    <ele>37.4</ele>
    <time>2025-07-02T19:01:00.000Z</time>
   </trkpt>
   <trkpt lat="52.499658" lon="13.425124">
    <ele>37.6</ele>
    <time>2025-07-02T19:01:05.000Z</time>
   </trkpt>
   <trkpt lat="52.499459" lon="13.425779">
    <ele>37.6</ele>
    <time>2025-07-02T19:01:14.000Z</time>
   </trkpt>
   <trkpt lat="52.499366" lon="13.426014">
    <ele>37.8</ele>
    <time>2025-07-02T19:01:19.000Z</time>
   </trkpt>
   <trkpt lat="52.499349" lon="13.426097">
    <ele>37.8</ele>
    <time>2025-07-02T19:01:23.000Z</time>
   </trkpt>
   <trkpt lat="52.499325" lon="13.426177">
    <ele>38</ele>
    <time>2025-07-02T19:02:16.000Z</time>
   </trkpt>
   <trkpt lat="52.499311" lon="13.426211">
    <ele>38</ele>
    <time>2025-07-02T19:02:17.000Z</time>
   </trkpt>
   <trkpt lat="52.499281" lon="13.426283">
    <ele>38</ele>
    <time>2025-07-02T19:02:19.000Z</time>
   </trkpt>
   <trkpt lat="52.499207" lon="13.426458">
    <ele>38.2</ele>
    <time>2025-07-02T19:02:25.000Z</time>
   </trkpt>
   <trkpt lat="52.499196" lon="13.42651">
    <ele>38</ele>
    <time>2025-07-02T19:02:29.000Z</time>
   </trkpt>
   <trkpt lat="52.499126" lon="13.426712">
    <ele>38</ele>
    <time>2025-07-02T19:02:33.000Z</time>
   </trkpt>
   <trkpt lat="52.499075" lon="13.426911">
    <ele>38</ele>
    <time>2025-07-02T19:02:36.000Z</time>
   </trkpt>
   <trkpt lat="52.499" lon="13.427088">
    <ele>38</ele>
    <time>2025-07-02T19:02:38.000Z</time>
   </trkpt>
   <trkpt lat="52.498847" lon="13.427547">
    <ele>38</ele>
    <time>2025-07-02T19:02:43.000Z</time>
   </trkpt>
   <trkpt lat="52.498761" lon="13.42783">
    <ele>38</ele>
    <time>2025-07-02T19:02:46.000Z</time>
   </trkpt>
   <trkpt lat="52.498705" lon="13.428019">
    <ele>38</ele>
    <time>2025-07-02T19:02:48.000Z</time>
   </trkpt>
   <trkpt lat="52.498629" lon="13.428285">
    <ele>38</ele>
    <time>2025-07-02T19:02:51.000Z</time>
   </trkpt>
   <trkpt lat="52.498575" lon="13.428467">
    <ele>38</ele>
    <time>2025-07-02T19:02:53.000Z</time>
   </trkpt>
   <trkpt lat="52.498472" lon="13.428763">
    <ele>38</ele>
    <time>2025-07-02T19:02:56.000Z</time>
   </trkpt>
   <trkpt lat="52.498375" lon="13.429058">
    <ele>37.8</ele>
    <time>2025-07-02T19:02:59.000Z</time>
   </trkpt>
   <trkpt lat="52.498274" lon="13.42935">
    <ele>37.8</ele>
    <time>2025-07-02T19:03:02.000Z</time>
   </trkpt>
   <trkpt lat="52.498239" lon="13.429449">
    <ele>37.8</ele>
    <time>2025-07-02T19:03:03.000Z</time>
   </trkpt>
   <trkpt lat="52.498103" lon="13.429842">
    <ele>37.8</ele>
    <time>2025-07-02T19:03:07.000Z</time>
   </trkpt>
   <trkpt lat="52.498077" lon="13.429919">
    <ele>37.8</ele>
    <time>2025-07-02T19:03:08.000Z</time>
   </trkpt>
   <trkpt lat="52.497897" lon="13.430398">
    <ele>38</ele>
    <time>2025-07-02T19:03:13.000Z</time>
   </trkpt>
   <trkpt lat="52.497866" lon="13.430499">
    <ele>38</ele>
    <time>2025-07-02T19:03:14.000Z</time>
   </trkpt>
   <trkpt lat="52.497642" lon="13.431093">
    <ele>37.6</ele>
    <time>2025-07-02T19:03:20.000Z</time>
   </trkpt>
   <trkpt lat="52.497343" lon="13.431927">
    <ele>37.8</ele>
    <time>2025-07-02T19:03:28.000Z</time>
   </trkpt>
   <trkpt lat="52.497205" lon="13.432354">
    <ele>38</ele>
    <time>2025-07-02T19:03:32.000Z</time>
   </trkpt>
   <trkpt lat="52.497131" lon="13.432574">
    <ele>38</ele>
    <time>2025-07-02T19:03:34.000Z</time>
   </trkpt>
   <trkpt lat="52.496955" lon="13.433123">
    <ele>38</ele>
    <time>2025-07-02T19:03:39.000Z</time>
   </trkpt>
   <trkpt lat="52.496919" lon="13.433257">
    <ele>37.8</ele>
    <time>2025-07-02T19:03:40.000Z</time>
   </trkpt>
   <trkpt lat="52.49685" lon="13.433479">
    <ele>37.8</ele>
    <time>2025-07-02T19:03:42.000Z</time>
   </trkpt>
   <trkpt lat="52.496741" lon="13.433814">
    <ele>37.6</ele>
    <time>2025-07-02T19:03:45.000Z</time>
   </trkpt>
   <trkpt lat="52.496479" lon="13.434565">
    <ele>37.6</ele>
    <time>2025-07-02T19:03:52.000Z</time>
   </trkpt>
   <trkpt lat="52.496212" lon="13.435403">
    <ele>37.8</ele>
    <time>2025-07-02T19:04:00.000Z</time>
   </trkpt>
   <trkpt lat="52.496179" lon="13.435507">
    <ele>37.8</ele>
    <time>2025-07-02T19:04:01.000Z</time>
   </trkpt>
   <trkpt lat="52.496021" lon="13.435994">
    <ele>37.8</ele>
    <time>2025-07-02T19:04:06.000Z</time>
   </trkpt>
   <trkpt lat="52.495808" lon="13.436579">
    <ele>37.8</ele>
    <time>2025-07-02T19:04:12.000Z</time>
   </trkpt>
   <trkpt lat="52.495562" lon="13.437219">
    <ele>38</ele>
    <time>2025-07-02T19:04:19.000Z</time>
   </trkpt>
   <trkpt lat="52.495383" lon="13.437778">
    <ele>38.2</ele>
    <time>2025-07-02T19:04:25.000Z</time>
   </trkpt>
   <trkpt lat="52.495331" lon="13.437959">
    <ele>38.2</ele>
    <time>2025-07-02T19:04:27.000Z</time>
   </trkpt>
   <trkpt lat="52.495187" lon="13.43838">
    <ele>38.2</ele>
    <time>2025-07-02T19:04:32.000Z</time>
   </trkpt>
   <trkpt lat="52.495127" lon="13.438521">
    <ele>38.2</ele>
    <time>2025-07-02T19:04:34.000Z</time>
   </trkpt>
   <trkpt lat="52.495043" lon="13.438773">
    <ele>38.2</ele>
    <time>2025-07-02T19:04:37.000Z</time>
   </trkpt>
   <trkpt lat="52.494791" lon="13.439494">
    <ele>38.2</ele>
    <time>2025-07-02T19:04:45.000Z</time>
   </trkpt>
   <trkpt lat="52.494587" lon="13.440156">
    <ele>38</ele>
    <time>2025-07-02T19:04:52.000Z</time>
   </trkpt>
   <trkpt lat="52.494404" lon="13.440682">
    <ele>38</ele>
    <time>2025-07-02T19:04:58.000Z</time>
   </trkpt>
   <trkpt lat="52.494247" lon="13.44118">
    <ele>38</ele>
    <time>2025-07-02T19:05:03.000Z</time>
   </trkpt>
   <trkpt lat="52.49418" lon="13.441373">
    <ele>38</ele>
    <time>2025-07-02T19:05:05.000Z</time>
   </trkpt>
   <trkpt lat="52.493904" lon="13.442237">
    <ele>37.8</ele>
    <time>2025-07-02T19:05:14.000Z</time>
   </trkpt>
   <trkpt lat="52.493738" lon="13.44271">
    <ele>37.6</ele>
    <time>2025-07-02T19:05:19.000Z</time>
   </trkpt>
   <trkpt lat="52.493722" lon="13.442923">
    <ele>37.6</ele>
    <time>2025-07-02T19:05:21.000Z</time>
   </trkpt>
   <trkpt lat="52.493752" lon="13.443114">
    <ele>37.6</ele>
    <time>2025-07-02T19:05:23.000Z</time>
   </trkpt>
   <trkpt lat="52.493794" lon="13.443228">
    <ele>37.4</ele>
    <time>2025-07-02T19:05:24.000Z</time>
   </trkpt>
   <trkpt lat="52.493837" lon="13.443314">
    <ele>37.6</ele>
    <time>2025-07-02T19:05:25.000Z</time>
   </trkpt>
   <trkpt lat="52.493991" lon="13.443529">
    <ele>37.2</ele>
    <time>2025-07-02T19:05:28.000Z</time>
   </trkpt>
   <trkpt lat="52.494207" lon="13.443813">
    <ele>37.2</ele>
    <time>2025-07-02T19:05:32.000Z</time>
   </trkpt>
   <trkpt lat="52.494328" lon="13.444046">
    <ele>37</ele>
    <time>2025-07-02T19:05:35.000Z</time>
   </trkpt>
   <trkpt lat="52.494379" lon="13.444124">
    <ele>36.8</ele>
    <time>2025-07-02T19:05:36.000Z</time>
   </trkpt>
   <trkpt lat="52.494446" lon="13.444218">
    <ele>36.6</ele>
    <time>2025-07-02T19:05:37.000Z</time>
   </trkpt>
   <trkpt lat="52.494613" lon="13.444433">
    <ele>36.2</ele>
    <time>2025-07-02T19:05:40.000Z</time>
   </trkpt>
   <trkpt lat="52.495011" lon="13.444934">
    <ele>36.4</ele>
    <time>2025-07-02T19:05:48.000Z</time>
   </trkpt>
   <trkpt lat="52.495303" lon="13.445285">
    <ele>37</ele>
    <time>2025-07-02T19:05:55.000Z</time>
   </trkpt>
   <trkpt lat="52.495669" lon="13.445795">
    <ele>37.2</ele>
    <time>2025-07-02T19:06:05.000Z</time>
   </trkpt>
   <trkpt lat="52.495749" lon="13.445924">
    <ele>37.4</ele>
    <time>2025-07-02T19:06:08.000Z</time>
   </trkpt>
   <trkpt lat="52.495815" lon="13.446051">
    <ele>37.4</ele>
    <time>2025-07-02T19:06:11.000Z</time>
   </trkpt>
   <trkpt lat="52.495912" lon="13.446303">
    <ele>37.6</ele>
    <time>2025-07-02T19:06:16.000Z</time>
   </trkpt>
   <trkpt lat="52.495938" lon="13.44634">
    <ele>37.6</ele>
    <time>2025-07-02T19:06:17.000Z</time>
   </trkpt>
   <trkpt lat="52.496062" lon="13.446518">
    <ele>37.6</ele>
    <time>2025-07-02T19:06:21.000Z</time>
   </trkpt>
   <trkpt lat="52.496142" lon="13.446664">
    <ele>37.4</ele>
    <time>2025-07-02T19:06:24.000Z</time>
   </trkpt>
   <trkpt lat="52.496171" lon="13.446713">
    <ele>37.4</ele>
    <time>2025-07-02T19:06:25.000Z</time>
   </trkpt>
   <trkpt lat="52.496208" lon="13.44677">
    <ele>37.4</ele>
    <time>2025-07-02T19:06:26.000Z</time>
   </trkpt>
   <trkpt lat="52.496243" lon="13.446819">
    <ele>37.6</ele>
    <time>2025-07-02T19:06:27.000Z</time>
   </trkpt>
   <trkpt lat="52.496319" lon="13.446919">
    <ele>37.6</ele>
    <time>2025-07-02T19:06:29.000Z</time>
   </trkpt>
   <trkpt lat="52.496356" lon="13.446972">
    <ele>37.6</ele>
    <time>2025-07-02T19:06:30.000Z</time>
   </trkpt>
   <trkpt lat="52.496421" lon="13.447072">
    <ele>37.8</ele>
    <time>2025-07-02T19:06:32.000Z</time>
   </trkpt>
   <trkpt lat="52.496496" lon="13.447168">
    <ele>37.8</ele>
    <time>2025-07-02T19:06:34.000Z</time>
   </trkpt>
   <trkpt lat="52.496693" lon="13.447423">
    <ele>38</ele>
    <time>2025-07-02T19:06:39.000Z</time>
   </trkpt>
   <trkpt lat="52.49682" lon="13.447591">
    <ele>38.2</ele>
    <time>2025-07-02T19:06:42.000Z</time>
   </trkpt>
   <trkpt lat="52.4969" lon="13.447685">
    <ele>38.2</ele>
    <time>2025-07-02T19:06:44.000Z</time>
   </trkpt>
   <trkpt lat="52.497167" lon="13.447995">
    <ele>38.2</ele>
    <time>2025-07-02T19:06:50.000Z</time>
   </trkpt>
   <trkpt lat="52.4972" lon="13.448027">
    <ele>38.2</ele>
    <time>2025-07-02T19:06:51.000Z</time>
   </trkpt>
   <trkpt lat="52.497364" lon="13.448194">
    <ele>38.4</ele>
    <time>2025-07-02T19:06:55.000Z</time>
   </trkpt>
   <trkpt lat="52.497446" lon="13.448379">
    <ele>38.4</ele>
    <time>2025-07-02T19:06:59.000Z</time>
   </trkpt>
   <trkpt lat="52.497381" lon="13.448505">
    <ele>38.6</ele>
    <time>2025-07-02T19:07:02.000Z</time>
   </trkpt>
   <trkpt lat="52.497354" lon="13.448548">
    <ele>38.8</ele>
    <time>2025-07-02T19:07:03.000Z</time>
   </trkpt>
   <trkpt lat="52.497212" lon="13.448798">
    <ele>38.8</ele>
    <time>2025-07-02T19:07:08.000Z</time>
   </trkpt>
   <trkpt lat="52.497171" lon="13.448855">
    <ele>39</ele>
    <time>2025-07-02T19:07:09.000Z</time>
   </trkpt>
   <trkpt lat="52.496963" lon="13.4492">
    <ele>38.6</ele>
    <time>2025-07-02T19:07:14.000Z</time>
   </trkpt>
   <trkpt lat="52.49667" lon="13.449686">
    <ele>38.2</ele>
    <time>2025-07-02T19:07:21.000Z</time>
   </trkpt>
   <trkpt lat="52.49629" lon="13.4503">
    <ele>38</ele>
    <time>2025-07-02T19:07:31.000Z</time>
   </trkpt>
   <trkpt lat="52.496046" lon="13.450722">
    <ele>38</ele>
    <time>2025-07-02T19:07:38.000Z</time>
   </trkpt>
   <trkpt lat="52.495896" lon="13.450976">
    <ele>37.8</ele>
    <time>2025-07-02T19:07:42.000Z</time>
   </trkpt>
   <trkpt lat="52.495613" lon="13.451442">
    <ele>37.8</ele>
    <time>2025-07-02T19:07:50.000Z</time>
   </trkpt>
   <trkpt lat="52.495404" lon="13.451801">
    <ele>37.8</ele>
    <time>2025-07-02T19:07:57.000Z</time>
   </trkpt>
   <trkpt lat="52.495373" lon="13.451854">
    <ele>37.8</ele>
    <time>2025-07-02T19:07:58.000Z</time>
   </trkpt>
   <trkpt lat="52.495266" lon="13.452017">
    <ele>37.6</ele>
    <time>2025-07-02T19:08:01.000Z</time>
   </trkpt>
   <trkpt lat="52.495163" lon="13.452187">
    <ele>37.6</ele>
    <time>2025-07-02T19:08:04.000Z</time>
   </trkpt>
   <trkpt lat="52.494992" lon="13.452435">
    <ele>37.6</ele>
    <time>2025-07-02T19:08:09.000Z</time>
   </trkpt>
   <trkpt lat="52.494933" lon="13.452523">
    <ele>37.6</ele>
    <time>2025-07-02T19:08:11.000Z</time>
   </trkpt>
   <trkpt lat="52.494899" lon="13.45257">
    <ele>37.6</ele>
    <time>2025-07-02T19:08:12.000Z</time>
   </trkpt>
   <trkpt lat="52.494838" lon="13.452675">
    <ele>37.8</ele>
    <time>2025-07-02T19:08:14.000Z</time>
   </trkpt>
   <trkpt lat="52.494697" lon="13.452895">
    <ele>37.6</ele>
    <time>2025-07-02T19:08:18.000Z</time>
   </trkpt>
   <trkpt lat="52.494449" lon="13.453259">
    <ele>37.2</ele>
    <time>2025-07-02T19:08:26.000Z</time>
   </trkpt>
   <trkpt lat="52.494325" lon="13.453475">
    <ele>37.4</ele>
    <time>2025-07-02T19:08:31.000Z</time>
   </trkpt>
   <trkpt lat="52.494137" lon="13.453781">
    <ele>37.4</ele>
    <time>2025-07-02T19:08:38.000Z</time>
   </trkpt>
   <trkpt lat="52.493984" lon="13.454043">
    <ele>37.6</ele>
    <time>2025-07-02T19:08:44.000Z</time>
   </trkpt>
   <trkpt lat="52.493955" lon="13.45408">
    <ele>37.6</ele>
    <time>2025-07-02T19:08:45.000Z</time>
   </trkpt>
   <trkpt lat="52.493887" lon="13.45408">
    <ele>37.6</ele>
    <time>2025-07-02T19:08:47.000Z</time>
   </trkpt>
   <trkpt lat="52.493853" lon="13.454049">
    <ele>37.6</ele>
    <time>2025-07-02T19:08:48.000Z</time>
   </trkpt>
   <trkpt lat="52.493787" lon="13.453963">
    <ele>37.8</ele>
    <time>2025-07-02T19:08:50.000Z</time>
   </trkpt>
   <trkpt lat="52.493756" lon="13.453919">
    <ele>37.6</ele>
    <time>2025-07-02T19:08:51.000Z</time>
   </trkpt>
   <trkpt lat="52.493525" lon="13.453632">
    <ele>37.4</ele>
    <time>2025-07-02T19:08:58.000Z</time>
   </trkpt>
   <trkpt lat="52.49332" lon="13.453355">
    <ele>37.4</ele>
    <time>2025-07-02T19:09:04.000Z</time>
   </trkpt>
   <trkpt lat="52.493277" lon="13.453283">
    <ele>37.4</ele>
    <time>2025-07-02T19:09:05.000Z</time>
   </trkpt>
   <trkpt lat="52.493164" lon="13.453057">
    <ele>37.4</ele>
    <time>2025-07-02T19:09:08.000Z</time>
   </trkpt>
   <trkpt lat="52.492989" lon="13.452787">
    <ele>37.8</ele>
    <time>2025-07-02T19:09:12.000Z</time>
   </trkpt>
   <trkpt lat="52.492849" lon="13.452578">
    <ele>38</ele>
    <time>2025-07-02T19:09:15.000Z</time>
   </trkpt>
   <trkpt lat="52.49271" lon="13.452364">
    <ele>38</ele>
    <time>2025-07-02T19:09:18.000Z</time>
   </trkpt>
   <trkpt lat="52.49262" lon="13.452239">
    <ele>37.6</ele>
    <time>2025-07-02T19:09:20.000Z</time>
   </trkpt>
   <trkpt lat="52.492534" lon="13.452102">
    <ele>37.8</ele>
    <time>2025-07-02T19:09:22.000Z</time>
   </trkpt>
   <trkpt lat="52.492329" lon="13.451733">
    <ele>37.8</ele>
    <time>2025-07-02T19:09:27.000Z</time>
   </trkpt>
   <trkpt lat="52.492284" lon="13.451662">
    <ele>37.8</ele>
    <time>2025-07-02T19:09:28.000Z</time>
   </trkpt>
   <trkpt lat="52.492084" lon="13.451346">
    <ele>37.8</ele>
    <time>2025-07-02T19:09:32.000Z</time>
   </trkpt>
   <trkpt lat="52.492028" lon="13.451267">
    <ele>37.8</ele>
    <time>2025-07-02T19:09:33.000Z</time>
   </trkpt>
   <trkpt lat="52.491657" lon="13.450668">
    <ele>37.6</ele>
    <time>2025-07-02T19:09:41.000Z</time>
   </trkpt>
   <trkpt lat="52.491534" lon="13.450501">
    <ele>37.4</ele>
    <time>2025-07-02T19:09:44.000Z</time>
   </trkpt>
   <trkpt lat="52.491496" lon="13.450463">
    <ele>37.4</ele>
    <time>2025-07-02T19:09:45.000Z</time>
   </trkpt>
   <trkpt lat="52.491453" lon="13.45045">
    <ele>37.4</ele>
    <time>2025-07-02T19:09:46.000Z</time>
   </trkpt>
   <trkpt lat="52.491376" lon="13.450509">
    <ele>37.6</ele>
    <time>2025-07-02T19:09:48.000Z</time>
   </trkpt>
   <trkpt lat="52.491306" lon="13.450612">
    <ele>37.6</ele>
    <time>2025-07-02T19:09:50.000Z</time>
   </trkpt>
   <trkpt lat="52.491201" lon="13.450793">
    <ele>37.6</ele>
    <time>2025-07-02T19:09:53.000Z</time>
   </trkpt>
   <trkpt lat="52.49107" lon="13.451002">
    <ele>37.4</ele>
    <time>2025-07-02T19:09:57.000Z</time>
   </trkpt>
   <trkpt lat="52.490971" lon="13.451118">
    <ele>37.4</ele>
    <time>2025-07-02T19:09:59.000Z</time>
   </trkpt>
   <trkpt lat="52.490873" lon="13.451251">
    <ele>37.4</ele>
    <time>2025-07-02T19:10:01.000Z</time>
   </trkpt>
   <trkpt lat="52.490623" lon="13.451521">
    <ele>37.2</ele>
    <time>2025-07-02T19:10:05.000Z</time>
   </trkpt>
   <trkpt lat="52.490579" lon="13.451587">
    <ele>37.2</ele>
    <time>2025-07-02T19:10:06.000Z</time>
   </trkpt>
   <trkpt lat="52.490502" lon="13.451711">
    <ele>37.2</ele>
    <time>2025-07-02T19:10:08.000Z</time>
   </trkpt>
   <trkpt lat="52.490385" lon="13.451836">
    <ele>37.2</ele>
    <time>2025-07-02T19:10:10.000Z</time>
   </trkpt>
   <trkpt lat="52.490173" lon="13.452112">
    <ele>37.2</ele>
    <time>2025-07-02T19:10:14.000Z</time>
   </trkpt>
   <trkpt lat="52.490155" lon="13.452173">
    <ele>37.2</ele>
    <time>2025-07-02T19:10:15.000Z</time>
   </trkpt>
   <trkpt lat="52.490142" lon="13.452239">
    <ele>37.2</ele>
    <time>2025-07-02T19:10:16.000Z</time>
   </trkpt>
   <trkpt lat="52.489998" lon="13.452394">
    <ele>37.2</ele>
    <time>2025-07-02T19:10:18.000Z</time>
   </trkpt>
   <trkpt lat="52.489768" lon="13.452655">
    <ele>37.4</ele>
    <time>2025-07-02T19:10:22.000Z</time>
   </trkpt>
   <trkpt lat="52.489686" lon="13.452776">
    <ele>37.4</ele>
    <time>2025-07-02T19:10:24.000Z</time>
   </trkpt>
   <trkpt lat="52.489621" lon="13.452888">
    <ele>37.4</ele>
    <time>2025-07-02T19:10:26.000Z</time>
   </trkpt>
   <trkpt lat="52.48954" lon="13.453037">
    <ele>37.4</ele>
    <time>2025-07-02T19:10:28.000Z</time>
   </trkpt>
   <trkpt lat="52.489514" lon="13.453106">
    <ele>37.4</ele>
    <time>2025-07-02T19:10:29.000Z</time>
   </trkpt>
   <trkpt lat="52.489395" lon="13.453274">
    <ele>37.4</ele>
    <time>2025-07-02T19:10:32.000Z</time>
   </trkpt>
   <trkpt lat="52.489306" lon="13.453394">
    <ele>37.4</ele>
    <time>2025-07-02T19:10:34.000Z</time>
   </trkpt>
   <trkpt lat="52.489232" lon="13.453464">
    <ele>37.4</ele>
    <time>2025-07-02T19:10:36.000Z</time>
   </trkpt>
   <trkpt lat="52.489202" lon="13.453493">
    <ele>37.4</ele>
    <time>2025-07-02T19:10:37.000Z</time>
   </trkpt>
   <trkpt lat="52.489097" lon="13.453648">
    <ele>37.4</ele>
    <time>2025-07-02T19:10:41.000Z</time>
   </trkpt>
   <trkpt lat="52.489076" lon="13.453676">
    <ele>37.4</ele>
    <time>2025-07-02T19:10:42.000Z</time>
   </trkpt>
   <trkpt lat="52.489009" lon="13.453762">
    <ele>37.4</ele>
    <time>2025-07-02T19:10:47.000Z</time>
   </trkpt>
   <trkpt lat="52.489001" lon="13.453779">
    <ele>37.4</ele>
    <time>2025-07-02T19:10:48.000Z</time>
   </trkpt>
   <trkpt lat="52.488974" lon="13.453825">
    <ele>37.4</ele>
    <time>2025-07-02T19:11:01.000Z</time>
   </trkpt>
   <trkpt lat="52.488951" lon="13.453856">
    <ele>37.4</ele>
    <time>2025-07-02T19:11:02.000Z</time>
   </trkpt>
   <trkpt lat="52.488927" lon="13.453892">
    <ele>37.4</ele>
    <time>2025-07-02T19:11:03.000Z</time>
   </trkpt>
   <trkpt lat="52.488851" lon="13.454029">
    <ele>37.4</ele>
    <time>2025-07-02T19:11:06.000Z</time>
   </trkpt>
   <trkpt lat="52.488821" lon="13.454105">
    <ele>37.6</ele>
    <time>2025-07-02T19:11:08.000Z</time>
   </trkpt>
   <trkpt lat="52.488796" lon="13.454125">
    <ele>37.6</ele>
    <time>2025-07-02T19:11:10.000Z</time>
   </trkpt>
   <trkpt lat="52.488669" lon="13.454223">
    <ele>37.6</ele>
    <time>2025-07-02T19:11:13.000Z</time>
   </trkpt>
   <trkpt lat="52.488642" lon="13.454265">
    <ele>37.6</ele>
    <time>2025-07-02T19:11:15.000Z</time>
   </trkpt>
   <trkpt lat="52.488551" lon="13.454377">
    <ele>37.6</ele>
    <time>2025-07-02T19:11:17.000Z</time>
   </trkpt>
   <trkpt lat="52.488496" lon="13.454454">
    <ele>37.8</ele>
    <time>2025-07-02T19:11:18.000Z</time>
   </trkpt>
   <trkpt lat="52.488241" lon="13.454842">
    <ele>37.6</ele>
    <time>2025-07-02T19:11:23.000Z</time>
   </trkpt>
   <trkpt lat="52.487846" lon="13.455417">
    <ele>37.4</ele>
    <time>2025-07-02T19:11:30.000Z</time>
   </trkpt>
   <trkpt lat="52.487645" lon="13.45569">
    <ele>37.4</ele>
    <time>2025-07-02T19:11:34.000Z</time>
   </trkpt>
   <trkpt lat="52.487433" lon="13.455996">
    <ele>37.4</ele>
    <time>2025-07-02T19:11:38.000Z</time>
   </trkpt>
   <trkpt lat="52.487059" lon="13.456508">
    <ele>37</ele>
    <time>2025-07-02T19:11:45.000Z</time>
   </trkpt>
   <trkpt lat="52.486729" lon="13.457003">
    <ele>37</ele>
    <time>2025-07-02T19:11:52.000Z</time>
   </trkpt>
   <trkpt lat="52.486441" lon="13.457393">
    <ele>36.8</ele>
    <time>2025-07-02T19:11:58.000Z</time>
   </trkpt>
   <trkpt lat="52.48606" lon="13.457941">
    <ele>37</ele>
    <time>2025-07-02T19:12:06.000Z</time>
   </trkpt>
   <trkpt lat="52.485737" lon="13.458352">
    <ele>36.8</ele>
    <time>2025-07-02T19:12:13.000Z</time>
   </trkpt>
   <trkpt lat="52.485503" lon="13.458669">
    <ele>36.8</ele>
    <time>2025-07-02T19:12:18.000Z</time>
   </trkpt>
   <trkpt lat="52.485462" lon="13.458708">
    <ele>36.8</ele>
    <time>2025-07-02T19:12:19.000Z</time>
   </trkpt>
   <trkpt lat="52.4854" lon="13.458784">
    <ele>36.8</ele>
    <time>2025-07-02T19:12:20.000Z</time>
   </trkpt>
   <trkpt lat="52.485173" lon="13.459132">
    <ele>37</ele>
    <time>2025-07-02T19:12:25.000Z</time>
   </trkpt>
   <trkpt lat="52.48476" lon="13.459792">
    <ele>37.2</ele>
    <time>2025-07-02T19:12:34.000Z</time>
   </trkpt>
   <trkpt lat="52.484418" lon="13.460317">
    <ele>37.4</ele>
    <time>2025-07-02T19:12:41.000Z</time>
   </trkpt>
   <trkpt lat="52.484369" lon="13.460388">
    <ele>37.4</ele>
    <time>2025-07-02T19:12:42.000Z</time>
   </trkpt>
   <trkpt lat="52.484121" lon="13.460749">
    <ele>37.4</ele>
    <time>2025-07-02T19:12:47.000Z</time>
   </trkpt>
   <trkpt lat="52.483824" lon="13.461182">
    <ele>37.4</ele>
    <time>2025-07-02T19:12:53.000Z</time>
   </trkpt>
   <trkpt lat="52.48343" lon="13.461754">
    <ele>37.4</ele>
    <time>2025-07-02T19:13:01.000Z</time>
   </trkpt>
   <trkpt lat="52.483279" lon="13.461971">
    <ele>37.4</ele>
    <time>2025-07-02T19:13:04.000Z</time>
   </trkpt>
   <trkpt lat="52.48287" lon="13.46254">
    <ele>37.4</ele>
    <time>2025-07-02T19:13:12.000Z</time>
   </trkpt>
   <trkpt lat="52.482677" lon="13.462822">
    <ele>37.6</ele>
    <time>2025-07-02T19:13:16.000Z</time>
   </trkpt>
   <trkpt lat="52.482268" lon="13.463393">
    <ele>37.8</ele>
    <time>2025-07-02T19:13:24.000Z</time>
   </trkpt>
   <trkpt lat="52.482217" lon="13.463464">
    <ele>37.8</ele>
    <time>2025-07-02T19:13:25.000Z</time>
   </trkpt>
   <trkpt lat="52.481799" lon="13.464044">
    <ele>37.8</ele>
    <time>2025-07-02T19:13:33.000Z</time>
   </trkpt>
   <trkpt lat="52.481382" lon="13.464648">
    <ele>37.8</ele>
    <time>2025-07-02T19:13:41.000Z</time>
   </trkpt>
   <trkpt lat="52.481275" lon="13.464798">
    <ele>37.8</ele>
    <time>2025-07-02T19:13:43.000Z</time>
   </trkpt>
   <trkpt lat="52.480876" lon="13.465365">
    <ele>37.4</ele>
    <time>2025-07-02T19:13:50.000Z</time>
   </trkpt>
   <trkpt lat="52.480758" lon="13.465536">
    <ele>37.2</ele>
    <time>2025-07-02T19:13:52.000Z</time>
   </trkpt>
   <trkpt lat="52.480347" lon="13.466116">
    <ele>37</ele>
    <time>2025-07-02T19:13:59.000Z</time>
   </trkpt>
   <trkpt lat="52.480229" lon="13.466284">
    <ele>36.8</ele>
    <time>2025-07-02T19:14:01.000Z</time>
   </trkpt>
   <trkpt lat="52.479827" lon="13.466857">
    <ele>36.6</ele>
    <time>2025-07-02T19:14:08.000Z</time>
   </trkpt>
   <trkpt lat="52.47966" lon="13.467089">
    <ele>36.6</ele>
    <time>2025-07-02T19:14:11.000Z</time>
   </trkpt>
   <trkpt lat="52.479207" lon="13.467729">
    <ele>37</ele>
    <time>2025-07-02T19:14:19.000Z</time>
   </trkpt>
   <trkpt lat="52.479153" lon="13.467808">
    <ele>37</ele>
    <time>2025-07-02T19:14:20.000Z</time>
   </trkpt>
   <trkpt lat="52.478756" lon="13.468376">
    <ele>37.2</ele>
    <time>2025-07-02T19:14:27.000Z</time>
   </trkpt>
   <trkpt lat="52.478639" lon="13.46854">
    <ele>37.2</ele>
    <time>2025-07-02T19:14:29.000Z</time>
   </trkpt>
   <trkpt lat="52.478229" lon="13.469083">
    <ele>37.2</ele>
    <time>2025-07-02T19:14:36.000Z</time>
   </trkpt>
   <trkpt lat="52.478047" lon="13.469318">
    <ele>37</ele>
    <time>2025-07-02T19:14:39.000Z</time>
   </trkpt>
   <trkpt lat="52.477639" lon="13.469894">
    <ele>36.8</ele>
    <time>2025-07-02T19:14:46.000Z</time>
   </trkpt>
   <trkpt lat="52.47758" lon="13.469981">
    <ele>36.6</ele>
    <time>2025-07-02T19:14:47.000Z</time>
   </trkpt>
   <trkpt lat="52.477154" lon="13.47057">
    <ele>36.4</ele>
    <time>2025-07-02T19:14:54.000Z</time>
   </trkpt>
   <trkpt lat="52.477036" lon="13.470734">
    <ele>36.4</ele>
    <time>2025-07-02T19:14:56.000Z</time>
   </trkpt>
   <trkpt lat="52.476608" lon="13.471332">
    <ele>36.2</ele>
    <time>2025-07-02T19:15:03.000Z</time>
   </trkpt>
   <trkpt lat="52.476547" lon="13.471418">
    <ele>36</ele>
    <time>2025-07-02T19:15:04.000Z</time>
   </trkpt>
   <trkpt lat="52.476489" lon="13.471505">
    <ele>36</ele>
    <time>2025-07-02T19:15:05.000Z</time>
   </trkpt>
   <trkpt lat="52.476097" lon="13.472058">
    <ele>35.8</ele>
    <time>2025-07-02T19:15:12.000Z</time>
   </trkpt>
   <trkpt lat="52.475777" lon="13.472511">
    <ele>36</ele>
    <time>2025-07-02T19:15:19.000Z</time>
   </trkpt>
   <trkpt lat="52.475501" lon="13.472897">
    <ele>36.2</ele>
    <time>2025-07-02T19:15:25.000Z</time>
   </trkpt>
   <trkpt lat="52.475455" lon="13.472965">
    <ele>36.2</ele>
    <time>2025-07-02T19:15:26.000Z</time>
   </trkpt>
   <trkpt lat="52.475412" lon="13.473029">
    <ele>36.2</ele>
    <time>2025-07-02T19:15:27.000Z</time>
   </trkpt>
   <trkpt lat="52.475348" lon="13.473172">
    <ele>36.2</ele>
    <time>2025-07-02T19:15:29.000Z</time>
   </trkpt>
   <trkpt lat="52.475323" lon="13.473243">
    <ele>36.2</ele>
    <time>2025-07-02T19:15:30.000Z</time>
   </trkpt>
   <trkpt lat="52.475297" lon="13.473314">
    <ele>36.2</ele>
    <time>2025-07-02T19:15:31.000Z</time>
   </trkpt>
   <trkpt lat="52.475205" lon="13.473494">
    <ele>36.2</ele>
    <time>2025-07-02T19:15:34.000Z</time>
   </trkpt>
   <trkpt lat="52.475176" lon="13.473543">
    <ele>36.4</ele>
    <time>2025-07-02T19:15:35.000Z</time>
   </trkpt>
   <trkpt lat="52.475112" lon="13.473644">
    <ele>36.4</ele>
    <time>2025-07-02T19:15:38.000Z</time>
   </trkpt>
   <trkpt lat="52.4751" lon="13.473671">
    <ele>36.4</ele>
    <time>2025-07-02T19:15:39.000Z</time>
   </trkpt>
   <trkpt lat="52.475071" lon="13.47374">
    <ele>36.4</ele>
    <time>2025-07-02T19:15:41.000Z</time>
   </trkpt>
   <trkpt lat="52.475072" lon="13.473772">
    <ele>36.4</ele>
    <time>2025-07-02T19:15:43.000Z</time>
   </trkpt>
   <trkpt lat="52.475072" lon="13.473772">
    <ele>36.4</ele>
    <time>2025-07-02T19:15:44.000Z</time>
   </trkpt>
   <trkpt lat="52.475052" lon="13.473847">
    <ele>36</ele>
    <time>2025-07-02T19:16:09.000Z</time>
   </trkpt>
   <trkpt lat="52.475041" lon="13.473888">
    <ele>36</ele>
    <time>2025-07-02T19:16:11.000Z</time>
   </trkpt>
   <trkpt lat="52.475041" lon="13.473917">
    <ele>36.2</ele>
    <time>2025-07-02T19:16:12.000Z</time>
   </trkpt>
   <trkpt lat="52.475077" lon="13.474059">
    <ele>36.2</ele>
    <time>2025-07-02T19:16:16.000Z</time>
   </trkpt>
   <trkpt lat="52.475146" lon="13.474233">
    <ele>36.2</ele>
    <time>2025-07-02T19:16:20.000Z</time>
   </trkpt>
   <trkpt lat="52.475171" lon="13.474286">
    <ele>36.2</ele>
    <time>2025-07-02T19:16:21.000Z</time>
   </trkpt>
   <trkpt lat="52.475267" lon="13.474454">
    <ele>36.2</ele>
    <time>2025-07-02T19:16:24.000Z</time>
   </trkpt>
   <trkpt lat="52.475333" lon="13.47458">
    <ele>36.2</ele>
    <time>2025-07-02T19:16:26.000Z</time>
   </trkpt>
   <trkpt lat="52.475546" lon="13.474968">
    <ele>36.4</ele>
    <time>2025-07-02T19:16:32.000Z</time>
   </trkpt>
   <trkpt lat="52.475681" lon="13.47521">
    <ele>36.2</ele>
    <time>2025-07-02T19:16:36.000Z</time>
   </trkpt>
   <trkpt lat="52.475783" lon="13.475394">
    <ele>36.2</ele>
    <time>2025-07-02T19:16:39.000Z</time>
   </trkpt>
   <trkpt lat="52.475857" lon="13.47552">
    <ele>36.2</ele>
    <time>2025-07-02T19:16:41.000Z</time>
   </trkpt>
   <trkpt lat="52.475888" lon="13.475653">
    <ele>36.2</ele>
    <time>2025-07-02T19:16:43.000Z</time>
   </trkpt>
   <trkpt lat="52.475883" lon="13.475712">
    <ele>36.2</ele>
    <time>2025-07-02T19:16:44.000Z</time>
   </trkpt>
   <trkpt lat="52.475867" lon="13.475768">
    <ele>36.2</ele>
    <time>2025-07-02T19:16:45.000Z</time>
   </trkpt>
   <trkpt lat="52.475804" lon="13.475914">
    <ele>36.2</ele>
    <time>2025-07-02T19:16:48.000Z</time>
   </trkpt>
   <trkpt lat="52.475773" lon="13.475956">
    <ele>36.2</ele>
    <time>2025-07-02T19:16:49.000Z</time>
   </trkpt>
   <trkpt lat="52.475708" lon="13.476029">
    <ele>36.2</ele>
    <time>2025-07-02T19:16:51.000Z</time>
   </trkpt>
   <trkpt lat="52.475647" lon="13.476088">
    <ele>36.2</ele>
    <time>2025-07-02T19:16:53.000Z</time>
   </trkpt>
   <trkpt lat="52.475581" lon="13.476149">
    <ele>36.2</ele>
    <time>2025-07-02T19:16:55.000Z</time>
   </trkpt>
   <trkpt lat="52.475425" lon="13.476358">
    <ele>36.2</ele>
    <time>2025-07-02T19:17:00.000Z</time>
   </trkpt>
   <trkpt lat="52.475372" lon="13.476422">
    <ele>36.2</ele>
    <time>2025-07-02T19:17:05.000Z</time>
   </trkpt>
   <trkpt lat="52.475372" lon="13.476422">
    <ele>36.4</ele>
    <time>2025-07-02T19:17:06.000Z</time>
   </trkpt>
  </trkseg>
 </trk>
</gpx>
