<?xml version="1.0" encoding="UTF-8"?>
<gpx creator="StravaGPX" version="1.1" xmlns="http://www.topografix.com/GPX/1/1">
 <metadata>
  <time>2025-08-10T10:32:56Z</time>
 </metadata>
 <trk>
  <name>Lunch Ride</name>
  <type>1</type>
  <trkseg>
   <trkpt lat="52.476346" lon="13.476508">
    <ele>36.6</ele>
    <time>2025-08-10T10:32:56.000Z</time>
   </trkpt>
   <trkpt lat="52.476422" lon="13.47667">
    <ele>35.4</ele>
    <time>2025-08-10T10:32:59.000Z</time>
   </trkpt>
   <trkpt lat="52.476438" lon="13.476728">
    <ele>35.8</ele>
    <time>2025-08-10T10:33:00.000Z</time>
   </trkpt>
   <trkpt lat="52.476467" lon="13.476827">
    <ele>36</ele>
    <time>2025-08-10T10:33:02.000Z</time>
   </trkpt>
   <trkpt lat="52.476516" lon="13.476936">
    <ele>35.8</ele>
    <time>2025-08-10T10:33:04.000Z</time>
   </trkpt>
   <trkpt lat="52.476558" lon="13.477058">
    <ele>36</ele>
    <time>2025-08-10T10:33:06.000Z</time>
   </trkpt>
   <trkpt lat="52.476585" lon="13.477192">
    <ele>35.8</ele>
    <time>2025-08-10T10:33:08.000Z</time>
   </trkpt>
   <trkpt lat="52.476873" lon="13.477591">
    <ele>36.2</ele>
    <time>2025-08-10T10:33:14.000Z</time>
   </trkpt>
   <trkpt lat="52.476915" lon="13.477657">
    <ele>36.2</ele>
    <time>2025-08-10T10:33:15.000Z</time>
   </trkpt>
   <trkpt lat="52.476979" lon="13.477798">
    <ele>36.2</ele>
    <time>2025-08-10T10:33:17.000Z</time>
   </trkpt>
   <trkpt lat="52.477044" lon="13.47794">
    <ele>36.4</ele>
    <time>2025-08-10T10:33:19.000Z</time>
   </trkpt>
   <trkpt lat="52.477086" lon="13.478093">
    <ele>36.4</ele>
    <time>2025-08-10T10:33:21.000Z</time>
   </trkpt>
   <trkpt lat="52.47715" lon="13.478236">
    <ele>36.6</ele>
    <time>2025-08-10T10:33:23.000Z</time>
   </trkpt>
   <trkpt lat="52.477239" lon="13.478347">
    <ele>36.6</ele>
    <time>2025-08-10T10:33:25.000Z</time>
   </trkpt>
   <trkpt lat="52.477256" lon="13.478399">
    <ele>36.6</ele>
    <time>2025-08-10T10:33:26.000Z</time>
   </trkpt>
   <trkpt lat="52.477346" lon="13.478565">
    <ele>36.8</ele>
    <time>2025-08-10T10:33:30.000Z</time>
   </trkpt>
   <trkpt lat="52.477384" lon="13.478591">
    <ele>36.8</ele>
    <time>2025-08-10T10:33:32.000Z</time>
   </trkpt>
   <trkpt lat="52.477422" lon="13.478623">
    <ele>37</ele>
    <time>2025-08-10T10:34:38.000Z</time>
   </trkpt>
   <trkpt lat="52.477436" lon="13.478657">
    <ele>37</ele>
    <time>2025-08-10T10:34:39.000Z</time>
   </trkpt>
   <trkpt lat="52.477504" lon="13.47879">
    <ele>36.8</ele>
    <time>2025-08-10T10:34:42.000Z</time>
   </trkpt>
   <trkpt lat="52.477572" lon="13.47888">
    <ele>36.8</ele>
    <time>2025-08-10T10:34:44.000Z</time>
   </trkpt>
   <trkpt lat="52.477725" lon="13.479071">
    <ele>36.8</ele>
    <time>2025-08-10T10:34:48.000Z</time>
   </trkpt>
   <trkpt lat="52.477787" lon="13.479183">
    <ele>36.8</ele>
    <time>2025-08-10T10:34:50.000Z</time>
   </trkpt>
   <trkpt lat="52.477846" lon="13.479283">
    <ele>36.8</ele>
    <time>2025-08-10T10:34:52.000Z</time>
   </trkpt>
   <trkpt lat="52.477875" lon="13.479334">
    <ele>36.8</ele>
    <time>2025-08-10T10:34:53.000Z</time>
   </trkpt>
   <trkpt lat="52.477941" lon="13.479441">
    <ele>37</ele>
    <time>2025-08-10T10:34:55.000Z</time>
   </trkpt>
   <trkpt lat="52.478036" lon="13.479603">
    <ele>37</ele>
    <time>2025-08-10T10:34:58.000Z</time>
   </trkpt>
   <trkpt lat="52.478186" lon="13.47986">
    <ele>37</ele>
    <time>2025-08-10T10:35:02.000Z</time>
   </trkpt>
   <trkpt lat="52.478223" lon="13.479928">
    <ele>37.2</ele>
    <time>2025-08-10T10:35:03.000Z</time>
   </trkpt>
   <trkpt lat="52.478262" lon="13.480007">
    <ele>37.2</ele>
    <time>2025-08-10T10:35:04.000Z</time>
   </trkpt>
   <trkpt lat="52.478378" lon="13.480233">
    <ele>37.4</ele>
    <time>2025-08-10T10:35:07.000Z</time>
   </trkpt>
   <trkpt lat="52.47855" lon="13.480559">
    <ele>37.2</ele>
    <time>2025-08-10T10:35:11.000Z</time>
   </trkpt>
   <trkpt lat="52.478596" lon="13.48064">
    <ele>37.2</ele>
    <time>2025-08-10T10:35:12.000Z</time>
   </trkpt>
   <trkpt lat="52.478846" lon="13.481174">
    <ele>37.2</ele>
    <time>2025-08-10T10:35:19.000Z</time>
   </trkpt>
   <trkpt lat="52.47889" lon="13.48125">
    <ele>37.2</ele>
    <time>2025-08-10T10:35:20.000Z</time>
   </trkpt>
   <trkpt lat="52.479135" lon="13.481696">
    <ele>37</ele>
    <time>2025-08-10T10:35:26.000Z</time>
   </trkpt>
   <trkpt lat="52.479419" lon="13.482209">
    <ele>37</ele>
    <time>2025-08-10T10:35:33.000Z</time>
   </trkpt>
   <trkpt lat="52.479579" lon="13.482503">
    <ele>36.8</ele>
    <time>2025-08-10T10:35:37.000Z</time>
   </trkpt>
   <trkpt lat="52.479659" lon="13.482639">
    <ele>36.8</ele>
    <time>2025-08-10T10:35:39.000Z</time>
   </trkpt>
   <trkpt lat="52.479783" lon="13.482864">
    <ele>36.8</ele>
    <time>2025-08-10T10:35:42.000Z</time>
   </trkpt>
   <trkpt lat="52.479903" lon="13.483076">
    <ele>36.8</ele>
    <time>2025-08-10T10:35:45.000Z</time>
   </trkpt>
   <trkpt lat="52.48" lon="13.483284">
    <ele>37</ele>
    <time>2025-08-10T10:35:48.000Z</time>
   </trkpt>
   <trkpt lat="52.480036" lon="13.483405">
    <ele>37</ele>
    <time>2025-08-10T10:35:50.000Z</time>
   </trkpt>
   <trkpt lat="52.48006" lon="13.483448">
    <ele>37</ele>
    <time>2025-08-10T10:35:51.000Z</time>
   </trkpt>
   <trkpt lat="52.480131" lon="13.483472">
    <ele>37</ele>
    <time>2025-08-10T10:35:53.000Z</time>
   </trkpt>
   <trkpt lat="52.480278" lon="13.483414">
    <ele>37.2</ele>
    <time>2025-08-10T10:35:56.000Z</time>
   </trkpt>
   <trkpt lat="52.480323" lon="13.483392">
    <ele>37.2</ele>
    <time>2025-08-10T10:35:57.000Z</time>
   </trkpt>
   <trkpt lat="52.480428" lon="13.483315">
    <ele>37.2</ele>
    <time>2025-08-10T10:35:59.000Z</time>
   </trkpt>
   <trkpt lat="52.480597" lon="13.48317">
    <ele>37.2</ele>
    <time>2025-08-10T10:36:02.000Z</time>
   </trkpt>
   <trkpt lat="52.480976" lon="13.482829">
    <ele>37.6</ele>
    <time>2025-08-10T10:36:09.000Z</time>
   </trkpt>
   <trkpt lat="52.481142" lon="13.482681">
    <ele>37.4</ele>
    <time>2025-08-10T10:36:12.000Z</time>
   </trkpt>
   <trkpt lat="52.481308" lon="13.48253">
    <ele>37.2</ele>
    <time>2025-08-10T10:36:15.000Z</time>
   </trkpt>
   <trkpt lat="52.481413" lon="13.482434">
    <ele>37.2</ele>
    <time>2025-08-10T10:36:17.000Z</time>
   </trkpt>
   <trkpt lat="52.481684" lon="13.482208">
    <ele>37.2</ele>
    <time>2025-08-10T10:36:22.000Z</time>
   </trkpt>
   <trkpt lat="52.481746" lon="13.482176">
    <ele>37.2</ele>
    <time>2025-08-10T10:36:23.000Z</time>
   </trkpt>
   <trkpt lat="52.481816" lon="13.482131">
    <ele>37.6</ele>
    <time>2025-08-10T10:36:24.000Z</time>
   </trkpt>
   <trkpt lat="52.482013" lon="13.481966">
    <ele>37.6</ele>
    <time>2025-08-10T10:36:28.000Z</time>
   </trkpt>
   <trkpt lat="52.482298" lon="13.481707">
    <ele>37.6</ele>
    <time>2025-08-10T10:36:34.000Z</time>
   </trkpt>
   <trkpt lat="52.482639" lon="13.481392">
    <ele>37.4</ele>
    <time>2025-08-10T10:36:40.000Z</time>
   </trkpt>
   <trkpt lat="52.482639" lon="13.481392">
    <ele>37.4</ele>
    <time>2025-08-10T10:36:41.000Z</time>
   </trkpt>
   <trkpt lat="52.482753" lon="13.481286">
    <ele>37.4</ele>
    <time>2025-08-10T10:36:42.000Z</time>
   </trkpt>
   <trkpt lat="52.482919" lon="13.481129">
    <ele>37.2</ele>
    <time>2025-08-10T10:36:45.000Z</time>
   </trkpt>
   <trkpt lat="52.482975" lon="13.481085">
    <ele>37</ele>
    <time>2025-08-10T10:36:46.000Z</time>
   </trkpt>
   <trkpt lat="52.483135" lon="13.48093">
    <ele>37</ele>
    <time>2025-08-10T10:36:49.000Z</time>
   </trkpt>
   <trkpt lat="52.483225" lon="13.480815">
    <ele>37.2</ele>
    <time>2025-08-10T10:36:51.000Z</time>
   </trkpt>
   <trkpt lat="52.483278" lon="13.480767">
    <ele>37.2</ele>
    <time>2025-08-10T10:36:52.000Z</time>
   </trkpt>
   <trkpt lat="52.483516" lon="13.480577">
    <ele>37.2</ele>
    <time>2025-08-10T10:36:56.000Z</time>
   </trkpt>
   <trkpt lat="52.483778" lon="13.480349">
    <ele>37.2</ele>
    <time>2025-08-10T10:37:02.000Z</time>
   </trkpt>
   <trkpt lat="52.484029" lon="13.480103">
    <ele>37.2</ele>
    <time>2025-08-10T10:37:07.000Z</time>
   </trkpt>
   <trkpt lat="52.484337" lon="13.479838">
    <ele>37.2</ele>
    <time>2025-08-10T10:37:13.000Z</time>
   </trkpt>
   <trkpt lat="52.484482" lon="13.479668">
    <ele>37.2</ele>
    <time>2025-08-10T10:37:17.000Z</time>
   </trkpt>
   <trkpt lat="52.484553" lon="13.479609">
    <ele>37.2</ele>
    <time>2025-08-10T10:37:20.000Z</time>
   </trkpt>
   <trkpt lat="52.484657" lon="13.479533">
    <ele>37.2</ele>
    <time>2025-08-10T10:37:22.000Z</time>
   </trkpt>
   <trkpt lat="52.484812" lon="13.479457">
    <ele>37.2</ele>
    <time>2025-08-10T10:37:25.000Z</time>
   </trkpt>
   <trkpt lat="52.484866" lon="13.479404">
    <ele>37.4</ele>
    <time>2025-08-10T10:37:26.000Z</time>
   </trkpt>
   <trkpt lat="52.485021" lon="13.479263">
    <ele>37.4</ele>
    <time>2025-08-10T10:37:29.000Z</time>
   </trkpt>
   <trkpt lat="52.485237" lon="13.479039">
    <ele>37</ele>
    <time>2025-08-10T10:37:34.000Z</time>
   </trkpt>
   <trkpt lat="52.485276" lon="13.479">
    <ele>37</ele>
    <time>2025-08-10T10:37:35.000Z</time>
   </trkpt>
   <trkpt lat="52.485477" lon="13.478816">
    <ele>37</ele>
    <time>2025-08-10T10:37:40.000Z</time>
   </trkpt>
   <trkpt lat="52.485895" lon="13.478423">
    <ele>36.8</ele>
    <time>2025-08-10T10:37:49.000Z</time>
   </trkpt>
   <trkpt lat="52.486155" lon="13.478164">
    <ele>37</ele>
    <time>2025-08-10T10:37:55.000Z</time>
   </trkpt>
   <trkpt lat="52.486233" lon="13.478086">
    <ele>37</ele>
    <time>2025-08-10T10:37:57.000Z</time>
   </trkpt>
   <trkpt lat="52.486404" lon="13.477938">
    <ele>37</ele>
    <time>2025-08-10T10:38:01.000Z</time>
   </trkpt>
   <trkpt lat="52.486447" lon="13.477894">
    <ele>37</ele>
    <time>2025-08-10T10:38:02.000Z</time>
   </trkpt>
   <trkpt lat="52.486625" lon="13.47772">
    <ele>37</ele>
    <time>2025-08-10T10:38:06.000Z</time>
   </trkpt>
   <trkpt lat="52.486799" lon="13.477558">
    <ele>37.2</ele>
    <time>2025-08-10T10:38:10.000Z</time>
   </trkpt>
   <trkpt lat="52.486865" lon="13.477519">
    <ele>37.2</ele>
    <time>2025-08-10T10:38:11.000Z</time>
   </trkpt>
   <trkpt lat="52.487099" lon="13.477319">
    <ele>37.4</ele>
    <time>2025-08-10T10:38:15.000Z</time>
   </trkpt>
   <trkpt lat="52.487136" lon="13.477271">
    <ele>37.4</ele>
    <time>2025-08-10T10:38:16.000Z</time>
   </trkpt>
   <trkpt lat="52.48717" lon="13.47722">
    <ele>37.4</ele>
    <time>2025-08-10T10:38:17.000Z</time>
   </trkpt>
   <trkpt lat="52.487265" lon="13.477105">
    <ele>37.4</ele>
    <time>2025-08-10T10:38:20.000Z</time>
   </trkpt>
   <trkpt lat="52.487466" lon="13.476918">
    <ele>37.4</ele>
    <time>2025-08-10T10:38:24.000Z</time>
   </trkpt>
   <trkpt lat="52.487717" lon="13.47663">
    <ele>37.6</ele>
    <time>2025-08-10T10:38:29.000Z</time>
   </trkpt>
   <trkpt lat="52.487838" lon="13.476424">
    <ele>37.4</ele>
    <time>2025-08-10T10:38:32.000Z</time>
   </trkpt>
   <trkpt lat="52.487862" lon="13.476355">
    <ele>37.4</ele>
    <time>2025-08-10T10:38:33.000Z</time>
   </trkpt>
   <trkpt lat="52.487905" lon="13.476185">
    <ele>37.4</ele>
    <time>2025-08-10T10:38:35.000Z</time>
   </trkpt>
   <trkpt lat="52.487967" lon="13.475967">
    <ele>37.4</ele>
    <time>2025-08-10T10:38:38.000Z</time>
   </trkpt>
   <trkpt lat="52.488156" lon="13.475355">
    <ele>37.4</ele>
    <time>2025-08-10T10:38:46.000Z</time>
   </trkpt>
   <trkpt lat="52.488173" lon="13.475282">
    <ele>37.6</ele>
    <time>2025-08-10T10:38:47.000Z</time>
   </trkpt>
   <trkpt lat="52.488206" lon="13.475163">
    <ele>37.6</ele>
    <time>2025-08-10T10:38:49.000Z</time>
   </trkpt>
   <trkpt lat="52.488222" lon="13.475101">
    <ele>37.6</ele>
    <time>2025-08-10T10:38:50.000Z</time>
   </trkpt>
   <trkpt lat="52.488336" lon="13.474704">
    <ele>37.4</ele>
    <time>2025-08-10T10:38:55.000Z</time>
   </trkpt>
   <trkpt lat="52.488496" lon="13.474179">
    <ele>37.6</ele>
    <time>2025-08-10T10:39:01.000Z</time>
   </trkpt>
   <trkpt lat="52.488537" lon="13.474029">
    <ele>37.6</ele>
    <time>2025-08-10T10:39:03.000Z</time>
   </trkpt>
   <trkpt lat="52.488648" lon="13.473591">
    <ele>37.8</ele>
    <time>2025-08-10T10:39:08.000Z</time>
   </trkpt>
   <trkpt lat="52.488769" lon="13.473157">
    <ele>38</ele>
    <time>2025-08-10T10:39:13.000Z</time>
   </trkpt>
   <trkpt lat="52.488792" lon="13.473079">
    <ele>38</ele>
    <time>2025-08-10T10:39:14.000Z</time>
   </trkpt>
   <trkpt lat="52.488996" lon="13.472423">
    <ele>37.4</ele>
    <time>2025-08-10T10:39:20.000Z</time>
   </trkpt>
   <trkpt lat="52.489126" lon="13.471976">
    <ele>37.6</ele>
    <time>2025-08-10T10:39:25.000Z</time>
   </trkpt>
   <trkpt lat="52.489172" lon="13.47183">
    <ele>37.8</ele>
    <time>2025-08-10T10:39:27.000Z</time>
   </trkpt>
   <trkpt lat="52.489284" lon="13.471477">
    <ele>37.8</ele>
    <time>2025-08-10T10:39:31.000Z</time>
   </trkpt>
   <trkpt lat="52.489494" lon="13.470827">
    <ele>37.6</ele>
    <time>2025-08-10T10:39:38.000Z</time>
   </trkpt>
   <trkpt lat="52.489641" lon="13.470318">
    <ele>37.4</ele>
    <time>2025-08-10T10:39:44.000Z</time>
   </trkpt>
   <trkpt lat="52.489659" lon="13.470238">
    <ele>37.4</ele>
    <time>2025-08-10T10:39:45.000Z</time>
   </trkpt>
   <trkpt lat="52.489674" lon="13.470161">
    <ele>37.4</ele>
    <time>2025-08-10T10:39:46.000Z</time>
   </trkpt>
   <trkpt lat="52.48977" lon="13.469819">
    <ele>37</ele>
    <time>2025-08-10T10:39:50.000Z</time>
   </trkpt>
   <trkpt lat="52.489792" lon="13.469739">
    <ele>37</ele>
    <time>2025-08-10T10:39:51.000Z</time>
   </trkpt>
   <trkpt lat="52.490017" lon="13.469023">
    <ele>37</ele>
    <time>2025-08-10T10:39:59.000Z</time>
   </trkpt>
   <trkpt lat="52.490221" lon="13.468368">
    <ele>36.8</ele>
    <time>2025-08-10T10:40:06.000Z</time>
   </trkpt>
   <trkpt lat="52.490246" lon="13.468269">
    <ele>36.8</ele>
    <time>2025-08-10T10:40:07.000Z</time>
   </trkpt>
   <trkpt lat="52.490428" lon="13.467696">
    <ele>37</ele>
    <time>2025-08-10T10:40:14.000Z</time>
   </trkpt>
   <trkpt lat="52.490603" lon="13.467124">
    <ele>37</ele>
    <time>2025-08-10T10:40:21.000Z</time>
   </trkpt>
   <trkpt lat="52.490778" lon="13.466586">
    <ele>37</ele>
    <time>2025-08-10T10:40:27.000Z</time>
   </trkpt>
   <trkpt lat="52.490807" lon="13.466492">
    <ele>37</ele>
    <time>2025-08-10T10:40:28.000Z</time>
   </trkpt>
   <trkpt lat="52.490852" lon="13.466324">
    <ele>37</ele>
    <time>2025-08-10T10:40:30.000Z</time>
   </trkpt>
   <trkpt lat="52.490878" lon="13.466223">
    <ele>36.8</ele>
    <time>2025-08-10T10:40:31.000Z</time>
   </trkpt>
   <trkpt lat="52.49104" lon="13.465685">
    <ele>36.6</ele>
    <time>2025-08-10T10:40:37.000Z</time>
   </trkpt>
   <trkpt lat="52.49119" lon="13.46512">
    <ele>37.2</ele>
    <time>2025-08-10T10:40:44.000Z</time>
   </trkpt>
   <trkpt lat="52.491293" lon="13.464771">
    <ele>37</ele>
    <time>2025-08-10T10:40:48.000Z</time>
   </trkpt>
   <trkpt lat="52.491372" lon="13.464522">
    <ele>36.8</ele>
    <time>2025-08-10T10:40:51.000Z</time>
   </trkpt>
   <trkpt lat="52.491471" lon="13.464219">
    <ele>36.6</ele>
    <time>2025-08-10T10:40:55.000Z</time>
   </trkpt>
   <trkpt lat="52.491498" lon="13.464147">
    <ele>36.6</ele>
    <time>2025-08-10T10:40:56.000Z</time>
   </trkpt>
   <trkpt lat="52.491536" lon="13.464004">
    <ele>36.8</ele>
    <time>2025-08-10T10:40:58.000Z</time>
   </trkpt>
   <trkpt lat="52.491634" lon="13.463753">
    <ele>36.8</ele>
    <time>2025-08-10T10:41:01.000Z</time>
   </trkpt>
   <trkpt lat="52.491842" lon="13.463076">
    <ele>36.6</ele>
    <time>2025-08-10T10:41:09.000Z</time>
   </trkpt>
   <trkpt lat="52.491912" lon="13.462807">
    <ele>36.4</ele>
    <time>2025-08-10T10:41:12.000Z</time>
   </trkpt>
   <trkpt lat="52.491961" lon="13.462612">
    <ele>36.4</ele>
    <time>2025-08-10T10:41:14.000Z</time>
   </trkpt>
   <trkpt lat="52.492057" lon="13.462234">
    <ele>36.4</ele>
    <time>2025-08-10T10:41:18.000Z</time>
   </trkpt>
   <trkpt lat="52.492084" lon="13.462145">
    <ele>36.4</ele>
    <time>2025-08-10T10:41:19.000Z</time>
   </trkpt>
   <trkpt lat="52.492294" lon="13.461531">
    <ele>36.6</ele>
    <time>2025-08-10T10:41:26.000Z</time>
   </trkpt>
   <trkpt lat="52.492321" lon="13.461444">
    <ele>36.6</ele>
    <time>2025-08-10T10:41:27.000Z</time>
   </trkpt>
   <trkpt lat="52.492401" lon="13.461188">
    <ele>36.4</ele>
    <time>2025-08-10T10:41:30.000Z</time>
   </trkpt>
   <trkpt lat="52.49243" lon="13.461114">
    <ele>36.2</ele>
    <time>2025-08-10T10:41:31.000Z</time>
   </trkpt>
   <trkpt lat="52.49244" lon="13.461063">
    <ele>36.2</ele>
    <time>2025-08-10T10:41:32.000Z</time>
   </trkpt>
   <trkpt lat="52.49245" lon="13.461019">
    <ele>36</ele>
    <time>2025-08-10T10:41:33.000Z</time>
   </trkpt>
   <trkpt lat="52.492471" lon="13.460933">
    <ele>36</ele>
    <time>2025-08-10T10:41:35.000Z</time>
   </trkpt>
   <trkpt lat="52.49249" lon="13.46088">
    <ele>36</ele>
    <time>2025-08-10T10:41:36.000Z</time>
   </trkpt>
   <trkpt lat="52.492531" lon="13.460789">
    <ele>36</ele>
    <time>2025-08-10T10:41:38.000Z</time>
   </trkpt>
   <trkpt lat="52.492634" lon="13.460424">
    <ele>36</ele>
    <time>2025-08-10T10:41:40.000Z</time>
   </trkpt>
   <trkpt lat="52.4927" lon="13.460299">
    <ele>36</ele>
    <time>2025-08-10T10:41:42.000Z</time>
   </trkpt>
   <trkpt lat="52.492771" lon="13.460232">
    <ele>36</ele>
    <time>2025-08-10T10:41:44.000Z</time>
   </trkpt>
   <trkpt lat="52.492828" lon="13.460146">
    <ele>36</ele>
    <time>2025-08-10T10:41:48.000Z</time>
   </trkpt>
   <trkpt lat="52.492828" lon="13.460146">
    <ele>36</ele>
    <time>2025-08-10T10:41:49.000Z</time>
   </trkpt>
   <trkpt lat="52.492842" lon="13.46005">
    <ele>36.4</ele>
    <time>2025-08-10T10:42:18.000Z</time>
   </trkpt>
   <trkpt lat="52.492833" lon="13.459975">
    <ele>36.4</ele>
    <time>2025-08-10T10:42:20.000Z</time>
   </trkpt>
   <trkpt lat="52.492815" lon="13.459863">
    <ele>36.2</ele>
    <time>2025-08-10T10:42:23.000Z</time>
   </trkpt>
   <trkpt lat="52.492815" lon="13.459743">
    <ele>36</ele>
    <time>2025-08-10T10:42:27.000Z</time>
   </trkpt>
   <trkpt lat="52.492815" lon="13.459724">
    <ele>36</ele>
    <time>2025-08-10T10:42:29.000Z</time>
   </trkpt>
   <trkpt lat="52.492829" lon="13.459673">
    <ele>36.6</ele>
    <time>2025-08-10T10:42:58.000Z</time>
   </trkpt>
   <trkpt lat="52.492888" lon="13.45949">
    <ele>36.6</ele>
    <time>2025-08-10T10:43:01.000Z</time>
   </trkpt>
   <trkpt lat="52.492941" lon="13.459354">
    <ele>36.6</ele>
    <time>2025-08-10T10:43:03.000Z</time>
   </trkpt>
   <trkpt lat="52.492995" lon="13.459115">
    <ele>36.4</ele>
    <time>2025-08-10T10:43:06.000Z</time>
   </trkpt>
   <trkpt lat="52.493017" lon="13.459034">
    <ele>36.4</ele>
    <time>2025-08-10T10:43:07.000Z</time>
   </trkpt>
   <trkpt lat="52.493084" lon="13.458891">
    <ele>36.2</ele>
    <time>2025-08-10T10:43:09.000Z</time>
   </trkpt>
   <trkpt lat="52.493113" lon="13.458814">
    <ele>36.2</ele>
    <time>2025-08-10T10:43:10.000Z</time>
   </trkpt>
   <trkpt lat="52.493165" lon="13.458644">
    <ele>36</ele>
    <time>2025-08-10T10:43:12.000Z</time>
   </trkpt>
   <trkpt lat="52.493216" lon="13.458464">
    <ele>36.2</ele>
    <time>2025-08-10T10:43:14.000Z</time>
   </trkpt>
   <trkpt lat="52.493275" lon="13.458276">
    <ele>36.2</ele>
    <time>2025-08-10T10:43:16.000Z</time>
   </trkpt>
   <trkpt lat="52.4933" lon="13.458184">
    <ele>36.2</ele>
    <time>2025-08-10T10:43:17.000Z</time>
   </trkpt>
   <trkpt lat="52.493324" lon="13.458104">
    <ele>36.2</ele>
    <time>2025-08-10T10:43:18.000Z</time>
   </trkpt>
   <trkpt lat="52.493412" lon="13.45783">
    <ele>36.2</ele>
    <time>2025-08-10T10:43:21.000Z</time>
   </trkpt>
   <trkpt lat="52.493442" lon="13.457731">
    <ele>36.2</ele>
    <time>2025-08-10T10:43:22.000Z</time>
   </trkpt>
   <trkpt lat="52.493466" lon="13.457634">
    <ele>36.2</ele>
    <time>2025-08-10T10:43:23.000Z</time>
   </trkpt>
   <trkpt lat="52.493524" lon="13.457431">
    <ele>36.2</ele>
    <time>2025-08-10T10:43:25.000Z</time>
   </trkpt>
   <trkpt lat="52.493559" lon="13.457328">
    <ele>36.4</ele>
    <time>2025-08-10T10:43:26.000Z</time>
   </trkpt>
   <trkpt lat="52.493617" lon="13.45713">
    <ele>36.2</ele>
    <time>2025-08-10T10:43:28.000Z</time>
   </trkpt>
   <trkpt lat="52.493714" lon="13.456793">
    <ele>36.2</ele>
    <time>2025-08-10T10:43:31.000Z</time>
   </trkpt>
   <trkpt lat="52.493752" lon="13.456675">
    <ele>36.2</ele>
    <time>2025-08-10T10:43:32.000Z</time>
   </trkpt>
   <trkpt lat="52.493983" lon="13.455894">
    <ele>36.4</ele>
    <time>2025-08-10T10:43:39.000Z</time>
   </trkpt>
   <trkpt lat="52.494056" lon="13.455666">
    <ele>36.4</ele>
    <time>2025-08-10T10:43:41.000Z</time>
   </trkpt>
   <trkpt lat="52.494151" lon="13.455355">
    <ele>36.6</ele>
    <time>2025-08-10T10:43:44.000Z</time>
   </trkpt>
   <trkpt lat="52.494168" lon="13.455255">
    <ele>36.6</ele>
    <time>2025-08-10T10:43:45.000Z</time>
   </trkpt>
   <trkpt lat="52.494288" lon="13.454864">
    <ele>36.4</ele>
    <time>2025-08-10T10:43:49.000Z</time>
   </trkpt>
   <trkpt lat="52.494502" lon="13.454195">
    <ele>36.4</ele>
    <time>2025-08-10T10:43:56.000Z</time>
   </trkpt>
   <trkpt lat="52.494558" lon="13.454006">
    <ele>36.4</ele>
    <time>2025-08-10T10:43:58.000Z</time>
   </trkpt>
   <trkpt lat="52.494604" lon="13.453826">
    <ele>36.4</ele>
    <time>2025-08-10T10:44:00.000Z</time>
   </trkpt>
   <trkpt lat="52.494656" lon="13.453662">
    <ele>36.4</ele>
    <time>2025-08-10T10:44:02.000Z</time>
   </trkpt>
   <trkpt lat="52.494755" lon="13.453354">
    <ele>36.6</ele>
    <time>2025-08-10T10:44:06.000Z</time>
   </trkpt>
   <trkpt lat="52.494828" lon="13.453197">
    <ele>36.4</ele>
    <time>2025-08-10T10:44:08.000Z</time>
   </trkpt>
   <trkpt lat="52.495106" lon="13.452716">
    <ele>36.4</ele>
    <time>2025-08-10T10:44:14.000Z</time>
   </trkpt>
   <trkpt lat="52.495453" lon="13.452149">
    <ele>36.4</ele>
    <time>2025-08-10T10:44:21.000Z</time>
   </trkpt>
   <trkpt lat="52.495738" lon="13.451652">
    <ele>36.2</ele>
    <time>2025-08-10T10:44:27.000Z</time>
   </trkpt>
   <trkpt lat="52.496" lon="13.451206">
    <ele>35.8</ele>
    <time>2025-08-10T10:44:33.000Z</time>
   </trkpt>
   <trkpt lat="52.49604" lon="13.451139">
    <ele>35.8</ele>
    <time>2025-08-10T10:44:34.000Z</time>
   </trkpt>
   <trkpt lat="52.496365" lon="13.450617">
    <ele>36.2</ele>
    <time>2025-08-10T10:44:42.000Z</time>
   </trkpt>
   <trkpt lat="52.496649" lon="13.450136">
    <ele>36.4</ele>
    <time>2025-08-10T10:44:50.000Z</time>
   </trkpt>
   <trkpt lat="52.496827" lon="13.44983">
    <ele>36.4</ele>
    <time>2025-08-10T10:44:56.000Z</time>
   </trkpt>
   <trkpt lat="52.49697" lon="13.449531">
    <ele>36.4</ele>
    <time>2025-08-10T10:45:00.000Z</time>
   </trkpt>
   <trkpt lat="52.497017" lon="13.449448">
    <ele>36.4</ele>
    <time>2025-08-10T10:45:01.000Z</time>
   </trkpt>
   <trkpt lat="52.497316" lon="13.448947">
    <ele>36.4</ele>
    <time>2025-08-10T10:45:07.000Z</time>
   </trkpt>
   <trkpt lat="52.497517" lon="13.448604">
    <ele>36.6</ele>
    <time>2025-08-10T10:45:12.000Z</time>
   </trkpt>
   <trkpt lat="52.497592" lon="13.448467">
    <ele>37</ele>
    <time>2025-08-10T10:45:14.000Z</time>
   </trkpt>
   <trkpt lat="52.497718" lon="13.448222">
    <ele>37.2</ele>
    <time>2025-08-10T10:45:17.000Z</time>
   </trkpt>
   <trkpt lat="52.49777" lon="13.448144">
    <ele>37.2</ele>
    <time>2025-08-10T10:45:18.000Z</time>
   </trkpt>
   <trkpt lat="52.498086" lon="13.44765">
    <ele>36.6</ele>
    <time>2025-08-10T10:45:24.000Z</time>
   </trkpt>
   <trkpt lat="52.498138" lon="13.447557">
    <ele>36.6</ele>
    <time>2025-08-10T10:45:25.000Z</time>
   </trkpt>
   <trkpt lat="52.498339" lon="13.447209">
    <ele>36</ele>
    <time>2025-08-10T10:45:29.000Z</time>
   </trkpt>
   <trkpt lat="52.49849" lon="13.446945">
    <ele>36</ele>
    <time>2025-08-10T10:45:32.000Z</time>
   </trkpt>
   <trkpt lat="52.49854" lon="13.446857">
    <ele>36</ele>
    <time>2025-08-10T10:45:33.000Z</time>
   </trkpt>
   <trkpt lat="52.498641" lon="13.44668">
    <ele>36</ele>
    <time>2025-08-10T10:45:35.000Z</time>
   </trkpt>
   <trkpt lat="52.498875" lon="13.446264">
    <ele>36</ele>
    <time>2025-08-10T10:45:40.000Z</time>
   </trkpt>
   <trkpt lat="52.499166" lon="13.44572">
    <ele>36</ele>
    <time>2025-08-10T10:45:47.000Z</time>
   </trkpt>
   <trkpt lat="52.499249" lon="13.445591">
    <ele>36</ele>
    <time>2025-08-10T10:45:49.000Z</time>
   </trkpt>
   <trkpt lat="52.499382" lon="13.445412">
    <ele>36</ele>
    <time>2025-08-10T10:45:52.000Z</time>
   </trkpt>
   <trkpt lat="52.499506" lon="13.445195">
    <ele>36</ele>
    <time>2025-08-10T10:45:55.000Z</time>
   </trkpt>
   <trkpt lat="52.499591" lon="13.44504">
    <ele>35.8</ele>
    <time>2025-08-10T10:45:57.000Z</time>
   </trkpt>
   <trkpt lat="52.49963" lon="13.444951">
    <ele>35.8</ele>
    <time>2025-08-10T10:45:58.000Z</time>
   </trkpt>
   <trkpt lat="52.499673" lon="13.444872">
    <ele>35.8</ele>
    <time>2025-08-10T10:45:59.000Z</time>
   </trkpt>
   <trkpt lat="52.499804" lon="13.444621">
    <ele>35.8</ele>
    <time>2025-08-10T10:46:02.000Z</time>
   </trkpt>
   <trkpt lat="52.500157" lon="13.443963">
    <ele>36</ele>
    <time>2025-08-10T10:46:10.000Z</time>
   </trkpt>
   <trkpt lat="52.500234" lon="13.443792">
    <ele>36</ele>
    <time>2025-08-10T10:46:12.000Z</time>
   </trkpt>
   <trkpt lat="52.500365" lon="13.443547">
    <ele>36</ele>
    <time>2025-08-10T10:46:15.000Z</time>
   </trkpt>
   <trkpt lat="52.500625" lon="13.443017">
    <ele>36.2</ele>
    <time>2025-08-10T10:46:22.000Z</time>
   </trkpt>
   <trkpt lat="52.500795" lon="13.442697">
    <ele>36.2</ele>
    <time>2025-08-10T10:46:28.000Z</time>
   </trkpt>
   <trkpt lat="52.500904" lon="13.442471">
    <ele>36.6</ele>
    <time>2025-08-10T10:46:33.000Z</time>
   </trkpt>
   <trkpt lat="52.500911" lon="13.442452">
    <ele>36.6</ele>
    <time>2025-08-10T10:46:34.000Z</time>
   </trkpt>
   <trkpt lat="52.500941" lon="13.442422">
    <ele>36</ele>
    <time>2025-08-10T10:47:06.000Z</time>
   </trkpt>
   <trkpt lat="52.500964" lon="13.442387">
    <ele>36</ele>
    <time>2025-08-10T10:47:07.000Z</time>
   </trkpt>
   <trkpt lat="52.500987" lon="13.442344">
    <ele>36</ele>
    <time>2025-08-10T10:47:08.000Z</time>
   </trkpt>
   <trkpt lat="52.501057" lon="13.442218">
    <ele>36</ele>
    <time>2025-08-10T10:47:11.000Z</time>
   </trkpt>
   <trkpt lat="52.501087" lon="13.442189">
    <ele>36</ele>
    <time>2025-08-10T10:47:12.000Z</time>
   </trkpt>
   <trkpt lat="52.501119" lon="13.442144">
    <ele>35.8</ele>
    <time>2025-08-10T10:47:13.000Z</time>
   </trkpt>
   <trkpt lat="52.501169" lon="13.442038">
    <ele>35.8</ele>
    <time>2025-08-10T10:47:15.000Z</time>
   </trkpt>
   <trkpt lat="52.501202" lon="13.442006">
    <ele>36</ele>
    <time>2025-08-10T10:47:16.000Z</time>
   </trkpt>
   <trkpt lat="52.501259" lon="13.441958">
    <ele>36</ele>
    <time>2025-08-10T10:47:18.000Z</time>
   </trkpt>
   <trkpt lat="52.501274" lon="13.441912">
    <ele>36.2</ele>
    <time>2025-08-10T10:47:20.000Z</time>
   </trkpt>
   <trkpt lat="52.501274" lon="13.441912">
    <ele>36.2</ele>
    <time>2025-08-10T10:47:21.000Z</time>
   </trkpt>
   <trkpt lat="52.501271" lon="13.4418">
    <ele>36.6</ele>
    <time>2025-08-10T10:47:45.000Z</time>
   </trkpt>
   <trkpt lat="52.501255" lon="13.441693">
    <ele>36.6</ele>
    <time>2025-08-10T10:47:47.000Z</time>
   </trkpt>
   <trkpt lat="52.501173" lon="13.441506">
    <ele>36.6</ele>
    <time>2025-08-10T10:47:50.000Z</time>
   </trkpt>
   <trkpt lat="52.501137" lon="13.441459">
    <ele>36.6</ele>
    <time>2025-08-10T10:47:51.000Z</time>
   </trkpt>
   <trkpt lat="52.501097" lon="13.441425">
    <ele>36.6</ele>
    <time>2025-08-10T10:47:52.000Z</time>
   </trkpt>
   <trkpt lat="52.50106" lon="13.441381">
    <ele>36.6</ele>
    <time>2025-08-10T10:47:53.000Z</time>
   </trkpt>
   <trkpt lat="52.500936" lon="13.441182">
    <ele>36.6</ele>
    <time>2025-08-10T10:47:56.000Z</time>
   </trkpt>
   <trkpt lat="52.500907" lon="13.440953">
    <ele>36.6</ele>
    <time>2025-08-10T10:47:58.000Z</time>
   </trkpt>
   <trkpt lat="52.500897" lon="13.440854">
    <ele>36.6</ele>
    <time>2025-08-10T10:47:59.000Z</time>
   </trkpt>
   <trkpt lat="52.500868" lon="13.440639">
    <ele>36.6</ele>
    <time>2025-08-10T10:48:01.000Z</time>
   </trkpt>
   <trkpt lat="52.500833" lon="13.440455">
    <ele>36.6</ele>
    <time>2025-08-10T10:48:03.000Z</time>
   </trkpt>
   <trkpt lat="52.500813" lon="13.440346">
    <ele>36.6</ele>
    <time>2025-08-10T10:48:04.000Z</time>
   </trkpt>
   <trkpt lat="52.500778" lon="13.440133">
    <ele>36.8</ele>
    <time>2025-08-10T10:48:06.000Z</time>
   </trkpt>
   <trkpt lat="52.500756" lon="13.44001">
    <ele>36.8</ele>
    <time>2025-08-10T10:48:07.000Z</time>
   </trkpt>
   <trkpt lat="52.500743" lon="13.439891">
    <ele>36.8</ele>
    <time>2025-08-10T10:48:08.000Z</time>
   </trkpt>
   <trkpt lat="52.500731" lon="13.439792">
    <ele>36.8</ele>
    <time>2025-08-10T10:48:09.000Z</time>
   </trkpt>
   <trkpt lat="52.500673" lon="13.439527">
    <ele>36.8</ele>
    <time>2025-08-10T10:48:12.000Z</time>
   </trkpt>
   <trkpt lat="52.500663" lon="13.439326">
    <ele>36.8</ele>
    <time>2025-08-10T10:48:14.000Z</time>
   </trkpt>
   <trkpt lat="52.500604" lon="13.438964">
    <ele>37</ele>
    <time>2025-08-10T10:48:18.000Z</time>
   </trkpt>
   <trkpt lat="52.500508" lon="13.438289">
    <ele>37.4</ele>
    <time>2025-08-10T10:48:25.000Z</time>
   </trkpt>
   <trkpt lat="52.500487" lon="13.438137">
    <ele>37.4</ele>
    <time>2025-08-10T10:48:27.000Z</time>
   </trkpt>
   <trkpt lat="52.500453" lon="13.43804">
    <ele>37.4</ele>
    <time>2025-08-10T10:48:29.000Z</time>
   </trkpt>
   <trkpt lat="52.500444" lon="13.438">
    <ele>37.4</ele>
    <time>2025-08-10T10:48:30.000Z</time>
   </trkpt>
   <trkpt lat="52.500417" lon="13.437822">
    <ele>37.6</ele>
    <time>2025-08-10T10:48:33.000Z</time>
   </trkpt>
   <trkpt lat="52.50035" lon="13.43735">
    <ele>37.6</ele>
    <time>2025-08-10T10:48:39.000Z</time>
   </trkpt>
   <trkpt lat="52.500357" lon="13.437176">
    <ele>37.8</ele>
    <time>2025-08-10T10:48:41.000Z</time>
   </trkpt>
   <trkpt lat="52.500358" lon="13.437024">
    <ele>37.8</ele>
    <time>2025-08-10T10:48:43.000Z</time>
   </trkpt>
   <trkpt lat="52.500329" lon="13.436791">
    <ele>37.8</ele>
    <time>2025-08-10T10:48:46.000Z</time>
   </trkpt>
   <trkpt lat="52.500307" lon="13.436613">
    <ele>37.8</ele>
    <time>2025-08-10T10:48:48.000Z</time>
   </trkpt>
   <trkpt lat="52.500299" lon="13.43651">
    <ele>37.8</ele>
    <time>2025-08-10T10:48:49.000Z</time>
   </trkpt>
   <trkpt lat="52.500251" lon="13.436173">
    <ele>37.8</ele>
    <time>2025-08-10T10:48:53.000Z</time>
   </trkpt>
   <trkpt lat="52.500217" lon="13.43599">
    <ele>37.8</ele>
    <time>2025-08-10T10:48:55.000Z</time>
   </trkpt>
   <trkpt lat="52.500183" lon="13.435806">
    <ele>37.8</ele>
    <time>2025-08-10T10:48:57.000Z</time>
   </trkpt>
   <trkpt lat="52.500146" lon="13.435616">
    <ele>37.6</ele>
    <time>2025-08-10T10:48:59.000Z</time>
   </trkpt>
   <trkpt lat="52.500114" lon="13.435438">
    <ele>37.6</ele>
    <time>2025-08-10T10:49:01.000Z</time>
   </trkpt>
   <trkpt lat="52.500029" lon="13.435167">
    <ele>37.8</ele>
    <time>2025-08-10T10:49:04.000Z</time>
   </trkpt>
   <trkpt lat="52.499991" lon="13.434914">
    <ele>38</ele>
    <time>2025-08-10T10:49:06.000Z</time>
   </trkpt>
   <trkpt lat="52.499958" lon="13.43461">
    <ele>38.2</ele>
    <time>2025-08-10T10:49:09.000Z</time>
   </trkpt>
   <trkpt lat="52.499941" lon="13.434531">
    <ele>38.2</ele>
    <time>2025-08-10T10:49:10.000Z</time>
   </trkpt>
   <trkpt lat="52.499931" lon="13.434458">
    <ele>38.2</ele>
    <time>2025-08-10T10:49:11.000Z</time>
   </trkpt>
   <trkpt lat="52.4999" lon="13.434176">
    <ele>38.4</ele>
    <time>2025-08-10T10:49:15.000Z</time>
   </trkpt>
   <trkpt lat="52.499886" lon="13.434013">
    <ele>38.4</ele>
    <time>2025-08-10T10:49:17.000Z</time>
   </trkpt>
   <trkpt lat="52.499847" lon="13.433767">
    <ele>38.4</ele>
    <time>2025-08-10T10:49:20.000Z</time>
   </trkpt>
   <trkpt lat="52.499826" lon="13.433694">
    <ele>38.4</ele>
    <time>2025-08-10T10:49:21.000Z</time>
   </trkpt>
   <trkpt lat="52.499774" lon="13.433563">
    <ele>38.4</ele>
    <time>2025-08-10T10:49:23.000Z</time>
   </trkpt>
   <trkpt lat="52.499676" lon="13.433113">
    <ele>38.6</ele>
    <time>2025-08-10T10:49:28.000Z</time>
   </trkpt>
   <trkpt lat="52.499667" lon="13.433024">
    <ele>38.6</ele>
    <time>2025-08-10T10:49:29.000Z</time>
   </trkpt>
   <trkpt lat="52.499665" lon="13.432936">
    <ele>38.6</ele>
    <time>2025-08-10T10:49:30.000Z</time>
   </trkpt>
   <trkpt lat="52.499668" lon="13.432763">
    <ele>38.6</ele>
    <time>2025-08-10T10:49:32.000Z</time>
   </trkpt>
   <trkpt lat="52.499662" lon="13.432672">
    <ele>38.6</ele>
    <time>2025-08-10T10:49:33.000Z</time>
   </trkpt>
   <trkpt lat="52.499651" lon="13.432584">
    <ele>38.6</ele>
    <time>2025-08-10T10:49:34.000Z</time>
   </trkpt>
   <trkpt lat="52.499602" lon="13.4323">
    <ele>38.6</ele>
    <time>2025-08-10T10:49:37.000Z</time>
   </trkpt>
   <trkpt lat="52.499582" lon="13.432215">
    <ele>38.6</ele>
    <time>2025-08-10T10:49:38.000Z</time>
   </trkpt>
   <trkpt lat="52.499566" lon="13.432126">
    <ele>38.6</ele>
    <time>2025-08-10T10:49:39.000Z</time>
   </trkpt>
   <trkpt lat="52.499518" lon="13.431757">
    <ele>38.6</ele>
    <time>2025-08-10T10:49:43.000Z</time>
   </trkpt>
   <trkpt lat="52.499448" lon="13.431185">
    <ele>38.6</ele>
    <time>2025-08-10T10:49:49.000Z</time>
   </trkpt>
   <trkpt lat="52.499442" lon="13.430985">
    <ele>38.6</ele>
    <time>2025-08-10T10:49:51.000Z</time>
   </trkpt>
   <trkpt lat="52.499469" lon="13.43052">
    <ele>38.6</ele>
    <time>2025-08-10T10:49:56.000Z</time>
   </trkpt>
   <trkpt lat="52.499475" lon="13.430428">
    <ele>38.6</ele>
    <time>2025-08-10T10:49:57.000Z</time>
   </trkpt>
   <trkpt lat="52.499484" lon="13.430161">
    <ele>38.6</ele>
    <time>2025-08-10T10:50:00.000Z</time>
   </trkpt>
   <trkpt lat="52.499495" lon="13.43007">
    <ele>38.6</ele>
    <time>2025-08-10T10:50:01.000Z</time>
   </trkpt>
   <trkpt lat="52.499513" lon="13.42998">
    <ele>38.6</ele>
    <time>2025-08-10T10:50:02.000Z</time>
   </trkpt>
   <trkpt lat="52.499529" lon="13.429782">
    <ele>38.6</ele>
    <time>2025-08-10T10:50:04.000Z</time>
   </trkpt>
   <trkpt lat="52.499516" lon="13.429573">
    <ele>38.6</ele>
    <time>2025-08-10T10:50:06.000Z</time>
   </trkpt>
   <trkpt lat="52.499484" lon="13.429269">
    <ele>38.6</ele>
    <time>2025-08-10T10:50:09.000Z</time>
   </trkpt>
   <trkpt lat="52.499463" lon="13.429079">
    <ele>38.6</ele>
    <time>2025-08-10T10:50:11.000Z</time>
   </trkpt>
   <trkpt lat="52.499451" lon="13.428806">
    <ele>38.4</ele>
    <time>2025-08-10T10:50:14.000Z</time>
   </trkpt>
   <trkpt lat="52.49944" lon="13.428672">
    <ele>38.4</ele>
    <time>2025-08-10T10:50:16.000Z</time>
   </trkpt>
   <trkpt lat="52.499411" lon="13.428418">
    <ele>38.2</ele>
    <time>2025-08-10T10:50:20.000Z</time>
   </trkpt>
   <trkpt lat="52.499399" lon="13.428219">
    <ele>38</ele>
    <time>2025-08-10T10:50:23.000Z</time>
   </trkpt>
   <trkpt lat="52.49941" lon="13.428121">
    <ele>37.8</ele>
    <time>2025-08-10T10:50:25.000Z</time>
   </trkpt>
   <trkpt lat="52.499402" lon="13.428012">
    <ele>37.8</ele>
    <time>2025-08-10T10:50:27.000Z</time>
   </trkpt>
   <trkpt lat="52.499393" lon="13.427894">
    <ele>37.8</ele>
    <time>2025-08-10T10:50:29.000Z</time>
   </trkpt>
   <trkpt lat="52.499369" lon="13.427528">
    <ele>37.6</ele>
    <time>2025-08-10T10:50:34.000Z</time>
   </trkpt>
   <trkpt lat="52.499366" lon="13.42746">
    <ele>37.6</ele>
    <time>2025-08-10T10:50:35.000Z</time>
   </trkpt>
   <trkpt lat="52.49934" lon="13.427088">
    <ele>37.2</ele>
    <time>2025-08-10T10:50:41.000Z</time>
   </trkpt>
   <trkpt lat="52.499337" lon="13.42685">
    <ele>37.2</ele>
    <time>2025-08-10T10:50:46.000Z</time>
   </trkpt>
   <trkpt lat="52.499337" lon="13.42685">
    <ele>37</ele>
    <time>2025-08-10T10:50:47.000Z</time>
   </trkpt>
   <trkpt lat="52.499344" lon="13.426764">
    <ele>37.4</ele>
    <time>2025-08-10T10:50:56.000Z</time>
   </trkpt>
   <trkpt lat="52.499345" lon="13.426655">
    <ele>37.4</ele>
    <time>2025-08-10T10:50:58.000Z</time>
   </trkpt>
   <trkpt lat="52.499358" lon="13.426596">
    <ele>37.4</ele>
    <time>2025-08-10T10:50:59.000Z</time>
   </trkpt>
   <trkpt lat="52.499406" lon="13.426359">
    <ele>37.2</ele>
    <time>2025-08-10T10:51:02.000Z</time>
   </trkpt>
   <trkpt lat="52.499511" lon="13.425884">
    <ele>37</ele>
    <time>2025-08-10T10:51:07.000Z</time>
   </trkpt>
   <trkpt lat="52.499635" lon="13.42548">
    <ele>36.8</ele>
    <time>2025-08-10T10:51:11.000Z</time>
   </trkpt>
   <trkpt lat="52.499702" lon="13.425272">
    <ele>36.6</ele>
    <time>2025-08-10T10:51:13.000Z</time>
   </trkpt>
   <trkpt lat="52.499732" lon="13.425158">
    <ele>36.4</ele>
    <time>2025-08-10T10:51:14.000Z</time>
   </trkpt>
   <trkpt lat="52.499886" lon="13.424628">
    <ele>36.2</ele>
    <time>2025-08-10T10:51:19.000Z</time>
   </trkpt>
   <trkpt lat="52.499977" lon="13.42431">
    <ele>36.2</ele>
    <time>2025-08-10T10:51:22.000Z</time>
   </trkpt>
   <trkpt lat="52.500005" lon="13.424195">
    <ele>36.2</ele>
    <time>2025-08-10T10:51:23.000Z</time>
   </trkpt>
   <trkpt lat="52.500066" lon="13.423955">
    <ele>36.2</ele>
    <time>2025-08-10T10:51:25.000Z</time>
   </trkpt>
   <trkpt lat="52.500118" lon="13.42369">
    <ele>36.2</ele>
    <time>2025-08-10T10:51:27.000Z</time>
   </trkpt>
   <trkpt lat="52.500266" lon="13.423143">
    <ele>36</ele>
    <time>2025-08-10T10:51:32.000Z</time>
   </trkpt>
   <trkpt lat="52.500472" lon="13.422404">
    <ele>36.2</ele>
    <time>2025-08-10T10:51:39.000Z</time>
   </trkpt>
   <trkpt lat="52.50069" lon="13.421658">
    <ele>36.2</ele>
    <time>2025-08-10T10:51:46.000Z</time>
   </trkpt>
   <trkpt lat="52.500722" lon="13.421553">
    <ele>36.2</ele>
    <time>2025-08-10T10:51:47.000Z</time>
   </trkpt>
   <trkpt lat="52.500943" lon="13.420718">
    <ele>36.2</ele>
    <time>2025-08-10T10:51:55.000Z</time>
   </trkpt>
   <trkpt lat="52.50102" lon="13.420444">
    <ele>36.2</ele>
    <time>2025-08-10T10:51:58.000Z</time>
   </trkpt>
   <trkpt lat="52.501146" lon="13.41999">
    <ele>36.4</ele>
    <time>2025-08-10T10:52:04.000Z</time>
   </trkpt>
   <trkpt lat="52.501233" lon="13.419755">
    <ele>36.6</ele>
    <time>2025-08-10T10:52:08.000Z</time>
   </trkpt>
   <trkpt lat="52.501279" lon="13.419625">
    <ele>36.4</ele>
    <time>2025-08-10T10:52:10.000Z</time>
   </trkpt>
   <trkpt lat="52.50138" lon="13.419221">
    <ele>36.4</ele>
    <time>2025-08-10T10:52:15.000Z</time>
   </trkpt>
   <trkpt lat="52.501573" lon="13.418491">
    <ele>36.4</ele>
    <time>2025-08-10T10:52:23.000Z</time>
   </trkpt>
   <trkpt lat="52.501794" lon="13.417627">
    <ele>36.4</ele>
    <time>2025-08-10T10:52:32.000Z</time>
   </trkpt>
   <trkpt lat="52.501971" lon="13.416959">
    <ele>36</ele>
    <time>2025-08-10T10:52:39.000Z</time>
   </trkpt>
   <trkpt lat="52.502175" lon="13.41646">
    <ele>35.8</ele>
    <time>2025-08-10T10:52:45.000Z</time>
   </trkpt>
   <trkpt lat="52.502359" lon="13.415992">
    <ele>36</ele>
    <time>2025-08-10T10:52:51.000Z</time>
   </trkpt>
   <trkpt lat="52.502439" lon="13.415681">
    <ele>36</ele>
    <time>2025-08-10T10:52:55.000Z</time>
   </trkpt>
   <trkpt lat="52.502479" lon="13.41547">
    <ele>36.2</ele>
    <time>2025-08-10T10:52:58.000Z</time>
   </trkpt>
   <trkpt lat="52.50252" lon="13.415221">
    <ele>36.2</ele>
    <time>2025-08-10T10:53:02.000Z</time>
   </trkpt>
   <trkpt lat="52.502529" lon="13.415151">
    <ele>36.2</ele>
    <time>2025-08-10T10:53:04.000Z</time>
   </trkpt>
   <trkpt lat="52.502529" lon="13.415151">
    <ele>36.2</ele>
    <time>2025-08-10T10:53:05.000Z</time>
   </trkpt>
   <trkpt lat="52.502529" lon="13.415148">
    <ele>36.2</ele>
    <time>2025-08-10T10:53:08.000Z</time>
   </trkpt>
   <trkpt lat="52.502545" lon="13.415066">
    <ele>36.2</ele>
    <time>2025-08-10T10:53:11.000Z</time>
   </trkpt>
   <trkpt lat="52.502555" lon="13.414902">
    <ele>36.2</ele>
    <time>2025-08-10T10:53:14.000Z</time>
   </trkpt>
   <trkpt lat="52.502573" lon="13.41477">
    <ele>36</ele>
    <time>2025-08-10T10:53:16.000Z</time>
   </trkpt>
   <trkpt lat="52.502673" lon="13.414301">
    <ele>36.2</ele>
    <time>2025-08-10T10:53:22.000Z</time>
   </trkpt>
   <trkpt lat="52.502782" lon="13.413856">
    <ele>36.2</ele>
    <time>2025-08-10T10:53:27.000Z</time>
   </trkpt>
   <trkpt lat="52.502806" lon="13.413763">
    <ele>36.4</ele>
    <time>2025-08-10T10:53:28.000Z</time>
   </trkpt>
   <trkpt lat="52.502915" lon="13.413305">
    <ele>36.6</ele>
    <time>2025-08-10T10:53:33.000Z</time>
   </trkpt>
   <trkpt lat="52.50302" lon="13.412969">
    <ele>36.4</ele>
    <time>2025-08-10T10:53:37.000Z</time>
   </trkpt>
   <trkpt lat="52.50308" lon="13.412782">
    <ele>36.6</ele>
    <time>2025-08-10T10:53:39.000Z</time>
   </trkpt>
   <trkpt lat="52.503281" lon="13.412082">
    <ele>36.8</ele>
    <time>2025-08-10T10:53:47.000Z</time>
   </trkpt>
   <trkpt lat="52.50333" lon="13.411916">
    <ele>36.8</ele>
    <time>2025-08-10T10:53:49.000Z</time>
   </trkpt>
   <trkpt lat="52.503403" lon="13.411697">
    <ele>36.8</ele>
    <time>2025-08-10T10:53:52.000Z</time>
   </trkpt>
   <trkpt lat="52.503498" lon="13.411382">
    <ele>36.8</ele>
    <time>2025-08-10T10:53:56.000Z</time>
   </trkpt>
   <trkpt lat="52.503562" lon="13.411281">
    <ele>36.8</ele>
    <time>2025-08-10T10:53:58.000Z</time>
   </trkpt>
   <trkpt lat="52.503656" lon="13.411212">
    <ele>36.6</ele>
    <time>2025-08-10T10:54:00.000Z</time>
   </trkpt>
   <trkpt lat="52.503802" lon="13.411089">
    <ele>36.4</ele>
    <time>2025-08-10T10:54:03.000Z</time>
   </trkpt>
   <trkpt lat="52.503846" lon="13.41104">
    <ele>36.4</ele>
    <time>2025-08-10T10:54:04.000Z</time>
   </trkpt>
   <trkpt lat="52.503898" lon="13.410904">
    <ele>36.2</ele>
    <time>2025-08-10T10:54:06.000Z</time>
   </trkpt>
   <trkpt lat="52.503896" lon="13.410737">
    <ele>36</ele>
    <time>2025-08-10T10:54:08.000Z</time>
   </trkpt>
   <trkpt lat="52.503884" lon="13.410654">
    <ele>36</ele>
    <time>2025-08-10T10:54:09.000Z</time>
   </trkpt>
   <trkpt lat="52.503846" lon="13.410409">
    <ele>35.8</ele>
    <time>2025-08-10T10:54:12.000Z</time>
   </trkpt>
   <trkpt lat="52.503855" lon="13.410332">
    <ele>35.8</ele>
    <time>2025-08-10T10:54:13.000Z</time>
   </trkpt>
   <trkpt lat="52.503873" lon="13.410261">
    <ele>35.8</ele>
    <time>2025-08-10T10:54:14.000Z</time>
   </trkpt>
   <trkpt lat="52.503944" lon="13.410058">
    <ele>36</ele>
    <time>2025-08-10T10:54:17.000Z</time>
   </trkpt>
   <trkpt lat="52.504018" lon="13.409771">
    <ele>36.2</ele>
    <time>2025-08-10T10:54:21.000Z</time>
   </trkpt>
   <trkpt lat="52.504063" lon="13.409629">
    <ele>36.2</ele>
    <time>2025-08-10T10:54:23.000Z</time>
   </trkpt>
   <trkpt lat="52.504126" lon="13.409416">
    <ele>36.2</ele>
    <time>2025-08-10T10:54:26.000Z</time>
   </trkpt>
   <trkpt lat="52.50422" lon="13.409153">
    <ele>36.2</ele>
    <time>2025-08-10T10:54:30.000Z</time>
   </trkpt>
   <trkpt lat="52.504253" lon="13.408997">
    <ele>36.2</ele>
    <time>2025-08-10T10:54:32.000Z</time>
   </trkpt>
   <trkpt lat="52.504284" lon="13.408852">
    <ele>36.2</ele>
    <time>2025-08-10T10:54:34.000Z</time>
   </trkpt>
   <trkpt lat="52.50433" lon="13.40871">
    <ele>36.4</ele>
    <time>2025-08-10T10:54:36.000Z</time>
   </trkpt>
   <trkpt lat="52.504468" lon="13.408227">
    <ele>36.8</ele>
    <time>2025-08-10T10:54:43.000Z</time>
   </trkpt>
   <trkpt lat="52.504479" lon="13.408087">
    <ele>36.8</ele>
    <time>2025-08-10T10:54:46.000Z</time>
   </trkpt>
   <trkpt lat="52.504364" lon="13.407924">
    <ele>36.4</ele>
    <time>2025-08-10T10:54:51.000Z</time>
   </trkpt>
   <trkpt lat="52.504284" lon="13.407846">
    <ele>36.4</ele>
    <time>2025-08-10T10:54:53.000Z</time>
   </trkpt>
   <trkpt lat="52.504199" lon="13.407763">
    <ele>36.4</ele>
    <time>2025-08-10T10:54:55.000Z</time>
   </trkpt>
   <trkpt lat="52.504152" lon="13.407722">
    <ele>36.4</ele>
    <time>2025-08-10T10:54:56.000Z</time>
   </trkpt>
   <trkpt lat="52.503955" lon="13.407565">
    <ele>36.4</ele>
    <time>2025-08-10T10:55:00.000Z</time>
   </trkpt>
   <trkpt lat="52.503764" lon="13.4074">
    <ele>36.4</ele>
    <time>2025-08-10T10:55:04.000Z</time>
   </trkpt>
   <trkpt lat="52.503718" lon="13.407364">
    <ele>36.4</ele>
    <time>2025-08-10T10:55:05.000Z</time>
   </trkpt>
   <trkpt lat="52.503671" lon="13.407332">
    <ele>36.4</ele>
    <time>2025-08-10T10:55:06.000Z</time>
   </trkpt>
   <trkpt lat="52.503571" lon="13.40723">
    <ele>36.6</ele>
    <time>2025-08-10T10:55:09.000Z</time>
   </trkpt>
   <trkpt lat="52.503563" lon="13.407199">
    <ele>36.6</ele>
    <time>2025-08-10T10:55:10.000Z</time>
   </trkpt>
   <trkpt lat="52.503563" lon="13.407199">
    <ele>37</ele>
    <time>2025-08-10T10:55:22.000Z</time>
   </trkpt>
   <trkpt lat="52.503223" lon="13.408426">
    <ele>37.2</ele>
    <time>2025-08-10T10:55:24.000Z</time>
   </trkpt>
   <trkpt lat="52.503259" lon="13.408333">
    <ele>37.2</ele>
    <time>2025-08-10T10:55:25.000Z</time>
   </trkpt>
   <trkpt lat="52.50326" lon="13.408095">
    <ele>37.4</ele>
    <time>2025-08-10T10:55:26.000Z</time>
   </trkpt>
   <trkpt lat="52.50324" lon="13.408077">
    <ele>37.4</ele>
    <time>2025-08-10T10:55:27.000Z</time>
   </trkpt>
   <trkpt lat="52.503329" lon="13.408208">
    <ele>37.4</ele>
    <time>2025-08-10T10:55:29.000Z</time>
   </trkpt>
   <trkpt lat="52.503306" lon="13.408292">
    <ele>37.4</ele>
    <time>2025-08-10T10:55:31.000Z</time>
   </trkpt>
   <trkpt lat="52.503303" lon="13.408299">
    <ele>37.6</ele>
    <time>2025-08-10T10:55:34.000Z</time>
   </trkpt>
  </trkseg>
 </trk>
</gpx>
