<?xml version="1.0" encoding="UTF-8"?>
<gpx creator="StravaGPX" version="1.1" xmlns="http://www.topografix.com/GPX/1/1">
 <metadata>
  <time>2020-11-05T20:44:58Z</time>
 </metadata>
 <trk>
  <name>Clube português - Indo</name>
  <type>1</type>
  <trkseg>
   <trkpt lat="-8.036869" lon="-34.8927">
    <ele>8.8</ele>
    <time>2020-11-05T20:44:58.000Z</time>
   </trkpt>
   <trkpt lat="-8.036917" lon="-34.892712">
    <ele>8.8</ele>
    <time>2020-11-05T20:45:00.000Z</time>
   </trkpt>
   <trkpt lat="-8.036956" lon="-34.89273">
    <ele>8.8</ele>
    <time>2020-11-05T20:45:01.000Z</time>
   </trkpt>
   <trkpt lat="-8.03699" lon="-34.892745">
    <ele>8.8</ele>
    <time>2020-11-05T20:45:02.000Z</time>
   </trkpt>
   <trkpt lat="-8.037025" lon="-34.892767">
    <ele>8.8</ele>
    <time>2020-11-05T20:45:03.000Z</time>
   </trkpt>
   <trkpt lat="-8.037064" lon="-34.892784">
    <ele>8.8</ele>
    <time>2020-11-05T20:45:05.000Z</time>
   </trkpt>
   <trkpt lat="-8.037154" lon="-34.892805">
    <ele>8.8</ele>
    <time>2020-11-05T20:45:06.000Z</time>
   </trkpt>
   <trkpt lat="-8.037201" lon="-34.892812">
    <ele>8.8</ele>
    <time>2020-11-05T20:45:08.000Z</time>
   </trkpt>
   <trkpt lat="-8.037289" lon="-34.892816">
    <ele>8.7</ele>
    <time>2020-11-05T20:45:09.000Z</time>
   </trkpt>
   <trkpt lat="-8.037327" lon="-34.8928">
    <ele>8.7</ele>
    <time>2020-11-05T20:45:10.000Z</time>
   </trkpt>
   <trkpt lat="-8.03737" lon="-34.892781">
    <ele>8.7</ele>
    <time>2020-11-05T20:45:12.000Z</time>
   </trkpt>
   <trkpt lat="-8.037385" lon="-34.892711">
    <ele>8.8</ele>
    <time>2020-11-05T20:45:13.000Z</time>
   </trkpt>
   <trkpt lat="-8.037392" lon="-34.892663">
    <ele>8.8</ele>
    <time>2020-11-05T20:45:14.000Z</time>
   </trkpt>
   <trkpt lat="-8.037392" lon="-34.892609">
    <ele>8.8</ele>
    <time>2020-11-05T20:45:15.000Z</time>
   </trkpt>
   <trkpt lat="-8.037399" lon="-34.892554">
    <ele>8.8</ele>
    <time>2020-11-05T20:45:16.000Z</time>
   </trkpt>
   <trkpt lat="-8.037406" lon="-34.892495">
    <ele>8.9</ele>
    <time>2020-11-05T20:45:17.000Z</time>
   </trkpt>
   <trkpt lat="-8.037401" lon="-34.892438">
    <ele>8.9</ele>
    <time>2020-11-05T20:45:18.000Z</time>
   </trkpt>
   <trkpt lat="-8.037393" lon="-34.89238">
    <ele>8.9</ele>
    <time>2020-11-05T20:45:20.000Z</time>
   </trkpt>
   <trkpt lat="-8.037385" lon="-34.892274">
    <ele>9</ele>
    <time>2020-11-05T20:45:21.000Z</time>
   </trkpt>
   <trkpt lat="-8.03738" lon="-34.892221">
    <ele>9</ele>
    <time>2020-11-05T20:45:22.000Z</time>
   </trkpt>
   <trkpt lat="-8.037372" lon="-34.892168">
    <ele>9.1</ele>
    <time>2020-11-05T20:45:23.000Z</time>
   </trkpt>
   <trkpt lat="-8.037371" lon="-34.892108">
    <ele>9.1</ele>
    <time>2020-11-05T20:45:24.000Z</time>
   </trkpt>
   <trkpt lat="-8.037384" lon="-34.892053">
    <ele>9.2</ele>
    <time>2020-11-05T20:45:25.000Z</time>
   </trkpt>
   <trkpt lat="-8.037409" lon="-34.892004">
    <ele>9.3</ele>
    <time>2020-11-05T20:45:27.000Z</time>
   </trkpt>
   <trkpt lat="-8.037473" lon="-34.891908">
    <ele>9.6</ele>
    <time>2020-11-05T20:45:28.000Z</time>
   </trkpt>
   <trkpt lat="-8.037501" lon="-34.891857">
    <ele>9.7</ele>
    <time>2020-11-05T20:45:29.000Z</time>
   </trkpt>
   <trkpt lat="-8.037543" lon="-34.891802">
    <ele>9.9</ele>
    <time>2020-11-05T20:45:30.000Z</time>
   </trkpt>
   <trkpt lat="-8.037586" lon="-34.891751">
    <ele>10.2</ele>
    <time>2020-11-05T20:45:31.000Z</time>
   </trkpt>
   <trkpt lat="-8.037617" lon="-34.891717">
    <ele>10.3</ele>
    <time>2020-11-05T20:45:32.000Z</time>
   </trkpt>
   <trkpt lat="-8.037656" lon="-34.891678">
    <ele>10.5</ele>
    <time>2020-11-05T20:45:33.000Z</time>
   </trkpt>
   <trkpt lat="-8.037685" lon="-34.891641">
    <ele>10.7</ele>
    <time>2020-11-05T20:45:34.000Z</time>
   </trkpt>
   <trkpt lat="-8.037706" lon="-34.891611">
    <ele>10.7</ele>
    <time>2020-11-05T20:45:35.000Z</time>
   </trkpt>
   <trkpt lat="-8.037733" lon="-34.891588">
    <ele>10.8</ele>
    <time>2020-11-05T20:45:36.000Z</time>
   </trkpt>
   <trkpt lat="-8.037771" lon="-34.891568">
    <ele>10.9</ele>
    <time>2020-11-05T20:45:37.000Z</time>
   </trkpt>
   <trkpt lat="-8.037818" lon="-34.891568">
    <ele>11</ele>
    <time>2020-11-05T20:45:38.000Z</time>
   </trkpt>
   <trkpt lat="-8.037875" lon="-34.891571">
    <ele>11.1</ele>
    <time>2020-11-05T20:45:39.000Z</time>
   </trkpt>
   <trkpt lat="-8.037933" lon="-34.891586">
    <ele>11.1</ele>
    <time>2020-11-05T20:45:40.000Z</time>
   </trkpt>
   <trkpt lat="-8.037985" lon="-34.891615">
    <ele>11.1</ele>
    <time>2020-11-05T20:45:41.000Z</time>
   </trkpt>
   <trkpt lat="-8.038031" lon="-34.89164">
    <ele>11.2</ele>
    <time>2020-11-05T20:45:42.000Z</time>
   </trkpt>
   <trkpt lat="-8.038073" lon="-34.891675">
    <ele>11.2</ele>
    <time>2020-11-05T20:45:43.000Z</time>
   </trkpt>
   <trkpt lat="-8.038113" lon="-34.891707">
    <ele>11.3</ele>
    <time>2020-11-05T20:45:44.000Z</time>
   </trkpt>
   <trkpt lat="-8.038153" lon="-34.89173">
    <ele>11.4</ele>
    <time>2020-11-05T20:45:45.000Z</time>
   </trkpt>
   <trkpt lat="-8.038183" lon="-34.891749">
    <ele>11.4</ele>
    <time>2020-11-05T20:45:46.000Z</time>
   </trkpt>
   <trkpt lat="-8.038224" lon="-34.891783">
    <ele>11.5</ele>
    <time>2020-11-05T20:45:48.000Z</time>
   </trkpt>
   <trkpt lat="-8.038267" lon="-34.891818">
    <ele>11.6</ele>
    <time>2020-11-05T20:45:50.000Z</time>
   </trkpt>
   <trkpt lat="-8.038289" lon="-34.89184">
    <ele>11.7</ele>
    <time>2020-11-05T20:45:51.000Z</time>
   </trkpt>
   <trkpt lat="-8.038313" lon="-34.891858">
    <ele>11.7</ele>
    <time>2020-11-05T20:45:52.000Z</time>
   </trkpt>
   <trkpt lat="-8.038365" lon="-34.891879">
    <ele>11.8</ele>
    <time>2020-11-05T20:45:54.000Z</time>
   </trkpt>
   <trkpt lat="-8.038403" lon="-34.8919">
    <ele>11.9</ele>
    <time>2020-11-05T20:45:56.000Z</time>
   </trkpt>
   <trkpt lat="-8.03845" lon="-34.891933">
    <ele>12</ele>
    <time>2020-11-05T20:46:00.000Z</time>
   </trkpt>
   <trkpt lat="-8.03848" lon="-34.89195">
    <ele>12</ele>
    <time>2020-11-05T20:46:06.000Z</time>
   </trkpt>
   <trkpt lat="-8.038509" lon="-34.891966">
    <ele>12.1</ele>
    <time>2020-11-05T20:46:10.000Z</time>
   </trkpt>
   <trkpt lat="-8.038539" lon="-34.891982">
    <ele>12.1</ele>
    <time>2020-11-05T20:46:13.000Z</time>
   </trkpt>
   <trkpt lat="-8.038569" lon="-34.891999">
    <ele>12.1</ele>
    <time>2020-11-05T20:46:16.000Z</time>
   </trkpt>
   <trkpt lat="-8.038599" lon="-34.892015">
    <ele>12.1</ele>
    <time>2020-11-05T20:46:20.000Z</time>
   </trkpt>
   <trkpt lat="-8.038628" lon="-34.892032">
    <ele>12.2</ele>
    <time>2020-11-05T20:46:42.000Z</time>
   </trkpt>
   <trkpt lat="-8.038658" lon="-34.892048">
    <ele>12.2</ele>
    <time>2020-11-05T20:46:43.000Z</time>
   </trkpt>
   <trkpt lat="-8.038692" lon="-34.892073">
    <ele>12.2</ele>
    <time>2020-11-05T20:46:44.000Z</time>
   </trkpt>
   <trkpt lat="-8.038724" lon="-34.892098">
    <ele>12.2</ele>
    <time>2020-11-05T20:46:45.000Z</time>
   </trkpt>
   <trkpt lat="-8.038772" lon="-34.892118">
    <ele>12.3</ele>
    <time>2020-11-05T20:46:46.000Z</time>
   </trkpt>
   <trkpt lat="-8.038828" lon="-34.892131">
    <ele>12.3</ele>
    <time>2020-11-05T20:46:47.000Z</time>
   </trkpt>
   <trkpt lat="-8.03888" lon="-34.892146">
    <ele>12.3</ele>
    <time>2020-11-05T20:46:48.000Z</time>
   </trkpt>
   <trkpt lat="-8.038925" lon="-34.892164">
    <ele>12.3</ele>
    <time>2020-11-05T20:46:49.000Z</time>
   </trkpt>
   <trkpt lat="-8.038971" lon="-34.892178">
    <ele>12.3</ele>
    <time>2020-11-05T20:46:50.000Z</time>
   </trkpt>
   <trkpt lat="-8.039003" lon="-34.892183">
    <ele>12.3</ele>
    <time>2020-11-05T20:46:51.000Z</time>
   </trkpt>
   <trkpt lat="-8.039047" lon="-34.892183">
    <ele>12.3</ele>
    <time>2020-11-05T20:46:52.000Z</time>
   </trkpt>
   <trkpt lat="-8.039091" lon="-34.892187">
    <ele>12.3</ele>
    <time>2020-11-05T20:46:53.000Z</time>
   </trkpt>
   <trkpt lat="-8.039136" lon="-34.892196">
    <ele>12.3</ele>
    <time>2020-11-05T20:46:54.000Z</time>
   </trkpt>
   <trkpt lat="-8.03918" lon="-34.892214">
    <ele>12.3</ele>
    <time>2020-11-05T20:46:55.000Z</time>
   </trkpt>
   <trkpt lat="-8.039235" lon="-34.892223">
    <ele>12.3</ele>
    <time>2020-11-05T20:46:56.000Z</time>
   </trkpt>
   <trkpt lat="-8.039295" lon="-34.892227">
    <ele>12.4</ele>
    <time>2020-11-05T20:46:57.000Z</time>
   </trkpt>
   <trkpt lat="-8.039348" lon="-34.892229">
    <ele>12.4</ele>
    <time>2020-11-05T20:46:58.000Z</time>
   </trkpt>
   <trkpt lat="-8.039392" lon="-34.892231">
    <ele>12.4</ele>
    <time>2020-11-05T20:46:59.000Z</time>
   </trkpt>
   <trkpt lat="-8.039437" lon="-34.892227">
    <ele>12.4</ele>
    <time>2020-11-05T20:47:00.000Z</time>
   </trkpt>
   <trkpt lat="-8.039479" lon="-34.892224">
    <ele>12.4</ele>
    <time>2020-11-05T20:47:01.000Z</time>
   </trkpt>
   <trkpt lat="-8.03954" lon="-34.892217">
    <ele>12.4</ele>
    <time>2020-11-05T20:47:02.000Z</time>
   </trkpt>
   <trkpt lat="-8.039609" lon="-34.892223">
    <ele>12.4</ele>
    <time>2020-11-05T20:47:03.000Z</time>
   </trkpt>
   <trkpt lat="-8.039664" lon="-34.892219">
    <ele>12.4</ele>
    <time>2020-11-05T20:47:04.000Z</time>
   </trkpt>
   <trkpt lat="-8.039724" lon="-34.892232">
    <ele>12.5</ele>
    <time>2020-11-05T20:47:05.000Z</time>
   </trkpt>
   <trkpt lat="-8.03978" lon="-34.892281">
    <ele>12.5</ele>
    <time>2020-11-05T20:47:06.000Z</time>
   </trkpt>
   <trkpt lat="-8.039829" lon="-34.892326">
    <ele>12.6</ele>
    <time>2020-11-05T20:47:07.000Z</time>
   </trkpt>
   <trkpt lat="-8.039879" lon="-34.89238">
    <ele>12.6</ele>
    <time>2020-11-05T20:47:08.000Z</time>
   </trkpt>
   <trkpt lat="-8.039932" lon="-34.892424">
    <ele>12.6</ele>
    <time>2020-11-05T20:47:09.000Z</time>
   </trkpt>
   <trkpt lat="-8.039978" lon="-34.892464">
    <ele>12.6</ele>
    <time>2020-11-05T20:47:10.000Z</time>
   </trkpt>
   <trkpt lat="-8.04003" lon="-34.892507">
    <ele>12.5</ele>
    <time>2020-11-05T20:47:11.000Z</time>
   </trkpt>
   <trkpt lat="-8.040076" lon="-34.892548">
    <ele>12.5</ele>
    <time>2020-11-05T20:47:12.000Z</time>
   </trkpt>
   <trkpt lat="-8.040123" lon="-34.89259">
    <ele>12.5</ele>
    <time>2020-11-05T20:47:13.000Z</time>
   </trkpt>
   <trkpt lat="-8.040174" lon="-34.892622">
    <ele>12.5</ele>
    <time>2020-11-05T20:47:14.000Z</time>
   </trkpt>
   <trkpt lat="-8.04023" lon="-34.892666">
    <ele>12.5</ele>
    <time>2020-11-05T20:47:15.000Z</time>
   </trkpt>
   <trkpt lat="-8.04028" lon="-34.892719">
    <ele>12.5</ele>
    <time>2020-11-05T20:47:16.000Z</time>
   </trkpt>
   <trkpt lat="-8.040331" lon="-34.892778">
    <ele>12.5</ele>
    <time>2020-11-05T20:47:17.000Z</time>
   </trkpt>
   <trkpt lat="-8.040391" lon="-34.892831">
    <ele>12.5</ele>
    <time>2020-11-05T20:47:18.000Z</time>
   </trkpt>
   <trkpt lat="-8.040446" lon="-34.892873">
    <ele>12.5</ele>
    <time>2020-11-05T20:47:19.000Z</time>
   </trkpt>
   <trkpt lat="-8.04049" lon="-34.892903">
    <ele>12.4</ele>
    <time>2020-11-05T20:47:20.000Z</time>
   </trkpt>
   <trkpt lat="-8.040531" lon="-34.892929">
    <ele>12.4</ele>
    <time>2020-11-05T20:47:21.000Z</time>
   </trkpt>
   <trkpt lat="-8.04057" lon="-34.892959">
    <ele>12.4</ele>
    <time>2020-11-05T20:47:22.000Z</time>
   </trkpt>
   <trkpt lat="-8.040608" lon="-34.892987">
    <ele>12.4</ele>
    <time>2020-11-05T20:47:24.000Z</time>
   </trkpt>
   <trkpt lat="-8.04066" lon="-34.893018">
    <ele>12.4</ele>
    <time>2020-11-05T20:47:25.000Z</time>
   </trkpt>
   <trkpt lat="-8.040703" lon="-34.893055">
    <ele>12.4</ele>
    <time>2020-11-05T20:47:26.000Z</time>
   </trkpt>
   <trkpt lat="-8.040782" lon="-34.893129">
    <ele>12.4</ele>
    <time>2020-11-05T20:47:27.000Z</time>
   </trkpt>
   <trkpt lat="-8.040843" lon="-34.893172">
    <ele>12.4</ele>
    <time>2020-11-05T20:47:29.000Z</time>
   </trkpt>
   <trkpt lat="-8.040941" lon="-34.893246">
    <ele>12.5</ele>
    <time>2020-11-05T20:47:30.000Z</time>
   </trkpt>
   <trkpt lat="-8.040985" lon="-34.89329">
    <ele>12.5</ele>
    <time>2020-11-05T20:47:31.000Z</time>
   </trkpt>
   <trkpt lat="-8.041022" lon="-34.893323">
    <ele>12.5</ele>
    <time>2020-11-05T20:47:32.000Z</time>
   </trkpt>
   <trkpt lat="-8.041054" lon="-34.893351">
    <ele>12.5</ele>
    <time>2020-11-05T20:47:33.000Z</time>
   </trkpt>
   <trkpt lat="-8.041078" lon="-34.893372">
    <ele>12.5</ele>
    <time>2020-11-05T20:47:34.000Z</time>
   </trkpt>
   <trkpt lat="-8.041112" lon="-34.893419">
    <ele>12.5</ele>
    <time>2020-11-05T20:47:35.000Z</time>
   </trkpt>
   <trkpt lat="-8.041144" lon="-34.893441">
    <ele>12.5</ele>
    <time>2020-11-05T20:47:36.000Z</time>
   </trkpt>
   <trkpt lat="-8.041177" lon="-34.893462">
    <ele>12.5</ele>
    <time>2020-11-05T20:47:37.000Z</time>
   </trkpt>
   <trkpt lat="-8.041228" lon="-34.893494">
    <ele>12.6</ele>
    <time>2020-11-05T20:47:38.000Z</time>
   </trkpt>
   <trkpt lat="-8.041272" lon="-34.893533">
    <ele>12.6</ele>
    <time>2020-11-05T20:47:39.000Z</time>
   </trkpt>
   <trkpt lat="-8.041313" lon="-34.893565">
    <ele>12.6</ele>
    <time>2020-11-05T20:47:40.000Z</time>
   </trkpt>
   <trkpt lat="-8.041362" lon="-34.893613">
    <ele>12.7</ele>
    <time>2020-11-05T20:47:41.000Z</time>
   </trkpt>
   <trkpt lat="-8.041407" lon="-34.893659">
    <ele>12.7</ele>
    <time>2020-11-05T20:47:42.000Z</time>
   </trkpt>
   <trkpt lat="-8.041447" lon="-34.893681">
    <ele>12.8</ele>
    <time>2020-11-05T20:47:43.000Z</time>
   </trkpt>
   <trkpt lat="-8.041483" lon="-34.893676">
    <ele>12.8</ele>
    <time>2020-11-05T20:47:44.000Z</time>
   </trkpt>
   <trkpt lat="-8.04152" lon="-34.893655">
    <ele>12.8</ele>
    <time>2020-11-05T20:47:45.000Z</time>
   </trkpt>
   <trkpt lat="-8.041546" lon="-34.893637">
    <ele>12.8</ele>
    <time>2020-11-05T20:47:46.000Z</time>
   </trkpt>
   <trkpt lat="-8.041577" lon="-34.893607">
    <ele>12.9</ele>
    <time>2020-11-05T20:47:47.000Z</time>
   </trkpt>
   <trkpt lat="-8.041597" lon="-34.893585">
    <ele>12.9</ele>
    <time>2020-11-05T20:47:48.000Z</time>
   </trkpt>
   <trkpt lat="-8.041619" lon="-34.893558">
    <ele>12.9</ele>
    <time>2020-11-05T20:47:49.000Z</time>
   </trkpt>
   <trkpt lat="-8.041655" lon="-34.893526">
    <ele>13</ele>
    <time>2020-11-05T20:47:50.000Z</time>
   </trkpt>
   <trkpt lat="-8.041696" lon="-34.893488">
    <ele>13</ele>
    <time>2020-11-05T20:47:51.000Z</time>
   </trkpt>
   <trkpt lat="-8.041734" lon="-34.893452">
    <ele>13</ele>
    <time>2020-11-05T20:47:52.000Z</time>
   </trkpt>
   <trkpt lat="-8.041766" lon="-34.893414">
    <ele>13.1</ele>
    <time>2020-11-05T20:47:53.000Z</time>
   </trkpt>
   <trkpt lat="-8.041789" lon="-34.893381">
    <ele>13.1</ele>
    <time>2020-11-05T20:47:54.000Z</time>
   </trkpt>
   <trkpt lat="-8.041804" lon="-34.893349">
    <ele>13.1</ele>
    <time>2020-11-05T20:47:55.000Z</time>
   </trkpt>
   <trkpt lat="-8.041813" lon="-34.893303">
    <ele>13.1</ele>
    <time>2020-11-05T20:47:56.000Z</time>
   </trkpt>
   <trkpt lat="-8.041835" lon="-34.893253">
    <ele>13.2</ele>
    <time>2020-11-05T20:47:57.000Z</time>
   </trkpt>
   <trkpt lat="-8.041891" lon="-34.893195">
    <ele>13.2</ele>
    <time>2020-11-05T20:47:58.000Z</time>
   </trkpt>
   <trkpt lat="-8.041933" lon="-34.893143">
    <ele>13.2</ele>
    <time>2020-11-05T20:47:59.000Z</time>
   </trkpt>
   <trkpt lat="-8.041961" lon="-34.893118">
    <ele>13.2</ele>
    <time>2020-11-05T20:48:00.000Z</time>
   </trkpt>
   <trkpt lat="-8.042001" lon="-34.893076">
    <ele>13.2</ele>
    <time>2020-11-05T20:48:01.000Z</time>
   </trkpt>
   <trkpt lat="-8.042034" lon="-34.893029">
    <ele>13.2</ele>
    <time>2020-11-05T20:48:02.000Z</time>
   </trkpt>
   <trkpt lat="-8.042071" lon="-34.892988">
    <ele>13.2</ele>
    <time>2020-11-05T20:48:03.000Z</time>
   </trkpt>
   <trkpt lat="-8.042092" lon="-34.89296">
    <ele>13.2</ele>
    <time>2020-11-05T20:48:04.000Z</time>
   </trkpt>
   <trkpt lat="-8.042109" lon="-34.892935">
    <ele>13.2</ele>
    <time>2020-11-05T20:48:05.000Z</time>
   </trkpt>
   <trkpt lat="-8.042129" lon="-34.892909">
    <ele>13.2</ele>
    <time>2020-11-05T20:48:06.000Z</time>
   </trkpt>
   <trkpt lat="-8.042148" lon="-34.892879">
    <ele>13.2</ele>
    <time>2020-11-05T20:48:07.000Z</time>
   </trkpt>
   <trkpt lat="-8.042167" lon="-34.892849">
    <ele>13.2</ele>
    <time>2020-11-05T20:48:08.000Z</time>
   </trkpt>
   <trkpt lat="-8.042184" lon="-34.892821">
    <ele>13.2</ele>
    <time>2020-11-05T20:48:09.000Z</time>
   </trkpt>
   <trkpt lat="-8.042204" lon="-34.892783">
    <ele>13.2</ele>
    <time>2020-11-05T20:48:10.000Z</time>
   </trkpt>
   <trkpt lat="-8.042221" lon="-34.892762">
    <ele>13.2</ele>
    <time>2020-11-05T20:48:11.000Z</time>
   </trkpt>
   <trkpt lat="-8.042241" lon="-34.892728">
    <ele>13.2</ele>
    <time>2020-11-05T20:48:12.000Z</time>
   </trkpt>
   <trkpt lat="-8.042278" lon="-34.892693">
    <ele>13.2</ele>
    <time>2020-11-05T20:48:13.000Z</time>
   </trkpt>
   <trkpt lat="-8.042301" lon="-34.89267">
    <ele>13.3</ele>
    <time>2020-11-05T20:48:14.000Z</time>
   </trkpt>
   <trkpt lat="-8.042338" lon="-34.892642">
    <ele>13.3</ele>
    <time>2020-11-05T20:48:15.000Z</time>
   </trkpt>
   <trkpt lat="-8.042377" lon="-34.892604">
    <ele>13.3</ele>
    <time>2020-11-05T20:48:16.000Z</time>
   </trkpt>
   <trkpt lat="-8.042407" lon="-34.892556">
    <ele>13.3</ele>
    <time>2020-11-05T20:48:17.000Z</time>
   </trkpt>
   <trkpt lat="-8.042424" lon="-34.892506">
    <ele>13.3</ele>
    <time>2020-11-05T20:48:18.000Z</time>
   </trkpt>
   <trkpt lat="-8.042427" lon="-34.892459">
    <ele>13.2</ele>
    <time>2020-11-05T20:48:19.000Z</time>
   </trkpt>
   <trkpt lat="-8.04243" lon="-34.892411">
    <ele>13.2</ele>
    <time>2020-11-05T20:48:20.000Z</time>
   </trkpt>
   <trkpt lat="-8.042427" lon="-34.89238">
    <ele>13.2</ele>
    <time>2020-11-05T20:48:21.000Z</time>
   </trkpt>
   <trkpt lat="-8.042465" lon="-34.892328">
    <ele>13.2</ele>
    <time>2020-11-05T20:48:23.000Z</time>
   </trkpt>
   <trkpt lat="-8.042526" lon="-34.892296">
    <ele>13.2</ele>
    <time>2020-11-05T20:48:24.000Z</time>
   </trkpt>
   <trkpt lat="-8.042585" lon="-34.892262">
    <ele>13.2</ele>
    <time>2020-11-05T20:48:25.000Z</time>
   </trkpt>
   <trkpt lat="-8.042634" lon="-34.892249">
    <ele>13.2</ele>
    <time>2020-11-05T20:48:26.000Z</time>
   </trkpt>
   <trkpt lat="-8.042677" lon="-34.892235">
    <ele>13.2</ele>
    <time>2020-11-05T20:48:27.000Z</time>
   </trkpt>
   <trkpt lat="-8.042717" lon="-34.892216">
    <ele>13.2</ele>
    <time>2020-11-05T20:48:28.000Z</time>
   </trkpt>
   <trkpt lat="-8.042689" lon="-34.892216">
    <ele>13.2</ele>
    <time>2020-11-05T20:48:29.000Z</time>
   </trkpt>
   <trkpt lat="-8.04271" lon="-34.892194">
    <ele>13.2</ele>
    <time>2020-11-05T20:48:30.000Z</time>
   </trkpt>
   <trkpt lat="-8.042739" lon="-34.892166">
    <ele>13.2</ele>
    <time>2020-11-05T20:48:31.000Z</time>
   </trkpt>
   <trkpt lat="-8.042779" lon="-34.892124">
    <ele>13.2</ele>
    <time>2020-11-05T20:48:33.000Z</time>
   </trkpt>
   <trkpt lat="-8.042811" lon="-34.892087">
    <ele>13.2</ele>
    <time>2020-11-05T20:48:34.000Z</time>
   </trkpt>
   <trkpt lat="-8.042829" lon="-34.892066">
    <ele>13.2</ele>
    <time>2020-11-05T20:48:35.000Z</time>
   </trkpt>
   <trkpt lat="-8.042874" lon="-34.892067">
    <ele>13.1</ele>
    <time>2020-11-05T20:48:36.000Z</time>
   </trkpt>
   <trkpt lat="-8.042943" lon="-34.892089">
    <ele>13.1</ele>
    <time>2020-11-05T20:48:37.000Z</time>
   </trkpt>
   <trkpt lat="-8.043016" lon="-34.89212">
    <ele>13.1</ele>
    <time>2020-11-05T20:48:38.000Z</time>
   </trkpt>
   <trkpt lat="-8.043076" lon="-34.892152">
    <ele>13.1</ele>
    <time>2020-11-05T20:48:39.000Z</time>
   </trkpt>
   <trkpt lat="-8.043113" lon="-34.892178">
    <ele>13.1</ele>
    <time>2020-11-05T20:48:40.000Z</time>
   </trkpt>
   <trkpt lat="-8.043159" lon="-34.892218">
    <ele>13.1</ele>
    <time>2020-11-05T20:48:41.000Z</time>
   </trkpt>
   <trkpt lat="-8.043206" lon="-34.892264">
    <ele>13.1</ele>
    <time>2020-11-05T20:48:42.000Z</time>
   </trkpt>
   <trkpt lat="-8.043244" lon="-34.892301">
    <ele>13.1</ele>
    <time>2020-11-05T20:48:43.000Z</time>
   </trkpt>
   <trkpt lat="-8.043288" lon="-34.892339">
    <ele>13.1</ele>
    <time>2020-11-05T20:48:44.000Z</time>
   </trkpt>
   <trkpt lat="-8.043331" lon="-34.892374">
    <ele>13.1</ele>
    <time>2020-11-05T20:48:45.000Z</time>
   </trkpt>
   <trkpt lat="-8.043395" lon="-34.892397">
    <ele>13.1</ele>
    <time>2020-11-05T20:48:46.000Z</time>
   </trkpt>
   <trkpt lat="-8.043449" lon="-34.892435">
    <ele>13.1</ele>
    <time>2020-11-05T20:48:47.000Z</time>
   </trkpt>
   <trkpt lat="-8.043507" lon="-34.892483">
    <ele>13.1</ele>
    <time>2020-11-05T20:48:48.000Z</time>
   </trkpt>
   <trkpt lat="-8.04355" lon="-34.892525">
    <ele>13.1</ele>
    <time>2020-11-05T20:48:49.000Z</time>
   </trkpt>
   <trkpt lat="-8.043599" lon="-34.892576">
    <ele>13.2</ele>
    <time>2020-11-05T20:48:50.000Z</time>
   </trkpt>
   <trkpt lat="-8.043643" lon="-34.892622">
    <ele>13.2</ele>
    <time>2020-11-05T20:48:52.000Z</time>
   </trkpt>
   <trkpt lat="-8.043736" lon="-34.892703">
    <ele>13.2</ele>
    <time>2020-11-05T20:48:53.000Z</time>
   </trkpt>
   <trkpt lat="-8.043785" lon="-34.89275">
    <ele>13.2</ele>
    <time>2020-11-05T20:48:54.000Z</time>
   </trkpt>
   <trkpt lat="-8.043839" lon="-34.89278">
    <ele>13.2</ele>
    <time>2020-11-05T20:48:55.000Z</time>
   </trkpt>
   <trkpt lat="-8.043891" lon="-34.892835">
    <ele>13.2</ele>
    <time>2020-11-05T20:48:56.000Z</time>
   </trkpt>
   <trkpt lat="-8.043966" lon="-34.892893">
    <ele>13.1</ele>
    <time>2020-11-05T20:48:57.000Z</time>
   </trkpt>
   <trkpt lat="-8.044015" lon="-34.892952">
    <ele>13.1</ele>
    <time>2020-11-05T20:48:58.000Z</time>
   </trkpt>
   <trkpt lat="-8.044072" lon="-34.893011">
    <ele>13.1</ele>
    <time>2020-11-05T20:48:59.000Z</time>
   </trkpt>
   <trkpt lat="-8.044131" lon="-34.893052">
    <ele>13.1</ele>
    <time>2020-11-05T20:49:00.000Z</time>
   </trkpt>
   <trkpt lat="-8.044202" lon="-34.893098">
    <ele>13</ele>
    <time>2020-11-05T20:49:01.000Z</time>
   </trkpt>
   <trkpt lat="-8.044261" lon="-34.893139">
    <ele>13</ele>
    <time>2020-11-05T20:49:02.000Z</time>
   </trkpt>
   <trkpt lat="-8.044318" lon="-34.893177">
    <ele>13</ele>
    <time>2020-11-05T20:49:03.000Z</time>
   </trkpt>
   <trkpt lat="-8.044351" lon="-34.893214">
    <ele>13</ele>
    <time>2020-11-05T20:49:04.000Z</time>
   </trkpt>
   <trkpt lat="-8.044422" lon="-34.893256">
    <ele>13</ele>
    <time>2020-11-05T20:49:05.000Z</time>
   </trkpt>
   <trkpt lat="-8.044502" lon="-34.893306">
    <ele>12.9</ele>
    <time>2020-11-05T20:49:06.000Z</time>
   </trkpt>
   <trkpt lat="-8.044579" lon="-34.893358">
    <ele>12.9</ele>
    <time>2020-11-05T20:49:07.000Z</time>
   </trkpt>
   <trkpt lat="-8.044652" lon="-34.893403">
    <ele>12.9</ele>
    <time>2020-11-05T20:49:08.000Z</time>
   </trkpt>
   <trkpt lat="-8.044726" lon="-34.893449">
    <ele>12.8</ele>
    <time>2020-11-05T20:49:09.000Z</time>
   </trkpt>
   <trkpt lat="-8.04479" lon="-34.893485">
    <ele>12.8</ele>
    <time>2020-11-05T20:49:10.000Z</time>
   </trkpt>
   <trkpt lat="-8.044848" lon="-34.893525">
    <ele>12.8</ele>
    <time>2020-11-05T20:49:12.000Z</time>
   </trkpt>
   <trkpt lat="-8.04499" lon="-34.893609">
    <ele>12.8</ele>
    <time>2020-11-05T20:49:14.000Z</time>
   </trkpt>
   <trkpt lat="-8.045136" lon="-34.893712">
    <ele>12.7</ele>
    <time>2020-11-05T20:49:15.000Z</time>
   </trkpt>
   <trkpt lat="-8.045188" lon="-34.893749">
    <ele>12.7</ele>
    <time>2020-11-05T20:49:16.000Z</time>
   </trkpt>
   <trkpt lat="-8.045261" lon="-34.893794">
    <ele>12.7</ele>
    <time>2020-11-05T20:49:17.000Z</time>
   </trkpt>
   <trkpt lat="-8.04534" lon="-34.89383">
    <ele>12.7</ele>
    <time>2020-11-05T20:49:18.000Z</time>
   </trkpt>
   <trkpt lat="-8.045415" lon="-34.893874">
    <ele>12.7</ele>
    <time>2020-11-05T20:49:19.000Z</time>
   </trkpt>
   <trkpt lat="-8.045499" lon="-34.893915">
    <ele>12.7</ele>
    <time>2020-11-05T20:49:20.000Z</time>
   </trkpt>
   <trkpt lat="-8.045576" lon="-34.893949">
    <ele>12.7</ele>
    <time>2020-11-05T20:49:21.000Z</time>
   </trkpt>
   <trkpt lat="-8.045636" lon="-34.893977">
    <ele>12.7</ele>
    <time>2020-11-05T20:49:22.000Z</time>
   </trkpt>
   <trkpt lat="-8.045705" lon="-34.894019">
    <ele>12.7</ele>
    <time>2020-11-05T20:49:23.000Z</time>
   </trkpt>
   <trkpt lat="-8.045775" lon="-34.89406">
    <ele>12.7</ele>
    <time>2020-11-05T20:49:24.000Z</time>
   </trkpt>
   <trkpt lat="-8.045841" lon="-34.894095">
    <ele>12.7</ele>
    <time>2020-11-05T20:49:25.000Z</time>
   </trkpt>
   <trkpt lat="-8.045908" lon="-34.894131">
    <ele>12.7</ele>
    <time>2020-11-05T20:49:26.000Z</time>
   </trkpt>
   <trkpt lat="-8.045963" lon="-34.89417">
    <ele>12.7</ele>
    <time>2020-11-05T20:49:27.000Z</time>
   </trkpt>
   <trkpt lat="-8.046024" lon="-34.894209">
    <ele>12.7</ele>
    <time>2020-11-05T20:49:28.000Z</time>
   </trkpt>
   <trkpt lat="-8.046083" lon="-34.894248">
    <ele>12.7</ele>
    <time>2020-11-05T20:49:29.000Z</time>
   </trkpt>
   <trkpt lat="-8.046145" lon="-34.894277">
    <ele>12.7</ele>
    <time>2020-11-05T20:49:31.000Z</time>
   </trkpt>
   <trkpt lat="-8.046256" lon="-34.894345">
    <ele>12.6</ele>
    <time>2020-11-05T20:49:32.000Z</time>
   </trkpt>
   <trkpt lat="-8.046319" lon="-34.894372">
    <ele>12.4</ele>
    <time>2020-11-05T20:49:33.000Z</time>
   </trkpt>
   <trkpt lat="-8.046377" lon="-34.894407">
    <ele>12.3</ele>
    <time>2020-11-05T20:49:34.000Z</time>
   </trkpt>
   <trkpt lat="-8.046437" lon="-34.89444">
    <ele>12.2</ele>
    <time>2020-11-05T20:49:35.000Z</time>
   </trkpt>
   <trkpt lat="-8.046488" lon="-34.894468">
    <ele>12.1</ele>
    <time>2020-11-05T20:49:36.000Z</time>
   </trkpt>
   <trkpt lat="-8.046544" lon="-34.8945">
    <ele>12</ele>
    <time>2020-11-05T20:49:37.000Z</time>
   </trkpt>
   <trkpt lat="-8.0466" lon="-34.894527">
    <ele>12</ele>
    <time>2020-11-05T20:49:38.000Z</time>
   </trkpt>
   <trkpt lat="-8.046669" lon="-34.894567">
    <ele>11.9</ele>
    <time>2020-11-05T20:49:40.000Z</time>
   </trkpt>
   <trkpt lat="-8.046798" lon="-34.894637">
    <ele>11.7</ele>
    <time>2020-11-05T20:49:41.000Z</time>
   </trkpt>
   <trkpt lat="-8.046859" lon="-34.894679">
    <ele>11.7</ele>
    <time>2020-11-05T20:49:42.000Z</time>
   </trkpt>
   <trkpt lat="-8.046912" lon="-34.894721">
    <ele>11.6</ele>
    <time>2020-11-05T20:49:43.000Z</time>
   </trkpt>
   <trkpt lat="-8.046972" lon="-34.894754">
    <ele>11.6</ele>
    <time>2020-11-05T20:49:44.000Z</time>
   </trkpt>
   <trkpt lat="-8.047038" lon="-34.894788">
    <ele>11.5</ele>
    <time>2020-11-05T20:49:45.000Z</time>
   </trkpt>
   <trkpt lat="-8.047094" lon="-34.89481">
    <ele>11.5</ele>
    <time>2020-11-05T20:49:46.000Z</time>
   </trkpt>
   <trkpt lat="-8.047153" lon="-34.894837">
    <ele>11.5</ele>
    <time>2020-11-05T20:49:47.000Z</time>
   </trkpt>
   <trkpt lat="-8.047208" lon="-34.89487">
    <ele>11.4</ele>
    <time>2020-11-05T20:49:48.000Z</time>
   </trkpt>
   <trkpt lat="-8.047259" lon="-34.894903">
    <ele>11.4</ele>
    <time>2020-11-05T20:49:49.000Z</time>
   </trkpt>
   <trkpt lat="-8.047319" lon="-34.894941">
    <ele>11.3</ele>
    <time>2020-11-05T20:49:51.000Z</time>
   </trkpt>
   <trkpt lat="-8.047428" lon="-34.895015">
    <ele>11.2</ele>
    <time>2020-11-05T20:49:52.000Z</time>
   </trkpt>
   <trkpt lat="-8.047477" lon="-34.895049">
    <ele>11.2</ele>
    <time>2020-11-05T20:49:53.000Z</time>
   </trkpt>
   <trkpt lat="-8.047506" lon="-34.89507">
    <ele>11.1</ele>
    <time>2020-11-05T20:49:54.000Z</time>
   </trkpt>
   <trkpt lat="-8.047551" lon="-34.895098">
    <ele>11.1</ele>
    <time>2020-11-05T20:49:55.000Z</time>
   </trkpt>
   <trkpt lat="-8.047598" lon="-34.89512">
    <ele>11</ele>
    <time>2020-11-05T20:49:56.000Z</time>
   </trkpt>
   <trkpt lat="-8.047643" lon="-34.895142">
    <ele>11</ele>
    <time>2020-11-05T20:49:57.000Z</time>
   </trkpt>
   <trkpt lat="-8.047706" lon="-34.895185">
    <ele>11</ele>
    <time>2020-11-05T20:49:58.000Z</time>
   </trkpt>
   <trkpt lat="-8.047752" lon="-34.895213">
    <ele>11</ele>
    <time>2020-11-05T20:49:59.000Z</time>
   </trkpt>
   <trkpt lat="-8.047796" lon="-34.895235">
    <ele>11</ele>
    <time>2020-11-05T20:50:00.000Z</time>
   </trkpt>
   <trkpt lat="-8.04784" lon="-34.895258">
    <ele>10.9</ele>
    <time>2020-11-05T20:50:01.000Z</time>
   </trkpt>
   <trkpt lat="-8.047884" lon="-34.895288">
    <ele>10.9</ele>
    <time>2020-11-05T20:50:02.000Z</time>
   </trkpt>
   <trkpt lat="-8.047927" lon="-34.89531">
    <ele>10.9</ele>
    <time>2020-11-05T20:50:03.000Z</time>
   </trkpt>
   <trkpt lat="-8.047981" lon="-34.895335">
    <ele>10.9</ele>
    <time>2020-11-05T20:50:05.000Z</time>
   </trkpt>
   <trkpt lat="-8.048107" lon="-34.895375">
    <ele>10.9</ele>
    <time>2020-11-05T20:50:06.000Z</time>
   </trkpt>
   <trkpt lat="-8.04815" lon="-34.895403">
    <ele>10.9</ele>
    <time>2020-11-05T20:50:07.000Z</time>
   </trkpt>
   <trkpt lat="-8.048196" lon="-34.895441">
    <ele>10.9</ele>
    <time>2020-11-05T20:50:08.000Z</time>
   </trkpt>
   <trkpt lat="-8.048249" lon="-34.895477">
    <ele>10.9</ele>
    <time>2020-11-05T20:50:09.000Z</time>
   </trkpt>
   <trkpt lat="-8.048306" lon="-34.895531">
    <ele>10.9</ele>
    <time>2020-11-05T20:50:10.000Z</time>
   </trkpt>
   <trkpt lat="-8.04835" lon="-34.895587">
    <ele>10.9</ele>
    <time>2020-11-05T20:50:11.000Z</time>
   </trkpt>
   <trkpt lat="-8.048385" lon="-34.895625">
    <ele>10.9</ele>
    <time>2020-11-05T20:50:12.000Z</time>
   </trkpt>
   <trkpt lat="-8.048413" lon="-34.895672">
    <ele>10.9</ele>
    <time>2020-11-05T20:50:13.000Z</time>
   </trkpt>
   <trkpt lat="-8.048441" lon="-34.895711">
    <ele>10.9</ele>
    <time>2020-11-05T20:50:14.000Z</time>
   </trkpt>
   <trkpt lat="-8.048475" lon="-34.895746">
    <ele>10.9</ele>
    <time>2020-11-05T20:50:15.000Z</time>
   </trkpt>
   <trkpt lat="-8.048512" lon="-34.895812">
    <ele>10.9</ele>
    <time>2020-11-05T20:50:16.000Z</time>
   </trkpt>
   <trkpt lat="-8.048547" lon="-34.895856">
    <ele>10.9</ele>
    <time>2020-11-05T20:50:17.000Z</time>
   </trkpt>
   <trkpt lat="-8.04859" lon="-34.89592">
    <ele>10.9</ele>
    <time>2020-11-05T20:50:18.000Z</time>
   </trkpt>
   <trkpt lat="-8.048632" lon="-34.895968">
    <ele>10.9</ele>
    <time>2020-11-05T20:50:19.000Z</time>
   </trkpt>
   <trkpt lat="-8.048669" lon="-34.896017">
    <ele>10.9</ele>
    <time>2020-11-05T20:50:20.000Z</time>
   </trkpt>
   <trkpt lat="-8.048697" lon="-34.896047">
    <ele>10.9</ele>
    <time>2020-11-05T20:50:21.000Z</time>
   </trkpt>
   <trkpt lat="-8.048727" lon="-34.89608">
    <ele>11</ele>
    <time>2020-11-05T20:50:22.000Z</time>
   </trkpt>
   <trkpt lat="-8.048756" lon="-34.896115">
    <ele>11</ele>
    <time>2020-11-05T20:50:23.000Z</time>
   </trkpt>
   <trkpt lat="-8.048789" lon="-34.896153">
    <ele>11</ele>
    <time>2020-11-05T20:50:24.000Z</time>
   </trkpt>
   <trkpt lat="-8.048824" lon="-34.8962">
    <ele>11.1</ele>
    <time>2020-11-05T20:50:25.000Z</time>
   </trkpt>
   <trkpt lat="-8.048859" lon="-34.896237">
    <ele>11.1</ele>
    <time>2020-11-05T20:50:26.000Z</time>
   </trkpt>
   <trkpt lat="-8.048898" lon="-34.896277">
    <ele>11.2</ele>
    <time>2020-11-05T20:50:27.000Z</time>
   </trkpt>
   <trkpt lat="-8.048938" lon="-34.896311">
    <ele>11.3</ele>
    <time>2020-11-05T20:50:28.000Z</time>
   </trkpt>
   <trkpt lat="-8.048972" lon="-34.896336">
    <ele>11.4</ele>
    <time>2020-11-05T20:50:29.000Z</time>
   </trkpt>
   <trkpt lat="-8.049009" lon="-34.896374">
    <ele>11.4</ele>
    <time>2020-11-05T20:50:31.000Z</time>
   </trkpt>
   <trkpt lat="-8.049059" lon="-34.896396">
    <ele>11.5</ele>
    <time>2020-11-05T20:50:34.000Z</time>
   </trkpt>
   <trkpt lat="-8.049091" lon="-34.896399">
    <ele>11.5</ele>
    <time>2020-11-05T20:50:35.000Z</time>
   </trkpt>
   <trkpt lat="-8.049122" lon="-34.896397">
    <ele>11.6</ele>
    <time>2020-11-05T20:50:36.000Z</time>
   </trkpt>
   <trkpt lat="-8.049155" lon="-34.896392">
    <ele>11.6</ele>
    <time>2020-11-05T20:50:37.000Z</time>
   </trkpt>
   <trkpt lat="-8.049198" lon="-34.896381">
    <ele>11.6</ele>
    <time>2020-11-05T20:50:39.000Z</time>
   </trkpt>
   <trkpt lat="-8.049246" lon="-34.896385">
    <ele>11.6</ele>
    <time>2020-11-05T20:50:42.000Z</time>
   </trkpt>
   <trkpt lat="-8.049274" lon="-34.896388">
    <ele>11.6</ele>
    <time>2020-11-05T20:50:43.000Z</time>
   </trkpt>
   <trkpt lat="-8.04932" lon="-34.8964">
    <ele>11.6</ele>
    <time>2020-11-05T20:50:45.000Z</time>
   </trkpt>
   <trkpt lat="-8.049354" lon="-34.896393">
    <ele>11.6</ele>
    <time>2020-11-05T20:50:46.000Z</time>
   </trkpt>
   <trkpt lat="-8.049388" lon="-34.896403">
    <ele>11.6</ele>
    <time>2020-11-05T20:50:47.000Z</time>
   </trkpt>
   <trkpt lat="-8.049419" lon="-34.89641">
    <ele>11.5</ele>
    <time>2020-11-05T20:50:48.000Z</time>
   </trkpt>
   <trkpt lat="-8.049458" lon="-34.896411">
    <ele>11.5</ele>
    <time>2020-11-05T20:50:50.000Z</time>
   </trkpt>
   <trkpt lat="-8.049502" lon="-34.896429">
    <ele>11.5</ele>
    <time>2020-11-05T20:50:52.000Z</time>
   </trkpt>
   <trkpt lat="-8.049533" lon="-34.896431">
    <ele>11.5</ele>
    <time>2020-11-05T20:50:53.000Z</time>
   </trkpt>
   <trkpt lat="-8.049575" lon="-34.896434">
    <ele>11.5</ele>
    <time>2020-11-05T20:50:55.000Z</time>
   </trkpt>
   <trkpt lat="-8.049603" lon="-34.896435">
    <ele>11.5</ele>
    <time>2020-11-05T20:50:57.000Z</time>
   </trkpt>
   <trkpt lat="-8.049623" lon="-34.896452">
    <ele>11.5</ele>
    <time>2020-11-05T20:51:00.000Z</time>
   </trkpt>
   <trkpt lat="-8.049653" lon="-34.896465">
    <ele>11.5</ele>
    <time>2020-11-05T20:51:02.000Z</time>
   </trkpt>
   <trkpt lat="-8.04968" lon="-34.896456">
    <ele>11.5</ele>
    <time>2020-11-05T20:51:03.000Z</time>
   </trkpt>
   <trkpt lat="-8.049677" lon="-34.896464">
    <ele>11.5</ele>
    <time>2020-11-05T20:51:08.000Z</time>
   </trkpt>
   <trkpt lat="-8.049699" lon="-34.896442">
    <ele>11.5</ele>
    <time>2020-11-05T20:51:09.000Z</time>
   </trkpt>
   <trkpt lat="-8.049717" lon="-34.896424">
    <ele>11.8</ele>
    <time>2020-11-05T20:51:13.000Z</time>
   </trkpt>
   <trkpt lat="-8.049708" lon="-34.896267">
    <ele>12</ele>
    <time>2020-11-05T20:51:27.000Z</time>
   </trkpt>
   <trkpt lat="-8.049706" lon="-34.896228">
    <ele>12</ele>
    <time>2020-11-05T20:51:29.000Z</time>
   </trkpt>
   <trkpt lat="-8.049696" lon="-34.896201">
    <ele>11.9</ele>
    <time>2020-11-05T20:51:30.000Z</time>
   </trkpt>
   <trkpt lat="-8.049689" lon="-34.896168">
    <ele>11.8</ele>
    <time>2020-11-05T20:51:31.000Z</time>
   </trkpt>
   <trkpt lat="-8.049689" lon="-34.896134">
    <ele>11.7</ele>
    <time>2020-11-05T20:51:32.000Z</time>
   </trkpt>
   <trkpt lat="-8.049691" lon="-34.896105">
    <ele>11.7</ele>
    <time>2020-11-05T20:51:33.000Z</time>
   </trkpt>
   <trkpt lat="-8.049707" lon="-34.896036">
    <ele>10.9</ele>
    <time>2020-11-05T20:51:35.000Z</time>
   </trkpt>
   <trkpt lat="-8.049714" lon="-34.896">
    <ele>10.2</ele>
    <time>2020-11-05T20:51:36.000Z</time>
   </trkpt>
   <trkpt lat="-8.049724" lon="-34.895958">
    <ele>9.7</ele>
    <time>2020-11-05T20:51:38.000Z</time>
   </trkpt>
   <trkpt lat="-8.049731" lon="-34.895926">
    <ele>9.7</ele>
    <time>2020-11-05T20:51:40.000Z</time>
   </trkpt>
   <trkpt lat="-8.049746" lon="-34.895894">
    <ele>9.3</ele>
    <time>2020-11-05T20:51:42.000Z</time>
   </trkpt>
   <trkpt lat="-8.04976" lon="-34.89586">
    <ele>8.8</ele>
    <time>2020-11-05T20:51:44.000Z</time>
   </trkpt>
   <trkpt lat="-8.049757" lon="-34.895825">
    <ele>8.5</ele>
    <time>2020-11-05T20:51:45.000Z</time>
   </trkpt>
   <trkpt lat="-8.049767" lon="-34.895766">
    <ele>8.2</ele>
    <time>2020-11-05T20:51:47.000Z</time>
   </trkpt>
   <trkpt lat="-8.049766" lon="-34.895733">
    <ele>8.2</ele>
    <time>2020-11-05T20:51:48.000Z</time>
   </trkpt>
   <trkpt lat="-8.049774" lon="-34.895704">
    <ele>8.4</ele>
    <time>2020-11-05T20:51:49.000Z</time>
   </trkpt>
   <trkpt lat="-8.04978" lon="-34.895665">
    <ele>8.6</ele>
    <time>2020-11-05T20:51:50.000Z</time>
   </trkpt>
   <trkpt lat="-8.049784" lon="-34.895637">
    <ele>8.6</ele>
    <time>2020-11-05T20:51:51.000Z</time>
   </trkpt>
   <trkpt lat="-8.04979" lon="-34.895601">
    <ele>8.9</ele>
    <time>2020-11-05T20:51:52.000Z</time>
   </trkpt>
   <trkpt lat="-8.049791" lon="-34.895568">
    <ele>8.9</ele>
    <time>2020-11-05T20:51:53.000Z</time>
   </trkpt>
   <trkpt lat="-8.049799" lon="-34.895541">
    <ele>9</ele>
    <time>2020-11-05T20:51:54.000Z</time>
   </trkpt>
   <trkpt lat="-8.049809" lon="-34.8955">
    <ele>8.7</ele>
    <time>2020-11-05T20:51:56.000Z</time>
   </trkpt>
   <trkpt lat="-8.049811" lon="-34.895471">
    <ele>8.5</ele>
    <time>2020-11-05T20:51:57.000Z</time>
   </trkpt>
   <trkpt lat="-8.049808" lon="-34.895438">
    <ele>8.2</ele>
    <time>2020-11-05T20:51:59.000Z</time>
   </trkpt>
   <trkpt lat="-8.049792" lon="-34.895411">
    <ele>8.2</ele>
    <time>2020-11-05T20:52:03.000Z</time>
   </trkpt>
   <trkpt lat="-8.049784" lon="-34.895415">
    <ele>8.2</ele>
    <time>2020-11-05T20:52:07.000Z</time>
   </trkpt>
  </trkseg>
 </trk>
</gpx>
