<?xml version="1.0" encoding="UTF-8"?>
<gpx creator="StravaGPX" version="1.1" xmlns="http://www.topografix.com/GPX/1/1">
 <metadata>
  <time>2020-01-16T21:03:41Z</time>
 </metadata>
 <trk>
  <name>Evening Ride</name>
  <type>1</type>
  <trkseg>
   <trkpt lat="-8.065238" lon="-34.896517">
    <ele>3.8</ele>
    <time>2020-01-16T21:03:41.000Z</time>
   </trkpt>
   <trkpt lat="-8.06519" lon="-34.896576">
    <ele>4.1</ele>
    <time>2020-01-16T21:03:45.000Z</time>
   </trkpt>
   <trkpt lat="-8.065185" lon="-34.896616">
    <ele>4.2</ele>
    <time>2020-01-16T21:03:47.000Z</time>
   </trkpt>
   <trkpt lat="-8.065188" lon="-34.89666">
    <ele>4.3</ele>
    <time>2020-01-16T21:03:49.000Z</time>
   </trkpt>
   <trkpt lat="-8.065182" lon="-34.89668">
    <ele>4.3</ele>
    <time>2020-01-16T21:03:51.000Z</time>
   </trkpt>
   <trkpt lat="-8.065187" lon="-34.896761">
    <ele>4.5</ele>
    <time>2020-01-16T21:03:54.000Z</time>
   </trkpt>
   <trkpt lat="-8.065211" lon="-34.896783">
    <ele>4.5</ele>
    <time>2020-01-16T21:03:55.000Z</time>
   </trkpt>
   <trkpt lat="-8.065226" lon="-34.896805">
    <ele>4.6</ele>
    <time>2020-01-16T21:03:56.000Z</time>
   </trkpt>
   <trkpt lat="-8.065219" lon="-34.896913">
    <ele>4.9</ele>
    <time>2020-01-16T21:03:58.000Z</time>
   </trkpt>
   <trkpt lat="-8.065222" lon="-34.896955">
    <ele>5</ele>
    <time>2020-01-16T21:03:59.000Z</time>
   </trkpt>
   <trkpt lat="-8.065237" lon="-34.896989">
    <ele>5</ele>
    <time>2020-01-16T21:04:00.000Z</time>
   </trkpt>
   <trkpt lat="-8.065251" lon="-34.897003">
    <ele>5</ele>
    <time>2020-01-16T21:04:01.000Z</time>
   </trkpt>
   <trkpt lat="-8.065284" lon="-34.897001">
    <ele>5</ele>
    <time>2020-01-16T21:04:03.000Z</time>
   </trkpt>
   <trkpt lat="-8.065313" lon="-34.897033">
    <ele>5</ele>
    <time>2020-01-16T21:04:05.000Z</time>
   </trkpt>
   <trkpt lat="-8.065311" lon="-34.897078">
    <ele>5</ele>
    <time>2020-01-16T21:04:07.000Z</time>
   </trkpt>
   <trkpt lat="-8.065297" lon="-34.897042">
    <ele>5</ele>
    <time>2020-01-16T21:04:08.000Z</time>
   </trkpt>
   <trkpt lat="-8.065229" lon="-34.896992">
    <ele>5</ele>
    <time>2020-01-16T21:04:09.000Z</time>
   </trkpt>
   <trkpt lat="-8.065181" lon="-34.896982">
    <ele>5</ele>
    <time>2020-01-16T21:04:10.000Z</time>
   </trkpt>
   <trkpt lat="-8.065147" lon="-34.896976">
    <ele>5</ele>
    <time>2020-01-16T21:04:11.000Z</time>
   </trkpt>
   <trkpt lat="-8.065111" lon="-34.896967">
    <ele>5</ele>
    <time>2020-01-16T21:04:12.000Z</time>
   </trkpt>
   <trkpt lat="-8.065066" lon="-34.896975">
    <ele>5.1</ele>
    <time>2020-01-16T21:04:13.000Z</time>
   </trkpt>
   <trkpt lat="-8.06502" lon="-34.896971">
    <ele>5.1</ele>
    <time>2020-01-16T21:04:14.000Z</time>
   </trkpt>
   <trkpt lat="-8.064966" lon="-34.89696">
    <ele>5.1</ele>
    <time>2020-01-16T21:04:15.000Z</time>
   </trkpt>
   <trkpt lat="-8.064907" lon="-34.896959">
    <ele>5.2</ele>
    <time>2020-01-16T21:04:16.000Z</time>
   </trkpt>
   <trkpt lat="-8.06486" lon="-34.896952">
    <ele>5.2</ele>
    <time>2020-01-16T21:04:17.000Z</time>
   </trkpt>
   <trkpt lat="-8.064825" lon="-34.89695">
    <ele>5.2</ele>
    <time>2020-01-16T21:04:18.000Z</time>
   </trkpt>
   <trkpt lat="-8.064789" lon="-34.896944">
    <ele>5.2</ele>
    <time>2020-01-16T21:04:19.000Z</time>
   </trkpt>
   <trkpt lat="-8.064755" lon="-34.896944">
    <ele>5.2</ele>
    <time>2020-01-16T21:04:20.000Z</time>
   </trkpt>
   <trkpt lat="-8.064728" lon="-34.896938">
    <ele>5.3</ele>
    <time>2020-01-16T21:04:21.000Z</time>
   </trkpt>
   <trkpt lat="-8.064698" lon="-34.896948">
    <ele>5.3</ele>
    <time>2020-01-16T21:04:22.000Z</time>
   </trkpt>
   <trkpt lat="-8.06466" lon="-34.897022">
    <ele>5.3</ele>
    <time>2020-01-16T21:04:23.000Z</time>
   </trkpt>
   <trkpt lat="-8.064635" lon="-34.897032">
    <ele>5.3</ele>
    <time>2020-01-16T21:04:24.000Z</time>
   </trkpt>
   <trkpt lat="-8.064589" lon="-34.897041">
    <ele>5.2</ele>
    <time>2020-01-16T21:04:26.000Z</time>
   </trkpt>
   <trkpt lat="-8.064562" lon="-34.897051">
    <ele>5.2</ele>
    <time>2020-01-16T21:04:28.000Z</time>
   </trkpt>
   <trkpt lat="-8.064518" lon="-34.897077">
    <ele>5.1</ele>
    <time>2020-01-16T21:04:30.000Z</time>
   </trkpt>
   <trkpt lat="-8.064487" lon="-34.897106">
    <ele>5</ele>
    <time>2020-01-16T21:04:32.000Z</time>
   </trkpt>
   <trkpt lat="-8.064462" lon="-34.89713">
    <ele>5</ele>
    <time>2020-01-16T21:04:34.000Z</time>
   </trkpt>
   <trkpt lat="-8.064413" lon="-34.897158">
    <ele>5.2</ele>
    <time>2020-01-16T21:04:36.000Z</time>
   </trkpt>
   <trkpt lat="-8.064388" lon="-34.897173">
    <ele>5.2</ele>
    <time>2020-01-16T21:04:37.000Z</time>
   </trkpt>
   <trkpt lat="-8.064352" lon="-34.897175">
    <ele>5.3</ele>
    <time>2020-01-16T21:04:38.000Z</time>
   </trkpt>
   <trkpt lat="-8.064322" lon="-34.897181">
    <ele>5.3</ele>
    <time>2020-01-16T21:04:39.000Z</time>
   </trkpt>
   <trkpt lat="-8.064238" lon="-34.897165">
    <ele>5.4</ele>
    <time>2020-01-16T21:04:40.000Z</time>
   </trkpt>
   <trkpt lat="-8.064181" lon="-34.897164">
    <ele>5.5</ele>
    <time>2020-01-16T21:04:41.000Z</time>
   </trkpt>
   <trkpt lat="-8.06412" lon="-34.897166">
    <ele>5.5</ele>
    <time>2020-01-16T21:04:42.000Z</time>
   </trkpt>
   <trkpt lat="-8.064066" lon="-34.897177">
    <ele>5.5</ele>
    <time>2020-01-16T21:04:43.000Z</time>
   </trkpt>
   <trkpt lat="-8.064017" lon="-34.897181">
    <ele>5.6</ele>
    <time>2020-01-16T21:04:44.000Z</time>
   </trkpt>
   <trkpt lat="-8.063964" lon="-34.897182">
    <ele>5.6</ele>
    <time>2020-01-16T21:04:45.000Z</time>
   </trkpt>
   <trkpt lat="-8.063907" lon="-34.897183">
    <ele>5.6</ele>
    <time>2020-01-16T21:04:46.000Z</time>
   </trkpt>
   <trkpt lat="-8.063877" lon="-34.89718">
    <ele>5.6</ele>
    <time>2020-01-16T21:04:47.000Z</time>
   </trkpt>
   <trkpt lat="-8.063838" lon="-34.89718">
    <ele>5.6</ele>
    <time>2020-01-16T21:04:48.000Z</time>
   </trkpt>
   <trkpt lat="-8.063794" lon="-34.897199">
    <ele>5.6</ele>
    <time>2020-01-16T21:04:49.000Z</time>
   </trkpt>
   <trkpt lat="-8.063745" lon="-34.897203">
    <ele>5.6</ele>
    <time>2020-01-16T21:04:50.000Z</time>
   </trkpt>
   <trkpt lat="-8.063688" lon="-34.897207">
    <ele>5.5</ele>
    <time>2020-01-16T21:04:51.000Z</time>
   </trkpt>
   <trkpt lat="-8.06364" lon="-34.89721">
    <ele>5.4</ele>
    <time>2020-01-16T21:04:52.000Z</time>
   </trkpt>
   <trkpt lat="-8.06359" lon="-34.897213">
    <ele>5.4</ele>
    <time>2020-01-16T21:04:53.000Z</time>
   </trkpt>
   <trkpt lat="-8.063533" lon="-34.897216">
    <ele>5.3</ele>
    <time>2020-01-16T21:04:54.000Z</time>
   </trkpt>
   <trkpt lat="-8.063484" lon="-34.897227">
    <ele>5.2</ele>
    <time>2020-01-16T21:04:55.000Z</time>
   </trkpt>
   <trkpt lat="-8.063437" lon="-34.897232">
    <ele>5.2</ele>
    <time>2020-01-16T21:04:56.000Z</time>
   </trkpt>
   <trkpt lat="-8.06339" lon="-34.897241">
    <ele>5.1</ele>
    <time>2020-01-16T21:04:57.000Z</time>
   </trkpt>
   <trkpt lat="-8.063348" lon="-34.897244">
    <ele>5.1</ele>
    <time>2020-01-16T21:04:58.000Z</time>
   </trkpt>
   <trkpt lat="-8.063301" lon="-34.897247">
    <ele>5</ele>
    <time>2020-01-16T21:04:59.000Z</time>
   </trkpt>
   <trkpt lat="-8.063261" lon="-34.897252">
    <ele>4.9</ele>
    <time>2020-01-16T21:05:00.000Z</time>
   </trkpt>
   <trkpt lat="-8.063219" lon="-34.897256">
    <ele>4.8</ele>
    <time>2020-01-16T21:05:01.000Z</time>
   </trkpt>
   <trkpt lat="-8.063169" lon="-34.89726">
    <ele>4.7</ele>
    <time>2020-01-16T21:05:02.000Z</time>
   </trkpt>
   <trkpt lat="-8.063109" lon="-34.897257">
    <ele>4.6</ele>
    <time>2020-01-16T21:05:03.000Z</time>
   </trkpt>
   <trkpt lat="-8.063052" lon="-34.897251">
    <ele>4.4</ele>
    <time>2020-01-16T21:05:04.000Z</time>
   </trkpt>
   <trkpt lat="-8.063009" lon="-34.897256">
    <ele>4.2</ele>
    <time>2020-01-16T21:05:05.000Z</time>
   </trkpt>
   <trkpt lat="-8.062978" lon="-34.897259">
    <ele>4.1</ele>
    <time>2020-01-16T21:05:06.000Z</time>
   </trkpt>
   <trkpt lat="-8.062957" lon="-34.897261">
    <ele>4</ele>
    <time>2020-01-16T21:05:07.000Z</time>
   </trkpt>
   <trkpt lat="-8.062931" lon="-34.897251">
    <ele>3.9</ele>
    <time>2020-01-16T21:05:09.000Z</time>
   </trkpt>
   <trkpt lat="-8.062885" lon="-34.897235">
    <ele>3.8</ele>
    <time>2020-01-16T21:05:12.000Z</time>
   </trkpt>
   <trkpt lat="-8.062843" lon="-34.89721">
    <ele>3.6</ele>
    <time>2020-01-16T21:05:15.000Z</time>
   </trkpt>
   <trkpt lat="-8.062794" lon="-34.897223">
    <ele>3.5</ele>
    <time>2020-01-16T21:05:17.000Z</time>
   </trkpt>
   <trkpt lat="-8.062763" lon="-34.897226">
    <ele>3.5</ele>
    <time>2020-01-16T21:05:19.000Z</time>
   </trkpt>
   <trkpt lat="-8.062724" lon="-34.897223">
    <ele>3.4</ele>
    <time>2020-01-16T21:05:22.000Z</time>
   </trkpt>
   <trkpt lat="-8.06267" lon="-34.897228">
    <ele>3.3</ele>
    <time>2020-01-16T21:05:24.000Z</time>
   </trkpt>
   <trkpt lat="-8.062628" lon="-34.897231">
    <ele>3.2</ele>
    <time>2020-01-16T21:05:25.000Z</time>
   </trkpt>
   <trkpt lat="-8.062583" lon="-34.897237">
    <ele>3.2</ele>
    <time>2020-01-16T21:05:26.000Z</time>
   </trkpt>
   <trkpt lat="-8.062538" lon="-34.89725">
    <ele>3.1</ele>
    <time>2020-01-16T21:05:27.000Z</time>
   </trkpt>
   <trkpt lat="-8.062486" lon="-34.897257">
    <ele>3</ele>
    <time>2020-01-16T21:05:28.000Z</time>
   </trkpt>
   <trkpt lat="-8.06243" lon="-34.897265">
    <ele>3.1</ele>
    <time>2020-01-16T21:05:29.000Z</time>
   </trkpt>
   <trkpt lat="-8.062374" lon="-34.897272">
    <ele>3.4</ele>
    <time>2020-01-16T21:05:30.000Z</time>
   </trkpt>
   <trkpt lat="-8.062315" lon="-34.897282">
    <ele>3.6</ele>
    <time>2020-01-16T21:05:31.000Z</time>
   </trkpt>
   <trkpt lat="-8.062259" lon="-34.89729">
    <ele>3.8</ele>
    <time>2020-01-16T21:05:32.000Z</time>
   </trkpt>
   <trkpt lat="-8.062202" lon="-34.897297">
    <ele>4</ele>
    <time>2020-01-16T21:05:33.000Z</time>
   </trkpt>
   <trkpt lat="-8.062138" lon="-34.897301">
    <ele>4.3</ele>
    <time>2020-01-16T21:05:34.000Z</time>
   </trkpt>
   <trkpt lat="-8.062072" lon="-34.897309">
    <ele>4.6</ele>
    <time>2020-01-16T21:05:35.000Z</time>
   </trkpt>
   <trkpt lat="-8.062008" lon="-34.897316">
    <ele>4.9</ele>
    <time>2020-01-16T21:05:36.000Z</time>
   </trkpt>
   <trkpt lat="-8.061937" lon="-34.897323">
    <ele>5.3</ele>
    <time>2020-01-16T21:05:37.000Z</time>
   </trkpt>
   <trkpt lat="-8.061866" lon="-34.897333">
    <ele>5.6</ele>
    <time>2020-01-16T21:05:38.000Z</time>
   </trkpt>
   <trkpt lat="-8.061791" lon="-34.89735">
    <ele>5.8</ele>
    <time>2020-01-16T21:05:39.000Z</time>
   </trkpt>
   <trkpt lat="-8.061713" lon="-34.897354">
    <ele>6.1</ele>
    <time>2020-01-16T21:05:40.000Z</time>
   </trkpt>
   <trkpt lat="-8.061643" lon="-34.897365">
    <ele>6.3</ele>
    <time>2020-01-16T21:05:41.000Z</time>
   </trkpt>
   <trkpt lat="-8.061558" lon="-34.897372">
    <ele>6.6</ele>
    <time>2020-01-16T21:05:42.000Z</time>
   </trkpt>
   <trkpt lat="-8.061481" lon="-34.897378">
    <ele>6.8</ele>
    <time>2020-01-16T21:05:43.000Z</time>
   </trkpt>
   <trkpt lat="-8.061415" lon="-34.897379">
    <ele>7</ele>
    <time>2020-01-16T21:05:44.000Z</time>
   </trkpt>
   <trkpt lat="-8.061354" lon="-34.897387">
    <ele>7.2</ele>
    <time>2020-01-16T21:05:45.000Z</time>
   </trkpt>
   <trkpt lat="-8.061286" lon="-34.897394">
    <ele>7.4</ele>
    <time>2020-01-16T21:05:46.000Z</time>
   </trkpt>
   <trkpt lat="-8.061225" lon="-34.897408">
    <ele>7.6</ele>
    <time>2020-01-16T21:05:47.000Z</time>
   </trkpt>
   <trkpt lat="-8.061157" lon="-34.897417">
    <ele>7.8</ele>
    <time>2020-01-16T21:05:48.000Z</time>
   </trkpt>
   <trkpt lat="-8.061095" lon="-34.89742">
    <ele>8</ele>
    <time>2020-01-16T21:05:49.000Z</time>
   </trkpt>
   <trkpt lat="-8.061026" lon="-34.897431">
    <ele>8.2</ele>
    <time>2020-01-16T21:05:50.000Z</time>
   </trkpt>
   <trkpt lat="-8.060956" lon="-34.897437">
    <ele>8.4</ele>
    <time>2020-01-16T21:05:51.000Z</time>
   </trkpt>
   <trkpt lat="-8.060889" lon="-34.897443">
    <ele>8.7</ele>
    <time>2020-01-16T21:05:52.000Z</time>
   </trkpt>
   <trkpt lat="-8.060829" lon="-34.897453">
    <ele>8.9</ele>
    <time>2020-01-16T21:05:53.000Z</time>
   </trkpt>
   <trkpt lat="-8.060773" lon="-34.897458">
    <ele>9.1</ele>
    <time>2020-01-16T21:05:54.000Z</time>
   </trkpt>
   <trkpt lat="-8.060711" lon="-34.897465">
    <ele>9.3</ele>
    <time>2020-01-16T21:05:55.000Z</time>
   </trkpt>
   <trkpt lat="-8.060648" lon="-34.89747">
    <ele>9.5</ele>
    <time>2020-01-16T21:05:56.000Z</time>
   </trkpt>
   <trkpt lat="-8.06059" lon="-34.897479">
    <ele>9.8</ele>
    <time>2020-01-16T21:05:57.000Z</time>
   </trkpt>
   <trkpt lat="-8.060531" lon="-34.897484">
    <ele>10.1</ele>
    <time>2020-01-16T21:05:58.000Z</time>
   </trkpt>
   <trkpt lat="-8.060484" lon="-34.897499">
    <ele>10.2</ele>
    <time>2020-01-16T21:05:59.000Z</time>
   </trkpt>
   <trkpt lat="-8.060438" lon="-34.897507">
    <ele>10.3</ele>
    <time>2020-01-16T21:06:00.000Z</time>
   </trkpt>
   <trkpt lat="-8.060396" lon="-34.897517">
    <ele>10.3</ele>
    <time>2020-01-16T21:06:01.000Z</time>
   </trkpt>
   <trkpt lat="-8.060363" lon="-34.897523">
    <ele>10.4</ele>
    <time>2020-01-16T21:06:02.000Z</time>
   </trkpt>
   <trkpt lat="-8.060336" lon="-34.897525">
    <ele>10.4</ele>
    <time>2020-01-16T21:06:03.000Z</time>
   </trkpt>
   <trkpt lat="-8.060294" lon="-34.897527">
    <ele>10.5</ele>
    <time>2020-01-16T21:06:04.000Z</time>
   </trkpt>
   <trkpt lat="-8.060258" lon="-34.897525">
    <ele>10.6</ele>
    <time>2020-01-16T21:06:05.000Z</time>
   </trkpt>
   <trkpt lat="-8.060244" lon="-34.897525">
    <ele>10.6</ele>
    <time>2020-01-16T21:06:06.000Z</time>
   </trkpt>
   <trkpt lat="-8.060179" lon="-34.897532">
    <ele>10.7</ele>
    <time>2020-01-16T21:06:08.000Z</time>
   </trkpt>
   <trkpt lat="-8.060149" lon="-34.897521">
    <ele>10.7</ele>
    <time>2020-01-16T21:06:09.000Z</time>
   </trkpt>
   <trkpt lat="-8.060107" lon="-34.897518">
    <ele>10.8</ele>
    <time>2020-01-16T21:06:10.000Z</time>
   </trkpt>
   <trkpt lat="-8.060055" lon="-34.897525">
    <ele>10.7</ele>
    <time>2020-01-16T21:06:11.000Z</time>
   </trkpt>
   <trkpt lat="-8.060018" lon="-34.897535">
    <ele>10.7</ele>
    <time>2020-01-16T21:06:12.000Z</time>
   </trkpt>
   <trkpt lat="-8.059975" lon="-34.897543">
    <ele>10.6</ele>
    <time>2020-01-16T21:06:13.000Z</time>
   </trkpt>
   <trkpt lat="-8.059938" lon="-34.897548">
    <ele>10.6</ele>
    <time>2020-01-16T21:06:14.000Z</time>
   </trkpt>
   <trkpt lat="-8.059899" lon="-34.897552">
    <ele>10.5</ele>
    <time>2020-01-16T21:06:15.000Z</time>
   </trkpt>
   <trkpt lat="-8.059852" lon="-34.897555">
    <ele>10.4</ele>
    <time>2020-01-16T21:06:16.000Z</time>
   </trkpt>
   <trkpt lat="-8.059803" lon="-34.897554">
    <ele>10.4</ele>
    <time>2020-01-16T21:06:17.000Z</time>
   </trkpt>
   <trkpt lat="-8.059765" lon="-34.897563">
    <ele>10.3</ele>
    <time>2020-01-16T21:06:18.000Z</time>
   </trkpt>
   <trkpt lat="-8.059737" lon="-34.897563">
    <ele>10.3</ele>
    <time>2020-01-16T21:06:19.000Z</time>
   </trkpt>
   <trkpt lat="-8.059704" lon="-34.897565">
    <ele>10.3</ele>
    <time>2020-01-16T21:06:20.000Z</time>
   </trkpt>
   <trkpt lat="-8.05967" lon="-34.897575">
    <ele>10.2</ele>
    <time>2020-01-16T21:06:21.000Z</time>
   </trkpt>
   <trkpt lat="-8.059641" lon="-34.897573">
    <ele>10.2</ele>
    <time>2020-01-16T21:06:22.000Z</time>
   </trkpt>
   <trkpt lat="-8.059617" lon="-34.897576">
    <ele>10.2</ele>
    <time>2020-01-16T21:06:23.000Z</time>
   </trkpt>
   <trkpt lat="-8.059562" lon="-34.897582">
    <ele>10.1</ele>
    <time>2020-01-16T21:06:25.000Z</time>
   </trkpt>
   <trkpt lat="-8.059523" lon="-34.897587">
    <ele>10</ele>
    <time>2020-01-16T21:06:26.000Z</time>
   </trkpt>
   <trkpt lat="-8.059479" lon="-34.897581">
    <ele>10</ele>
    <time>2020-01-16T21:06:27.000Z</time>
   </trkpt>
   <trkpt lat="-8.059431" lon="-34.897578">
    <ele>9.9</ele>
    <time>2020-01-16T21:06:28.000Z</time>
   </trkpt>
   <trkpt lat="-8.059382" lon="-34.897562">
    <ele>9.9</ele>
    <time>2020-01-16T21:06:29.000Z</time>
   </trkpt>
   <trkpt lat="-8.059334" lon="-34.897555">
    <ele>9.8</ele>
    <time>2020-01-16T21:06:30.000Z</time>
   </trkpt>
   <trkpt lat="-8.059279" lon="-34.897562">
    <ele>9.8</ele>
    <time>2020-01-16T21:06:31.000Z</time>
   </trkpt>
   <trkpt lat="-8.059226" lon="-34.89757">
    <ele>9.7</ele>
    <time>2020-01-16T21:06:32.000Z</time>
   </trkpt>
   <trkpt lat="-8.059178" lon="-34.897583">
    <ele>9.6</ele>
    <time>2020-01-16T21:06:33.000Z</time>
   </trkpt>
   <trkpt lat="-8.059127" lon="-34.897605">
    <ele>9.6</ele>
    <time>2020-01-16T21:06:34.000Z</time>
   </trkpt>
   <trkpt lat="-8.059086" lon="-34.897615">
    <ele>9.5</ele>
    <time>2020-01-16T21:06:35.000Z</time>
   </trkpt>
   <trkpt lat="-8.05905" lon="-34.897636">
    <ele>9.5</ele>
    <time>2020-01-16T21:06:36.000Z</time>
   </trkpt>
   <trkpt lat="-8.059004" lon="-34.897648">
    <ele>9.4</ele>
    <time>2020-01-16T21:06:37.000Z</time>
   </trkpt>
   <trkpt lat="-8.058956" lon="-34.897652">
    <ele>9.4</ele>
    <time>2020-01-16T21:06:38.000Z</time>
   </trkpt>
   <trkpt lat="-8.058912" lon="-34.897659">
    <ele>9.3</ele>
    <time>2020-01-16T21:06:39.000Z</time>
   </trkpt>
   <trkpt lat="-8.058881" lon="-34.897662">
    <ele>9.3</ele>
    <time>2020-01-16T21:06:40.000Z</time>
   </trkpt>
   <trkpt lat="-8.058855" lon="-34.897662">
    <ele>9.3</ele>
    <time>2020-01-16T21:06:41.000Z</time>
   </trkpt>
   <trkpt lat="-8.058798" lon="-34.897672">
    <ele>10.1</ele>
    <time>2020-01-16T21:06:43.000Z</time>
   </trkpt>
   <trkpt lat="-8.058763" lon="-34.897676">
    <ele>10.4</ele>
    <time>2020-01-16T21:06:44.000Z</time>
   </trkpt>
   <trkpt lat="-8.058727" lon="-34.89768">
    <ele>10.2</ele>
    <time>2020-01-16T21:06:45.000Z</time>
   </trkpt>
   <trkpt lat="-8.058696" lon="-34.897677">
    <ele>10</ele>
    <time>2020-01-16T21:06:46.000Z</time>
   </trkpt>
   <trkpt lat="-8.058659" lon="-34.897674">
    <ele>9.8</ele>
    <time>2020-01-16T21:06:47.000Z</time>
   </trkpt>
   <trkpt lat="-8.058625" lon="-34.897677">
    <ele>9.6</ele>
    <time>2020-01-16T21:06:48.000Z</time>
   </trkpt>
   <trkpt lat="-8.058596" lon="-34.897672">
    <ele>9.4</ele>
    <time>2020-01-16T21:06:49.000Z</time>
   </trkpt>
   <trkpt lat="-8.058569" lon="-34.897667">
    <ele>9.2</ele>
    <time>2020-01-16T21:06:50.000Z</time>
   </trkpt>
   <trkpt lat="-8.058532" lon="-34.897672">
    <ele>9</ele>
    <time>2020-01-16T21:06:51.000Z</time>
   </trkpt>
   <trkpt lat="-8.058494" lon="-34.897683">
    <ele>8.8</ele>
    <time>2020-01-16T21:06:52.000Z</time>
   </trkpt>
   <trkpt lat="-8.058462" lon="-34.897676">
    <ele>8.7</ele>
    <time>2020-01-16T21:06:53.000Z</time>
   </trkpt>
   <trkpt lat="-8.058429" lon="-34.897671">
    <ele>8.5</ele>
    <time>2020-01-16T21:06:54.000Z</time>
   </trkpt>
   <trkpt lat="-8.058395" lon="-34.897664">
    <ele>8.4</ele>
    <time>2020-01-16T21:06:55.000Z</time>
   </trkpt>
   <trkpt lat="-8.058351" lon="-34.89767">
    <ele>8.2</ele>
    <time>2020-01-16T21:06:56.000Z</time>
   </trkpt>
   <trkpt lat="-8.058313" lon="-34.897679">
    <ele>8.1</ele>
    <time>2020-01-16T21:06:57.000Z</time>
   </trkpt>
   <trkpt lat="-8.058266" lon="-34.897685">
    <ele>8</ele>
    <time>2020-01-16T21:06:58.000Z</time>
   </trkpt>
   <trkpt lat="-8.058217" lon="-34.89768">
    <ele>7.9</ele>
    <time>2020-01-16T21:06:59.000Z</time>
   </trkpt>
   <trkpt lat="-8.058171" lon="-34.897667">
    <ele>7.8</ele>
    <time>2020-01-16T21:07:00.000Z</time>
   </trkpt>
   <trkpt lat="-8.058123" lon="-34.897661">
    <ele>7.7</ele>
    <time>2020-01-16T21:07:01.000Z</time>
   </trkpt>
   <trkpt lat="-8.058084" lon="-34.89766">
    <ele>7.7</ele>
    <time>2020-01-16T21:07:02.000Z</time>
   </trkpt>
   <trkpt lat="-8.058031" lon="-34.897659">
    <ele>7.6</ele>
    <time>2020-01-16T21:07:03.000Z</time>
   </trkpt>
   <trkpt lat="-8.057965" lon="-34.897661">
    <ele>7.5</ele>
    <time>2020-01-16T21:07:04.000Z</time>
   </trkpt>
   <trkpt lat="-8.057918" lon="-34.897665">
    <ele>7.5</ele>
    <time>2020-01-16T21:07:05.000Z</time>
   </trkpt>
   <trkpt lat="-8.057874" lon="-34.897658">
    <ele>7.5</ele>
    <time>2020-01-16T21:07:06.000Z</time>
   </trkpt>
   <trkpt lat="-8.057839" lon="-34.897661">
    <ele>7.4</ele>
    <time>2020-01-16T21:07:07.000Z</time>
   </trkpt>
   <trkpt lat="-8.057801" lon="-34.897658">
    <ele>7.4</ele>
    <time>2020-01-16T21:07:08.000Z</time>
   </trkpt>
   <trkpt lat="-8.05776" lon="-34.897651">
    <ele>7.3</ele>
    <time>2020-01-16T21:07:09.000Z</time>
   </trkpt>
   <trkpt lat="-8.057728" lon="-34.897648">
    <ele>7.3</ele>
    <time>2020-01-16T21:07:10.000Z</time>
   </trkpt>
   <trkpt lat="-8.057689" lon="-34.897653">
    <ele>7.3</ele>
    <time>2020-01-16T21:07:11.000Z</time>
   </trkpt>
   <trkpt lat="-8.057655" lon="-34.897651">
    <ele>7.2</ele>
    <time>2020-01-16T21:07:12.000Z</time>
   </trkpt>
   <trkpt lat="-8.057636" lon="-34.897649">
    <ele>7.2</ele>
    <time>2020-01-16T21:07:13.000Z</time>
   </trkpt>
   <trkpt lat="-8.057593" lon="-34.89765">
    <ele>7.2</ele>
    <time>2020-01-16T21:07:15.000Z</time>
   </trkpt>
   <trkpt lat="-8.057558" lon="-34.89765">
    <ele>7.1</ele>
    <time>2020-01-16T21:07:16.000Z</time>
   </trkpt>
   <trkpt lat="-8.057525" lon="-34.897641">
    <ele>7.1</ele>
    <time>2020-01-16T21:07:17.000Z</time>
   </trkpt>
   <trkpt lat="-8.057489" lon="-34.897638">
    <ele>7</ele>
    <time>2020-01-16T21:07:18.000Z</time>
   </trkpt>
   <trkpt lat="-8.057455" lon="-34.897639">
    <ele>7</ele>
    <time>2020-01-16T21:07:19.000Z</time>
   </trkpt>
   <trkpt lat="-8.057405" lon="-34.897638">
    <ele>7.3</ele>
    <time>2020-01-16T21:07:20.000Z</time>
   </trkpt>
   <trkpt lat="-8.05736" lon="-34.897638">
    <ele>7.5</ele>
    <time>2020-01-16T21:07:21.000Z</time>
   </trkpt>
   <trkpt lat="-8.057317" lon="-34.897638">
    <ele>7.8</ele>
    <time>2020-01-16T21:07:22.000Z</time>
   </trkpt>
   <trkpt lat="-8.057254" lon="-34.897631">
    <ele>8.1</ele>
    <time>2020-01-16T21:07:23.000Z</time>
   </trkpt>
   <trkpt lat="-8.057197" lon="-34.897636">
    <ele>8.7</ele>
    <time>2020-01-16T21:07:24.000Z</time>
   </trkpt>
   <trkpt lat="-8.057146" lon="-34.89764">
    <ele>8.7</ele>
    <time>2020-01-16T21:07:25.000Z</time>
   </trkpt>
   <trkpt lat="-8.057098" lon="-34.897642">
    <ele>8.7</ele>
    <time>2020-01-16T21:07:26.000Z</time>
   </trkpt>
   <trkpt lat="-8.057055" lon="-34.897644">
    <ele>8.7</ele>
    <time>2020-01-16T21:07:27.000Z</time>
   </trkpt>
   <trkpt lat="-8.056999" lon="-34.897644">
    <ele>8.8</ele>
    <time>2020-01-16T21:07:28.000Z</time>
   </trkpt>
   <trkpt lat="-8.056968" lon="-34.897642">
    <ele>8.8</ele>
    <time>2020-01-16T21:07:29.000Z</time>
   </trkpt>
   <trkpt lat="-8.056931" lon="-34.897642">
    <ele>8.8</ele>
    <time>2020-01-16T21:07:30.000Z</time>
   </trkpt>
   <trkpt lat="-8.0569" lon="-34.897644">
    <ele>8.8</ele>
    <time>2020-01-16T21:07:31.000Z</time>
   </trkpt>
   <trkpt lat="-8.056889" lon="-34.897631">
    <ele>8.8</ele>
    <time>2020-01-16T21:07:32.000Z</time>
   </trkpt>
   <trkpt lat="-8.056849" lon="-34.89763">
    <ele>8.8</ele>
    <time>2020-01-16T21:07:34.000Z</time>
   </trkpt>
   <trkpt lat="-8.056796" lon="-34.897644">
    <ele>8.8</ele>
    <time>2020-01-16T21:07:36.000Z</time>
   </trkpt>
   <trkpt lat="-8.056775" lon="-34.897654">
    <ele>8.8</ele>
    <time>2020-01-16T21:07:38.000Z</time>
   </trkpt>
   <trkpt lat="-8.0567" lon="-34.897673">
    <ele>8.6</ele>
    <time>2020-01-16T21:08:29.000Z</time>
   </trkpt>
   <trkpt lat="-8.056661" lon="-34.897671">
    <ele>8.4</ele>
    <time>2020-01-16T21:08:30.000Z</time>
   </trkpt>
   <trkpt lat="-8.056615" lon="-34.897665">
    <ele>8.1</ele>
    <time>2020-01-16T21:08:31.000Z</time>
   </trkpt>
   <trkpt lat="-8.056561" lon="-34.897662">
    <ele>7.9</ele>
    <time>2020-01-16T21:08:32.000Z</time>
   </trkpt>
   <trkpt lat="-8.056503" lon="-34.897669">
    <ele>7.8</ele>
    <time>2020-01-16T21:08:33.000Z</time>
   </trkpt>
   <trkpt lat="-8.056444" lon="-34.897673">
    <ele>6.5</ele>
    <time>2020-01-16T21:08:34.000Z</time>
   </trkpt>
   <trkpt lat="-8.056382" lon="-34.897673">
    <ele>6.1</ele>
    <time>2020-01-16T21:08:35.000Z</time>
   </trkpt>
   <trkpt lat="-8.05632" lon="-34.897672">
    <ele>5.9</ele>
    <time>2020-01-16T21:08:36.000Z</time>
   </trkpt>
   <trkpt lat="-8.056258" lon="-34.897669">
    <ele>5.8</ele>
    <time>2020-01-16T21:08:37.000Z</time>
   </trkpt>
   <trkpt lat="-8.05619" lon="-34.897662">
    <ele>5.9</ele>
    <time>2020-01-16T21:08:38.000Z</time>
   </trkpt>
   <trkpt lat="-8.056116" lon="-34.897655">
    <ele>6</ele>
    <time>2020-01-16T21:08:39.000Z</time>
   </trkpt>
   <trkpt lat="-8.056039" lon="-34.897644">
    <ele>6.2</ele>
    <time>2020-01-16T21:08:40.000Z</time>
   </trkpt>
   <trkpt lat="-8.055967" lon="-34.897631">
    <ele>6.4</ele>
    <time>2020-01-16T21:08:41.000Z</time>
   </trkpt>
   <trkpt lat="-8.055891" lon="-34.897615">
    <ele>6.5</ele>
    <time>2020-01-16T21:08:42.000Z</time>
   </trkpt>
   <trkpt lat="-8.055815" lon="-34.8976">
    <ele>7.4</ele>
    <time>2020-01-16T21:08:43.000Z</time>
   </trkpt>
   <trkpt lat="-8.05574" lon="-34.897584">
    <ele>8.2</ele>
    <time>2020-01-16T21:08:44.000Z</time>
   </trkpt>
   <trkpt lat="-8.055663" lon="-34.897578">
    <ele>9</ele>
    <time>2020-01-16T21:08:45.000Z</time>
   </trkpt>
   <trkpt lat="-8.055595" lon="-34.89755">
    <ele>9.8</ele>
    <time>2020-01-16T21:08:46.000Z</time>
   </trkpt>
   <trkpt lat="-8.055521" lon="-34.897527">
    <ele>10.8</ele>
    <time>2020-01-16T21:08:47.000Z</time>
   </trkpt>
   <trkpt lat="-8.055451" lon="-34.897502">
    <ele>10.7</ele>
    <time>2020-01-16T21:08:48.000Z</time>
   </trkpt>
   <trkpt lat="-8.055376" lon="-34.897473">
    <ele>10.6</ele>
    <time>2020-01-16T21:08:49.000Z</time>
   </trkpt>
   <trkpt lat="-8.055296" lon="-34.897441">
    <ele>10.5</ele>
    <time>2020-01-16T21:08:50.000Z</time>
   </trkpt>
   <trkpt lat="-8.055224" lon="-34.897421">
    <ele>10.4</ele>
    <time>2020-01-16T21:08:51.000Z</time>
   </trkpt>
   <trkpt lat="-8.055161" lon="-34.897395">
    <ele>10.4</ele>
    <time>2020-01-16T21:08:52.000Z</time>
   </trkpt>
   <trkpt lat="-8.0551" lon="-34.897357">
    <ele>10.4</ele>
    <time>2020-01-16T21:08:53.000Z</time>
   </trkpt>
   <trkpt lat="-8.055038" lon="-34.897316">
    <ele>10.3</ele>
    <time>2020-01-16T21:08:54.000Z</time>
   </trkpt>
   <trkpt lat="-8.054977" lon="-34.897271">
    <ele>10.3</ele>
    <time>2020-01-16T21:08:55.000Z</time>
   </trkpt>
   <trkpt lat="-8.054909" lon="-34.897224">
    <ele>10.2</ele>
    <time>2020-01-16T21:08:56.000Z</time>
   </trkpt>
   <trkpt lat="-8.054845" lon="-34.89718">
    <ele>10.2</ele>
    <time>2020-01-16T21:08:57.000Z</time>
   </trkpt>
   <trkpt lat="-8.054784" lon="-34.897141">
    <ele>10.1</ele>
    <time>2020-01-16T21:08:58.000Z</time>
   </trkpt>
   <trkpt lat="-8.054719" lon="-34.897102">
    <ele>10.1</ele>
    <time>2020-01-16T21:08:59.000Z</time>
   </trkpt>
   <trkpt lat="-8.054656" lon="-34.897051">
    <ele>10</ele>
    <time>2020-01-16T21:09:00.000Z</time>
   </trkpt>
   <trkpt lat="-8.054598" lon="-34.897007">
    <ele>9.9</ele>
    <time>2020-01-16T21:09:01.000Z</time>
   </trkpt>
   <trkpt lat="-8.054547" lon="-34.896965">
    <ele>9.8</ele>
    <time>2020-01-16T21:09:02.000Z</time>
   </trkpt>
   <trkpt lat="-8.054494" lon="-34.896929">
    <ele>9.7</ele>
    <time>2020-01-16T21:09:03.000Z</time>
   </trkpt>
   <trkpt lat="-8.054441" lon="-34.896886">
    <ele>9.5</ele>
    <time>2020-01-16T21:09:04.000Z</time>
   </trkpt>
   <trkpt lat="-8.054385" lon="-34.896839">
    <ele>9.3</ele>
    <time>2020-01-16T21:09:05.000Z</time>
   </trkpt>
   <trkpt lat="-8.054331" lon="-34.8968">
    <ele>9.1</ele>
    <time>2020-01-16T21:09:06.000Z</time>
   </trkpt>
   <trkpt lat="-8.054279" lon="-34.896761">
    <ele>9</ele>
    <time>2020-01-16T21:09:07.000Z</time>
   </trkpt>
   <trkpt lat="-8.054225" lon="-34.896723">
    <ele>8.8</ele>
    <time>2020-01-16T21:09:08.000Z</time>
   </trkpt>
   <trkpt lat="-8.054168" lon="-34.896689">
    <ele>8.6</ele>
    <time>2020-01-16T21:09:09.000Z</time>
   </trkpt>
   <trkpt lat="-8.054119" lon="-34.896648">
    <ele>8.4</ele>
    <time>2020-01-16T21:09:10.000Z</time>
   </trkpt>
   <trkpt lat="-8.054058" lon="-34.89661">
    <ele>8.2</ele>
    <time>2020-01-16T21:09:11.000Z</time>
   </trkpt>
   <trkpt lat="-8.054005" lon="-34.896572">
    <ele>7.9</ele>
    <time>2020-01-16T21:09:12.000Z</time>
   </trkpt>
   <trkpt lat="-8.053952" lon="-34.896537">
    <ele>7.7</ele>
    <time>2020-01-16T21:09:13.000Z</time>
   </trkpt>
   <trkpt lat="-8.053903" lon="-34.896507">
    <ele>7.4</ele>
    <time>2020-01-16T21:09:14.000Z</time>
   </trkpt>
   <trkpt lat="-8.053849" lon="-34.896477">
    <ele>7</ele>
    <time>2020-01-16T21:09:15.000Z</time>
   </trkpt>
   <trkpt lat="-8.053802" lon="-34.896442">
    <ele>6.6</ele>
    <time>2020-01-16T21:09:16.000Z</time>
   </trkpt>
   <trkpt lat="-8.053744" lon="-34.896405">
    <ele>6.2</ele>
    <time>2020-01-16T21:09:17.000Z</time>
   </trkpt>
   <trkpt lat="-8.053703" lon="-34.896376">
    <ele>5.7</ele>
    <time>2020-01-16T21:09:18.000Z</time>
   </trkpt>
   <trkpt lat="-8.053657" lon="-34.896343">
    <ele>5.1</ele>
    <time>2020-01-16T21:09:19.000Z</time>
   </trkpt>
   <trkpt lat="-8.053612" lon="-34.896311">
    <ele>4.6</ele>
    <time>2020-01-16T21:09:20.000Z</time>
   </trkpt>
   <trkpt lat="-8.05356" lon="-34.896282">
    <ele>4</ele>
    <time>2020-01-16T21:09:21.000Z</time>
   </trkpt>
   <trkpt lat="-8.053512" lon="-34.896255">
    <ele>4</ele>
    <time>2020-01-16T21:09:22.000Z</time>
   </trkpt>
   <trkpt lat="-8.05347" lon="-34.896232">
    <ele>4.1</ele>
    <time>2020-01-16T21:09:23.000Z</time>
   </trkpt>
   <trkpt lat="-8.053423" lon="-34.896203">
    <ele>4.1</ele>
    <time>2020-01-16T21:09:24.000Z</time>
   </trkpt>
   <trkpt lat="-8.053376" lon="-34.896164">
    <ele>4.1</ele>
    <time>2020-01-16T21:09:25.000Z</time>
   </trkpt>
   <trkpt lat="-8.053336" lon="-34.896128">
    <ele>4.1</ele>
    <time>2020-01-16T21:09:26.000Z</time>
   </trkpt>
   <trkpt lat="-8.053295" lon="-34.896096">
    <ele>4.2</ele>
    <time>2020-01-16T21:09:27.000Z</time>
   </trkpt>
   <trkpt lat="-8.05325" lon="-34.896052">
    <ele>4.2</ele>
    <time>2020-01-16T21:09:28.000Z</time>
   </trkpt>
   <trkpt lat="-8.053208" lon="-34.896018">
    <ele>4.3</ele>
    <time>2020-01-16T21:09:29.000Z</time>
   </trkpt>
   <trkpt lat="-8.05314" lon="-34.895985">
    <ele>4.4</ele>
    <time>2020-01-16T21:09:30.000Z</time>
   </trkpt>
   <trkpt lat="-8.053088" lon="-34.89594">
    <ele>4.6</ele>
    <time>2020-01-16T21:09:31.000Z</time>
   </trkpt>
   <trkpt lat="-8.053035" lon="-34.895899">
    <ele>5.1</ele>
    <time>2020-01-16T21:09:32.000Z</time>
   </trkpt>
   <trkpt lat="-8.052991" lon="-34.895868">
    <ele>5.5</ele>
    <time>2020-01-16T21:09:33.000Z</time>
   </trkpt>
   <trkpt lat="-8.052947" lon="-34.895842">
    <ele>6.1</ele>
    <time>2020-01-16T21:09:34.000Z</time>
   </trkpt>
   <trkpt lat="-8.052892" lon="-34.895808">
    <ele>7</ele>
    <time>2020-01-16T21:09:35.000Z</time>
   </trkpt>
   <trkpt lat="-8.052832" lon="-34.895782">
    <ele>7.9</ele>
    <time>2020-01-16T21:09:36.000Z</time>
   </trkpt>
   <trkpt lat="-8.052774" lon="-34.895746">
    <ele>8.8</ele>
    <time>2020-01-16T21:09:37.000Z</time>
   </trkpt>
   <trkpt lat="-8.052722" lon="-34.895701">
    <ele>9.5</ele>
    <time>2020-01-16T21:09:38.000Z</time>
   </trkpt>
   <trkpt lat="-8.05267" lon="-34.895672">
    <ele>10.5</ele>
    <time>2020-01-16T21:09:39.000Z</time>
   </trkpt>
   <trkpt lat="-8.052626" lon="-34.895642">
    <ele>10.5</ele>
    <time>2020-01-16T21:09:40.000Z</time>
   </trkpt>
   <trkpt lat="-8.05258" lon="-34.895606">
    <ele>10.7</ele>
    <time>2020-01-16T21:09:41.000Z</time>
   </trkpt>
   <trkpt lat="-8.052548" lon="-34.895592">
    <ele>10.7</ele>
    <time>2020-01-16T21:09:42.000Z</time>
   </trkpt>
   <trkpt lat="-8.052505" lon="-34.895555">
    <ele>10.8</ele>
    <time>2020-01-16T21:09:43.000Z</time>
   </trkpt>
   <trkpt lat="-8.052461" lon="-34.895517">
    <ele>10.9</ele>
    <time>2020-01-16T21:09:44.000Z</time>
   </trkpt>
   <trkpt lat="-8.05242" lon="-34.895487">
    <ele>10.9</ele>
    <time>2020-01-16T21:09:45.000Z</time>
   </trkpt>
   <trkpt lat="-8.052373" lon="-34.895459">
    <ele>10.9</ele>
    <time>2020-01-16T21:09:46.000Z</time>
   </trkpt>
   <trkpt lat="-8.05233" lon="-34.895434">
    <ele>10.9</ele>
    <time>2020-01-16T21:09:47.000Z</time>
   </trkpt>
   <trkpt lat="-8.052277" lon="-34.895402">
    <ele>10.9</ele>
    <time>2020-01-16T21:09:48.000Z</time>
   </trkpt>
   <trkpt lat="-8.052227" lon="-34.895377">
    <ele>10.8</ele>
    <time>2020-01-16T21:09:49.000Z</time>
   </trkpt>
   <trkpt lat="-8.052182" lon="-34.895347">
    <ele>10.7</ele>
    <time>2020-01-16T21:09:50.000Z</time>
   </trkpt>
   <trkpt lat="-8.052143" lon="-34.895326">
    <ele>10.6</ele>
    <time>2020-01-16T21:09:51.000Z</time>
   </trkpt>
   <trkpt lat="-8.052079" lon="-34.895308">
    <ele>10.4</ele>
    <time>2020-01-16T21:09:52.000Z</time>
   </trkpt>
   <trkpt lat="-8.052037" lon="-34.895292">
    <ele>10.2</ele>
    <time>2020-01-16T21:09:53.000Z</time>
   </trkpt>
   <trkpt lat="-8.052006" lon="-34.895278">
    <ele>10</ele>
    <time>2020-01-16T21:09:54.000Z</time>
   </trkpt>
   <trkpt lat="-8.051968" lon="-34.895263">
    <ele>9.8</ele>
    <time>2020-01-16T21:09:55.000Z</time>
   </trkpt>
   <trkpt lat="-8.051918" lon="-34.895236">
    <ele>9.5</ele>
    <time>2020-01-16T21:09:56.000Z</time>
   </trkpt>
   <trkpt lat="-8.051864" lon="-34.895209">
    <ele>9</ele>
    <time>2020-01-16T21:09:57.000Z</time>
   </trkpt>
   <trkpt lat="-8.051828" lon="-34.895184">
    <ele>8.7</ele>
    <time>2020-01-16T21:09:58.000Z</time>
   </trkpt>
   <trkpt lat="-8.051786" lon="-34.895162">
    <ele>8.3</ele>
    <time>2020-01-16T21:09:59.000Z</time>
   </trkpt>
   <trkpt lat="-8.051752" lon="-34.895129">
    <ele>7.9</ele>
    <time>2020-01-16T21:10:00.000Z</time>
   </trkpt>
   <trkpt lat="-8.051727" lon="-34.895111">
    <ele>7.5</ele>
    <time>2020-01-16T21:10:01.000Z</time>
   </trkpt>
   <trkpt lat="-8.051716" lon="-34.895101">
    <ele>7.3</ele>
    <time>2020-01-16T21:10:02.000Z</time>
   </trkpt>
   <trkpt lat="-8.051673" lon="-34.895092">
    <ele>6.6</ele>
    <time>2020-01-16T21:10:04.000Z</time>
   </trkpt>
   <trkpt lat="-8.051663" lon="-34.895087">
    <ele>6.5</ele>
    <time>2020-01-16T21:10:05.000Z</time>
   </trkpt>
   <trkpt lat="-8.05164" lon="-34.895053">
    <ele>6.4</ele>
    <time>2020-01-16T21:10:08.000Z</time>
   </trkpt>
   <trkpt lat="-8.051595" lon="-34.895026">
    <ele>6.3</ele>
    <time>2020-01-16T21:10:11.000Z</time>
   </trkpt>
   <trkpt lat="-8.051549" lon="-34.895">
    <ele>6.2</ele>
    <time>2020-01-16T21:11:03.000Z</time>
   </trkpt>
   <trkpt lat="-8.051504" lon="-34.894973">
    <ele>5.9</ele>
    <time>2020-01-16T21:11:04.000Z</time>
   </trkpt>
   <trkpt lat="-8.051454" lon="-34.89494">
    <ele>5.6</ele>
    <time>2020-01-16T21:11:05.000Z</time>
   </trkpt>
   <trkpt lat="-8.051408" lon="-34.894901">
    <ele>5.3</ele>
    <time>2020-01-16T21:11:06.000Z</time>
   </trkpt>
   <trkpt lat="-8.051356" lon="-34.89486">
    <ele>5</ele>
    <time>2020-01-16T21:11:07.000Z</time>
   </trkpt>
   <trkpt lat="-8.051301" lon="-34.894817">
    <ele>4.6</ele>
    <time>2020-01-16T21:11:08.000Z</time>
   </trkpt>
   <trkpt lat="-8.051262" lon="-34.894779">
    <ele>4.3</ele>
    <time>2020-01-16T21:11:09.000Z</time>
   </trkpt>
   <trkpt lat="-8.051213" lon="-34.894744">
    <ele>3.8</ele>
    <time>2020-01-16T21:11:10.000Z</time>
   </trkpt>
   <trkpt lat="-8.051167" lon="-34.894714">
    <ele>3.4</ele>
    <time>2020-01-16T21:11:11.000Z</time>
   </trkpt>
   <trkpt lat="-8.05112" lon="-34.894677">
    <ele>2.8</ele>
    <time>2020-01-16T21:11:12.000Z</time>
   </trkpt>
   <trkpt lat="-8.051075" lon="-34.894637">
    <ele>2</ele>
    <time>2020-01-16T21:11:13.000Z</time>
   </trkpt>
   <trkpt lat="-8.051033" lon="-34.894601">
    <ele>1.2</ele>
    <time>2020-01-16T21:11:14.000Z</time>
   </trkpt>
   <trkpt lat="-8.050985" lon="-34.894566">
    <ele>0.6</ele>
    <time>2020-01-16T21:11:15.000Z</time>
   </trkpt>
   <trkpt lat="-8.050938" lon="-34.894525">
    <ele>0</ele>
    <time>2020-01-16T21:11:16.000Z</time>
   </trkpt>
   <trkpt lat="-8.050873" lon="-34.894477">
    <ele>-1</ele>
    <time>2020-01-16T21:11:17.000Z</time>
   </trkpt>
   <trkpt lat="-8.050822" lon="-34.894439">
    <ele>-1.8</ele>
    <time>2020-01-16T21:11:18.000Z</time>
   </trkpt>
   <trkpt lat="-8.050772" lon="-34.894401">
    <ele>-2.6</ele>
    <time>2020-01-16T21:11:19.000Z</time>
   </trkpt>
   <trkpt lat="-8.05071" lon="-34.894369">
    <ele>-3</ele>
    <time>2020-01-16T21:11:20.000Z</time>
   </trkpt>
   <trkpt lat="-8.050651" lon="-34.894322">
    <ele>-2.9</ele>
    <time>2020-01-16T21:11:21.000Z</time>
   </trkpt>
   <trkpt lat="-8.050595" lon="-34.894284">
    <ele>-2.9</ele>
    <time>2020-01-16T21:11:22.000Z</time>
   </trkpt>
   <trkpt lat="-8.050543" lon="-34.894249">
    <ele>-3</ele>
    <time>2020-01-16T21:11:23.000Z</time>
   </trkpt>
   <trkpt lat="-8.050489" lon="-34.89421">
    <ele>-3.1</ele>
    <time>2020-01-16T21:11:24.000Z</time>
   </trkpt>
   <trkpt lat="-8.050431" lon="-34.894167">
    <ele>-3.2</ele>
    <time>2020-01-16T21:11:25.000Z</time>
   </trkpt>
   <trkpt lat="-8.050383" lon="-34.894114">
    <ele>-3.3</ele>
    <time>2020-01-16T21:11:26.000Z</time>
   </trkpt>
   <trkpt lat="-8.050333" lon="-34.89407">
    <ele>-3.5</ele>
    <time>2020-01-16T21:11:27.000Z</time>
   </trkpt>
   <trkpt lat="-8.050285" lon="-34.894028">
    <ele>-3.6</ele>
    <time>2020-01-16T21:11:28.000Z</time>
   </trkpt>
   <trkpt lat="-8.050233" lon="-34.893984">
    <ele>-3.7</ele>
    <time>2020-01-16T21:11:29.000Z</time>
   </trkpt>
   <trkpt lat="-8.050181" lon="-34.893936">
    <ele>-3.8</ele>
    <time>2020-01-16T21:11:30.000Z</time>
   </trkpt>
   <trkpt lat="-8.050133" lon="-34.893908">
    <ele>-3.9</ele>
    <time>2020-01-16T21:11:31.000Z</time>
   </trkpt>
   <trkpt lat="-8.050084" lon="-34.893865">
    <ele>-3.8</ele>
    <time>2020-01-16T21:11:32.000Z</time>
   </trkpt>
   <trkpt lat="-8.050026" lon="-34.893818">
    <ele>-3.8</ele>
    <time>2020-01-16T21:11:33.000Z</time>
   </trkpt>
   <trkpt lat="-8.049976" lon="-34.893779">
    <ele>-3.7</ele>
    <time>2020-01-16T21:11:34.000Z</time>
   </trkpt>
   <trkpt lat="-8.049924" lon="-34.89374">
    <ele>-3.6</ele>
    <time>2020-01-16T21:11:35.000Z</time>
   </trkpt>
   <trkpt lat="-8.049869" lon="-34.893697">
    <ele>-3.5</ele>
    <time>2020-01-16T21:11:36.000Z</time>
   </trkpt>
   <trkpt lat="-8.049814" lon="-34.893649">
    <ele>-3.4</ele>
    <time>2020-01-16T21:11:37.000Z</time>
   </trkpt>
   <trkpt lat="-8.049758" lon="-34.893607">
    <ele>-3.2</ele>
    <time>2020-01-16T21:11:38.000Z</time>
   </trkpt>
   <trkpt lat="-8.049701" lon="-34.89358">
    <ele>-3</ele>
    <time>2020-01-16T21:11:39.000Z</time>
   </trkpt>
   <trkpt lat="-8.049649" lon="-34.893543">
    <ele>-2.9</ele>
    <time>2020-01-16T21:11:40.000Z</time>
   </trkpt>
   <trkpt lat="-8.049593" lon="-34.8935">
    <ele>-2.7</ele>
    <time>2020-01-16T21:11:41.000Z</time>
   </trkpt>
   <trkpt lat="-8.049542" lon="-34.893461">
    <ele>-2.5</ele>
    <time>2020-01-16T21:11:42.000Z</time>
   </trkpt>
   <trkpt lat="-8.049489" lon="-34.893417">
    <ele>-2.3</ele>
    <time>2020-01-16T21:11:43.000Z</time>
   </trkpt>
   <trkpt lat="-8.049443" lon="-34.893374">
    <ele>-2.2</ele>
    <time>2020-01-16T21:11:44.000Z</time>
   </trkpt>
   <trkpt lat="-8.049387" lon="-34.893326">
    <ele>-2</ele>
    <time>2020-01-16T21:11:45.000Z</time>
   </trkpt>
   <trkpt lat="-8.049345" lon="-34.893286">
    <ele>-1.9</ele>
    <time>2020-01-16T21:11:46.000Z</time>
   </trkpt>
   <trkpt lat="-8.049302" lon="-34.89325">
    <ele>-1.7</ele>
    <time>2020-01-16T21:11:47.000Z</time>
   </trkpt>
   <trkpt lat="-8.049251" lon="-34.893206">
    <ele>-1.5</ele>
    <time>2020-01-16T21:11:48.000Z</time>
   </trkpt>
   <trkpt lat="-8.049201" lon="-34.893166">
    <ele>-1.3</ele>
    <time>2020-01-16T21:11:49.000Z</time>
   </trkpt>
   <trkpt lat="-8.04915" lon="-34.893135">
    <ele>-1</ele>
    <time>2020-01-16T21:11:50.000Z</time>
   </trkpt>
   <trkpt lat="-8.049099" lon="-34.893112">
    <ele>-0.8</ele>
    <time>2020-01-16T21:11:51.000Z</time>
   </trkpt>
   <trkpt lat="-8.049054" lon="-34.893078">
    <ele>-0.4</ele>
    <time>2020-01-16T21:11:52.000Z</time>
   </trkpt>
   <trkpt lat="-8.049019" lon="-34.893054">
    <ele>0</ele>
    <time>2020-01-16T21:11:53.000Z</time>
   </trkpt>
   <trkpt lat="-8.04898" lon="-34.893032">
    <ele>0.4</ele>
    <time>2020-01-16T21:11:54.000Z</time>
   </trkpt>
   <trkpt lat="-8.048951" lon="-34.893003">
    <ele>0.8</ele>
    <time>2020-01-16T21:11:55.000Z</time>
   </trkpt>
   <trkpt lat="-8.048926" lon="-34.892977">
    <ele>1.1</ele>
    <time>2020-01-16T21:11:56.000Z</time>
   </trkpt>
   <trkpt lat="-8.048911" lon="-34.892969">
    <ele>1.3</ele>
    <time>2020-01-16T21:11:57.000Z</time>
   </trkpt>
   <trkpt lat="-8.048865" lon="-34.892923">
    <ele>1.9</ele>
    <time>2020-01-16T21:11:59.000Z</time>
   </trkpt>
   <trkpt lat="-8.048842" lon="-34.892896">
    <ele>2.2</ele>
    <time>2020-01-16T21:12:01.000Z</time>
   </trkpt>
   <trkpt lat="-8.048793" lon="-34.892893">
    <ele>3.1</ele>
    <time>2020-01-16T21:12:03.000Z</time>
   </trkpt>
   <trkpt lat="-8.048757" lon="-34.892887">
    <ele>3.1</ele>
    <time>2020-01-16T21:12:05.000Z</time>
   </trkpt>
   <trkpt lat="-8.048704" lon="-34.892951">
    <ele>2.8</ele>
    <time>2020-01-16T21:12:07.000Z</time>
   </trkpt>
   <trkpt lat="-8.048681" lon="-34.892973">
    <ele>2.7</ele>
    <time>2020-01-16T21:12:08.000Z</time>
   </trkpt>
   <trkpt lat="-8.048647" lon="-34.893004">
    <ele>2.6</ele>
    <time>2020-01-16T21:12:09.000Z</time>
   </trkpt>
   <trkpt lat="-8.048617" lon="-34.893061">
    <ele>4</ele>
    <time>2020-01-16T21:12:10.000Z</time>
   </trkpt>
   <trkpt lat="-8.048591" lon="-34.893098">
    <ele>4</ele>
    <time>2020-01-16T21:12:11.000Z</time>
   </trkpt>
   <trkpt lat="-8.04857" lon="-34.893138">
    <ele>6.4</ele>
    <time>2020-01-16T21:12:12.000Z</time>
   </trkpt>
   <trkpt lat="-8.048547" lon="-34.89319">
    <ele>7.2</ele>
    <time>2020-01-16T21:12:13.000Z</time>
   </trkpt>
   <trkpt lat="-8.048526" lon="-34.893244">
    <ele>7.9</ele>
    <time>2020-01-16T21:12:14.000Z</time>
   </trkpt>
   <trkpt lat="-8.048499" lon="-34.893297">
    <ele>8</ele>
    <time>2020-01-16T21:12:15.000Z</time>
   </trkpt>
   <trkpt lat="-8.048472" lon="-34.893358">
    <ele>8</ele>
    <time>2020-01-16T21:12:16.000Z</time>
   </trkpt>
   <trkpt lat="-8.048451" lon="-34.893414">
    <ele>8</ele>
    <time>2020-01-16T21:12:17.000Z</time>
   </trkpt>
   <trkpt lat="-8.048431" lon="-34.893467">
    <ele>8</ele>
    <time>2020-01-16T21:12:18.000Z</time>
   </trkpt>
   <trkpt lat="-8.048405" lon="-34.893529">
    <ele>8</ele>
    <time>2020-01-16T21:12:19.000Z</time>
   </trkpt>
   <trkpt lat="-8.048376" lon="-34.893588">
    <ele>8</ele>
    <time>2020-01-16T21:12:20.000Z</time>
   </trkpt>
   <trkpt lat="-8.048343" lon="-34.893639">
    <ele>8</ele>
    <time>2020-01-16T21:12:21.000Z</time>
   </trkpt>
   <trkpt lat="-8.048316" lon="-34.893691">
    <ele>8</ele>
    <time>2020-01-16T21:12:22.000Z</time>
   </trkpt>
   <trkpt lat="-8.048298" lon="-34.893741">
    <ele>8</ele>
    <time>2020-01-16T21:12:23.000Z</time>
   </trkpt>
   <trkpt lat="-8.048277" lon="-34.893788">
    <ele>8</ele>
    <time>2020-01-16T21:12:24.000Z</time>
   </trkpt>
   <trkpt lat="-8.048258" lon="-34.893837">
    <ele>8.1</ele>
    <time>2020-01-16T21:12:25.000Z</time>
   </trkpt>
   <trkpt lat="-8.048231" lon="-34.893898">
    <ele>8.1</ele>
    <time>2020-01-16T21:12:26.000Z</time>
   </trkpt>
   <trkpt lat="-8.048205" lon="-34.893961">
    <ele>8.3</ele>
    <time>2020-01-16T21:12:27.000Z</time>
   </trkpt>
   <trkpt lat="-8.048168" lon="-34.894018">
    <ele>8.5</ele>
    <time>2020-01-16T21:12:28.000Z</time>
   </trkpt>
   <trkpt lat="-8.04815" lon="-34.894082">
    <ele>8.7</ele>
    <time>2020-01-16T21:12:29.000Z</time>
   </trkpt>
   <trkpt lat="-8.048118" lon="-34.894142">
    <ele>8.8</ele>
    <time>2020-01-16T21:12:30.000Z</time>
   </trkpt>
   <trkpt lat="-8.04808" lon="-34.894205">
    <ele>8.9</ele>
    <time>2020-01-16T21:12:31.000Z</time>
   </trkpt>
   <trkpt lat="-8.048052" lon="-34.894256">
    <ele>9</ele>
    <time>2020-01-16T21:12:32.000Z</time>
   </trkpt>
   <trkpt lat="-8.048031" lon="-34.894315">
    <ele>9</ele>
    <time>2020-01-16T21:12:33.000Z</time>
   </trkpt>
   <trkpt lat="-8.048008" lon="-34.894359">
    <ele>9.1</ele>
    <time>2020-01-16T21:12:34.000Z</time>
   </trkpt>
   <trkpt lat="-8.047988" lon="-34.894411">
    <ele>9.3</ele>
    <time>2020-01-16T21:12:35.000Z</time>
   </trkpt>
   <trkpt lat="-8.047965" lon="-34.894454">
    <ele>9.5</ele>
    <time>2020-01-16T21:12:36.000Z</time>
   </trkpt>
   <trkpt lat="-8.047941" lon="-34.894497">
    <ele>9.8</ele>
    <time>2020-01-16T21:12:37.000Z</time>
   </trkpt>
   <trkpt lat="-8.047923" lon="-34.894537">
    <ele>10.1</ele>
    <time>2020-01-16T21:12:38.000Z</time>
   </trkpt>
   <trkpt lat="-8.047905" lon="-34.894568">
    <ele>10.2</ele>
    <time>2020-01-16T21:12:39.000Z</time>
   </trkpt>
   <trkpt lat="-8.047887" lon="-34.89461">
    <ele>10.4</ele>
    <time>2020-01-16T21:12:40.000Z</time>
   </trkpt>
   <trkpt lat="-8.047874" lon="-34.894651">
    <ele>10.5</ele>
    <time>2020-01-16T21:12:41.000Z</time>
   </trkpt>
   <trkpt lat="-8.04786" lon="-34.894692">
    <ele>10.7</ele>
    <time>2020-01-16T21:12:42.000Z</time>
   </trkpt>
   <trkpt lat="-8.04785" lon="-34.894728">
    <ele>10.8</ele>
    <time>2020-01-16T21:12:43.000Z</time>
   </trkpt>
   <trkpt lat="-8.047837" lon="-34.894759">
    <ele>10.8</ele>
    <time>2020-01-16T21:12:44.000Z</time>
   </trkpt>
   <trkpt lat="-8.047818" lon="-34.894795">
    <ele>10.9</ele>
    <time>2020-01-16T21:12:45.000Z</time>
   </trkpt>
   <trkpt lat="-8.0478" lon="-34.894833">
    <ele>11</ele>
    <time>2020-01-16T21:12:46.000Z</time>
   </trkpt>
   <trkpt lat="-8.047784" lon="-34.894866">
    <ele>11.1</ele>
    <time>2020-01-16T21:12:47.000Z</time>
   </trkpt>
   <trkpt lat="-8.047768" lon="-34.894894">
    <ele>11.2</ele>
    <time>2020-01-16T21:12:48.000Z</time>
   </trkpt>
   <trkpt lat="-8.047744" lon="-34.89492">
    <ele>11.2</ele>
    <time>2020-01-16T21:12:49.000Z</time>
   </trkpt>
   <trkpt lat="-8.047723" lon="-34.894956">
    <ele>11.4</ele>
    <time>2020-01-16T21:12:50.000Z</time>
   </trkpt>
   <trkpt lat="-8.047705" lon="-34.89499">
    <ele>11.5</ele>
    <time>2020-01-16T21:12:51.000Z</time>
   </trkpt>
   <trkpt lat="-8.047686" lon="-34.895068">
    <ele>11.7</ele>
    <time>2020-01-16T21:12:52.000Z</time>
   </trkpt>
   <trkpt lat="-8.047682" lon="-34.895096">
    <ele>11.8</ele>
    <time>2020-01-16T21:12:53.000Z</time>
   </trkpt>
   <trkpt lat="-8.047688" lon="-34.895134">
    <ele>11.4</ele>
    <time>2020-01-16T21:12:54.000Z</time>
   </trkpt>
   <trkpt lat="-8.047711" lon="-34.895163">
    <ele>11.3</ele>
    <time>2020-01-16T21:12:55.000Z</time>
   </trkpt>
   <trkpt lat="-8.047732" lon="-34.895187">
    <ele>11.2</ele>
    <time>2020-01-16T21:12:56.000Z</time>
   </trkpt>
   <trkpt lat="-8.047753" lon="-34.895209">
    <ele>11</ele>
    <time>2020-01-16T21:12:57.000Z</time>
   </trkpt>
   <trkpt lat="-8.047775" lon="-34.895226">
    <ele>10.9</ele>
    <time>2020-01-16T21:12:58.000Z</time>
   </trkpt>
   <trkpt lat="-8.047813" lon="-34.89526">
    <ele>10.7</ele>
    <time>2020-01-16T21:12:59.000Z</time>
   </trkpt>
   <trkpt lat="-8.047868" lon="-34.895304">
    <ele>10.5</ele>
    <time>2020-01-16T21:13:00.000Z</time>
   </trkpt>
   <trkpt lat="-8.047915" lon="-34.895334">
    <ele>10.3</ele>
    <time>2020-01-16T21:13:01.000Z</time>
   </trkpt>
   <trkpt lat="-8.047959" lon="-34.895358">
    <ele>10.1</ele>
    <time>2020-01-16T21:13:02.000Z</time>
   </trkpt>
   <trkpt lat="-8.047998" lon="-34.895383">
    <ele>9.9</ele>
    <time>2020-01-16T21:13:03.000Z</time>
   </trkpt>
   <trkpt lat="-8.04804" lon="-34.895411">
    <ele>9.6</ele>
    <time>2020-01-16T21:13:04.000Z</time>
   </trkpt>
   <trkpt lat="-8.048092" lon="-34.89546">
    <ele>9.4</ele>
    <time>2020-01-16T21:13:05.000Z</time>
   </trkpt>
   <trkpt lat="-8.048134" lon="-34.895486">
    <ele>9.2</ele>
    <time>2020-01-16T21:13:06.000Z</time>
   </trkpt>
   <trkpt lat="-8.048176" lon="-34.895524">
    <ele>9</ele>
    <time>2020-01-16T21:13:07.000Z</time>
   </trkpt>
   <trkpt lat="-8.048214" lon="-34.895563">
    <ele>8.9</ele>
    <time>2020-01-16T21:13:08.000Z</time>
   </trkpt>
   <trkpt lat="-8.048268" lon="-34.895607">
    <ele>9.4</ele>
    <time>2020-01-16T21:13:09.000Z</time>
   </trkpt>
   <trkpt lat="-8.048306" lon="-34.895643">
    <ele>9.7</ele>
    <time>2020-01-16T21:13:10.000Z</time>
   </trkpt>
   <trkpt lat="-8.048334" lon="-34.895678">
    <ele>9.9</ele>
    <time>2020-01-16T21:13:11.000Z</time>
   </trkpt>
   <trkpt lat="-8.048367" lon="-34.895721">
    <ele>10.2</ele>
    <time>2020-01-16T21:13:12.000Z</time>
   </trkpt>
   <trkpt lat="-8.048393" lon="-34.895761">
    <ele>10.4</ele>
    <time>2020-01-16T21:13:13.000Z</time>
   </trkpt>
   <trkpt lat="-8.048432" lon="-34.895798">
    <ele>10.6</ele>
    <time>2020-01-16T21:13:14.000Z</time>
   </trkpt>
   <trkpt lat="-8.048457" lon="-34.895847">
    <ele>10.8</ele>
    <time>2020-01-16T21:13:15.000Z</time>
   </trkpt>
   <trkpt lat="-8.048492" lon="-34.895888">
    <ele>10.9</ele>
    <time>2020-01-16T21:13:16.000Z</time>
   </trkpt>
   <trkpt lat="-8.048527" lon="-34.895931">
    <ele>11.1</ele>
    <time>2020-01-16T21:13:17.000Z</time>
   </trkpt>
   <trkpt lat="-8.048555" lon="-34.89597">
    <ele>11.3</ele>
    <time>2020-01-16T21:13:18.000Z</time>
   </trkpt>
   <trkpt lat="-8.048593" lon="-34.896011">
    <ele>11.5</ele>
    <time>2020-01-16T21:13:19.000Z</time>
   </trkpt>
   <trkpt lat="-8.04863" lon="-34.896048">
    <ele>11.7</ele>
    <time>2020-01-16T21:13:20.000Z</time>
   </trkpt>
   <trkpt lat="-8.048667" lon="-34.896087">
    <ele>11.8</ele>
    <time>2020-01-16T21:13:21.000Z</time>
   </trkpt>
   <trkpt lat="-8.048706" lon="-34.896128">
    <ele>11.8</ele>
    <time>2020-01-16T21:13:22.000Z</time>
   </trkpt>
   <trkpt lat="-8.048746" lon="-34.896168">
    <ele>11.9</ele>
    <time>2020-01-16T21:13:23.000Z</time>
   </trkpt>
   <trkpt lat="-8.048777" lon="-34.896208">
    <ele>11.9</ele>
    <time>2020-01-16T21:13:24.000Z</time>
   </trkpt>
   <trkpt lat="-8.048811" lon="-34.896248">
    <ele>12</ele>
    <time>2020-01-16T21:13:25.000Z</time>
   </trkpt>
   <trkpt lat="-8.048842" lon="-34.896282">
    <ele>12</ele>
    <time>2020-01-16T21:13:26.000Z</time>
   </trkpt>
   <trkpt lat="-8.048864" lon="-34.896302">
    <ele>12</ele>
    <time>2020-01-16T21:13:27.000Z</time>
   </trkpt>
   <trkpt lat="-8.048885" lon="-34.896341">
    <ele>12.1</ele>
    <time>2020-01-16T21:13:28.000Z</time>
   </trkpt>
   <trkpt lat="-8.048903" lon="-34.896379">
    <ele>12.1</ele>
    <time>2020-01-16T21:13:29.000Z</time>
   </trkpt>
   <trkpt lat="-8.048901" lon="-34.89641">
    <ele>12.1</ele>
    <time>2020-01-16T21:13:30.000Z</time>
   </trkpt>
   <trkpt lat="-8.048881" lon="-34.896451">
    <ele>12.1</ele>
    <time>2020-01-16T21:13:31.000Z</time>
   </trkpt>
   <trkpt lat="-8.048847" lon="-34.896485">
    <ele>12.1</ele>
    <time>2020-01-16T21:13:32.000Z</time>
   </trkpt>
   <trkpt lat="-8.048803" lon="-34.896523">
    <ele>12</ele>
    <time>2020-01-16T21:13:33.000Z</time>
   </trkpt>
   <trkpt lat="-8.048746" lon="-34.896549">
    <ele>11.7</ele>
    <time>2020-01-16T21:13:34.000Z</time>
   </trkpt>
   <trkpt lat="-8.048711" lon="-34.896569">
    <ele>11.5</ele>
    <time>2020-01-16T21:13:35.000Z</time>
   </trkpt>
   <trkpt lat="-8.048659" lon="-34.896596">
    <ele>11.3</ele>
    <time>2020-01-16T21:13:36.000Z</time>
   </trkpt>
   <trkpt lat="-8.048609" lon="-34.896617">
    <ele>11.1</ele>
    <time>2020-01-16T21:13:37.000Z</time>
   </trkpt>
   <trkpt lat="-8.04857" lon="-34.896629">
    <ele>10.9</ele>
    <time>2020-01-16T21:13:38.000Z</time>
   </trkpt>
   <trkpt lat="-8.048534" lon="-34.896643">
    <ele>10.8</ele>
    <time>2020-01-16T21:13:39.000Z</time>
   </trkpt>
   <trkpt lat="-8.048503" lon="-34.896654">
    <ele>10.7</ele>
    <time>2020-01-16T21:13:40.000Z</time>
   </trkpt>
   <trkpt lat="-8.048465" lon="-34.896681">
    <ele>10.6</ele>
    <time>2020-01-16T21:13:41.000Z</time>
   </trkpt>
   <trkpt lat="-8.048426" lon="-34.896697">
    <ele>10.4</ele>
    <time>2020-01-16T21:13:42.000Z</time>
   </trkpt>
   <trkpt lat="-8.048374" lon="-34.896721">
    <ele>10.3</ele>
    <time>2020-01-16T21:13:43.000Z</time>
   </trkpt>
   <trkpt lat="-8.048324" lon="-34.896745">
    <ele>10.2</ele>
    <time>2020-01-16T21:13:44.000Z</time>
   </trkpt>
   <trkpt lat="-8.048291" lon="-34.896767">
    <ele>10.1</ele>
    <time>2020-01-16T21:13:45.000Z</time>
   </trkpt>
   <trkpt lat="-8.048248" lon="-34.896787">
    <ele>10.2</ele>
    <time>2020-01-16T21:13:46.000Z</time>
   </trkpt>
   <trkpt lat="-8.048208" lon="-34.896805">
    <ele>10.4</ele>
    <time>2020-01-16T21:13:47.000Z</time>
   </trkpt>
   <trkpt lat="-8.048168" lon="-34.896823">
    <ele>10.6</ele>
    <time>2020-01-16T21:13:48.000Z</time>
   </trkpt>
   <trkpt lat="-8.048108" lon="-34.896836">
    <ele>10.9</ele>
    <time>2020-01-16T21:13:49.000Z</time>
   </trkpt>
   <trkpt lat="-8.048055" lon="-34.896842">
    <ele>11.2</ele>
    <time>2020-01-16T21:13:50.000Z</time>
   </trkpt>
   <trkpt lat="-8.048002" lon="-34.896851">
    <ele>11.6</ele>
    <time>2020-01-16T21:13:51.000Z</time>
   </trkpt>
   <trkpt lat="-8.047958" lon="-34.896866">
    <ele>11.9</ele>
    <time>2020-01-16T21:13:52.000Z</time>
   </trkpt>
   <trkpt lat="-8.047908" lon="-34.896881">
    <ele>12.2</ele>
    <time>2020-01-16T21:13:53.000Z</time>
   </trkpt>
   <trkpt lat="-8.047863" lon="-34.896891">
    <ele>12.4</ele>
    <time>2020-01-16T21:13:54.000Z</time>
   </trkpt>
   <trkpt lat="-8.047819" lon="-34.896898">
    <ele>12.5</ele>
    <time>2020-01-16T21:13:55.000Z</time>
   </trkpt>
   <trkpt lat="-8.047766" lon="-34.896921">
    <ele>12.7</ele>
    <time>2020-01-16T21:13:56.000Z</time>
   </trkpt>
   <trkpt lat="-8.047714" lon="-34.896929">
    <ele>12.8</ele>
    <time>2020-01-16T21:13:57.000Z</time>
   </trkpt>
   <trkpt lat="-8.047661" lon="-34.896936">
    <ele>13</ele>
    <time>2020-01-16T21:13:58.000Z</time>
   </trkpt>
   <trkpt lat="-8.047607" lon="-34.896927">
    <ele>13.2</ele>
    <time>2020-01-16T21:13:59.000Z</time>
   </trkpt>
   <trkpt lat="-8.047575" lon="-34.896913">
    <ele>13.3</ele>
    <time>2020-01-16T21:14:00.000Z</time>
   </trkpt>
   <trkpt lat="-8.047548" lon="-34.896889">
    <ele>13.8</ele>
    <time>2020-01-16T21:14:01.000Z</time>
   </trkpt>
   <trkpt lat="-8.04752" lon="-34.896857">
    <ele>14</ele>
    <time>2020-01-16T21:14:02.000Z</time>
   </trkpt>
   <trkpt lat="-8.047497" lon="-34.896825">
    <ele>14.1</ele>
    <time>2020-01-16T21:14:03.000Z</time>
   </trkpt>
   <trkpt lat="-8.047472" lon="-34.896775">
    <ele>14.3</ele>
    <time>2020-01-16T21:14:04.000Z</time>
   </trkpt>
   <trkpt lat="-8.047445" lon="-34.896725">
    <ele>14.5</ele>
    <time>2020-01-16T21:14:05.000Z</time>
   </trkpt>
   <trkpt lat="-8.047412" lon="-34.896684">
    <ele>14.8</ele>
    <time>2020-01-16T21:14:06.000Z</time>
   </trkpt>
   <trkpt lat="-8.047376" lon="-34.896629">
    <ele>15</ele>
    <time>2020-01-16T21:14:07.000Z</time>
   </trkpt>
   <trkpt lat="-8.047339" lon="-34.896579">
    <ele>15.3</ele>
    <time>2020-01-16T21:14:08.000Z</time>
   </trkpt>
   <trkpt lat="-8.047302" lon="-34.896536">
    <ele>15.5</ele>
    <time>2020-01-16T21:14:09.000Z</time>
   </trkpt>
   <trkpt lat="-8.047281" lon="-34.896496">
    <ele>15.8</ele>
    <time>2020-01-16T21:14:10.000Z</time>
   </trkpt>
   <trkpt lat="-8.047246" lon="-34.896448">
    <ele>16.1</ele>
    <time>2020-01-16T21:14:11.000Z</time>
   </trkpt>
   <trkpt lat="-8.04721" lon="-34.896407">
    <ele>16.5</ele>
    <time>2020-01-16T21:14:12.000Z</time>
   </trkpt>
   <trkpt lat="-8.047175" lon="-34.896368">
    <ele>16.9</ele>
    <time>2020-01-16T21:14:13.000Z</time>
   </trkpt>
   <trkpt lat="-8.04714" lon="-34.896322">
    <ele>17.2</ele>
    <time>2020-01-16T21:14:14.000Z</time>
   </trkpt>
   <trkpt lat="-8.047111" lon="-34.896267">
    <ele>17.6</ele>
    <time>2020-01-16T21:14:15.000Z</time>
   </trkpt>
   <trkpt lat="-8.047076" lon="-34.896219">
    <ele>17.9</ele>
    <time>2020-01-16T21:14:16.000Z</time>
   </trkpt>
   <trkpt lat="-8.04703" lon="-34.896179">
    <ele>18.2</ele>
    <time>2020-01-16T21:14:17.000Z</time>
   </trkpt>
   <trkpt lat="-8.046992" lon="-34.896115">
    <ele>18.6</ele>
    <time>2020-01-16T21:14:18.000Z</time>
   </trkpt>
   <trkpt lat="-8.046944" lon="-34.896085">
    <ele>18.9</ele>
    <time>2020-01-16T21:14:19.000Z</time>
   </trkpt>
   <trkpt lat="-8.046902" lon="-34.896043">
    <ele>19.1</ele>
    <time>2020-01-16T21:14:20.000Z</time>
   </trkpt>
   <trkpt lat="-8.046859" lon="-34.896006">
    <ele>19.4</ele>
    <time>2020-01-16T21:14:21.000Z</time>
   </trkpt>
   <trkpt lat="-8.046818" lon="-34.895964">
    <ele>19.7</ele>
    <time>2020-01-16T21:14:22.000Z</time>
   </trkpt>
   <trkpt lat="-8.04676" lon="-34.895931">
    <ele>20</ele>
    <time>2020-01-16T21:14:23.000Z</time>
   </trkpt>
   <trkpt lat="-8.046722" lon="-34.895903">
    <ele>20.2</ele>
    <time>2020-01-16T21:14:24.000Z</time>
   </trkpt>
   <trkpt lat="-8.046696" lon="-34.895876">
    <ele>20.4</ele>
    <time>2020-01-16T21:14:25.000Z</time>
   </trkpt>
   <trkpt lat="-8.046649" lon="-34.895858">
    <ele>20.6</ele>
    <time>2020-01-16T21:14:26.000Z</time>
   </trkpt>
   <trkpt lat="-8.04661" lon="-34.895831">
    <ele>20.8</ele>
    <time>2020-01-16T21:14:27.000Z</time>
   </trkpt>
   <trkpt lat="-8.046585" lon="-34.895807">
    <ele>21</ele>
    <time>2020-01-16T21:14:28.000Z</time>
   </trkpt>
   <trkpt lat="-8.046567" lon="-34.895788">
    <ele>21.1</ele>
    <time>2020-01-16T21:14:29.000Z</time>
   </trkpt>
   <trkpt lat="-8.046469" lon="-34.895736">
    <ele>21.6</ele>
    <time>2020-01-16T21:14:31.000Z</time>
   </trkpt>
   <trkpt lat="-8.046425" lon="-34.89572">
    <ele>21.8</ele>
    <time>2020-01-16T21:14:32.000Z</time>
   </trkpt>
   <trkpt lat="-8.046391" lon="-34.895713">
    <ele>21.9</ele>
    <time>2020-01-16T21:14:33.000Z</time>
   </trkpt>
   <trkpt lat="-8.046366" lon="-34.895709">
    <ele>22</ele>
    <time>2020-01-16T21:14:34.000Z</time>
   </trkpt>
   <trkpt lat="-8.046302" lon="-34.89568">
    <ele>22.3</ele>
    <time>2020-01-16T21:14:36.000Z</time>
   </trkpt>
   <trkpt lat="-8.046272" lon="-34.895649">
    <ele>22.4</ele>
    <time>2020-01-16T21:14:37.000Z</time>
   </trkpt>
   <trkpt lat="-8.04624" lon="-34.895634">
    <ele>22.5</ele>
    <time>2020-01-16T21:14:38.000Z</time>
   </trkpt>
   <trkpt lat="-8.046212" lon="-34.895617">
    <ele>22.6</ele>
    <time>2020-01-16T21:14:39.000Z</time>
   </trkpt>
   <trkpt lat="-8.046194" lon="-34.895603">
    <ele>22.7</ele>
    <time>2020-01-16T21:14:40.000Z</time>
   </trkpt>
   <trkpt lat="-8.046193" lon="-34.895573">
    <ele>22.7</ele>
    <time>2020-01-16T21:14:42.000Z</time>
   </trkpt>
   <trkpt lat="-8.046175" lon="-34.895537">
    <ele>22.8</ele>
    <time>2020-01-16T21:14:44.000Z</time>
   </trkpt>
   <trkpt lat="-8.046131" lon="-34.895541">
    <ele>22.9</ele>
    <time>2020-01-16T21:14:46.000Z</time>
   </trkpt>
   <trkpt lat="-8.046104" lon="-34.895543">
    <ele>23</ele>
    <time>2020-01-16T21:14:47.000Z</time>
   </trkpt>
   <trkpt lat="-8.046008" lon="-34.895509">
    <ele>23.3</ele>
    <time>2020-01-16T21:14:49.000Z</time>
   </trkpt>
   <trkpt lat="-8.045961" lon="-34.895483">
    <ele>23.5</ele>
    <time>2020-01-16T21:14:50.000Z</time>
   </trkpt>
   <trkpt lat="-8.045916" lon="-34.895462">
    <ele>23.6</ele>
    <time>2020-01-16T21:14:51.000Z</time>
   </trkpt>
   <trkpt lat="-8.045858" lon="-34.895429">
    <ele>24.2</ele>
    <time>2020-01-16T21:14:52.000Z</time>
   </trkpt>
   <trkpt lat="-8.045799" lon="-34.8954">
    <ele>23.6</ele>
    <time>2020-01-16T21:14:53.000Z</time>
   </trkpt>
   <trkpt lat="-8.045756" lon="-34.895364">
    <ele>23.1</ele>
    <time>2020-01-16T21:14:54.000Z</time>
   </trkpt>
   <trkpt lat="-8.045711" lon="-34.895327">
    <ele>22.5</ele>
    <time>2020-01-16T21:14:55.000Z</time>
   </trkpt>
   <trkpt lat="-8.045676" lon="-34.895289">
    <ele>22.1</ele>
    <time>2020-01-16T21:14:56.000Z</time>
   </trkpt>
   <trkpt lat="-8.045635" lon="-34.895262">
    <ele>21.8</ele>
    <time>2020-01-16T21:14:57.000Z</time>
   </trkpt>
   <trkpt lat="-8.045577" lon="-34.895228">
    <ele>21.3</ele>
    <time>2020-01-16T21:14:58.000Z</time>
   </trkpt>
   <trkpt lat="-8.045528" lon="-34.895201">
    <ele>21</ele>
    <time>2020-01-16T21:14:59.000Z</time>
   </trkpt>
   <trkpt lat="-8.045484" lon="-34.895177">
    <ele>20.7</ele>
    <time>2020-01-16T21:15:00.000Z</time>
   </trkpt>
   <trkpt lat="-8.045432" lon="-34.89514">
    <ele>20.5</ele>
    <time>2020-01-16T21:15:01.000Z</time>
   </trkpt>
   <trkpt lat="-8.045379" lon="-34.895104">
    <ele>20.1</ele>
    <time>2020-01-16T21:15:02.000Z</time>
   </trkpt>
   <trkpt lat="-8.045332" lon="-34.895071">
    <ele>19.7</ele>
    <time>2020-01-16T21:15:03.000Z</time>
   </trkpt>
   <trkpt lat="-8.045307" lon="-34.895029">
    <ele>19.4</ele>
    <time>2020-01-16T21:15:04.000Z</time>
   </trkpt>
   <trkpt lat="-8.045252" lon="-34.894987">
    <ele>18.9</ele>
    <time>2020-01-16T21:15:05.000Z</time>
   </trkpt>
   <trkpt lat="-8.045196" lon="-34.894942">
    <ele>18.5</ele>
    <time>2020-01-16T21:15:06.000Z</time>
   </trkpt>
   <trkpt lat="-8.045156" lon="-34.894894">
    <ele>18.2</ele>
    <time>2020-01-16T21:15:07.000Z</time>
   </trkpt>
   <trkpt lat="-8.045115" lon="-34.894846">
    <ele>17.9</ele>
    <time>2020-01-16T21:15:08.000Z</time>
   </trkpt>
   <trkpt lat="-8.045064" lon="-34.894788">
    <ele>17.5</ele>
    <time>2020-01-16T21:15:09.000Z</time>
   </trkpt>
   <trkpt lat="-8.045037" lon="-34.894724">
    <ele>17.2</ele>
    <time>2020-01-16T21:15:10.000Z</time>
   </trkpt>
   <trkpt lat="-8.045001" lon="-34.894682">
    <ele>16.9</ele>
    <time>2020-01-16T21:15:11.000Z</time>
   </trkpt>
   <trkpt lat="-8.044966" lon="-34.89464">
    <ele>16.7</ele>
    <time>2020-01-16T21:15:12.000Z</time>
   </trkpt>
   <trkpt lat="-8.044928" lon="-34.894601">
    <ele>16.4</ele>
    <time>2020-01-16T21:15:13.000Z</time>
   </trkpt>
   <trkpt lat="-8.044879" lon="-34.894561">
    <ele>16.1</ele>
    <time>2020-01-16T21:15:14.000Z</time>
   </trkpt>
   <trkpt lat="-8.044848" lon="-34.894538">
    <ele>15.9</ele>
    <time>2020-01-16T21:15:15.000Z</time>
   </trkpt>
   <trkpt lat="-8.044827" lon="-34.894504">
    <ele>15.7</ele>
    <time>2020-01-16T21:15:16.000Z</time>
   </trkpt>
   <trkpt lat="-8.044807" lon="-34.894481">
    <ele>15.5</ele>
    <time>2020-01-16T21:15:17.000Z</time>
   </trkpt>
   <trkpt lat="-8.044805" lon="-34.894454">
    <ele>15.4</ele>
    <time>2020-01-16T21:15:18.000Z</time>
   </trkpt>
   <trkpt lat="-8.044702" lon="-34.894383">
    <ele>14.8</ele>
    <time>2020-01-16T21:15:20.000Z</time>
   </trkpt>
   <trkpt lat="-8.044641" lon="-34.894358">
    <ele>14.5</ele>
    <time>2020-01-16T21:15:21.000Z</time>
   </trkpt>
   <trkpt lat="-8.044595" lon="-34.89434">
    <ele>14.3</ele>
    <time>2020-01-16T21:15:22.000Z</time>
   </trkpt>
   <trkpt lat="-8.044566" lon="-34.894318">
    <ele>14.2</ele>
    <time>2020-01-16T21:15:23.000Z</time>
   </trkpt>
   <trkpt lat="-8.044531" lon="-34.894298">
    <ele>14</ele>
    <time>2020-01-16T21:15:24.000Z</time>
   </trkpt>
   <trkpt lat="-8.044505" lon="-34.894284">
    <ele>13.9</ele>
    <time>2020-01-16T21:15:25.000Z</time>
   </trkpt>
   <trkpt lat="-8.044485" lon="-34.894278">
    <ele>13.9</ele>
    <time>2020-01-16T21:15:26.000Z</time>
   </trkpt>
   <trkpt lat="-8.04443" lon="-34.894243">
    <ele>13.5</ele>
    <time>2020-01-16T21:15:28.000Z</time>
   </trkpt>
   <trkpt lat="-8.044402" lon="-34.89422">
    <ele>13.6</ele>
    <time>2020-01-16T21:15:29.000Z</time>
   </trkpt>
   <trkpt lat="-8.044403" lon="-34.89418">
    <ele>13.7</ele>
    <time>2020-01-16T21:15:30.000Z</time>
   </trkpt>
   <trkpt lat="-8.044376" lon="-34.894138">
    <ele>13.8</ele>
    <time>2020-01-16T21:15:31.000Z</time>
   </trkpt>
   <trkpt lat="-8.044344" lon="-34.894095">
    <ele>13.9</ele>
    <time>2020-01-16T21:15:32.000Z</time>
   </trkpt>
   <trkpt lat="-8.044306" lon="-34.894056">
    <ele>14.1</ele>
    <time>2020-01-16T21:15:33.000Z</time>
   </trkpt>
   <trkpt lat="-8.044265" lon="-34.894015">
    <ele>14.2</ele>
    <time>2020-01-16T21:15:34.000Z</time>
   </trkpt>
   <trkpt lat="-8.044237" lon="-34.893985">
    <ele>14.3</ele>
    <time>2020-01-16T21:15:35.000Z</time>
   </trkpt>
   <trkpt lat="-8.044203" lon="-34.893952">
    <ele>14.4</ele>
    <time>2020-01-16T21:15:36.000Z</time>
   </trkpt>
   <trkpt lat="-8.04416" lon="-34.89392">
    <ele>14.5</ele>
    <time>2020-01-16T21:15:37.000Z</time>
   </trkpt>
   <trkpt lat="-8.044116" lon="-34.893911">
    <ele>14.5</ele>
    <time>2020-01-16T21:15:38.000Z</time>
   </trkpt>
   <trkpt lat="-8.044088" lon="-34.8939">
    <ele>14.5</ele>
    <time>2020-01-16T21:15:39.000Z</time>
   </trkpt>
   <trkpt lat="-8.044058" lon="-34.89388">
    <ele>14.6</ele>
    <time>2020-01-16T21:15:40.000Z</time>
   </trkpt>
   <trkpt lat="-8.044028" lon="-34.893866">
    <ele>14.6</ele>
    <time>2020-01-16T21:15:41.000Z</time>
   </trkpt>
   <trkpt lat="-8.044001" lon="-34.893851">
    <ele>14.6</ele>
    <time>2020-01-16T21:15:42.000Z</time>
   </trkpt>
   <trkpt lat="-8.043958" lon="-34.89382">
    <ele>14.6</ele>
    <time>2020-01-16T21:15:43.000Z</time>
   </trkpt>
   <trkpt lat="-8.043917" lon="-34.893782">
    <ele>14.6</ele>
    <time>2020-01-16T21:15:44.000Z</time>
   </trkpt>
   <trkpt lat="-8.043875" lon="-34.893742">
    <ele>14.6</ele>
    <time>2020-01-16T21:15:45.000Z</time>
   </trkpt>
   <trkpt lat="-8.043837" lon="-34.893723">
    <ele>14.7</ele>
    <time>2020-01-16T21:15:46.000Z</time>
   </trkpt>
   <trkpt lat="-8.043829" lon="-34.893715">
    <ele>14.7</ele>
    <time>2020-01-16T21:15:47.000Z</time>
   </trkpt>
   <trkpt lat="-8.043786" lon="-34.893706">
    <ele>14.7</ele>
    <time>2020-01-16T21:15:49.000Z</time>
   </trkpt>
   <trkpt lat="-8.043771" lon="-34.893693">
    <ele>14.7</ele>
    <time>2020-01-16T21:15:52.000Z</time>
   </trkpt>
   <trkpt lat="-8.043762" lon="-34.893694">
    <ele>14.7</ele>
    <time>2020-01-16T21:15:56.000Z</time>
   </trkpt>
   <trkpt lat="-8.043747" lon="-34.893636">
    <ele>14.8</ele>
    <time>2020-01-16T21:16:11.000Z</time>
   </trkpt>
   <trkpt lat="-8.043709" lon="-34.893595">
    <ele>15</ele>
    <time>2020-01-16T21:16:13.000Z</time>
   </trkpt>
   <trkpt lat="-8.043682" lon="-34.893569">
    <ele>15</ele>
    <time>2020-01-16T21:16:14.000Z</time>
   </trkpt>
   <trkpt lat="-8.043646" lon="-34.893533">
    <ele>15.2</ele>
    <time>2020-01-16T21:16:15.000Z</time>
   </trkpt>
   <trkpt lat="-8.043603" lon="-34.893499">
    <ele>15.3</ele>
    <time>2020-01-16T21:16:16.000Z</time>
   </trkpt>
   <trkpt lat="-8.043539" lon="-34.89347">
    <ele>15.5</ele>
    <time>2020-01-16T21:16:17.000Z</time>
   </trkpt>
   <trkpt lat="-8.04349" lon="-34.893451">
    <ele>15.5</ele>
    <time>2020-01-16T21:16:18.000Z</time>
   </trkpt>
   <trkpt lat="-8.04345" lon="-34.893435">
    <ele>15.6</ele>
    <time>2020-01-16T21:16:19.000Z</time>
   </trkpt>
   <trkpt lat="-8.043404" lon="-34.893407">
    <ele>15.7</ele>
    <time>2020-01-16T21:16:20.000Z</time>
   </trkpt>
   <trkpt lat="-8.043345" lon="-34.893371">
    <ele>15.7</ele>
    <time>2020-01-16T21:16:21.000Z</time>
   </trkpt>
   <trkpt lat="-8.043296" lon="-34.893337">
    <ele>15.7</ele>
    <time>2020-01-16T21:16:22.000Z</time>
   </trkpt>
   <trkpt lat="-8.043251" lon="-34.893297">
    <ele>15.7</ele>
    <time>2020-01-16T21:16:23.000Z</time>
   </trkpt>
   <trkpt lat="-8.043226" lon="-34.893276">
    <ele>15.8</ele>
    <time>2020-01-16T21:16:24.000Z</time>
   </trkpt>
   <trkpt lat="-8.04319" lon="-34.893253">
    <ele>15.8</ele>
    <time>2020-01-16T21:16:25.000Z</time>
   </trkpt>
   <trkpt lat="-8.043152" lon="-34.893225">
    <ele>15.8</ele>
    <time>2020-01-16T21:16:26.000Z</time>
   </trkpt>
   <trkpt lat="-8.04311" lon="-34.893176">
    <ele>15.9</ele>
    <time>2020-01-16T21:16:27.000Z</time>
   </trkpt>
   <trkpt lat="-8.043069" lon="-34.893137">
    <ele>16</ele>
    <time>2020-01-16T21:16:28.000Z</time>
   </trkpt>
   <trkpt lat="-8.043024" lon="-34.893097">
    <ele>16.2</ele>
    <time>2020-01-16T21:16:29.000Z</time>
   </trkpt>
   <trkpt lat="-8.042979" lon="-34.893071">
    <ele>16.3</ele>
    <time>2020-01-16T21:16:30.000Z</time>
   </trkpt>
   <trkpt lat="-8.042925" lon="-34.893038">
    <ele>16.4</ele>
    <time>2020-01-16T21:16:31.000Z</time>
   </trkpt>
   <trkpt lat="-8.042872" lon="-34.893">
    <ele>16.6</ele>
    <time>2020-01-16T21:16:32.000Z</time>
   </trkpt>
   <trkpt lat="-8.04281" lon="-34.892965">
    <ele>16.7</ele>
    <time>2020-01-16T21:16:33.000Z</time>
   </trkpt>
   <trkpt lat="-8.042749" lon="-34.892931">
    <ele>16.8</ele>
    <time>2020-01-16T21:16:34.000Z</time>
   </trkpt>
   <trkpt lat="-8.0427" lon="-34.892897">
    <ele>16.8</ele>
    <time>2020-01-16T21:16:35.000Z</time>
   </trkpt>
   <trkpt lat="-8.042664" lon="-34.892872">
    <ele>16.8</ele>
    <time>2020-01-16T21:16:36.000Z</time>
   </trkpt>
   <trkpt lat="-8.042626" lon="-34.892841">
    <ele>16.9</ele>
    <time>2020-01-16T21:16:37.000Z</time>
   </trkpt>
   <trkpt lat="-8.042587" lon="-34.892803">
    <ele>16.9</ele>
    <time>2020-01-16T21:16:38.000Z</time>
   </trkpt>
   <trkpt lat="-8.042553" lon="-34.892766">
    <ele>16.9</ele>
    <time>2020-01-16T21:16:39.000Z</time>
   </trkpt>
   <trkpt lat="-8.042498" lon="-34.892732">
    <ele>16.9</ele>
    <time>2020-01-16T21:16:40.000Z</time>
   </trkpt>
   <trkpt lat="-8.04244" lon="-34.892696">
    <ele>16.9</ele>
    <time>2020-01-16T21:16:41.000Z</time>
   </trkpt>
   <trkpt lat="-8.042394" lon="-34.892668">
    <ele>16.9</ele>
    <time>2020-01-16T21:16:42.000Z</time>
   </trkpt>
   <trkpt lat="-8.042355" lon="-34.892624">
    <ele>16.9</ele>
    <time>2020-01-16T21:16:43.000Z</time>
   </trkpt>
   <trkpt lat="-8.042327" lon="-34.89258">
    <ele>16.9</ele>
    <time>2020-01-16T21:16:44.000Z</time>
   </trkpt>
   <trkpt lat="-8.042285" lon="-34.892547">
    <ele>16.9</ele>
    <time>2020-01-16T21:16:45.000Z</time>
   </trkpt>
   <trkpt lat="-8.042258" lon="-34.892512">
    <ele>16.9</ele>
    <time>2020-01-16T21:16:46.000Z</time>
   </trkpt>
   <trkpt lat="-8.04223" lon="-34.892461">
    <ele>16.8</ele>
    <time>2020-01-16T21:16:47.000Z</time>
   </trkpt>
   <trkpt lat="-8.042196" lon="-34.892399">
    <ele>16.6</ele>
    <time>2020-01-16T21:16:48.000Z</time>
   </trkpt>
   <trkpt lat="-8.042164" lon="-34.892353">
    <ele>16.5</ele>
    <time>2020-01-16T21:16:49.000Z</time>
   </trkpt>
   <trkpt lat="-8.042116" lon="-34.892312">
    <ele>16.4</ele>
    <time>2020-01-16T21:16:50.000Z</time>
   </trkpt>
   <trkpt lat="-8.042073" lon="-34.89228">
    <ele>16.3</ele>
    <time>2020-01-16T21:16:51.000Z</time>
   </trkpt>
   <trkpt lat="-8.042035" lon="-34.892242">
    <ele>16.2</ele>
    <time>2020-01-16T21:16:52.000Z</time>
   </trkpt>
   <trkpt lat="-8.041999" lon="-34.892206">
    <ele>16.1</ele>
    <time>2020-01-16T21:16:53.000Z</time>
   </trkpt>
   <trkpt lat="-8.041947" lon="-34.892182">
    <ele>16</ele>
    <time>2020-01-16T21:16:54.000Z</time>
   </trkpt>
   <trkpt lat="-8.041903" lon="-34.892153">
    <ele>15.9</ele>
    <time>2020-01-16T21:16:55.000Z</time>
   </trkpt>
   <trkpt lat="-8.041855" lon="-34.892115">
    <ele>15.9</ele>
    <time>2020-01-16T21:16:56.000Z</time>
   </trkpt>
   <trkpt lat="-8.04182" lon="-34.892071">
    <ele>15.8</ele>
    <time>2020-01-16T21:16:57.000Z</time>
   </trkpt>
   <trkpt lat="-8.041782" lon="-34.892025">
    <ele>15.8</ele>
    <time>2020-01-16T21:16:58.000Z</time>
   </trkpt>
   <trkpt lat="-8.041751" lon="-34.891986">
    <ele>15.7</ele>
    <time>2020-01-16T21:16:59.000Z</time>
   </trkpt>
   <trkpt lat="-8.041718" lon="-34.891944">
    <ele>15.5</ele>
    <time>2020-01-16T21:17:00.000Z</time>
   </trkpt>
   <trkpt lat="-8.041689" lon="-34.891916">
    <ele>15.4</ele>
    <time>2020-01-16T21:17:01.000Z</time>
   </trkpt>
   <trkpt lat="-8.041664" lon="-34.891887">
    <ele>15.3</ele>
    <time>2020-01-16T21:17:02.000Z</time>
   </trkpt>
   <trkpt lat="-8.041647" lon="-34.891858">
    <ele>15.2</ele>
    <time>2020-01-16T21:17:03.000Z</time>
   </trkpt>
   <trkpt lat="-8.041618" lon="-34.891824">
    <ele>15.1</ele>
    <time>2020-01-16T21:17:04.000Z</time>
   </trkpt>
   <trkpt lat="-8.041582" lon="-34.89178">
    <ele>15</ele>
    <time>2020-01-16T21:17:05.000Z</time>
   </trkpt>
   <trkpt lat="-8.041551" lon="-34.891734">
    <ele>14.9</ele>
    <time>2020-01-16T21:17:06.000Z</time>
   </trkpt>
   <trkpt lat="-8.041522" lon="-34.891696">
    <ele>14.8</ele>
    <time>2020-01-16T21:17:07.000Z</time>
   </trkpt>
   <trkpt lat="-8.041501" lon="-34.891663">
    <ele>14.7</ele>
    <time>2020-01-16T21:17:08.000Z</time>
   </trkpt>
   <trkpt lat="-8.04148" lon="-34.89162">
    <ele>14.6</ele>
    <time>2020-01-16T21:17:09.000Z</time>
   </trkpt>
   <trkpt lat="-8.041455" lon="-34.891578">
    <ele>14.5</ele>
    <time>2020-01-16T21:17:10.000Z</time>
   </trkpt>
   <trkpt lat="-8.041412" lon="-34.891546">
    <ele>14.3</ele>
    <time>2020-01-16T21:17:11.000Z</time>
   </trkpt>
   <trkpt lat="-8.041354" lon="-34.891506">
    <ele>14.1</ele>
    <time>2020-01-16T21:17:12.000Z</time>
   </trkpt>
   <trkpt lat="-8.041327" lon="-34.891497">
    <ele>13.8</ele>
    <time>2020-01-16T21:17:13.000Z</time>
   </trkpt>
   <trkpt lat="-8.041293" lon="-34.891513">
    <ele>13.7</ele>
    <time>2020-01-16T21:17:14.000Z</time>
   </trkpt>
   <trkpt lat="-8.041245" lon="-34.891516">
    <ele>13.6</ele>
    <time>2020-01-16T21:17:15.000Z</time>
   </trkpt>
   <trkpt lat="-8.0412" lon="-34.891522">
    <ele>13.5</ele>
    <time>2020-01-16T21:17:16.000Z</time>
   </trkpt>
   <trkpt lat="-8.041152" lon="-34.891533">
    <ele>13.3</ele>
    <time>2020-01-16T21:17:17.000Z</time>
   </trkpt>
   <trkpt lat="-8.041108" lon="-34.891558">
    <ele>13.2</ele>
    <time>2020-01-16T21:17:18.000Z</time>
   </trkpt>
   <trkpt lat="-8.041072" lon="-34.89159">
    <ele>13.2</ele>
    <time>2020-01-16T21:17:19.000Z</time>
   </trkpt>
   <trkpt lat="-8.041037" lon="-34.891626">
    <ele>13.1</ele>
    <time>2020-01-16T21:17:20.000Z</time>
   </trkpt>
   <trkpt lat="-8.041" lon="-34.891654">
    <ele>13</ele>
    <time>2020-01-16T21:17:21.000Z</time>
   </trkpt>
   <trkpt lat="-8.04097" lon="-34.891672">
    <ele>13</ele>
    <time>2020-01-16T21:17:22.000Z</time>
   </trkpt>
   <trkpt lat="-8.04093" lon="-34.891694">
    <ele>13</ele>
    <time>2020-01-16T21:17:23.000Z</time>
   </trkpt>
   <trkpt lat="-8.040888" lon="-34.891725">
    <ele>13</ele>
    <time>2020-01-16T21:17:24.000Z</time>
   </trkpt>
   <trkpt lat="-8.040855" lon="-34.891746">
    <ele>13</ele>
    <time>2020-01-16T21:17:25.000Z</time>
   </trkpt>
   <trkpt lat="-8.040819" lon="-34.891767">
    <ele>13</ele>
    <time>2020-01-16T21:17:26.000Z</time>
   </trkpt>
   <trkpt lat="-8.040783" lon="-34.891778">
    <ele>13</ele>
    <time>2020-01-16T21:17:27.000Z</time>
   </trkpt>
   <trkpt lat="-8.040755" lon="-34.891784">
    <ele>13</ele>
    <time>2020-01-16T21:17:28.000Z</time>
   </trkpt>
   <trkpt lat="-8.040723" lon="-34.891797">
    <ele>13</ele>
    <time>2020-01-16T21:17:29.000Z</time>
   </trkpt>
   <trkpt lat="-8.040671" lon="-34.891803">
    <ele>13</ele>
    <time>2020-01-16T21:17:30.000Z</time>
   </trkpt>
   <trkpt lat="-8.040636" lon="-34.891806">
    <ele>13</ele>
    <time>2020-01-16T21:17:31.000Z</time>
   </trkpt>
   <trkpt lat="-8.040612" lon="-34.891802">
    <ele>13</ele>
    <time>2020-01-16T21:17:32.000Z</time>
   </trkpt>
   <trkpt lat="-8.040559" lon="-34.8918">
    <ele>13</ele>
    <time>2020-01-16T21:17:34.000Z</time>
   </trkpt>
   <trkpt lat="-8.040536" lon="-34.891768">
    <ele>12.9</ele>
    <time>2020-01-16T21:17:35.000Z</time>
   </trkpt>
   <trkpt lat="-8.040513" lon="-34.891732">
    <ele>12.8</ele>
    <time>2020-01-16T21:17:36.000Z</time>
   </trkpt>
   <trkpt lat="-8.040484" lon="-34.891693">
    <ele>12.7</ele>
    <time>2020-01-16T21:17:37.000Z</time>
   </trkpt>
   <trkpt lat="-8.040445" lon="-34.891656">
    <ele>12.5</ele>
    <time>2020-01-16T21:17:38.000Z</time>
   </trkpt>
   <trkpt lat="-8.040403" lon="-34.891609">
    <ele>12.3</ele>
    <time>2020-01-16T21:17:39.000Z</time>
   </trkpt>
   <trkpt lat="-8.040358" lon="-34.891564">
    <ele>12.1</ele>
    <time>2020-01-16T21:17:40.000Z</time>
   </trkpt>
   <trkpt lat="-8.040313" lon="-34.891522">
    <ele>11.9</ele>
    <time>2020-01-16T21:17:41.000Z</time>
   </trkpt>
   <trkpt lat="-8.040275" lon="-34.891477">
    <ele>11.7</ele>
    <time>2020-01-16T21:17:42.000Z</time>
   </trkpt>
   <trkpt lat="-8.040239" lon="-34.891433">
    <ele>11.5</ele>
    <time>2020-01-16T21:17:43.000Z</time>
   </trkpt>
   <trkpt lat="-8.040201" lon="-34.891399">
    <ele>11.3</ele>
    <time>2020-01-16T21:17:44.000Z</time>
   </trkpt>
   <trkpt lat="-8.040166" lon="-34.891367">
    <ele>11.2</ele>
    <time>2020-01-16T21:17:45.000Z</time>
   </trkpt>
   <trkpt lat="-8.040142" lon="-34.891339">
    <ele>11.1</ele>
    <time>2020-01-16T21:17:46.000Z</time>
   </trkpt>
   <trkpt lat="-8.04012" lon="-34.89131">
    <ele>10.9</ele>
    <time>2020-01-16T21:17:47.000Z</time>
   </trkpt>
   <trkpt lat="-8.040097" lon="-34.891279">
    <ele>10.8</ele>
    <time>2020-01-16T21:17:48.000Z</time>
   </trkpt>
   <trkpt lat="-8.040071" lon="-34.891237">
    <ele>10.7</ele>
    <time>2020-01-16T21:17:49.000Z</time>
   </trkpt>
   <trkpt lat="-8.040044" lon="-34.8912">
    <ele>10.6</ele>
    <time>2020-01-16T21:17:50.000Z</time>
   </trkpt>
   <trkpt lat="-8.040018" lon="-34.891175">
    <ele>10.6</ele>
    <time>2020-01-16T21:17:51.000Z</time>
   </trkpt>
   <trkpt lat="-8.040002" lon="-34.891146">
    <ele>10.5</ele>
    <time>2020-01-16T21:17:52.000Z</time>
   </trkpt>
   <trkpt lat="-8.03999" lon="-34.891132">
    <ele>10.7</ele>
    <time>2020-01-16T21:17:53.000Z</time>
   </trkpt>
   <trkpt lat="-8.039953" lon="-34.891097">
    <ele>11</ele>
    <time>2020-01-16T21:17:55.000Z</time>
   </trkpt>
   <trkpt lat="-8.039941" lon="-34.891074">
    <ele>11.2</ele>
    <time>2020-01-16T21:17:56.000Z</time>
   </trkpt>
   <trkpt lat="-8.03991" lon="-34.891016">
    <ele>11.8</ele>
    <time>2020-01-16T21:17:58.000Z</time>
   </trkpt>
   <trkpt lat="-8.039889" lon="-34.890984">
    <ele>12</ele>
    <time>2020-01-16T21:17:59.000Z</time>
   </trkpt>
   <trkpt lat="-8.039851" lon="-34.890943">
    <ele>12.3</ele>
    <time>2020-01-16T21:18:00.000Z</time>
   </trkpt>
   <trkpt lat="-8.039823" lon="-34.890921">
    <ele>12.5</ele>
    <time>2020-01-16T21:18:01.000Z</time>
   </trkpt>
   <trkpt lat="-8.039799" lon="-34.890884">
    <ele>12.7</ele>
    <time>2020-01-16T21:18:02.000Z</time>
   </trkpt>
   <trkpt lat="-8.039777" lon="-34.890851">
    <ele>12.9</ele>
    <time>2020-01-16T21:18:03.000Z</time>
   </trkpt>
   <trkpt lat="-8.039744" lon="-34.890804">
    <ele>12.9</ele>
    <time>2020-01-16T21:18:04.000Z</time>
   </trkpt>
   <trkpt lat="-8.03972" lon="-34.890762">
    <ele>12.8</ele>
    <time>2020-01-16T21:18:05.000Z</time>
   </trkpt>
   <trkpt lat="-8.03968" lon="-34.890727">
    <ele>12.5</ele>
    <time>2020-01-16T21:18:06.000Z</time>
   </trkpt>
   <trkpt lat="-8.039651" lon="-34.890697">
    <ele>12.3</ele>
    <time>2020-01-16T21:18:07.000Z</time>
   </trkpt>
   <trkpt lat="-8.039618" lon="-34.890671">
    <ele>12.2</ele>
    <time>2020-01-16T21:18:08.000Z</time>
   </trkpt>
   <trkpt lat="-8.039576" lon="-34.890637">
    <ele>12</ele>
    <time>2020-01-16T21:18:09.000Z</time>
   </trkpt>
   <trkpt lat="-8.039536" lon="-34.890607">
    <ele>11.7</ele>
    <time>2020-01-16T21:18:10.000Z</time>
   </trkpt>
   <trkpt lat="-8.039497" lon="-34.89058">
    <ele>11.5</ele>
    <time>2020-01-16T21:18:11.000Z</time>
   </trkpt>
   <trkpt lat="-8.039444" lon="-34.890566">
    <ele>11.3</ele>
    <time>2020-01-16T21:18:12.000Z</time>
   </trkpt>
   <trkpt lat="-8.039399" lon="-34.890556">
    <ele>11</ele>
    <time>2020-01-16T21:18:13.000Z</time>
   </trkpt>
   <trkpt lat="-8.039344" lon="-34.89053">
    <ele>11</ele>
    <time>2020-01-16T21:18:14.000Z</time>
   </trkpt>
   <trkpt lat="-8.039308" lon="-34.890521">
    <ele>10.9</ele>
    <time>2020-01-16T21:18:15.000Z</time>
   </trkpt>
   <trkpt lat="-8.039278" lon="-34.890511">
    <ele>10.9</ele>
    <time>2020-01-16T21:18:16.000Z</time>
   </trkpt>
   <trkpt lat="-8.039213" lon="-34.890504">
    <ele>10.7</ele>
    <time>2020-01-16T21:18:17.000Z</time>
   </trkpt>
   <trkpt lat="-8.039148" lon="-34.890484">
    <ele>10.5</ele>
    <time>2020-01-16T21:18:18.000Z</time>
   </trkpt>
   <trkpt lat="-8.039088" lon="-34.890477">
    <ele>10.2</ele>
    <time>2020-01-16T21:18:19.000Z</time>
   </trkpt>
   <trkpt lat="-8.03906" lon="-34.890468">
    <ele>10</ele>
    <time>2020-01-16T21:18:20.000Z</time>
   </trkpt>
   <trkpt lat="-8.039032" lon="-34.890443">
    <ele>9.5</ele>
    <time>2020-01-16T21:18:21.000Z</time>
   </trkpt>
   <trkpt lat="-8.038988" lon="-34.890422">
    <ele>9.1</ele>
    <time>2020-01-16T21:18:22.000Z</time>
   </trkpt>
   <trkpt lat="-8.038974" lon="-34.890409">
    <ele>8.9</ele>
    <time>2020-01-16T21:18:23.000Z</time>
   </trkpt>
   <trkpt lat="-8.038942" lon="-34.890375">
    <ele>8.7</ele>
    <time>2020-01-16T21:18:25.000Z</time>
   </trkpt>
   <trkpt lat="-8.038886" lon="-34.890332">
    <ele>8.6</ele>
    <time>2020-01-16T21:18:27.000Z</time>
   </trkpt>
   <trkpt lat="-8.038852" lon="-34.890311">
    <ele>8.7</ele>
    <time>2020-01-16T21:18:28.000Z</time>
   </trkpt>
   <trkpt lat="-8.038819" lon="-34.890292">
    <ele>8.8</ele>
    <time>2020-01-16T21:18:29.000Z</time>
   </trkpt>
   <trkpt lat="-8.038781" lon="-34.890267">
    <ele>8.8</ele>
    <time>2020-01-16T21:18:30.000Z</time>
   </trkpt>
   <trkpt lat="-8.038748" lon="-34.890246">
    <ele>8.8</ele>
    <time>2020-01-16T21:18:31.000Z</time>
   </trkpt>
   <trkpt lat="-8.038697" lon="-34.890235">
    <ele>8.9</ele>
    <time>2020-01-16T21:18:32.000Z</time>
   </trkpt>
   <trkpt lat="-8.038648" lon="-34.890219">
    <ele>9.1</ele>
    <time>2020-01-16T21:18:33.000Z</time>
   </trkpt>
   <trkpt lat="-8.038598" lon="-34.890213">
    <ele>9.6</ele>
    <time>2020-01-16T21:18:34.000Z</time>
   </trkpt>
   <trkpt lat="-8.038555" lon="-34.890204">
    <ele>10.1</ele>
    <time>2020-01-16T21:18:35.000Z</time>
   </trkpt>
   <trkpt lat="-8.038511" lon="-34.89018">
    <ele>10.7</ele>
    <time>2020-01-16T21:18:36.000Z</time>
   </trkpt>
   <trkpt lat="-8.038476" lon="-34.89015">
    <ele>11.2</ele>
    <time>2020-01-16T21:18:37.000Z</time>
   </trkpt>
   <trkpt lat="-8.038446" lon="-34.890123">
    <ele>11.4</ele>
    <time>2020-01-16T21:18:38.000Z</time>
   </trkpt>
   <trkpt lat="-8.038403" lon="-34.890101">
    <ele>11.7</ele>
    <time>2020-01-16T21:18:39.000Z</time>
   </trkpt>
   <trkpt lat="-8.038354" lon="-34.890095">
    <ele>11.7</ele>
    <time>2020-01-16T21:18:40.000Z</time>
   </trkpt>
   <trkpt lat="-8.038309" lon="-34.890086">
    <ele>11.7</ele>
    <time>2020-01-16T21:18:41.000Z</time>
   </trkpt>
   <trkpt lat="-8.038258" lon="-34.890061">
    <ele>11.7</ele>
    <time>2020-01-16T21:18:42.000Z</time>
   </trkpt>
   <trkpt lat="-8.038222" lon="-34.890048">
    <ele>11.8</ele>
    <time>2020-01-16T21:18:43.000Z</time>
   </trkpt>
   <trkpt lat="-8.038171" lon="-34.890028">
    <ele>12.1</ele>
    <time>2020-01-16T21:18:44.000Z</time>
   </trkpt>
   <trkpt lat="-8.038124" lon="-34.89001">
    <ele>12.3</ele>
    <time>2020-01-16T21:18:45.000Z</time>
   </trkpt>
   <trkpt lat="-8.038083" lon="-34.889993">
    <ele>12.5</ele>
    <time>2020-01-16T21:18:46.000Z</time>
   </trkpt>
   <trkpt lat="-8.038042" lon="-34.889974">
    <ele>12.6</ele>
    <time>2020-01-16T21:18:47.000Z</time>
   </trkpt>
   <trkpt lat="-8.038004" lon="-34.889954">
    <ele>12.6</ele>
    <time>2020-01-16T21:18:48.000Z</time>
   </trkpt>
   <trkpt lat="-8.03797" lon="-34.889943">
    <ele>12.6</ele>
    <time>2020-01-16T21:18:49.000Z</time>
   </trkpt>
   <trkpt lat="-8.037962" lon="-34.889941">
    <ele>12.5</ele>
    <time>2020-01-16T21:18:50.000Z</time>
   </trkpt>
   <trkpt lat="-8.037949" lon="-34.889929">
    <ele>12.5</ele>
    <time>2020-01-16T21:18:54.000Z</time>
   </trkpt>
   <trkpt lat="-8.037844" lon="-34.889863">
    <ele>12.2</ele>
    <time>2020-01-16T21:19:46.000Z</time>
   </trkpt>
   <trkpt lat="-8.037819" lon="-34.889859">
    <ele>12.1</ele>
    <time>2020-01-16T21:19:47.000Z</time>
   </trkpt>
   <trkpt lat="-8.037804" lon="-34.889837">
    <ele>12.1</ele>
    <time>2020-01-16T21:19:49.000Z</time>
   </trkpt>
   <trkpt lat="-8.037766" lon="-34.889839">
    <ele>12.1</ele>
    <time>2020-01-16T21:19:51.000Z</time>
   </trkpt>
   <trkpt lat="-8.037724" lon="-34.889886">
    <ele>11.9</ele>
    <time>2020-01-16T21:19:53.000Z</time>
   </trkpt>
   <trkpt lat="-8.037705" lon="-34.889916">
    <ele>11.8</ele>
    <time>2020-01-16T21:19:54.000Z</time>
   </trkpt>
   <trkpt lat="-8.037692" lon="-34.889943">
    <ele>11.8</ele>
    <time>2020-01-16T21:19:55.000Z</time>
   </trkpt>
   <trkpt lat="-8.037666" lon="-34.889968">
    <ele>11.7</ele>
    <time>2020-01-16T21:19:56.000Z</time>
   </trkpt>
   <trkpt lat="-8.037648" lon="-34.890007">
    <ele>11.5</ele>
    <time>2020-01-16T21:19:57.000Z</time>
   </trkpt>
   <trkpt lat="-8.037632" lon="-34.890054">
    <ele>11.4</ele>
    <time>2020-01-16T21:19:58.000Z</time>
   </trkpt>
   <trkpt lat="-8.03761" lon="-34.890094">
    <ele>11.3</ele>
    <time>2020-01-16T21:19:59.000Z</time>
   </trkpt>
   <trkpt lat="-8.037592" lon="-34.890137">
    <ele>11.2</ele>
    <time>2020-01-16T21:20:00.000Z</time>
   </trkpt>
   <trkpt lat="-8.037576" lon="-34.890175">
    <ele>11</ele>
    <time>2020-01-16T21:20:01.000Z</time>
   </trkpt>
   <trkpt lat="-8.03755" lon="-34.890203">
    <ele>11.2</ele>
    <time>2020-01-16T21:20:02.000Z</time>
   </trkpt>
   <trkpt lat="-8.037529" lon="-34.890234">
    <ele>11.3</ele>
    <time>2020-01-16T21:20:03.000Z</time>
   </trkpt>
   <trkpt lat="-8.03751" lon="-34.890267">
    <ele>11.4</ele>
    <time>2020-01-16T21:20:04.000Z</time>
   </trkpt>
   <trkpt lat="-8.037502" lon="-34.890294">
    <ele>11.5</ele>
    <time>2020-01-16T21:20:05.000Z</time>
   </trkpt>
   <trkpt lat="-8.037481" lon="-34.890325">
    <ele>11.6</ele>
    <time>2020-01-16T21:20:06.000Z</time>
   </trkpt>
   <trkpt lat="-8.037454" lon="-34.890353">
    <ele>11.7</ele>
    <time>2020-01-16T21:20:07.000Z</time>
   </trkpt>
   <trkpt lat="-8.037438" lon="-34.890385">
    <ele>11.7</ele>
    <time>2020-01-16T21:20:08.000Z</time>
   </trkpt>
   <trkpt lat="-8.037417" lon="-34.890404">
    <ele>11.8</ele>
    <time>2020-01-16T21:20:09.000Z</time>
   </trkpt>
   <trkpt lat="-8.037393" lon="-34.890422">
    <ele>11.9</ele>
    <time>2020-01-16T21:20:10.000Z</time>
   </trkpt>
   <trkpt lat="-8.037369" lon="-34.890443">
    <ele>12</ele>
    <time>2020-01-16T21:20:11.000Z</time>
   </trkpt>
   <trkpt lat="-8.037356" lon="-34.890472">
    <ele>12.1</ele>
    <time>2020-01-16T21:20:12.000Z</time>
   </trkpt>
   <trkpt lat="-8.037341" lon="-34.8905">
    <ele>12.1</ele>
    <time>2020-01-16T21:20:13.000Z</time>
   </trkpt>
   <trkpt lat="-8.03733" lon="-34.890522">
    <ele>12.1</ele>
    <time>2020-01-16T21:20:14.000Z</time>
   </trkpt>
   <trkpt lat="-8.037284" lon="-34.890561">
    <ele>11.7</ele>
    <time>2020-01-16T21:20:16.000Z</time>
   </trkpt>
   <trkpt lat="-8.037272" lon="-34.890596">
    <ele>11.5</ele>
    <time>2020-01-16T21:20:17.000Z</time>
   </trkpt>
   <trkpt lat="-8.037261" lon="-34.890629">
    <ele>11.3</ele>
    <time>2020-01-16T21:20:18.000Z</time>
   </trkpt>
   <trkpt lat="-8.037244" lon="-34.89066">
    <ele>11.1</ele>
    <time>2020-01-16T21:20:19.000Z</time>
   </trkpt>
   <trkpt lat="-8.037229" lon="-34.890695">
    <ele>10.9</ele>
    <time>2020-01-16T21:20:20.000Z</time>
   </trkpt>
   <trkpt lat="-8.037219" lon="-34.89073">
    <ele>10.7</ele>
    <time>2020-01-16T21:20:21.000Z</time>
   </trkpt>
   <trkpt lat="-8.037206" lon="-34.89077">
    <ele>10.5</ele>
    <time>2020-01-16T21:20:22.000Z</time>
   </trkpt>
   <trkpt lat="-8.037207" lon="-34.890818">
    <ele>10.2</ele>
    <time>2020-01-16T21:20:23.000Z</time>
   </trkpt>
   <trkpt lat="-8.037211" lon="-34.890867">
    <ele>9</ele>
    <time>2020-01-16T21:20:24.000Z</time>
   </trkpt>
   <trkpt lat="-8.037196" lon="-34.890914">
    <ele>8.2</ele>
    <time>2020-01-16T21:20:25.000Z</time>
   </trkpt>
   <trkpt lat="-8.037174" lon="-34.890964">
    <ele>7.6</ele>
    <time>2020-01-16T21:20:26.000Z</time>
   </trkpt>
   <trkpt lat="-8.037153" lon="-34.890996">
    <ele>7.4</ele>
    <time>2020-01-16T21:20:27.000Z</time>
   </trkpt>
   <trkpt lat="-8.037146" lon="-34.891023">
    <ele>7.5</ele>
    <time>2020-01-16T21:20:28.000Z</time>
   </trkpt>
   <trkpt lat="-8.037135" lon="-34.891041">
    <ele>7.4</ele>
    <time>2020-01-16T21:20:29.000Z</time>
   </trkpt>
   <trkpt lat="-8.037101" lon="-34.891067">
    <ele>7.3</ele>
    <time>2020-01-16T21:20:31.000Z</time>
   </trkpt>
   <trkpt lat="-8.037097" lon="-34.891097">
    <ele>7.3</ele>
    <time>2020-01-16T21:20:33.000Z</time>
   </trkpt>
   <trkpt lat="-8.037122" lon="-34.891138">
    <ele>7.3</ele>
    <time>2020-01-16T21:20:35.000Z</time>
   </trkpt>
   <trkpt lat="-8.037179" lon="-34.89115">
    <ele>7.2</ele>
    <time>2020-01-16T21:20:37.000Z</time>
   </trkpt>
   <trkpt lat="-8.0372" lon="-34.891163">
    <ele>7.1</ele>
    <time>2020-01-16T21:20:38.000Z</time>
   </trkpt>
   <trkpt lat="-8.037262" lon="-34.891199">
    <ele>8.1</ele>
    <time>2020-01-16T21:20:40.000Z</time>
   </trkpt>
   <trkpt lat="-8.037292" lon="-34.891224">
    <ele>8.5</ele>
    <time>2020-01-16T21:20:41.000Z</time>
   </trkpt>
   <trkpt lat="-8.037329" lon="-34.891235">
    <ele>8.9</ele>
    <time>2020-01-16T21:20:42.000Z</time>
   </trkpt>
   <trkpt lat="-8.037369" lon="-34.891256">
    <ele>9.3</ele>
    <time>2020-01-16T21:20:43.000Z</time>
   </trkpt>
   <trkpt lat="-8.037407" lon="-34.891284">
    <ele>9.7</ele>
    <time>2020-01-16T21:20:44.000Z</time>
   </trkpt>
   <trkpt lat="-8.037449" lon="-34.891311">
    <ele>10.1</ele>
    <time>2020-01-16T21:20:45.000Z</time>
   </trkpt>
   <trkpt lat="-8.037485" lon="-34.89134">
    <ele>10.4</ele>
    <time>2020-01-16T21:20:46.000Z</time>
   </trkpt>
   <trkpt lat="-8.037523" lon="-34.891362">
    <ele>10.6</ele>
    <time>2020-01-16T21:20:47.000Z</time>
   </trkpt>
   <trkpt lat="-8.037563" lon="-34.891397">
    <ele>10.9</ele>
    <time>2020-01-16T21:20:48.000Z</time>
   </trkpt>
   <trkpt lat="-8.037601" lon="-34.89142">
    <ele>11.1</ele>
    <time>2020-01-16T21:20:49.000Z</time>
   </trkpt>
   <trkpt lat="-8.037636" lon="-34.891449">
    <ele>11.3</ele>
    <time>2020-01-16T21:20:50.000Z</time>
   </trkpt>
   <trkpt lat="-8.037669" lon="-34.891481">
    <ele>11.5</ele>
    <time>2020-01-16T21:20:51.000Z</time>
   </trkpt>
   <trkpt lat="-8.037705" lon="-34.891491">
    <ele>11.6</ele>
    <time>2020-01-16T21:20:52.000Z</time>
   </trkpt>
   <trkpt lat="-8.03773" lon="-34.89153">
    <ele>11.8</ele>
    <time>2020-01-16T21:20:53.000Z</time>
   </trkpt>
   <trkpt lat="-8.037756" lon="-34.891554">
    <ele>11.9</ele>
    <time>2020-01-16T21:20:54.000Z</time>
   </trkpt>
   <trkpt lat="-8.037789" lon="-34.891554">
    <ele>12</ele>
    <time>2020-01-16T21:20:55.000Z</time>
   </trkpt>
   <trkpt lat="-8.037796" lon="-34.891566">
    <ele>12.1</ele>
    <time>2020-01-16T21:20:56.000Z</time>
   </trkpt>
   <trkpt lat="-8.03779" lon="-34.891568">
    <ele>12.1</ele>
    <time>2020-01-16T21:21:00.000Z</time>
   </trkpt>
   <trkpt lat="-8.037778" lon="-34.891565">
    <ele>12.1</ele>
    <time>2020-01-16T21:21:04.000Z</time>
   </trkpt>
   <trkpt lat="-8.037751" lon="-34.891626">
    <ele>11.5</ele>
    <time>2020-01-16T21:21:07.000Z</time>
   </trkpt>
   <trkpt lat="-8.037726" lon="-34.891654">
    <ele>11.3</ele>
    <time>2020-01-16T21:21:08.000Z</time>
   </trkpt>
   <trkpt lat="-8.037706" lon="-34.891683">
    <ele>11.1</ele>
    <time>2020-01-16T21:21:09.000Z</time>
   </trkpt>
   <trkpt lat="-8.037684" lon="-34.891707">
    <ele>10.9</ele>
    <time>2020-01-16T21:21:10.000Z</time>
   </trkpt>
   <trkpt lat="-8.037666" lon="-34.891742">
    <ele>10.7</ele>
    <time>2020-01-16T21:21:11.000Z</time>
   </trkpt>
   <trkpt lat="-8.037652" lon="-34.891767">
    <ele>10.6</ele>
    <time>2020-01-16T21:21:12.000Z</time>
   </trkpt>
   <trkpt lat="-8.037625" lon="-34.891781">
    <ele>10.5</ele>
    <time>2020-01-16T21:21:13.000Z</time>
   </trkpt>
   <trkpt lat="-8.037602" lon="-34.891809">
    <ele>10.4</ele>
    <time>2020-01-16T21:21:14.000Z</time>
   </trkpt>
   <trkpt lat="-8.037572" lon="-34.891841">
    <ele>10.2</ele>
    <time>2020-01-16T21:21:15.000Z</time>
   </trkpt>
   <trkpt lat="-8.03755" lon="-34.891878">
    <ele>10</ele>
    <time>2020-01-16T21:21:16.000Z</time>
   </trkpt>
   <trkpt lat="-8.037525" lon="-34.891917">
    <ele>9.7</ele>
    <time>2020-01-16T21:21:17.000Z</time>
   </trkpt>
   <trkpt lat="-8.037499" lon="-34.89196">
    <ele>9.5</ele>
    <time>2020-01-16T21:21:18.000Z</time>
   </trkpt>
   <trkpt lat="-8.037461" lon="-34.892004">
    <ele>9.1</ele>
    <time>2020-01-16T21:21:19.000Z</time>
   </trkpt>
   <trkpt lat="-8.03744" lon="-34.892049">
    <ele>8.9</ele>
    <time>2020-01-16T21:21:20.000Z</time>
   </trkpt>
   <trkpt lat="-8.037431" lon="-34.892101">
    <ele>8.5</ele>
    <time>2020-01-16T21:21:21.000Z</time>
   </trkpt>
   <trkpt lat="-8.037421" lon="-34.892148">
    <ele>8.6</ele>
    <time>2020-01-16T21:21:22.000Z</time>
   </trkpt>
   <trkpt lat="-8.037426" lon="-34.892198">
    <ele>8.7</ele>
    <time>2020-01-16T21:21:23.000Z</time>
   </trkpt>
   <trkpt lat="-8.037429" lon="-34.892247">
    <ele>8.7</ele>
    <time>2020-01-16T21:21:24.000Z</time>
   </trkpt>
   <trkpt lat="-8.037436" lon="-34.892304">
    <ele>8.9</ele>
    <time>2020-01-16T21:21:25.000Z</time>
   </trkpt>
   <trkpt lat="-8.037436" lon="-34.892362">
    <ele>9</ele>
    <time>2020-01-16T21:21:26.000Z</time>
   </trkpt>
   <trkpt lat="-8.037438" lon="-34.892419">
    <ele>9.1</ele>
    <time>2020-01-16T21:21:27.000Z</time>
   </trkpt>
   <trkpt lat="-8.03744" lon="-34.892476">
    <ele>9.2</ele>
    <time>2020-01-16T21:21:28.000Z</time>
   </trkpt>
   <trkpt lat="-8.037433" lon="-34.892528">
    <ele>9.3</ele>
    <time>2020-01-16T21:21:29.000Z</time>
   </trkpt>
   <trkpt lat="-8.037414" lon="-34.892581">
    <ele>9.4</ele>
    <time>2020-01-16T21:21:30.000Z</time>
   </trkpt>
   <trkpt lat="-8.037406" lon="-34.892622">
    <ele>9.5</ele>
    <time>2020-01-16T21:21:31.000Z</time>
   </trkpt>
   <trkpt lat="-8.037398" lon="-34.892671">
    <ele>9.6</ele>
    <time>2020-01-16T21:21:32.000Z</time>
   </trkpt>
   <trkpt lat="-8.037399" lon="-34.892719">
    <ele>9.7</ele>
    <time>2020-01-16T21:21:33.000Z</time>
   </trkpt>
   <trkpt lat="-8.037401" lon="-34.892779">
    <ele>9.8</ele>
    <time>2020-01-16T21:21:34.000Z</time>
   </trkpt>
   <trkpt lat="-8.037384" lon="-34.892825">
    <ele>10</ele>
    <time>2020-01-16T21:21:35.000Z</time>
   </trkpt>
   <trkpt lat="-8.037355" lon="-34.892842">
    <ele>9.9</ele>
    <time>2020-01-16T21:21:36.000Z</time>
   </trkpt>
   <trkpt lat="-8.037339" lon="-34.892847">
    <ele>9.8</ele>
    <time>2020-01-16T21:21:37.000Z</time>
   </trkpt>
   <trkpt lat="-8.037273" lon="-34.892826">
    <ele>9.6</ele>
    <time>2020-01-16T21:21:39.000Z</time>
   </trkpt>
   <trkpt lat="-8.037239" lon="-34.892814">
    <ele>9.4</ele>
    <time>2020-01-16T21:21:40.000Z</time>
   </trkpt>
   <trkpt lat="-8.037208" lon="-34.892804">
    <ele>9.3</ele>
    <time>2020-01-16T21:21:41.000Z</time>
   </trkpt>
   <trkpt lat="-8.037182" lon="-34.892793">
    <ele>9.2</ele>
    <time>2020-01-16T21:21:42.000Z</time>
   </trkpt>
   <trkpt lat="-8.037159" lon="-34.89278">
    <ele>9.1</ele>
    <time>2020-01-16T21:21:43.000Z</time>
   </trkpt>
   <trkpt lat="-8.037115" lon="-34.892763">
    <ele>8.9</ele>
    <time>2020-01-16T21:21:45.000Z</time>
   </trkpt>
   <trkpt lat="-8.037071" lon="-34.892755">
    <ele>8.8</ele>
    <time>2020-01-16T21:21:47.000Z</time>
   </trkpt>
   <trkpt lat="-8.037016" lon="-34.892743">
    <ele>8.6</ele>
    <time>2020-01-16T21:21:49.000Z</time>
   </trkpt>
   <trkpt lat="-8.036977" lon="-34.892719">
    <ele>8.4</ele>
    <time>2020-01-16T21:21:51.000Z</time>
   </trkpt>
   <trkpt lat="-8.036954" lon="-34.892719">
    <ele>8.3</ele>
    <time>2020-01-16T21:21:52.000Z</time>
   </trkpt>
   <trkpt lat="-8.036932" lon="-34.892735">
    <ele>8.3</ele>
    <time>2020-01-16T21:21:54.000Z</time>
   </trkpt>
   <trkpt lat="-8.036918" lon="-34.892752">
    <ele>8.2</ele>
    <time>2020-01-16T21:21:56.000Z</time>
   </trkpt>
   <trkpt lat="-8.0369" lon="-34.892767">
    <ele>8.1</ele>
    <time>2020-01-16T21:21:59.000Z</time>
   </trkpt>
   <trkpt lat="-8.036876" lon="-34.892803">
    <ele>8</ele>
    <time>2020-01-16T21:22:02.000Z</time>
   </trkpt>
   <trkpt lat="-8.036829" lon="-34.892871">
    <ele>7.7</ele>
    <time>2020-01-16T21:22:05.000Z</time>
   </trkpt>
  </trkseg>
 </trk>
</gpx>
