<?xml version="1.0" encoding="UTF-8"?>
<gpx creator="StravaGPX" version="1.1" xmlns="http://www.topografix.com/GPX/1/1">
 <metadata>
  <time>2019-11-11T22:39:47Z</time>
 </metadata>
 <trk>
  <name>Evening Ride</name>
  <type>1</type>
  <trkseg>
   <trkpt lat="-8.065393" lon="-34.896592">
    <ele>4.1</ele>
    <time>2019-11-11T22:39:47.000Z</time>
   </trkpt>
   <trkpt lat="-8.065129" lon="-34.896605">
    <ele>4.4</ele>
    <time>2019-11-11T22:40:53.000Z</time>
   </trkpt>
   <trkpt lat="-8.065115" lon="-34.896628">
    <ele>4.4</ele>
    <time>2019-11-11T22:40:54.000Z</time>
   </trkpt>
   <trkpt lat="-8.065097" lon="-34.896656">
    <ele>4.4</ele>
    <time>2019-11-11T22:40:55.000Z</time>
   </trkpt>
   <trkpt lat="-8.065121" lon="-34.896701">
    <ele>4.5</ele>
    <time>2019-11-11T22:40:57.000Z</time>
   </trkpt>
   <trkpt lat="-8.06515" lon="-34.896741">
    <ele>4.5</ele>
    <time>2019-11-11T22:40:59.000Z</time>
   </trkpt>
   <trkpt lat="-8.06517" lon="-34.896763">
    <ele>4.6</ele>
    <time>2019-11-11T22:41:00.000Z</time>
   </trkpt>
   <trkpt lat="-8.065194" lon="-34.89679">
    <ele>4.6</ele>
    <time>2019-11-11T22:41:01.000Z</time>
   </trkpt>
   <trkpt lat="-8.065213" lon="-34.896818">
    <ele>4.7</ele>
    <time>2019-11-11T22:41:02.000Z</time>
   </trkpt>
   <trkpt lat="-8.065192" lon="-34.896849">
    <ele>4.7</ele>
    <time>2019-11-11T22:41:03.000Z</time>
   </trkpt>
   <trkpt lat="-8.065215" lon="-34.896884">
    <ele>4.8</ele>
    <time>2019-11-11T22:41:05.000Z</time>
   </trkpt>
   <trkpt lat="-8.065226" lon="-34.896928">
    <ele>5</ele>
    <time>2019-11-11T22:41:07.000Z</time>
   </trkpt>
   <trkpt lat="-8.065216" lon="-34.896966">
    <ele>5</ele>
    <time>2019-11-11T22:41:09.000Z</time>
   </trkpt>
   <trkpt lat="-8.065193" lon="-34.896987">
    <ele>5</ele>
    <time>2019-11-11T22:41:11.000Z</time>
   </trkpt>
   <trkpt lat="-8.065157" lon="-34.896985">
    <ele>5</ele>
    <time>2019-11-11T22:41:13.000Z</time>
   </trkpt>
   <trkpt lat="-8.065122" lon="-34.89698">
    <ele>5</ele>
    <time>2019-11-11T22:41:14.000Z</time>
   </trkpt>
   <trkpt lat="-8.065087" lon="-34.896981">
    <ele>5.1</ele>
    <time>2019-11-11T22:41:15.000Z</time>
   </trkpt>
   <trkpt lat="-8.065042" lon="-34.896987">
    <ele>5.1</ele>
    <time>2019-11-11T22:41:16.000Z</time>
   </trkpt>
   <trkpt lat="-8.06499" lon="-34.896995">
    <ele>5.1</ele>
    <time>2019-11-11T22:41:17.000Z</time>
   </trkpt>
   <trkpt lat="-8.064939" lon="-34.896996">
    <ele>5.2</ele>
    <time>2019-11-11T22:41:18.000Z</time>
   </trkpt>
   <trkpt lat="-8.064886" lon="-34.897001">
    <ele>5.2</ele>
    <time>2019-11-11T22:41:19.000Z</time>
   </trkpt>
   <trkpt lat="-8.064829" lon="-34.897012">
    <ele>5.2</ele>
    <time>2019-11-11T22:41:20.000Z</time>
   </trkpt>
   <trkpt lat="-8.064772" lon="-34.897027">
    <ele>5.2</ele>
    <time>2019-11-11T22:41:21.000Z</time>
   </trkpt>
   <trkpt lat="-8.064714" lon="-34.897045">
    <ele>5.3</ele>
    <time>2019-11-11T22:41:22.000Z</time>
   </trkpt>
   <trkpt lat="-8.064656" lon="-34.897057">
    <ele>5.2</ele>
    <time>2019-11-11T22:41:23.000Z</time>
   </trkpt>
   <trkpt lat="-8.064599" lon="-34.89707">
    <ele>5.2</ele>
    <time>2019-11-11T22:41:24.000Z</time>
   </trkpt>
   <trkpt lat="-8.064542" lon="-34.897082">
    <ele>5.1</ele>
    <time>2019-11-11T22:41:25.000Z</time>
   </trkpt>
   <trkpt lat="-8.064492" lon="-34.897096">
    <ele>5</ele>
    <time>2019-11-11T22:41:26.000Z</time>
   </trkpt>
   <trkpt lat="-8.06444" lon="-34.897106">
    <ele>5.1</ele>
    <time>2019-11-11T22:41:27.000Z</time>
   </trkpt>
   <trkpt lat="-8.064391" lon="-34.897115">
    <ele>5.2</ele>
    <time>2019-11-11T22:41:28.000Z</time>
   </trkpt>
   <trkpt lat="-8.064342" lon="-34.897101">
    <ele>5.3</ele>
    <time>2019-11-11T22:41:29.000Z</time>
   </trkpt>
   <trkpt lat="-8.064295" lon="-34.897094">
    <ele>5.3</ele>
    <time>2019-11-11T22:41:30.000Z</time>
   </trkpt>
   <trkpt lat="-8.064249" lon="-34.89711">
    <ele>5.4</ele>
    <time>2019-11-11T22:41:31.000Z</time>
   </trkpt>
   <trkpt lat="-8.064191" lon="-34.897121">
    <ele>5.5</ele>
    <time>2019-11-11T22:41:32.000Z</time>
   </trkpt>
   <trkpt lat="-8.064125" lon="-34.89713">
    <ele>5.5</ele>
    <time>2019-11-11T22:41:33.000Z</time>
   </trkpt>
   <trkpt lat="-8.064065" lon="-34.897135">
    <ele>5.5</ele>
    <time>2019-11-11T22:41:34.000Z</time>
   </trkpt>
   <trkpt lat="-8.064" lon="-34.897136">
    <ele>5.6</ele>
    <time>2019-11-11T22:41:35.000Z</time>
   </trkpt>
   <trkpt lat="-8.063931" lon="-34.897135">
    <ele>5.6</ele>
    <time>2019-11-11T22:41:36.000Z</time>
   </trkpt>
   <trkpt lat="-8.063862" lon="-34.897136">
    <ele>5.6</ele>
    <time>2019-11-11T22:41:37.000Z</time>
   </trkpt>
   <trkpt lat="-8.063798" lon="-34.897154">
    <ele>5.6</ele>
    <time>2019-11-11T22:41:38.000Z</time>
   </trkpt>
   <trkpt lat="-8.063746" lon="-34.897178">
    <ele>5.5</ele>
    <time>2019-11-11T22:41:39.000Z</time>
   </trkpt>
   <trkpt lat="-8.063694" lon="-34.897187">
    <ele>5.4</ele>
    <time>2019-11-11T22:41:40.000Z</time>
   </trkpt>
   <trkpt lat="-8.063646" lon="-34.897194">
    <ele>5.4</ele>
    <time>2019-11-11T22:41:41.000Z</time>
   </trkpt>
   <trkpt lat="-8.063597" lon="-34.897191">
    <ele>5.3</ele>
    <time>2019-11-11T22:41:42.000Z</time>
   </trkpt>
   <trkpt lat="-8.063549" lon="-34.897187">
    <ele>5.3</ele>
    <time>2019-11-11T22:41:43.000Z</time>
   </trkpt>
   <trkpt lat="-8.063499" lon="-34.897182">
    <ele>5.2</ele>
    <time>2019-11-11T22:41:44.000Z</time>
   </trkpt>
   <trkpt lat="-8.06345" lon="-34.897181">
    <ele>5.2</ele>
    <time>2019-11-11T22:41:45.000Z</time>
   </trkpt>
   <trkpt lat="-8.063409" lon="-34.897187">
    <ele>5.1</ele>
    <time>2019-11-11T22:41:46.000Z</time>
   </trkpt>
   <trkpt lat="-8.063372" lon="-34.897186">
    <ele>5.1</ele>
    <time>2019-11-11T22:41:47.000Z</time>
   </trkpt>
   <trkpt lat="-8.063329" lon="-34.897185">
    <ele>5</ele>
    <time>2019-11-11T22:41:48.000Z</time>
   </trkpt>
   <trkpt lat="-8.063286" lon="-34.89719">
    <ele>4.9</ele>
    <time>2019-11-11T22:41:49.000Z</time>
   </trkpt>
   <trkpt lat="-8.063245" lon="-34.897191">
    <ele>4.8</ele>
    <time>2019-11-11T22:41:50.000Z</time>
   </trkpt>
   <trkpt lat="-8.063208" lon="-34.897197">
    <ele>4.8</ele>
    <time>2019-11-11T22:41:51.000Z</time>
   </trkpt>
   <trkpt lat="-8.06317" lon="-34.897194">
    <ele>4.7</ele>
    <time>2019-11-11T22:41:52.000Z</time>
   </trkpt>
   <trkpt lat="-8.063141" lon="-34.89719">
    <ele>4.6</ele>
    <time>2019-11-11T22:41:53.000Z</time>
   </trkpt>
   <trkpt lat="-8.063087" lon="-34.897188">
    <ele>4.4</ele>
    <time>2019-11-11T22:41:55.000Z</time>
   </trkpt>
   <trkpt lat="-8.063033" lon="-34.897182">
    <ele>4.2</ele>
    <time>2019-11-11T22:41:57.000Z</time>
   </trkpt>
   <trkpt lat="-8.062999" lon="-34.897181">
    <ele>4.1</ele>
    <time>2019-11-11T22:41:58.000Z</time>
   </trkpt>
   <trkpt lat="-8.062951" lon="-34.897182">
    <ele>3.9</ele>
    <time>2019-11-11T22:41:59.000Z</time>
   </trkpt>
   <trkpt lat="-8.062898" lon="-34.89718">
    <ele>3.8</ele>
    <time>2019-11-11T22:42:00.000Z</time>
   </trkpt>
   <trkpt lat="-8.062854" lon="-34.897187">
    <ele>3.7</ele>
    <time>2019-11-11T22:42:01.000Z</time>
   </trkpt>
   <trkpt lat="-8.06281" lon="-34.897204">
    <ele>3.6</ele>
    <time>2019-11-11T22:42:02.000Z</time>
   </trkpt>
   <trkpt lat="-8.062757" lon="-34.89721">
    <ele>3.4</ele>
    <time>2019-11-11T22:42:03.000Z</time>
   </trkpt>
   <trkpt lat="-8.062696" lon="-34.897214">
    <ele>3.3</ele>
    <time>2019-11-11T22:42:04.000Z</time>
   </trkpt>
   <trkpt lat="-8.062645" lon="-34.89723">
    <ele>3.2</ele>
    <time>2019-11-11T22:42:05.000Z</time>
   </trkpt>
   <trkpt lat="-8.062591" lon="-34.897236">
    <ele>3.2</ele>
    <time>2019-11-11T22:42:06.000Z</time>
   </trkpt>
   <trkpt lat="-8.062532" lon="-34.897238">
    <ele>3.1</ele>
    <time>2019-11-11T22:42:07.000Z</time>
   </trkpt>
   <trkpt lat="-8.062478" lon="-34.897238">
    <ele>3</ele>
    <time>2019-11-11T22:42:08.000Z</time>
   </trkpt>
   <trkpt lat="-8.06243" lon="-34.89724">
    <ele>3.2</ele>
    <time>2019-11-11T22:42:09.000Z</time>
   </trkpt>
   <trkpt lat="-8.062377" lon="-34.897247">
    <ele>3.4</ele>
    <time>2019-11-11T22:42:10.000Z</time>
   </trkpt>
   <trkpt lat="-8.06232" lon="-34.89726">
    <ele>3.6</ele>
    <time>2019-11-11T22:42:11.000Z</time>
   </trkpt>
   <trkpt lat="-8.062262" lon="-34.897274">
    <ele>3.8</ele>
    <time>2019-11-11T22:42:12.000Z</time>
   </trkpt>
   <trkpt lat="-8.062205" lon="-34.897282">
    <ele>4</ele>
    <time>2019-11-11T22:42:13.000Z</time>
   </trkpt>
   <trkpt lat="-8.062147" lon="-34.897286">
    <ele>4.5</ele>
    <time>2019-11-11T22:42:14.000Z</time>
   </trkpt>
   <trkpt lat="-8.06209" lon="-34.897292">
    <ele>4.8</ele>
    <time>2019-11-11T22:42:15.000Z</time>
   </trkpt>
   <trkpt lat="-8.062034" lon="-34.897291">
    <ele>5</ele>
    <time>2019-11-11T22:42:16.000Z</time>
   </trkpt>
   <trkpt lat="-8.061978" lon="-34.897312">
    <ele>5.3</ele>
    <time>2019-11-11T22:42:17.000Z</time>
   </trkpt>
   <trkpt lat="-8.061917" lon="-34.897316">
    <ele>5.5</ele>
    <time>2019-11-11T22:42:18.000Z</time>
   </trkpt>
   <trkpt lat="-8.061853" lon="-34.897312">
    <ele>5.8</ele>
    <time>2019-11-11T22:42:19.000Z</time>
   </trkpt>
   <trkpt lat="-8.061796" lon="-34.897318">
    <ele>6</ele>
    <time>2019-11-11T22:42:20.000Z</time>
   </trkpt>
   <trkpt lat="-8.061733" lon="-34.897321">
    <ele>6.2</ele>
    <time>2019-11-11T22:42:21.000Z</time>
   </trkpt>
   <trkpt lat="-8.061668" lon="-34.89733">
    <ele>6.4</ele>
    <time>2019-11-11T22:42:22.000Z</time>
   </trkpt>
   <trkpt lat="-8.061604" lon="-34.897332">
    <ele>6.6</ele>
    <time>2019-11-11T22:42:23.000Z</time>
   </trkpt>
   <trkpt lat="-8.06154" lon="-34.897347">
    <ele>6.8</ele>
    <time>2019-11-11T22:42:24.000Z</time>
   </trkpt>
   <trkpt lat="-8.061489" lon="-34.897353">
    <ele>6.9</ele>
    <time>2019-11-11T22:42:25.000Z</time>
   </trkpt>
   <trkpt lat="-8.061431" lon="-34.897357">
    <ele>7.1</ele>
    <time>2019-11-11T22:42:26.000Z</time>
   </trkpt>
   <trkpt lat="-8.061357" lon="-34.897358">
    <ele>7.3</ele>
    <time>2019-11-11T22:42:27.000Z</time>
   </trkpt>
   <trkpt lat="-8.061292" lon="-34.897358">
    <ele>7.5</ele>
    <time>2019-11-11T22:42:28.000Z</time>
   </trkpt>
   <trkpt lat="-8.061229" lon="-34.897362">
    <ele>7.6</ele>
    <time>2019-11-11T22:42:29.000Z</time>
   </trkpt>
   <trkpt lat="-8.061173" lon="-34.897372">
    <ele>7.8</ele>
    <time>2019-11-11T22:42:30.000Z</time>
   </trkpt>
   <trkpt lat="-8.061117" lon="-34.897383">
    <ele>8</ele>
    <time>2019-11-11T22:42:31.000Z</time>
   </trkpt>
   <trkpt lat="-8.061065" lon="-34.897387">
    <ele>8.1</ele>
    <time>2019-11-11T22:42:32.000Z</time>
   </trkpt>
   <trkpt lat="-8.060999" lon="-34.897393">
    <ele>8.3</ele>
    <time>2019-11-11T22:42:33.000Z</time>
   </trkpt>
   <trkpt lat="-8.060941" lon="-34.8974">
    <ele>8.5</ele>
    <time>2019-11-11T22:42:34.000Z</time>
   </trkpt>
   <trkpt lat="-8.060887" lon="-34.897403">
    <ele>8.7</ele>
    <time>2019-11-11T22:42:35.000Z</time>
   </trkpt>
   <trkpt lat="-8.060839" lon="-34.89741">
    <ele>8.8</ele>
    <time>2019-11-11T22:42:36.000Z</time>
   </trkpt>
   <trkpt lat="-8.060777" lon="-34.897426">
    <ele>9.1</ele>
    <time>2019-11-11T22:42:37.000Z</time>
   </trkpt>
   <trkpt lat="-8.060722" lon="-34.897446">
    <ele>9.3</ele>
    <time>2019-11-11T22:42:38.000Z</time>
   </trkpt>
   <trkpt lat="-8.060663" lon="-34.897452">
    <ele>9.5</ele>
    <time>2019-11-11T22:42:39.000Z</time>
   </trkpt>
   <trkpt lat="-8.060603" lon="-34.897462">
    <ele>9.7</ele>
    <time>2019-11-11T22:42:40.000Z</time>
   </trkpt>
   <trkpt lat="-8.060549" lon="-34.897469">
    <ele>10</ele>
    <time>2019-11-11T22:42:41.000Z</time>
   </trkpt>
   <trkpt lat="-8.060485" lon="-34.897482">
    <ele>10.2</ele>
    <time>2019-11-11T22:42:42.000Z</time>
   </trkpt>
   <trkpt lat="-8.06043" lon="-34.897491">
    <ele>10.3</ele>
    <time>2019-11-11T22:42:43.000Z</time>
   </trkpt>
   <trkpt lat="-8.060376" lon="-34.897497">
    <ele>10.4</ele>
    <time>2019-11-11T22:42:44.000Z</time>
   </trkpt>
   <trkpt lat="-8.060323" lon="-34.897518">
    <ele>10.5</ele>
    <time>2019-11-11T22:42:45.000Z</time>
   </trkpt>
   <trkpt lat="-8.060268" lon="-34.897522">
    <ele>10.6</ele>
    <time>2019-11-11T22:42:46.000Z</time>
   </trkpt>
   <trkpt lat="-8.060206" lon="-34.897532">
    <ele>10.7</ele>
    <time>2019-11-11T22:42:47.000Z</time>
   </trkpt>
   <trkpt lat="-8.060134" lon="-34.897531">
    <ele>10.8</ele>
    <time>2019-11-11T22:42:48.000Z</time>
   </trkpt>
   <trkpt lat="-8.060073" lon="-34.897536">
    <ele>10.7</ele>
    <time>2019-11-11T22:42:49.000Z</time>
   </trkpt>
   <trkpt lat="-8.06002" lon="-34.897541">
    <ele>10.7</ele>
    <time>2019-11-11T22:42:50.000Z</time>
   </trkpt>
   <trkpt lat="-8.059966" lon="-34.897537">
    <ele>10.6</ele>
    <time>2019-11-11T22:42:51.000Z</time>
   </trkpt>
   <trkpt lat="-8.059915" lon="-34.897541">
    <ele>10.5</ele>
    <time>2019-11-11T22:42:52.000Z</time>
   </trkpt>
   <trkpt lat="-8.059853" lon="-34.897539">
    <ele>10.4</ele>
    <time>2019-11-11T22:42:53.000Z</time>
   </trkpt>
   <trkpt lat="-8.059801" lon="-34.897535">
    <ele>10.4</ele>
    <time>2019-11-11T22:42:54.000Z</time>
   </trkpt>
   <trkpt lat="-8.059747" lon="-34.897535">
    <ele>10.3</ele>
    <time>2019-11-11T22:42:55.000Z</time>
   </trkpt>
   <trkpt lat="-8.059692" lon="-34.897535">
    <ele>10.2</ele>
    <time>2019-11-11T22:42:56.000Z</time>
   </trkpt>
   <trkpt lat="-8.059635" lon="-34.897542">
    <ele>10.2</ele>
    <time>2019-11-11T22:42:57.000Z</time>
   </trkpt>
   <trkpt lat="-8.059574" lon="-34.897551">
    <ele>10.1</ele>
    <time>2019-11-11T22:42:58.000Z</time>
   </trkpt>
   <trkpt lat="-8.059522" lon="-34.897562">
    <ele>10</ele>
    <time>2019-11-11T22:42:59.000Z</time>
   </trkpt>
   <trkpt lat="-8.05947" lon="-34.897565">
    <ele>10</ele>
    <time>2019-11-11T22:43:00.000Z</time>
   </trkpt>
   <trkpt lat="-8.059406" lon="-34.897561">
    <ele>9.9</ele>
    <time>2019-11-11T22:43:01.000Z</time>
   </trkpt>
   <trkpt lat="-8.059346" lon="-34.897564">
    <ele>9.8</ele>
    <time>2019-11-11T22:43:02.000Z</time>
   </trkpt>
   <trkpt lat="-8.059287" lon="-34.897566">
    <ele>9.8</ele>
    <time>2019-11-11T22:43:03.000Z</time>
   </trkpt>
   <trkpt lat="-8.059223" lon="-34.897575">
    <ele>9.7</ele>
    <time>2019-11-11T22:43:04.000Z</time>
   </trkpt>
   <trkpt lat="-8.059164" lon="-34.89758">
    <ele>9.6</ele>
    <time>2019-11-11T22:43:05.000Z</time>
   </trkpt>
   <trkpt lat="-8.059102" lon="-34.897586">
    <ele>9.5</ele>
    <time>2019-11-11T22:43:06.000Z</time>
   </trkpt>
   <trkpt lat="-8.059047" lon="-34.897591">
    <ele>9.5</ele>
    <time>2019-11-11T22:43:07.000Z</time>
   </trkpt>
   <trkpt lat="-8.058991" lon="-34.897594">
    <ele>9.4</ele>
    <time>2019-11-11T22:43:08.000Z</time>
   </trkpt>
   <trkpt lat="-8.058937" lon="-34.897597">
    <ele>9.3</ele>
    <time>2019-11-11T22:43:09.000Z</time>
   </trkpt>
   <trkpt lat="-8.058886" lon="-34.897601">
    <ele>9.3</ele>
    <time>2019-11-11T22:43:10.000Z</time>
   </trkpt>
   <trkpt lat="-8.05884" lon="-34.897611">
    <ele>9.7</ele>
    <time>2019-11-11T22:43:11.000Z</time>
   </trkpt>
   <trkpt lat="-8.058793" lon="-34.897618">
    <ele>10.1</ele>
    <time>2019-11-11T22:43:12.000Z</time>
   </trkpt>
   <trkpt lat="-8.058739" lon="-34.897624">
    <ele>10.3</ele>
    <time>2019-11-11T22:43:13.000Z</time>
   </trkpt>
   <trkpt lat="-8.058681" lon="-34.897631">
    <ele>9.9</ele>
    <time>2019-11-11T22:43:14.000Z</time>
   </trkpt>
   <trkpt lat="-8.058619" lon="-34.897642">
    <ele>9.5</ele>
    <time>2019-11-11T22:43:15.000Z</time>
   </trkpt>
   <trkpt lat="-8.058557" lon="-34.897646">
    <ele>9.1</ele>
    <time>2019-11-11T22:43:16.000Z</time>
   </trkpt>
   <trkpt lat="-8.058502" lon="-34.897643">
    <ele>8.9</ele>
    <time>2019-11-11T22:43:17.000Z</time>
   </trkpt>
   <trkpt lat="-8.058447" lon="-34.897647">
    <ele>8.6</ele>
    <time>2019-11-11T22:43:18.000Z</time>
   </trkpt>
   <trkpt lat="-8.058393" lon="-34.897649">
    <ele>8.3</ele>
    <time>2019-11-11T22:43:19.000Z</time>
   </trkpt>
   <trkpt lat="-8.058334" lon="-34.897649">
    <ele>8.1</ele>
    <time>2019-11-11T22:43:20.000Z</time>
   </trkpt>
   <trkpt lat="-8.058277" lon="-34.897649">
    <ele>8</ele>
    <time>2019-11-11T22:43:21.000Z</time>
   </trkpt>
   <trkpt lat="-8.058223" lon="-34.897656">
    <ele>7.9</ele>
    <time>2019-11-11T22:43:22.000Z</time>
   </trkpt>
   <trkpt lat="-8.058167" lon="-34.897655">
    <ele>7.8</ele>
    <time>2019-11-11T22:43:23.000Z</time>
   </trkpt>
   <trkpt lat="-8.058122" lon="-34.897646">
    <ele>7.7</ele>
    <time>2019-11-11T22:43:24.000Z</time>
   </trkpt>
   <trkpt lat="-8.058066" lon="-34.897642">
    <ele>7.7</ele>
    <time>2019-11-11T22:43:25.000Z</time>
   </trkpt>
   <trkpt lat="-8.058003" lon="-34.897632">
    <ele>7.6</ele>
    <time>2019-11-11T22:43:26.000Z</time>
   </trkpt>
   <trkpt lat="-8.057936" lon="-34.897625">
    <ele>7.5</ele>
    <time>2019-11-11T22:43:27.000Z</time>
   </trkpt>
   <trkpt lat="-8.057883" lon="-34.897631">
    <ele>7.5</ele>
    <time>2019-11-11T22:43:28.000Z</time>
   </trkpt>
   <trkpt lat="-8.057828" lon="-34.897638">
    <ele>7.4</ele>
    <time>2019-11-11T22:43:29.000Z</time>
   </trkpt>
   <trkpt lat="-8.057776" lon="-34.89764">
    <ele>7.4</ele>
    <time>2019-11-11T22:43:30.000Z</time>
   </trkpt>
   <trkpt lat="-8.057718" lon="-34.897629">
    <ele>7.3</ele>
    <time>2019-11-11T22:43:31.000Z</time>
   </trkpt>
   <trkpt lat="-8.057658" lon="-34.897632">
    <ele>7.2</ele>
    <time>2019-11-11T22:43:32.000Z</time>
   </trkpt>
   <trkpt lat="-8.0576" lon="-34.897634">
    <ele>7.2</ele>
    <time>2019-11-11T22:43:33.000Z</time>
   </trkpt>
   <trkpt lat="-8.05754" lon="-34.897637">
    <ele>7.1</ele>
    <time>2019-11-11T22:43:34.000Z</time>
   </trkpt>
   <trkpt lat="-8.057478" lon="-34.897636">
    <ele>7</ele>
    <time>2019-11-11T22:43:35.000Z</time>
   </trkpt>
   <trkpt lat="-8.057426" lon="-34.897636">
    <ele>7.2</ele>
    <time>2019-11-11T22:43:36.000Z</time>
   </trkpt>
   <trkpt lat="-8.057378" lon="-34.897633">
    <ele>7.4</ele>
    <time>2019-11-11T22:43:37.000Z</time>
   </trkpt>
   <trkpt lat="-8.057328" lon="-34.897626">
    <ele>7.7</ele>
    <time>2019-11-11T22:43:38.000Z</time>
   </trkpt>
   <trkpt lat="-8.057271" lon="-34.897619">
    <ele>8</ele>
    <time>2019-11-11T22:43:39.000Z</time>
   </trkpt>
   <trkpt lat="-8.057227" lon="-34.897631">
    <ele>8.3</ele>
    <time>2019-11-11T22:43:40.000Z</time>
   </trkpt>
   <trkpt lat="-8.057175" lon="-34.897629">
    <ele>8.5</ele>
    <time>2019-11-11T22:43:41.000Z</time>
   </trkpt>
   <trkpt lat="-8.057124" lon="-34.897629">
    <ele>8.7</ele>
    <time>2019-11-11T22:43:42.000Z</time>
   </trkpt>
   <trkpt lat="-8.057073" lon="-34.897629">
    <ele>8.7</ele>
    <time>2019-11-11T22:43:43.000Z</time>
   </trkpt>
   <trkpt lat="-8.057021" lon="-34.89763">
    <ele>8.7</ele>
    <time>2019-11-11T22:43:44.000Z</time>
   </trkpt>
   <trkpt lat="-8.056968" lon="-34.897637">
    <ele>8.8</ele>
    <time>2019-11-11T22:43:45.000Z</time>
   </trkpt>
   <trkpt lat="-8.056925" lon="-34.897639">
    <ele>8.8</ele>
    <time>2019-11-11T22:43:46.000Z</time>
   </trkpt>
   <trkpt lat="-8.056868" lon="-34.897636">
    <ele>8.8</ele>
    <time>2019-11-11T22:43:47.000Z</time>
   </trkpt>
   <trkpt lat="-8.056817" lon="-34.897639">
    <ele>8.8</ele>
    <time>2019-11-11T22:43:48.000Z</time>
   </trkpt>
   <trkpt lat="-8.056759" lon="-34.897648">
    <ele>8.8</ele>
    <time>2019-11-11T22:43:49.000Z</time>
   </trkpt>
   <trkpt lat="-8.056707" lon="-34.897651">
    <ele>8.9</ele>
    <time>2019-11-11T22:43:50.000Z</time>
   </trkpt>
   <trkpt lat="-8.056655" lon="-34.897652">
    <ele>8.3</ele>
    <time>2019-11-11T22:43:51.000Z</time>
   </trkpt>
   <trkpt lat="-8.0566" lon="-34.897646">
    <ele>7.8</ele>
    <time>2019-11-11T22:43:52.000Z</time>
   </trkpt>
   <trkpt lat="-8.056546" lon="-34.897654">
    <ele>7.7</ele>
    <time>2019-11-11T22:43:53.000Z</time>
   </trkpt>
   <trkpt lat="-8.05649" lon="-34.897651">
    <ele>6.8</ele>
    <time>2019-11-11T22:43:54.000Z</time>
   </trkpt>
   <trkpt lat="-8.056438" lon="-34.897646">
    <ele>6.4</ele>
    <time>2019-11-11T22:43:55.000Z</time>
   </trkpt>
   <trkpt lat="-8.056386" lon="-34.89766">
    <ele>6.1</ele>
    <time>2019-11-11T22:43:56.000Z</time>
   </trkpt>
   <trkpt lat="-8.056324" lon="-34.897672">
    <ele>5.9</ele>
    <time>2019-11-11T22:43:57.000Z</time>
   </trkpt>
   <trkpt lat="-8.056262" lon="-34.897674">
    <ele>5.8</ele>
    <time>2019-11-11T22:43:58.000Z</time>
   </trkpt>
   <trkpt lat="-8.056203" lon="-34.897671">
    <ele>5.8</ele>
    <time>2019-11-11T22:43:59.000Z</time>
   </trkpt>
   <trkpt lat="-8.05614" lon="-34.897668">
    <ele>5.9</ele>
    <time>2019-11-11T22:44:00.000Z</time>
   </trkpt>
   <trkpt lat="-8.056075" lon="-34.897664">
    <ele>6.1</ele>
    <time>2019-11-11T22:44:01.000Z</time>
   </trkpt>
   <trkpt lat="-8.056018" lon="-34.897659">
    <ele>6.3</ele>
    <time>2019-11-11T22:44:02.000Z</time>
   </trkpt>
   <trkpt lat="-8.055959" lon="-34.897651">
    <ele>6.4</ele>
    <time>2019-11-11T22:44:03.000Z</time>
   </trkpt>
   <trkpt lat="-8.0559" lon="-34.897645">
    <ele>6.4</ele>
    <time>2019-11-11T22:44:04.000Z</time>
   </trkpt>
   <trkpt lat="-8.055842" lon="-34.897641">
    <ele>7</ele>
    <time>2019-11-11T22:44:05.000Z</time>
   </trkpt>
   <trkpt lat="-8.055783" lon="-34.897626">
    <ele>7.6</ele>
    <time>2019-11-11T22:44:06.000Z</time>
   </trkpt>
   <trkpt lat="-8.055729" lon="-34.897604">
    <ele>8.2</ele>
    <time>2019-11-11T22:44:07.000Z</time>
   </trkpt>
   <trkpt lat="-8.055678" lon="-34.897583">
    <ele>8.7</ele>
    <time>2019-11-11T22:44:08.000Z</time>
   </trkpt>
   <trkpt lat="-8.05562" lon="-34.897565">
    <ele>9.3</ele>
    <time>2019-11-11T22:44:09.000Z</time>
   </trkpt>
   <trkpt lat="-8.05557" lon="-34.897544">
    <ele>9.8</ele>
    <time>2019-11-11T22:44:10.000Z</time>
   </trkpt>
   <trkpt lat="-8.055518" lon="-34.897533">
    <ele>10.3</ele>
    <time>2019-11-11T22:44:11.000Z</time>
   </trkpt>
   <trkpt lat="-8.055472" lon="-34.897523">
    <ele>10.8</ele>
    <time>2019-11-11T22:44:12.000Z</time>
   </trkpt>
   <trkpt lat="-8.055436" lon="-34.897508">
    <ele>10.7</ele>
    <time>2019-11-11T22:44:13.000Z</time>
   </trkpt>
   <trkpt lat="-8.055404" lon="-34.8975">
    <ele>10.6</ele>
    <time>2019-11-11T22:44:14.000Z</time>
   </trkpt>
   <trkpt lat="-8.055369" lon="-34.897496">
    <ele>10.6</ele>
    <time>2019-11-11T22:44:15.000Z</time>
   </trkpt>
   <trkpt lat="-8.05534" lon="-34.897478">
    <ele>10.6</ele>
    <time>2019-11-11T22:44:16.000Z</time>
   </trkpt>
   <trkpt lat="-8.055313" lon="-34.897451">
    <ele>10.5</ele>
    <time>2019-11-11T22:44:17.000Z</time>
   </trkpt>
   <trkpt lat="-8.055276" lon="-34.897419">
    <ele>10.5</ele>
    <time>2019-11-11T22:44:18.000Z</time>
   </trkpt>
   <trkpt lat="-8.05523" lon="-34.897386">
    <ele>10.4</ele>
    <time>2019-11-11T22:44:19.000Z</time>
   </trkpt>
   <trkpt lat="-8.055187" lon="-34.897371">
    <ele>10.4</ele>
    <time>2019-11-11T22:44:20.000Z</time>
   </trkpt>
   <trkpt lat="-8.055141" lon="-34.897353">
    <ele>10.4</ele>
    <time>2019-11-11T22:44:21.000Z</time>
   </trkpt>
   <trkpt lat="-8.055098" lon="-34.89733">
    <ele>10.4</ele>
    <time>2019-11-11T22:44:22.000Z</time>
   </trkpt>
   <trkpt lat="-8.055055" lon="-34.89731">
    <ele>10.3</ele>
    <time>2019-11-11T22:44:23.000Z</time>
   </trkpt>
   <trkpt lat="-8.055021" lon="-34.897288">
    <ele>10.3</ele>
    <time>2019-11-11T22:44:24.000Z</time>
   </trkpt>
   <trkpt lat="-8.054982" lon="-34.897257">
    <ele>10.3</ele>
    <time>2019-11-11T22:44:25.000Z</time>
   </trkpt>
   <trkpt lat="-8.054937" lon="-34.897226">
    <ele>10.3</ele>
    <time>2019-11-11T22:44:26.000Z</time>
   </trkpt>
   <trkpt lat="-8.054895" lon="-34.897194">
    <ele>10.2</ele>
    <time>2019-11-11T22:44:27.000Z</time>
   </trkpt>
   <trkpt lat="-8.054851" lon="-34.897162">
    <ele>10.2</ele>
    <time>2019-11-11T22:44:28.000Z</time>
   </trkpt>
   <trkpt lat="-8.054808" lon="-34.897126">
    <ele>10.1</ele>
    <time>2019-11-11T22:44:29.000Z</time>
   </trkpt>
   <trkpt lat="-8.054756" lon="-34.897087">
    <ele>10.1</ele>
    <time>2019-11-11T22:44:30.000Z</time>
   </trkpt>
   <trkpt lat="-8.054706" lon="-34.897048">
    <ele>10</ele>
    <time>2019-11-11T22:44:31.000Z</time>
   </trkpt>
   <trkpt lat="-8.054661" lon="-34.897011">
    <ele>9.9</ele>
    <time>2019-11-11T22:44:32.000Z</time>
   </trkpt>
   <trkpt lat="-8.054615" lon="-34.896981">
    <ele>9.9</ele>
    <time>2019-11-11T22:44:33.000Z</time>
   </trkpt>
   <trkpt lat="-8.054568" lon="-34.896955">
    <ele>9.8</ele>
    <time>2019-11-11T22:44:34.000Z</time>
   </trkpt>
   <trkpt lat="-8.054521" lon="-34.896932">
    <ele>9.7</ele>
    <time>2019-11-11T22:44:35.000Z</time>
   </trkpt>
   <trkpt lat="-8.054473" lon="-34.896898">
    <ele>9.6</ele>
    <time>2019-11-11T22:44:36.000Z</time>
   </trkpt>
   <trkpt lat="-8.054423" lon="-34.896862">
    <ele>9.5</ele>
    <time>2019-11-11T22:44:37.000Z</time>
   </trkpt>
   <trkpt lat="-8.054377" lon="-34.89683">
    <ele>9.3</ele>
    <time>2019-11-11T22:44:38.000Z</time>
   </trkpt>
   <trkpt lat="-8.054339" lon="-34.896793">
    <ele>9.2</ele>
    <time>2019-11-11T22:44:39.000Z</time>
   </trkpt>
   <trkpt lat="-8.054296" lon="-34.896762">
    <ele>9</ele>
    <time>2019-11-11T22:44:40.000Z</time>
   </trkpt>
   <trkpt lat="-8.054257" lon="-34.896733">
    <ele>8.9</ele>
    <time>2019-11-11T22:44:41.000Z</time>
   </trkpt>
   <trkpt lat="-8.05421" lon="-34.896701">
    <ele>8.7</ele>
    <time>2019-11-11T22:44:42.000Z</time>
   </trkpt>
   <trkpt lat="-8.054171" lon="-34.896661">
    <ele>8.6</ele>
    <time>2019-11-11T22:44:43.000Z</time>
   </trkpt>
   <trkpt lat="-8.054137" lon="-34.896642">
    <ele>8.5</ele>
    <time>2019-11-11T22:44:44.000Z</time>
   </trkpt>
   <trkpt lat="-8.054091" lon="-34.896611">
    <ele>8.3</ele>
    <time>2019-11-11T22:44:45.000Z</time>
   </trkpt>
   <trkpt lat="-8.054051" lon="-34.896577">
    <ele>8.1</ele>
    <time>2019-11-11T22:44:46.000Z</time>
   </trkpt>
   <trkpt lat="-8.054009" lon="-34.896548">
    <ele>7.9</ele>
    <time>2019-11-11T22:44:47.000Z</time>
   </trkpt>
   <trkpt lat="-8.053967" lon="-34.89652">
    <ele>7.7</ele>
    <time>2019-11-11T22:44:48.000Z</time>
   </trkpt>
   <trkpt lat="-8.053925" lon="-34.896488">
    <ele>7.5</ele>
    <time>2019-11-11T22:44:49.000Z</time>
   </trkpt>
   <trkpt lat="-8.053895" lon="-34.89645">
    <ele>7.2</ele>
    <time>2019-11-11T22:44:50.000Z</time>
   </trkpt>
   <trkpt lat="-8.05387" lon="-34.896419">
    <ele>6.9</ele>
    <time>2019-11-11T22:44:51.000Z</time>
   </trkpt>
   <trkpt lat="-8.053843" lon="-34.896402">
    <ele>6.7</ele>
    <time>2019-11-11T22:44:52.000Z</time>
   </trkpt>
   <trkpt lat="-8.053814" lon="-34.896389">
    <ele>6.5</ele>
    <time>2019-11-11T22:44:53.000Z</time>
   </trkpt>
   <trkpt lat="-8.053775" lon="-34.896367">
    <ele>6.2</ele>
    <time>2019-11-11T22:44:55.000Z</time>
   </trkpt>
   <trkpt lat="-8.05374" lon="-34.896348">
    <ele>5.8</ele>
    <time>2019-11-11T22:44:57.000Z</time>
   </trkpt>
   <trkpt lat="-8.053713" lon="-34.89634">
    <ele>5.6</ele>
    <time>2019-11-11T22:44:58.000Z</time>
   </trkpt>
   <trkpt lat="-8.05367" lon="-34.89635">
    <ele>5.3</ele>
    <time>2019-11-11T22:45:00.000Z</time>
   </trkpt>
   <trkpt lat="-8.05364" lon="-34.896362">
    <ele>4.5</ele>
    <time>2019-11-11T22:45:01.000Z</time>
   </trkpt>
   <trkpt lat="-8.053609" lon="-34.896373">
    <ele>4.3</ele>
    <time>2019-11-11T22:45:02.000Z</time>
   </trkpt>
   <trkpt lat="-8.053575" lon="-34.896389">
    <ele>4</ele>
    <time>2019-11-11T22:45:03.000Z</time>
   </trkpt>
   <trkpt lat="-8.053534" lon="-34.896417">
    <ele>4</ele>
    <time>2019-11-11T22:45:04.000Z</time>
   </trkpt>
   <trkpt lat="-8.053509" lon="-34.896437">
    <ele>4</ele>
    <time>2019-11-11T22:45:05.000Z</time>
   </trkpt>
   <trkpt lat="-8.053484" lon="-34.896463">
    <ele>4.2</ele>
    <time>2019-11-11T22:45:06.000Z</time>
   </trkpt>
   <trkpt lat="-8.053459" lon="-34.896484">
    <ele>4.4</ele>
    <time>2019-11-11T22:45:07.000Z</time>
   </trkpt>
   <trkpt lat="-8.053424" lon="-34.896528">
    <ele>4.7</ele>
    <time>2019-11-11T22:45:09.000Z</time>
   </trkpt>
   <trkpt lat="-8.053386" lon="-34.89656">
    <ele>5</ele>
    <time>2019-11-11T22:45:11.000Z</time>
   </trkpt>
   <trkpt lat="-8.053373" lon="-34.896584">
    <ele>5.1</ele>
    <time>2019-11-11T22:45:12.000Z</time>
   </trkpt>
   <trkpt lat="-8.053361" lon="-34.896618">
    <ele>5.3</ele>
    <time>2019-11-11T22:45:13.000Z</time>
   </trkpt>
   <trkpt lat="-8.053348" lon="-34.89665">
    <ele>5.7</ele>
    <time>2019-11-11T22:45:14.000Z</time>
   </trkpt>
   <trkpt lat="-8.053327" lon="-34.896678">
    <ele>6.1</ele>
    <time>2019-11-11T22:45:15.000Z</time>
   </trkpt>
   <trkpt lat="-8.053299" lon="-34.896703">
    <ele>7</ele>
    <time>2019-11-11T22:45:16.000Z</time>
   </trkpt>
   <trkpt lat="-8.053255" lon="-34.896736">
    <ele>7.5</ele>
    <time>2019-11-11T22:45:17.000Z</time>
   </trkpt>
   <trkpt lat="-8.053212" lon="-34.896773">
    <ele>8.7</ele>
    <time>2019-11-11T22:45:18.000Z</time>
   </trkpt>
   <trkpt lat="-8.053174" lon="-34.896811">
    <ele>9.4</ele>
    <time>2019-11-11T22:45:19.000Z</time>
   </trkpt>
   <trkpt lat="-8.053134" lon="-34.896849">
    <ele>10.1</ele>
    <time>2019-11-11T22:45:20.000Z</time>
   </trkpt>
   <trkpt lat="-8.053107" lon="-34.896887">
    <ele>10.7</ele>
    <time>2019-11-11T22:45:21.000Z</time>
   </trkpt>
   <trkpt lat="-8.053084" lon="-34.896925">
    <ele>11.3</ele>
    <time>2019-11-11T22:45:22.000Z</time>
   </trkpt>
   <trkpt lat="-8.053059" lon="-34.89696">
    <ele>11.9</ele>
    <time>2019-11-11T22:45:23.000Z</time>
   </trkpt>
   <trkpt lat="-8.053027" lon="-34.897002">
    <ele>12.1</ele>
    <time>2019-11-11T22:45:24.000Z</time>
   </trkpt>
   <trkpt lat="-8.052991" lon="-34.89706">
    <ele>12.2</ele>
    <time>2019-11-11T22:45:25.000Z</time>
   </trkpt>
   <trkpt lat="-8.052968" lon="-34.897104">
    <ele>12</ele>
    <time>2019-11-11T22:45:26.000Z</time>
   </trkpt>
   <trkpt lat="-8.052947" lon="-34.897151">
    <ele>11.9</ele>
    <time>2019-11-11T22:45:27.000Z</time>
   </trkpt>
   <trkpt lat="-8.052925" lon="-34.897194">
    <ele>11.8</ele>
    <time>2019-11-11T22:45:28.000Z</time>
   </trkpt>
   <trkpt lat="-8.052906" lon="-34.89724">
    <ele>11.7</ele>
    <time>2019-11-11T22:45:29.000Z</time>
   </trkpt>
   <trkpt lat="-8.052882" lon="-34.897285">
    <ele>11.6</ele>
    <time>2019-11-11T22:45:30.000Z</time>
   </trkpt>
   <trkpt lat="-8.05286" lon="-34.897329">
    <ele>11.5</ele>
    <time>2019-11-11T22:45:31.000Z</time>
   </trkpt>
   <trkpt lat="-8.052841" lon="-34.897378">
    <ele>11.4</ele>
    <time>2019-11-11T22:45:32.000Z</time>
   </trkpt>
   <trkpt lat="-8.052828" lon="-34.897419">
    <ele>11.3</ele>
    <time>2019-11-11T22:45:33.000Z</time>
   </trkpt>
   <trkpt lat="-8.052813" lon="-34.897463">
    <ele>11.2</ele>
    <time>2019-11-11T22:45:34.000Z</time>
   </trkpt>
   <trkpt lat="-8.052796" lon="-34.897504">
    <ele>11.1</ele>
    <time>2019-11-11T22:45:35.000Z</time>
   </trkpt>
   <trkpt lat="-8.052781" lon="-34.897546">
    <ele>11</ele>
    <time>2019-11-11T22:45:36.000Z</time>
   </trkpt>
   <trkpt lat="-8.052765" lon="-34.897591">
    <ele>10.8</ele>
    <time>2019-11-11T22:45:37.000Z</time>
   </trkpt>
   <trkpt lat="-8.052753" lon="-34.897635">
    <ele>10.7</ele>
    <time>2019-11-11T22:45:38.000Z</time>
   </trkpt>
   <trkpt lat="-8.052733" lon="-34.897676">
    <ele>10.6</ele>
    <time>2019-11-11T22:45:39.000Z</time>
   </trkpt>
   <trkpt lat="-8.052709" lon="-34.89771">
    <ele>10.5</ele>
    <time>2019-11-11T22:45:40.000Z</time>
   </trkpt>
   <trkpt lat="-8.0527" lon="-34.897758">
    <ele>10.4</ele>
    <time>2019-11-11T22:45:41.000Z</time>
   </trkpt>
   <trkpt lat="-8.05269" lon="-34.897804">
    <ele>10.3</ele>
    <time>2019-11-11T22:45:42.000Z</time>
   </trkpt>
   <trkpt lat="-8.05268" lon="-34.897851">
    <ele>10.2</ele>
    <time>2019-11-11T22:45:43.000Z</time>
   </trkpt>
   <trkpt lat="-8.052655" lon="-34.897885">
    <ele>10.1</ele>
    <time>2019-11-11T22:45:44.000Z</time>
   </trkpt>
   <trkpt lat="-8.052641" lon="-34.897924">
    <ele>10.1</ele>
    <time>2019-11-11T22:45:45.000Z</time>
   </trkpt>
   <trkpt lat="-8.052628" lon="-34.897965">
    <ele>10</ele>
    <time>2019-11-11T22:45:46.000Z</time>
   </trkpt>
   <trkpt lat="-8.052611" lon="-34.898014">
    <ele>9.9</ele>
    <time>2019-11-11T22:45:47.000Z</time>
   </trkpt>
   <trkpt lat="-8.052606" lon="-34.898053">
    <ele>9.8</ele>
    <time>2019-11-11T22:45:48.000Z</time>
   </trkpt>
   <trkpt lat="-8.052599" lon="-34.898089">
    <ele>9.7</ele>
    <time>2019-11-11T22:45:49.000Z</time>
   </trkpt>
   <trkpt lat="-8.052586" lon="-34.898131">
    <ele>9.6</ele>
    <time>2019-11-11T22:45:50.000Z</time>
   </trkpt>
   <trkpt lat="-8.052569" lon="-34.898178">
    <ele>9.5</ele>
    <time>2019-11-11T22:45:51.000Z</time>
   </trkpt>
   <trkpt lat="-8.052553" lon="-34.89823">
    <ele>9.3</ele>
    <time>2019-11-11T22:45:52.000Z</time>
   </trkpt>
   <trkpt lat="-8.052538" lon="-34.898279">
    <ele>9.2</ele>
    <time>2019-11-11T22:45:53.000Z</time>
   </trkpt>
   <trkpt lat="-8.052524" lon="-34.898336">
    <ele>9</ele>
    <time>2019-11-11T22:45:54.000Z</time>
   </trkpt>
   <trkpt lat="-8.0525" lon="-34.898388">
    <ele>8.9</ele>
    <time>2019-11-11T22:45:55.000Z</time>
   </trkpt>
   <trkpt lat="-8.052486" lon="-34.898437">
    <ele>8.8</ele>
    <time>2019-11-11T22:45:56.000Z</time>
   </trkpt>
   <trkpt lat="-8.05246" lon="-34.898491">
    <ele>8.9</ele>
    <time>2019-11-11T22:45:57.000Z</time>
   </trkpt>
   <trkpt lat="-8.052449" lon="-34.898539">
    <ele>9</ele>
    <time>2019-11-11T22:45:58.000Z</time>
   </trkpt>
   <trkpt lat="-8.052437" lon="-34.898592">
    <ele>9.1</ele>
    <time>2019-11-11T22:45:59.000Z</time>
   </trkpt>
   <trkpt lat="-8.052424" lon="-34.898642">
    <ele>9.2</ele>
    <time>2019-11-11T22:46:00.000Z</time>
   </trkpt>
   <trkpt lat="-8.052411" lon="-34.898695">
    <ele>9.2</ele>
    <time>2019-11-11T22:46:01.000Z</time>
   </trkpt>
   <trkpt lat="-8.052404" lon="-34.898752">
    <ele>9.3</ele>
    <time>2019-11-11T22:46:02.000Z</time>
   </trkpt>
   <trkpt lat="-8.052396" lon="-34.898808">
    <ele>9.4</ele>
    <time>2019-11-11T22:46:03.000Z</time>
   </trkpt>
   <trkpt lat="-8.052396" lon="-34.898865">
    <ele>9.5</ele>
    <time>2019-11-11T22:46:04.000Z</time>
   </trkpt>
   <trkpt lat="-8.052399" lon="-34.898923">
    <ele>9.6</ele>
    <time>2019-11-11T22:46:05.000Z</time>
   </trkpt>
   <trkpt lat="-8.052405" lon="-34.898976">
    <ele>9.7</ele>
    <time>2019-11-11T22:46:06.000Z</time>
   </trkpt>
   <trkpt lat="-8.052415" lon="-34.899039">
    <ele>9.9</ele>
    <time>2019-11-11T22:46:07.000Z</time>
   </trkpt>
   <trkpt lat="-8.052424" lon="-34.899099">
    <ele>10.1</ele>
    <time>2019-11-11T22:46:08.000Z</time>
   </trkpt>
   <trkpt lat="-8.052427" lon="-34.899159">
    <ele>10.3</ele>
    <time>2019-11-11T22:46:09.000Z</time>
   </trkpt>
   <trkpt lat="-8.052433" lon="-34.899221">
    <ele>10.7</ele>
    <time>2019-11-11T22:46:10.000Z</time>
   </trkpt>
   <trkpt lat="-8.052433" lon="-34.899267">
    <ele>11</ele>
    <time>2019-11-11T22:46:11.000Z</time>
   </trkpt>
   <trkpt lat="-8.052434" lon="-34.899316">
    <ele>11.3</ele>
    <time>2019-11-11T22:46:12.000Z</time>
   </trkpt>
   <trkpt lat="-8.052431" lon="-34.899377">
    <ele>11.6</ele>
    <time>2019-11-11T22:46:13.000Z</time>
   </trkpt>
   <trkpt lat="-8.052418" lon="-34.899428">
    <ele>11.9</ele>
    <time>2019-11-11T22:46:14.000Z</time>
   </trkpt>
   <trkpt lat="-8.052395" lon="-34.89945">
    <ele>12.1</ele>
    <time>2019-11-11T22:46:15.000Z</time>
   </trkpt>
   <trkpt lat="-8.052339" lon="-34.899446">
    <ele>11.6</ele>
    <time>2019-11-11T22:46:17.000Z</time>
   </trkpt>
   <trkpt lat="-8.052294" lon="-34.899422">
    <ele>11.7</ele>
    <time>2019-11-11T22:46:18.000Z</time>
   </trkpt>
   <trkpt lat="-8.052244" lon="-34.89939">
    <ele>11.8</ele>
    <time>2019-11-11T22:46:19.000Z</time>
   </trkpt>
   <trkpt lat="-8.052187" lon="-34.899354">
    <ele>11.9</ele>
    <time>2019-11-11T22:46:20.000Z</time>
   </trkpt>
   <trkpt lat="-8.052128" lon="-34.899312">
    <ele>12.1</ele>
    <time>2019-11-11T22:46:21.000Z</time>
   </trkpt>
   <trkpt lat="-8.052064" lon="-34.899285">
    <ele>12.2</ele>
    <time>2019-11-11T22:46:22.000Z</time>
   </trkpt>
   <trkpt lat="-8.052006" lon="-34.899249">
    <ele>12.3</ele>
    <time>2019-11-11T22:46:23.000Z</time>
   </trkpt>
   <trkpt lat="-8.051956" lon="-34.899216">
    <ele>12.4</ele>
    <time>2019-11-11T22:46:24.000Z</time>
   </trkpt>
   <trkpt lat="-8.051893" lon="-34.899182">
    <ele>12.5</ele>
    <time>2019-11-11T22:46:25.000Z</time>
   </trkpt>
   <trkpt lat="-8.051839" lon="-34.899152">
    <ele>12.5</ele>
    <time>2019-11-11T22:46:26.000Z</time>
   </trkpt>
   <trkpt lat="-8.051782" lon="-34.89913">
    <ele>12.7</ele>
    <time>2019-11-11T22:46:27.000Z</time>
   </trkpt>
   <trkpt lat="-8.051731" lon="-34.899111">
    <ele>13</ele>
    <time>2019-11-11T22:46:28.000Z</time>
   </trkpt>
   <trkpt lat="-8.051683" lon="-34.899087">
    <ele>13.6</ele>
    <time>2019-11-11T22:46:29.000Z</time>
   </trkpt>
   <trkpt lat="-8.051639" lon="-34.899049">
    <ele>14.8</ele>
    <time>2019-11-11T22:46:30.000Z</time>
   </trkpt>
   <trkpt lat="-8.051596" lon="-34.899022">
    <ele>15.7</ele>
    <time>2019-11-11T22:46:31.000Z</time>
   </trkpt>
   <trkpt lat="-8.051551" lon="-34.898988">
    <ele>16.7</ele>
    <time>2019-11-11T22:46:32.000Z</time>
   </trkpt>
   <trkpt lat="-8.051499" lon="-34.898957">
    <ele>17.8</ele>
    <time>2019-11-11T22:46:33.000Z</time>
   </trkpt>
   <trkpt lat="-8.05145" lon="-34.898931">
    <ele>18.6</ele>
    <time>2019-11-11T22:46:34.000Z</time>
   </trkpt>
   <trkpt lat="-8.051402" lon="-34.898899">
    <ele>19.1</ele>
    <time>2019-11-11T22:46:35.000Z</time>
   </trkpt>
   <trkpt lat="-8.051348" lon="-34.898867">
    <ele>19</ele>
    <time>2019-11-11T22:46:36.000Z</time>
   </trkpt>
   <trkpt lat="-8.051288" lon="-34.898843">
    <ele>18.4</ele>
    <time>2019-11-11T22:46:37.000Z</time>
   </trkpt>
   <trkpt lat="-8.051238" lon="-34.898807">
    <ele>17.2</ele>
    <time>2019-11-11T22:46:38.000Z</time>
   </trkpt>
   <trkpt lat="-8.051177" lon="-34.898773">
    <ele>16.5</ele>
    <time>2019-11-11T22:46:39.000Z</time>
   </trkpt>
   <trkpt lat="-8.051112" lon="-34.898762">
    <ele>16.8</ele>
    <time>2019-11-11T22:46:40.000Z</time>
   </trkpt>
   <trkpt lat="-8.051063" lon="-34.898741">
    <ele>17.4</ele>
    <time>2019-11-11T22:46:41.000Z</time>
   </trkpt>
   <trkpt lat="-8.051032" lon="-34.898721">
    <ele>17.5</ele>
    <time>2019-11-11T22:46:42.000Z</time>
   </trkpt>
   <trkpt lat="-8.050997" lon="-34.898697">
    <ele>17.5</ele>
    <time>2019-11-11T22:46:43.000Z</time>
   </trkpt>
   <trkpt lat="-8.05095" lon="-34.898671">
    <ele>16.8</ele>
    <time>2019-11-11T22:46:44.000Z</time>
   </trkpt>
   <trkpt lat="-8.050904" lon="-34.898631">
    <ele>15.9</ele>
    <time>2019-11-11T22:46:45.000Z</time>
   </trkpt>
   <trkpt lat="-8.050861" lon="-34.89859">
    <ele>14.9</ele>
    <time>2019-11-11T22:46:46.000Z</time>
   </trkpt>
   <trkpt lat="-8.050809" lon="-34.89855">
    <ele>14.3</ele>
    <time>2019-11-11T22:46:47.000Z</time>
   </trkpt>
   <trkpt lat="-8.050771" lon="-34.898517">
    <ele>13.8</ele>
    <time>2019-11-11T22:46:48.000Z</time>
   </trkpt>
   <trkpt lat="-8.050725" lon="-34.898491">
    <ele>13.3</ele>
    <time>2019-11-11T22:46:49.000Z</time>
   </trkpt>
   <trkpt lat="-8.050685" lon="-34.898463">
    <ele>12.8</ele>
    <time>2019-11-11T22:46:50.000Z</time>
   </trkpt>
   <trkpt lat="-8.050637" lon="-34.898452">
    <ele>12.5</ele>
    <time>2019-11-11T22:46:51.000Z</time>
   </trkpt>
   <trkpt lat="-8.050595" lon="-34.898449">
    <ele>12.2</ele>
    <time>2019-11-11T22:46:52.000Z</time>
   </trkpt>
   <trkpt lat="-8.050564" lon="-34.898429">
    <ele>12.1</ele>
    <time>2019-11-11T22:46:53.000Z</time>
   </trkpt>
   <trkpt lat="-8.050525" lon="-34.898406">
    <ele>11.9</ele>
    <time>2019-11-11T22:46:54.000Z</time>
   </trkpt>
   <trkpt lat="-8.05048" lon="-34.898392">
    <ele>11.9</ele>
    <time>2019-11-11T22:46:55.000Z</time>
   </trkpt>
   <trkpt lat="-8.05044" lon="-34.898376">
    <ele>11.8</ele>
    <time>2019-11-11T22:46:56.000Z</time>
   </trkpt>
   <trkpt lat="-8.050407" lon="-34.898357">
    <ele>11.8</ele>
    <time>2019-11-11T22:46:57.000Z</time>
   </trkpt>
   <trkpt lat="-8.050377" lon="-34.898334">
    <ele>11.7</ele>
    <time>2019-11-11T22:46:58.000Z</time>
   </trkpt>
   <trkpt lat="-8.050342" lon="-34.898314">
    <ele>11.6</ele>
    <time>2019-11-11T22:46:59.000Z</time>
   </trkpt>
   <trkpt lat="-8.050307" lon="-34.898298">
    <ele>11.5</ele>
    <time>2019-11-11T22:47:00.000Z</time>
   </trkpt>
   <trkpt lat="-8.050256" lon="-34.898308">
    <ele>11.6</ele>
    <time>2019-11-11T22:47:01.000Z</time>
   </trkpt>
   <trkpt lat="-8.050223" lon="-34.89828">
    <ele>11.8</ele>
    <time>2019-11-11T22:47:02.000Z</time>
   </trkpt>
   <trkpt lat="-8.050192" lon="-34.898247">
    <ele>12.1</ele>
    <time>2019-11-11T22:47:03.000Z</time>
   </trkpt>
   <trkpt lat="-8.050155" lon="-34.898235">
    <ele>12.3</ele>
    <time>2019-11-11T22:47:04.000Z</time>
   </trkpt>
   <trkpt lat="-8.050098" lon="-34.898222">
    <ele>12.7</ele>
    <time>2019-11-11T22:47:06.000Z</time>
   </trkpt>
   <trkpt lat="-8.05006" lon="-34.898212">
    <ele>13</ele>
    <time>2019-11-11T22:47:08.000Z</time>
   </trkpt>
   <trkpt lat="-8.050033" lon="-34.898226">
    <ele>13.2</ele>
    <time>2019-11-11T22:47:13.000Z</time>
   </trkpt>
   <trkpt lat="-8.050024" lon="-34.898187">
    <ele>13.3</ele>
    <time>2019-11-11T22:47:39.000Z</time>
   </trkpt>
   <trkpt lat="-8.049985" lon="-34.89815">
    <ele>13.5</ele>
    <time>2019-11-11T22:47:41.000Z</time>
   </trkpt>
   <trkpt lat="-8.049967" lon="-34.898109">
    <ele>13.5</ele>
    <time>2019-11-11T22:47:42.000Z</time>
   </trkpt>
   <trkpt lat="-8.049954" lon="-34.898061">
    <ele>13.2</ele>
    <time>2019-11-11T22:47:43.000Z</time>
   </trkpt>
   <trkpt lat="-8.049951" lon="-34.898032">
    <ele>13.2</ele>
    <time>2019-11-11T22:47:44.000Z</time>
   </trkpt>
   <trkpt lat="-8.049962" lon="-34.897994">
    <ele>12.4</ele>
    <time>2019-11-11T22:47:45.000Z</time>
   </trkpt>
   <trkpt lat="-8.049965" lon="-34.897937">
    <ele>12.4</ele>
    <time>2019-11-11T22:47:46.000Z</time>
   </trkpt>
   <trkpt lat="-8.049974" lon="-34.897887">
    <ele>12.4</ele>
    <time>2019-11-11T22:47:47.000Z</time>
   </trkpt>
   <trkpt lat="-8.049977" lon="-34.897849">
    <ele>12.3</ele>
    <time>2019-11-11T22:47:48.000Z</time>
   </trkpt>
   <trkpt lat="-8.049978" lon="-34.897802">
    <ele>12.2</ele>
    <time>2019-11-11T22:47:49.000Z</time>
   </trkpt>
   <trkpt lat="-8.049971" lon="-34.89776">
    <ele>12.4</ele>
    <time>2019-11-11T22:47:50.000Z</time>
   </trkpt>
   <trkpt lat="-8.049986" lon="-34.897718">
    <ele>12.6</ele>
    <time>2019-11-11T22:47:51.000Z</time>
   </trkpt>
   <trkpt lat="-8.049985" lon="-34.897687">
    <ele>12.7</ele>
    <time>2019-11-11T22:47:52.000Z</time>
   </trkpt>
   <trkpt lat="-8.049991" lon="-34.897655">
    <ele>12.7</ele>
    <time>2019-11-11T22:47:53.000Z</time>
   </trkpt>
   <trkpt lat="-8.049996" lon="-34.897615">
    <ele>12.8</ele>
    <time>2019-11-11T22:47:54.000Z</time>
   </trkpt>
   <trkpt lat="-8.050006" lon="-34.897573">
    <ele>13</ele>
    <time>2019-11-11T22:47:55.000Z</time>
   </trkpt>
   <trkpt lat="-8.050013" lon="-34.897541">
    <ele>13.2</ele>
    <time>2019-11-11T22:47:56.000Z</time>
   </trkpt>
   <trkpt lat="-8.050029" lon="-34.897488">
    <ele>13.1</ele>
    <time>2019-11-11T22:47:57.000Z</time>
   </trkpt>
   <trkpt lat="-8.050041" lon="-34.897442">
    <ele>13</ele>
    <time>2019-11-11T22:47:58.000Z</time>
   </trkpt>
   <trkpt lat="-8.050055" lon="-34.897391">
    <ele>12.9</ele>
    <time>2019-11-11T22:47:59.000Z</time>
   </trkpt>
   <trkpt lat="-8.050064" lon="-34.897341">
    <ele>12.9</ele>
    <time>2019-11-11T22:48:00.000Z</time>
   </trkpt>
   <trkpt lat="-8.050083" lon="-34.897294">
    <ele>13</ele>
    <time>2019-11-11T22:48:01.000Z</time>
   </trkpt>
   <trkpt lat="-8.050104" lon="-34.89725">
    <ele>13.1</ele>
    <time>2019-11-11T22:48:02.000Z</time>
   </trkpt>
   <trkpt lat="-8.050112" lon="-34.897215">
    <ele>13.1</ele>
    <time>2019-11-11T22:48:03.000Z</time>
   </trkpt>
   <trkpt lat="-8.050124" lon="-34.897175">
    <ele>13.2</ele>
    <time>2019-11-11T22:48:04.000Z</time>
   </trkpt>
   <trkpt lat="-8.050125" lon="-34.897129">
    <ele>13.3</ele>
    <time>2019-11-11T22:48:05.000Z</time>
   </trkpt>
   <trkpt lat="-8.050141" lon="-34.897087">
    <ele>13.4</ele>
    <time>2019-11-11T22:48:06.000Z</time>
   </trkpt>
   <trkpt lat="-8.050147" lon="-34.897039">
    <ele>13.6</ele>
    <time>2019-11-11T22:48:07.000Z</time>
   </trkpt>
   <trkpt lat="-8.050149" lon="-34.896997">
    <ele>13.7</ele>
    <time>2019-11-11T22:48:08.000Z</time>
   </trkpt>
   <trkpt lat="-8.050165" lon="-34.896966">
    <ele>13.8</ele>
    <time>2019-11-11T22:48:09.000Z</time>
   </trkpt>
   <trkpt lat="-8.050174" lon="-34.896929">
    <ele>14</ele>
    <time>2019-11-11T22:48:10.000Z</time>
   </trkpt>
   <trkpt lat="-8.050153" lon="-34.89688">
    <ele>14.2</ele>
    <time>2019-11-11T22:48:11.000Z</time>
   </trkpt>
   <trkpt lat="-8.050158" lon="-34.896837">
    <ele>14.4</ele>
    <time>2019-11-11T22:48:12.000Z</time>
   </trkpt>
   <trkpt lat="-8.050163" lon="-34.896809">
    <ele>14.5</ele>
    <time>2019-11-11T22:48:13.000Z</time>
   </trkpt>
   <trkpt lat="-8.050146" lon="-34.896773">
    <ele>14.7</ele>
    <time>2019-11-11T22:48:15.000Z</time>
   </trkpt>
   <trkpt lat="-8.050125" lon="-34.896755">
    <ele>14.8</ele>
    <time>2019-11-11T22:48:16.000Z</time>
   </trkpt>
   <trkpt lat="-8.050086" lon="-34.896735">
    <ele>14.7</ele>
    <time>2019-11-11T22:48:17.000Z</time>
   </trkpt>
   <trkpt lat="-8.050045" lon="-34.896704">
    <ele>14.5</ele>
    <time>2019-11-11T22:48:18.000Z</time>
   </trkpt>
   <trkpt lat="-8.050007" lon="-34.896677">
    <ele>14.3</ele>
    <time>2019-11-11T22:48:19.000Z</time>
   </trkpt>
   <trkpt lat="-8.049971" lon="-34.896655">
    <ele>14.2</ele>
    <time>2019-11-11T22:48:20.000Z</time>
   </trkpt>
   <trkpt lat="-8.049922" lon="-34.896622">
    <ele>14</ele>
    <time>2019-11-11T22:48:21.000Z</time>
   </trkpt>
   <trkpt lat="-8.049882" lon="-34.896603">
    <ele>13.9</ele>
    <time>2019-11-11T22:48:22.000Z</time>
   </trkpt>
   <trkpt lat="-8.049844" lon="-34.896576">
    <ele>13.8</ele>
    <time>2019-11-11T22:48:23.000Z</time>
   </trkpt>
   <trkpt lat="-8.049794" lon="-34.896555">
    <ele>13.7</ele>
    <time>2019-11-11T22:48:24.000Z</time>
   </trkpt>
   <trkpt lat="-8.049735" lon="-34.89654">
    <ele>13.6</ele>
    <time>2019-11-11T22:48:25.000Z</time>
   </trkpt>
   <trkpt lat="-8.049679" lon="-34.896525">
    <ele>13.5</ele>
    <time>2019-11-11T22:48:26.000Z</time>
   </trkpt>
   <trkpt lat="-8.04962" lon="-34.896516">
    <ele>13.4</ele>
    <time>2019-11-11T22:48:27.000Z</time>
   </trkpt>
   <trkpt lat="-8.049573" lon="-34.896493">
    <ele>13.3</ele>
    <time>2019-11-11T22:48:28.000Z</time>
   </trkpt>
   <trkpt lat="-8.049517" lon="-34.896478">
    <ele>13.3</ele>
    <time>2019-11-11T22:48:29.000Z</time>
   </trkpt>
   <trkpt lat="-8.049459" lon="-34.896476">
    <ele>13.2</ele>
    <time>2019-11-11T22:48:30.000Z</time>
   </trkpt>
   <trkpt lat="-8.049402" lon="-34.896468">
    <ele>13.2</ele>
    <time>2019-11-11T22:48:31.000Z</time>
   </trkpt>
   <trkpt lat="-8.049348" lon="-34.896463">
    <ele>13.2</ele>
    <time>2019-11-11T22:48:32.000Z</time>
   </trkpt>
   <trkpt lat="-8.049298" lon="-34.896453">
    <ele>13.1</ele>
    <time>2019-11-11T22:48:33.000Z</time>
   </trkpt>
   <trkpt lat="-8.049252" lon="-34.896446">
    <ele>13.1</ele>
    <time>2019-11-11T22:48:34.000Z</time>
   </trkpt>
   <trkpt lat="-8.049201" lon="-34.896445">
    <ele>13</ele>
    <time>2019-11-11T22:48:35.000Z</time>
   </trkpt>
   <trkpt lat="-8.049141" lon="-34.896447">
    <ele>12.9</ele>
    <time>2019-11-11T22:48:36.000Z</time>
   </trkpt>
   <trkpt lat="-8.049088" lon="-34.896442">
    <ele>12.8</ele>
    <time>2019-11-11T22:48:37.000Z</time>
   </trkpt>
   <trkpt lat="-8.049027" lon="-34.896448">
    <ele>12.7</ele>
    <time>2019-11-11T22:48:38.000Z</time>
   </trkpt>
   <trkpt lat="-8.048977" lon="-34.896462">
    <ele>12.5</ele>
    <time>2019-11-11T22:48:39.000Z</time>
   </trkpt>
   <trkpt lat="-8.048931" lon="-34.89648">
    <ele>12.4</ele>
    <time>2019-11-11T22:48:40.000Z</time>
   </trkpt>
   <trkpt lat="-8.048885" lon="-34.896493">
    <ele>12.3</ele>
    <time>2019-11-11T22:48:41.000Z</time>
   </trkpt>
   <trkpt lat="-8.048856" lon="-34.896508">
    <ele>12.2</ele>
    <time>2019-11-11T22:48:42.000Z</time>
   </trkpt>
   <trkpt lat="-8.048814" lon="-34.896513">
    <ele>12.1</ele>
    <time>2019-11-11T22:48:43.000Z</time>
   </trkpt>
   <trkpt lat="-8.048766" lon="-34.896527">
    <ele>11.8</ele>
    <time>2019-11-11T22:48:44.000Z</time>
   </trkpt>
   <trkpt lat="-8.048729" lon="-34.896544">
    <ele>11.6</ele>
    <time>2019-11-11T22:48:45.000Z</time>
   </trkpt>
   <trkpt lat="-8.048688" lon="-34.896565">
    <ele>11.4</ele>
    <time>2019-11-11T22:48:46.000Z</time>
   </trkpt>
   <trkpt lat="-8.048642" lon="-34.896582">
    <ele>11.3</ele>
    <time>2019-11-11T22:48:47.000Z</time>
   </trkpt>
   <trkpt lat="-8.048595" lon="-34.896616">
    <ele>11.1</ele>
    <time>2019-11-11T22:48:48.000Z</time>
   </trkpt>
   <trkpt lat="-8.048548" lon="-34.89664">
    <ele>10.9</ele>
    <time>2019-11-11T22:48:49.000Z</time>
   </trkpt>
   <trkpt lat="-8.04851" lon="-34.896657">
    <ele>10.7</ele>
    <time>2019-11-11T22:48:50.000Z</time>
   </trkpt>
   <trkpt lat="-8.048473" lon="-34.896669">
    <ele>10.6</ele>
    <time>2019-11-11T22:48:51.000Z</time>
   </trkpt>
   <trkpt lat="-8.048447" lon="-34.89669">
    <ele>10.5</ele>
    <time>2019-11-11T22:48:52.000Z</time>
   </trkpt>
   <trkpt lat="-8.048418" lon="-34.896722">
    <ele>10.4</ele>
    <time>2019-11-11T22:48:53.000Z</time>
   </trkpt>
   <trkpt lat="-8.048374" lon="-34.89674">
    <ele>10.3</ele>
    <time>2019-11-11T22:48:54.000Z</time>
   </trkpt>
   <trkpt lat="-8.048334" lon="-34.896755">
    <ele>10.2</ele>
    <time>2019-11-11T22:48:55.000Z</time>
   </trkpt>
   <trkpt lat="-8.048296" lon="-34.896762">
    <ele>10.1</ele>
    <time>2019-11-11T22:48:56.000Z</time>
   </trkpt>
   <trkpt lat="-8.04826" lon="-34.896783">
    <ele>10.1</ele>
    <time>2019-11-11T22:48:57.000Z</time>
   </trkpt>
   <trkpt lat="-8.048213" lon="-34.89679">
    <ele>10.4</ele>
    <time>2019-11-11T22:48:58.000Z</time>
   </trkpt>
   <trkpt lat="-8.048158" lon="-34.896797">
    <ele>10.6</ele>
    <time>2019-11-11T22:48:59.000Z</time>
   </trkpt>
   <trkpt lat="-8.04811" lon="-34.896807">
    <ele>10.9</ele>
    <time>2019-11-11T22:49:00.000Z</time>
   </trkpt>
   <trkpt lat="-8.048061" lon="-34.896826">
    <ele>11.2</ele>
    <time>2019-11-11T22:49:01.000Z</time>
   </trkpt>
   <trkpt lat="-8.048021" lon="-34.896837">
    <ele>11.3</ele>
    <time>2019-11-11T22:49:02.000Z</time>
   </trkpt>
   <trkpt lat="-8.047982" lon="-34.896851">
    <ele>11.4</ele>
    <time>2019-11-11T22:49:03.000Z</time>
   </trkpt>
   <trkpt lat="-8.047944" lon="-34.896887">
    <ele>12</ele>
    <time>2019-11-11T22:49:04.000Z</time>
   </trkpt>
   <trkpt lat="-8.04791" lon="-34.896891">
    <ele>12.2</ele>
    <time>2019-11-11T22:49:05.000Z</time>
   </trkpt>
   <trkpt lat="-8.047879" lon="-34.896902">
    <ele>12.3</ele>
    <time>2019-11-11T22:49:06.000Z</time>
   </trkpt>
   <trkpt lat="-8.04785" lon="-34.896906">
    <ele>12.4</ele>
    <time>2019-11-11T22:49:07.000Z</time>
   </trkpt>
   <trkpt lat="-8.04781" lon="-34.896919">
    <ele>12.6</ele>
    <time>2019-11-11T22:49:08.000Z</time>
   </trkpt>
   <trkpt lat="-8.047775" lon="-34.896929">
    <ele>12.7</ele>
    <time>2019-11-11T22:49:09.000Z</time>
   </trkpt>
   <trkpt lat="-8.047734" lon="-34.89693">
    <ele>12.8</ele>
    <time>2019-11-11T22:49:10.000Z</time>
   </trkpt>
   <trkpt lat="-8.047705" lon="-34.896935">
    <ele>12.9</ele>
    <time>2019-11-11T22:49:11.000Z</time>
   </trkpt>
   <trkpt lat="-8.047668" lon="-34.896933">
    <ele>13</ele>
    <time>2019-11-11T22:49:12.000Z</time>
   </trkpt>
   <trkpt lat="-8.047635" lon="-34.896936">
    <ele>13.2</ele>
    <time>2019-11-11T22:49:13.000Z</time>
   </trkpt>
   <trkpt lat="-8.047612" lon="-34.896912">
    <ele>13.3</ele>
    <time>2019-11-11T22:49:14.000Z</time>
   </trkpt>
   <trkpt lat="-8.047587" lon="-34.89689">
    <ele>13.7</ele>
    <time>2019-11-11T22:49:15.000Z</time>
   </trkpt>
   <trkpt lat="-8.047563" lon="-34.896864">
    <ele>13.8</ele>
    <time>2019-11-11T22:49:16.000Z</time>
   </trkpt>
   <trkpt lat="-8.047548" lon="-34.896817">
    <ele>14</ele>
    <time>2019-11-11T22:49:17.000Z</time>
   </trkpt>
   <trkpt lat="-8.047528" lon="-34.896781">
    <ele>14.2</ele>
    <time>2019-11-11T22:49:18.000Z</time>
   </trkpt>
   <trkpt lat="-8.047504" lon="-34.896742">
    <ele>14.3</ele>
    <time>2019-11-11T22:49:19.000Z</time>
   </trkpt>
   <trkpt lat="-8.047487" lon="-34.896707">
    <ele>14.5</ele>
    <time>2019-11-11T22:49:20.000Z</time>
   </trkpt>
   <trkpt lat="-8.047474" lon="-34.896682">
    <ele>14.6</ele>
    <time>2019-11-11T22:49:21.000Z</time>
   </trkpt>
   <trkpt lat="-8.047457" lon="-34.896639">
    <ele>14.8</ele>
    <time>2019-11-11T22:49:22.000Z</time>
   </trkpt>
   <trkpt lat="-8.047444" lon="-34.896603">
    <ele>14.9</ele>
    <time>2019-11-11T22:49:23.000Z</time>
   </trkpt>
   <trkpt lat="-8.047426" lon="-34.896557">
    <ele>15.1</ele>
    <time>2019-11-11T22:49:24.000Z</time>
   </trkpt>
   <trkpt lat="-8.047398" lon="-34.896516">
    <ele>15.3</ele>
    <time>2019-11-11T22:49:25.000Z</time>
   </trkpt>
   <trkpt lat="-8.047357" lon="-34.896488">
    <ele>15.5</ele>
    <time>2019-11-11T22:49:26.000Z</time>
   </trkpt>
   <trkpt lat="-8.047304" lon="-34.896455">
    <ele>15.9</ele>
    <time>2019-11-11T22:49:27.000Z</time>
   </trkpt>
   <trkpt lat="-8.047249" lon="-34.896423">
    <ele>16.3</ele>
    <time>2019-11-11T22:49:28.000Z</time>
   </trkpt>
   <trkpt lat="-8.047212" lon="-34.896386">
    <ele>16.6</ele>
    <time>2019-11-11T22:49:29.000Z</time>
   </trkpt>
   <trkpt lat="-8.047173" lon="-34.896354">
    <ele>17</ele>
    <time>2019-11-11T22:49:30.000Z</time>
   </trkpt>
   <trkpt lat="-8.047134" lon="-34.896303">
    <ele>17.4</ele>
    <time>2019-11-11T22:49:31.000Z</time>
   </trkpt>
   <trkpt lat="-8.047098" lon="-34.896254">
    <ele>17.7</ele>
    <time>2019-11-11T22:49:32.000Z</time>
   </trkpt>
   <trkpt lat="-8.047056" lon="-34.896204">
    <ele>18</ele>
    <time>2019-11-11T22:49:33.000Z</time>
   </trkpt>
   <trkpt lat="-8.047028" lon="-34.896158">
    <ele>18.2</ele>
    <time>2019-11-11T22:49:34.000Z</time>
   </trkpt>
   <trkpt lat="-8.046993" lon="-34.89611">
    <ele>18.5</ele>
    <time>2019-11-11T22:49:35.000Z</time>
   </trkpt>
   <trkpt lat="-8.04696" lon="-34.896066">
    <ele>18.8</ele>
    <time>2019-11-11T22:49:36.000Z</time>
   </trkpt>
   <trkpt lat="-8.046923" lon="-34.896029">
    <ele>19.1</ele>
    <time>2019-11-11T22:49:37.000Z</time>
   </trkpt>
   <trkpt lat="-8.046886" lon="-34.895994">
    <ele>19.3</ele>
    <time>2019-11-11T22:49:38.000Z</time>
   </trkpt>
   <trkpt lat="-8.046851" lon="-34.895966">
    <ele>19.5</ele>
    <time>2019-11-11T22:49:39.000Z</time>
   </trkpt>
   <trkpt lat="-8.046814" lon="-34.895933">
    <ele>19.7</ele>
    <time>2019-11-11T22:49:40.000Z</time>
   </trkpt>
   <trkpt lat="-8.046791" lon="-34.895914">
    <ele>19.8</ele>
    <time>2019-11-11T22:49:41.000Z</time>
   </trkpt>
   <trkpt lat="-8.046771" lon="-34.895887">
    <ele>20</ele>
    <time>2019-11-11T22:49:42.000Z</time>
   </trkpt>
   <trkpt lat="-8.046736" lon="-34.895862">
    <ele>20.2</ele>
    <time>2019-11-11T22:49:43.000Z</time>
   </trkpt>
   <trkpt lat="-8.046691" lon="-34.895832">
    <ele>20.4</ele>
    <time>2019-11-11T22:49:44.000Z</time>
   </trkpt>
   <trkpt lat="-8.046633" lon="-34.895799">
    <ele>20.7</ele>
    <time>2019-11-11T22:49:45.000Z</time>
   </trkpt>
   <trkpt lat="-8.046582" lon="-34.895772">
    <ele>21</ele>
    <time>2019-11-11T22:49:46.000Z</time>
   </trkpt>
   <trkpt lat="-8.046552" lon="-34.895752">
    <ele>21.2</ele>
    <time>2019-11-11T22:49:47.000Z</time>
   </trkpt>
   <trkpt lat="-8.04652" lon="-34.895757">
    <ele>21.4</ele>
    <time>2019-11-11T22:49:48.000Z</time>
   </trkpt>
   <trkpt lat="-8.04646" lon="-34.895738">
    <ele>21.6</ele>
    <time>2019-11-11T22:49:50.000Z</time>
   </trkpt>
   <trkpt lat="-8.046427" lon="-34.895726">
    <ele>21.7</ele>
    <time>2019-11-11T22:49:51.000Z</time>
   </trkpt>
   <trkpt lat="-8.046399" lon="-34.895707">
    <ele>21.9</ele>
    <time>2019-11-11T22:49:52.000Z</time>
   </trkpt>
   <trkpt lat="-8.046385" lon="-34.895672">
    <ele>22</ele>
    <time>2019-11-11T22:49:53.000Z</time>
   </trkpt>
   <trkpt lat="-8.046368" lon="-34.895648">
    <ele>22.1</ele>
    <time>2019-11-11T22:49:54.000Z</time>
   </trkpt>
   <trkpt lat="-8.046354" lon="-34.895616">
    <ele>22.2</ele>
    <time>2019-11-11T22:49:55.000Z</time>
   </trkpt>
   <trkpt lat="-8.046327" lon="-34.895588">
    <ele>22.4</ele>
    <time>2019-11-11T22:49:56.000Z</time>
   </trkpt>
   <trkpt lat="-8.046292" lon="-34.895562">
    <ele>22.5</ele>
    <time>2019-11-11T22:49:57.000Z</time>
   </trkpt>
   <trkpt lat="-8.046255" lon="-34.895541">
    <ele>22.6</ele>
    <time>2019-11-11T22:49:58.000Z</time>
   </trkpt>
   <trkpt lat="-8.046219" lon="-34.895515">
    <ele>22.7</ele>
    <time>2019-11-11T22:49:59.000Z</time>
   </trkpt>
   <trkpt lat="-8.046186" lon="-34.895504">
    <ele>22.8</ele>
    <time>2019-11-11T22:50:00.000Z</time>
   </trkpt>
   <trkpt lat="-8.046156" lon="-34.895498">
    <ele>22.8</ele>
    <time>2019-11-11T22:50:01.000Z</time>
   </trkpt>
   <trkpt lat="-8.046124" lon="-34.895493">
    <ele>22.9</ele>
    <time>2019-11-11T22:50:02.000Z</time>
   </trkpt>
   <trkpt lat="-8.046082" lon="-34.895489">
    <ele>23</ele>
    <time>2019-11-11T22:50:04.000Z</time>
   </trkpt>
   <trkpt lat="-8.046051" lon="-34.895486">
    <ele>23.1</ele>
    <time>2019-11-11T22:50:06.000Z</time>
   </trkpt>
   <trkpt lat="-8.046024" lon="-34.895498">
    <ele>23.2</ele>
    <time>2019-11-11T22:50:15.000Z</time>
   </trkpt>
   <trkpt lat="-8.046008" lon="-34.89552">
    <ele>23.3</ele>
    <time>2019-11-11T22:50:20.000Z</time>
   </trkpt>
   <trkpt lat="-8.045988" lon="-34.895498">
    <ele>23.3</ele>
    <time>2019-11-11T22:50:23.000Z</time>
   </trkpt>
   <trkpt lat="-8.045953" lon="-34.89548">
    <ele>23.5</ele>
    <time>2019-11-11T22:50:24.000Z</time>
   </trkpt>
   <trkpt lat="-8.045898" lon="-34.89546">
    <ele>23.7</ele>
    <time>2019-11-11T22:50:25.000Z</time>
   </trkpt>
   <trkpt lat="-8.045853" lon="-34.895404">
    <ele>24</ele>
    <time>2019-11-11T22:50:26.000Z</time>
   </trkpt>
   <trkpt lat="-8.045789" lon="-34.895368">
    <ele>23.8</ele>
    <time>2019-11-11T22:50:27.000Z</time>
   </trkpt>
   <trkpt lat="-8.045739" lon="-34.895325">
    <ele>23.2</ele>
    <time>2019-11-11T22:50:28.000Z</time>
   </trkpt>
   <trkpt lat="-8.045684" lon="-34.895284">
    <ele>22.6</ele>
    <time>2019-11-11T22:50:29.000Z</time>
   </trkpt>
   <trkpt lat="-8.045629" lon="-34.895248">
    <ele>22</ele>
    <time>2019-11-11T22:50:30.000Z</time>
   </trkpt>
   <trkpt lat="-8.04559" lon="-34.895224">
    <ele>21.7</ele>
    <time>2019-11-11T22:50:31.000Z</time>
   </trkpt>
   <trkpt lat="-8.04555" lon="-34.895194">
    <ele>21.4</ele>
    <time>2019-11-11T22:50:32.000Z</time>
   </trkpt>
   <trkpt lat="-8.0455" lon="-34.895162">
    <ele>21</ele>
    <time>2019-11-11T22:50:33.000Z</time>
   </trkpt>
   <trkpt lat="-8.045462" lon="-34.89513">
    <ele>20.7</ele>
    <time>2019-11-11T22:50:34.000Z</time>
   </trkpt>
   <trkpt lat="-8.045438" lon="-34.89509">
    <ele>20.5</ele>
    <time>2019-11-11T22:50:35.000Z</time>
   </trkpt>
   <trkpt lat="-8.045407" lon="-34.89505">
    <ele>20.3</ele>
    <time>2019-11-11T22:50:36.000Z</time>
   </trkpt>
   <trkpt lat="-8.045373" lon="-34.895021">
    <ele>20</ele>
    <time>2019-11-11T22:50:37.000Z</time>
   </trkpt>
   <trkpt lat="-8.045332" lon="-34.894991">
    <ele>19.6</ele>
    <time>2019-11-11T22:50:38.000Z</time>
   </trkpt>
   <trkpt lat="-8.045299" lon="-34.894964">
    <ele>19.3</ele>
    <time>2019-11-11T22:50:39.000Z</time>
   </trkpt>
   <trkpt lat="-8.045271" lon="-34.894941">
    <ele>19.1</ele>
    <time>2019-11-11T22:50:40.000Z</time>
   </trkpt>
   <trkpt lat="-8.045255" lon="-34.894915">
    <ele>18.9</ele>
    <time>2019-11-11T22:50:41.000Z</time>
   </trkpt>
   <trkpt lat="-8.045237" lon="-34.894891">
    <ele>18.7</ele>
    <time>2019-11-11T22:50:42.000Z</time>
   </trkpt>
   <trkpt lat="-8.045218" lon="-34.894854">
    <ele>18.4</ele>
    <time>2019-11-11T22:50:43.000Z</time>
   </trkpt>
   <trkpt lat="-8.045183" lon="-34.894809">
    <ele>18.1</ele>
    <time>2019-11-11T22:50:44.000Z</time>
   </trkpt>
   <trkpt lat="-8.045119" lon="-34.894772">
    <ele>17.8</ele>
    <time>2019-11-11T22:50:45.000Z</time>
   </trkpt>
   <trkpt lat="-8.04507" lon="-34.894736">
    <ele>17.5</ele>
    <time>2019-11-11T22:50:46.000Z</time>
   </trkpt>
   <trkpt lat="-8.045051" lon="-34.894689">
    <ele>17.2</ele>
    <time>2019-11-11T22:50:47.000Z</time>
   </trkpt>
   <trkpt lat="-8.04502" lon="-34.894649">
    <ele>17</ele>
    <time>2019-11-11T22:50:48.000Z</time>
   </trkpt>
   <trkpt lat="-8.044987" lon="-34.894616">
    <ele>16.8</ele>
    <time>2019-11-11T22:50:49.000Z</time>
   </trkpt>
   <trkpt lat="-8.044954" lon="-34.894578">
    <ele>16.5</ele>
    <time>2019-11-11T22:50:50.000Z</time>
   </trkpt>
   <trkpt lat="-8.044878" lon="-34.894553">
    <ele>16.1</ele>
    <time>2019-11-11T22:50:51.000Z</time>
   </trkpt>
   <trkpt lat="-8.044846" lon="-34.894525">
    <ele>15.9</ele>
    <time>2019-11-11T22:50:52.000Z</time>
   </trkpt>
   <trkpt lat="-8.044808" lon="-34.894509">
    <ele>15.7</ele>
    <time>2019-11-11T22:50:53.000Z</time>
   </trkpt>
   <trkpt lat="-8.044764" lon="-34.894477">
    <ele>15.4</ele>
    <time>2019-11-11T22:50:54.000Z</time>
   </trkpt>
   <trkpt lat="-8.044736" lon="-34.894454">
    <ele>15.2</ele>
    <time>2019-11-11T22:50:55.000Z</time>
   </trkpt>
   <trkpt lat="-8.044684" lon="-34.894433">
    <ele>15</ele>
    <time>2019-11-11T22:50:56.000Z</time>
   </trkpt>
   <trkpt lat="-8.044646" lon="-34.894411">
    <ele>14.7</ele>
    <time>2019-11-11T22:50:57.000Z</time>
   </trkpt>
   <trkpt lat="-8.04461" lon="-34.894385">
    <ele>14.5</ele>
    <time>2019-11-11T22:50:58.000Z</time>
   </trkpt>
   <trkpt lat="-8.044576" lon="-34.894321">
    <ele>14.2</ele>
    <time>2019-11-11T22:50:59.000Z</time>
   </trkpt>
   <trkpt lat="-8.044521" lon="-34.894292">
    <ele>14</ele>
    <time>2019-11-11T22:51:00.000Z</time>
   </trkpt>
   <trkpt lat="-8.044477" lon="-34.894254">
    <ele>13.8</ele>
    <time>2019-11-11T22:51:01.000Z</time>
   </trkpt>
   <trkpt lat="-8.044435" lon="-34.894224">
    <ele>13.6</ele>
    <time>2019-11-11T22:51:02.000Z</time>
   </trkpt>
   <trkpt lat="-8.044396" lon="-34.89419">
    <ele>13.6</ele>
    <time>2019-11-11T22:51:03.000Z</time>
   </trkpt>
   <trkpt lat="-8.044347" lon="-34.894155">
    <ele>13.8</ele>
    <time>2019-11-11T22:51:04.000Z</time>
   </trkpt>
   <trkpt lat="-8.044299" lon="-34.894124">
    <ele>13.9</ele>
    <time>2019-11-11T22:51:05.000Z</time>
   </trkpt>
   <trkpt lat="-8.044257" lon="-34.894079">
    <ele>14.1</ele>
    <time>2019-11-11T22:51:06.000Z</time>
   </trkpt>
   <trkpt lat="-8.044213" lon="-34.894033">
    <ele>14.2</ele>
    <time>2019-11-11T22:51:07.000Z</time>
   </trkpt>
   <trkpt lat="-8.044176" lon="-34.894014">
    <ele>14.3</ele>
    <time>2019-11-11T22:51:08.000Z</time>
   </trkpt>
   <trkpt lat="-8.044145" lon="-34.893989">
    <ele>14.4</ele>
    <time>2019-11-11T22:51:09.000Z</time>
   </trkpt>
   <trkpt lat="-8.04411" lon="-34.89398">
    <ele>14.4</ele>
    <time>2019-11-11T22:51:10.000Z</time>
   </trkpt>
   <trkpt lat="-8.044078" lon="-34.893946">
    <ele>14.5</ele>
    <time>2019-11-11T22:51:11.000Z</time>
   </trkpt>
   <trkpt lat="-8.044036" lon="-34.893903">
    <ele>14.5</ele>
    <time>2019-11-11T22:51:12.000Z</time>
   </trkpt>
   <trkpt lat="-8.043977" lon="-34.893868">
    <ele>14.6</ele>
    <time>2019-11-11T22:51:13.000Z</time>
   </trkpt>
   <trkpt lat="-8.043927" lon="-34.89383">
    <ele>14.6</ele>
    <time>2019-11-11T22:51:14.000Z</time>
   </trkpt>
   <trkpt lat="-8.043888" lon="-34.893789">
    <ele>14.6</ele>
    <time>2019-11-11T22:51:15.000Z</time>
   </trkpt>
   <trkpt lat="-8.043862" lon="-34.893761">
    <ele>14.6</ele>
    <time>2019-11-11T22:51:16.000Z</time>
   </trkpt>
   <trkpt lat="-8.043842" lon="-34.893733">
    <ele>14.6</ele>
    <time>2019-11-11T22:51:17.000Z</time>
   </trkpt>
   <trkpt lat="-8.043816" lon="-34.893711">
    <ele>14.7</ele>
    <time>2019-11-11T22:51:18.000Z</time>
   </trkpt>
   <trkpt lat="-8.043785" lon="-34.893678">
    <ele>14.7</ele>
    <time>2019-11-11T22:51:19.000Z</time>
   </trkpt>
   <trkpt lat="-8.043766" lon="-34.893651">
    <ele>14.7</ele>
    <time>2019-11-11T22:51:20.000Z</time>
   </trkpt>
   <trkpt lat="-8.043726" lon="-34.893603">
    <ele>14.8</ele>
    <time>2019-11-11T22:51:22.000Z</time>
   </trkpt>
   <trkpt lat="-8.043692" lon="-34.89357">
    <ele>14.9</ele>
    <time>2019-11-11T22:51:24.000Z</time>
   </trkpt>
   <trkpt lat="-8.043661" lon="-34.893582">
    <ele>15</ele>
    <time>2019-11-11T22:51:30.000Z</time>
   </trkpt>
   <trkpt lat="-8.043585" lon="-34.893535">
    <ele>15.2</ele>
    <time>2019-11-11T22:52:05.000Z</time>
   </trkpt>
   <trkpt lat="-8.043545" lon="-34.89351">
    <ele>15.3</ele>
    <time>2019-11-11T22:52:07.000Z</time>
   </trkpt>
   <trkpt lat="-8.043521" lon="-34.893488">
    <ele>15.4</ele>
    <time>2019-11-11T22:52:08.000Z</time>
   </trkpt>
   <trkpt lat="-8.043497" lon="-34.89347">
    <ele>15.4</ele>
    <time>2019-11-11T22:52:09.000Z</time>
   </trkpt>
   <trkpt lat="-8.043468" lon="-34.893436">
    <ele>15.5</ele>
    <time>2019-11-11T22:52:10.000Z</time>
   </trkpt>
   <trkpt lat="-8.043434" lon="-34.893406">
    <ele>15.6</ele>
    <time>2019-11-11T22:52:11.000Z</time>
   </trkpt>
   <trkpt lat="-8.043399" lon="-34.893381">
    <ele>15.6</ele>
    <time>2019-11-11T22:52:12.000Z</time>
   </trkpt>
   <trkpt lat="-8.04337" lon="-34.893357">
    <ele>15.7</ele>
    <time>2019-11-11T22:52:13.000Z</time>
   </trkpt>
   <trkpt lat="-8.04334" lon="-34.893345">
    <ele>15.7</ele>
    <time>2019-11-11T22:52:14.000Z</time>
   </trkpt>
   <trkpt lat="-8.043305" lon="-34.893323">
    <ele>15.7</ele>
    <time>2019-11-11T22:52:15.000Z</time>
   </trkpt>
   <trkpt lat="-8.043265" lon="-34.893286">
    <ele>15.7</ele>
    <time>2019-11-11T22:52:16.000Z</time>
   </trkpt>
   <trkpt lat="-8.043226" lon="-34.893249">
    <ele>15.8</ele>
    <time>2019-11-11T22:52:17.000Z</time>
   </trkpt>
   <trkpt lat="-8.043198" lon="-34.893212">
    <ele>15.8</ele>
    <time>2019-11-11T22:52:18.000Z</time>
   </trkpt>
   <trkpt lat="-8.043175" lon="-34.89319">
    <ele>15.8</ele>
    <time>2019-11-11T22:52:19.000Z</time>
   </trkpt>
   <trkpt lat="-8.043162" lon="-34.893163">
    <ele>15.9</ele>
    <time>2019-11-11T22:52:20.000Z</time>
   </trkpt>
   <trkpt lat="-8.043124" lon="-34.893139">
    <ele>15.9</ele>
    <time>2019-11-11T22:52:21.000Z</time>
   </trkpt>
   <trkpt lat="-8.043086" lon="-34.893111">
    <ele>16</ele>
    <time>2019-11-11T22:52:22.000Z</time>
   </trkpt>
   <trkpt lat="-8.043039" lon="-34.893091">
    <ele>16.1</ele>
    <time>2019-11-11T22:52:23.000Z</time>
   </trkpt>
   <trkpt lat="-8.042998" lon="-34.893076">
    <ele>16.2</ele>
    <time>2019-11-11T22:52:24.000Z</time>
   </trkpt>
   <trkpt lat="-8.042953" lon="-34.893056">
    <ele>16.4</ele>
    <time>2019-11-11T22:52:25.000Z</time>
   </trkpt>
   <trkpt lat="-8.042918" lon="-34.893035">
    <ele>16.5</ele>
    <time>2019-11-11T22:52:26.000Z</time>
   </trkpt>
   <trkpt lat="-8.042884" lon="-34.893009">
    <ele>16.6</ele>
    <time>2019-11-11T22:52:27.000Z</time>
   </trkpt>
   <trkpt lat="-8.042845" lon="-34.892985">
    <ele>16.7</ele>
    <time>2019-11-11T22:52:28.000Z</time>
   </trkpt>
   <trkpt lat="-8.042809" lon="-34.892968">
    <ele>16.7</ele>
    <time>2019-11-11T22:52:29.000Z</time>
   </trkpt>
   <trkpt lat="-8.042773" lon="-34.892936">
    <ele>16.8</ele>
    <time>2019-11-11T22:52:30.000Z</time>
   </trkpt>
   <trkpt lat="-8.042744" lon="-34.892913">
    <ele>16.8</ele>
    <time>2019-11-11T22:52:31.000Z</time>
   </trkpt>
   <trkpt lat="-8.042718" lon="-34.892881">
    <ele>16.8</ele>
    <time>2019-11-11T22:52:32.000Z</time>
   </trkpt>
   <trkpt lat="-8.042683" lon="-34.892854">
    <ele>16.8</ele>
    <time>2019-11-11T22:52:33.000Z</time>
   </trkpt>
   <trkpt lat="-8.042652" lon="-34.892828">
    <ele>16.9</ele>
    <time>2019-11-11T22:52:34.000Z</time>
   </trkpt>
   <trkpt lat="-8.042614" lon="-34.892792">
    <ele>16.9</ele>
    <time>2019-11-11T22:52:35.000Z</time>
   </trkpt>
   <trkpt lat="-8.04257" lon="-34.892766">
    <ele>16.9</ele>
    <time>2019-11-11T22:52:36.000Z</time>
   </trkpt>
   <trkpt lat="-8.042522" lon="-34.892742">
    <ele>16.9</ele>
    <time>2019-11-11T22:52:37.000Z</time>
   </trkpt>
   <trkpt lat="-8.042469" lon="-34.892705">
    <ele>16.9</ele>
    <time>2019-11-11T22:52:38.000Z</time>
   </trkpt>
   <trkpt lat="-8.042428" lon="-34.892664">
    <ele>16.9</ele>
    <time>2019-11-11T22:52:39.000Z</time>
   </trkpt>
   <trkpt lat="-8.04239" lon="-34.892629">
    <ele>16.9</ele>
    <time>2019-11-11T22:52:40.000Z</time>
   </trkpt>
   <trkpt lat="-8.042353" lon="-34.892603">
    <ele>16.9</ele>
    <time>2019-11-11T22:52:41.000Z</time>
   </trkpt>
   <trkpt lat="-8.04233" lon="-34.892582">
    <ele>16.9</ele>
    <time>2019-11-11T22:52:42.000Z</time>
   </trkpt>
   <trkpt lat="-8.042302" lon="-34.892529">
    <ele>16.9</ele>
    <time>2019-11-11T22:52:43.000Z</time>
   </trkpt>
   <trkpt lat="-8.042243" lon="-34.892486">
    <ele>16.8</ele>
    <time>2019-11-11T22:52:44.000Z</time>
   </trkpt>
   <trkpt lat="-8.042195" lon="-34.89244">
    <ele>16.7</ele>
    <time>2019-11-11T22:52:45.000Z</time>
   </trkpt>
   <trkpt lat="-8.042142" lon="-34.892406">
    <ele>16.6</ele>
    <time>2019-11-11T22:52:46.000Z</time>
   </trkpt>
   <trkpt lat="-8.042099" lon="-34.892365">
    <ele>16.4</ele>
    <time>2019-11-11T22:52:47.000Z</time>
   </trkpt>
   <trkpt lat="-8.042055" lon="-34.89233">
    <ele>16.3</ele>
    <time>2019-11-11T22:52:48.000Z</time>
   </trkpt>
   <trkpt lat="-8.042011" lon="-34.892296">
    <ele>16.2</ele>
    <time>2019-11-11T22:52:49.000Z</time>
   </trkpt>
   <trkpt lat="-8.041981" lon="-34.892272">
    <ele>16.1</ele>
    <time>2019-11-11T22:52:50.000Z</time>
   </trkpt>
   <trkpt lat="-8.041942" lon="-34.892225">
    <ele>16</ele>
    <time>2019-11-11T22:52:51.000Z</time>
   </trkpt>
   <trkpt lat="-8.041907" lon="-34.892175">
    <ele>15.9</ele>
    <time>2019-11-11T22:52:52.000Z</time>
   </trkpt>
   <trkpt lat="-8.041873" lon="-34.892134">
    <ele>15.9</ele>
    <time>2019-11-11T22:52:53.000Z</time>
   </trkpt>
   <trkpt lat="-8.041825" lon="-34.892088">
    <ele>15.9</ele>
    <time>2019-11-11T22:52:54.000Z</time>
   </trkpt>
   <trkpt lat="-8.041771" lon="-34.892038">
    <ele>15.8</ele>
    <time>2019-11-11T22:52:55.000Z</time>
   </trkpt>
   <trkpt lat="-8.041716" lon="-34.891994">
    <ele>15.6</ele>
    <time>2019-11-11T22:52:56.000Z</time>
   </trkpt>
   <trkpt lat="-8.041668" lon="-34.891933">
    <ele>15.4</ele>
    <time>2019-11-11T22:52:57.000Z</time>
   </trkpt>
   <trkpt lat="-8.041639" lon="-34.891876">
    <ele>15.2</ele>
    <time>2019-11-11T22:52:58.000Z</time>
   </trkpt>
   <trkpt lat="-8.041614" lon="-34.891818">
    <ele>15.1</ele>
    <time>2019-11-11T22:52:59.000Z</time>
   </trkpt>
   <trkpt lat="-8.04158" lon="-34.891778">
    <ele>15</ele>
    <time>2019-11-11T22:53:00.000Z</time>
   </trkpt>
   <trkpt lat="-8.041544" lon="-34.891731">
    <ele>14.9</ele>
    <time>2019-11-11T22:53:01.000Z</time>
   </trkpt>
   <trkpt lat="-8.0415" lon="-34.891677">
    <ele>14.8</ele>
    <time>2019-11-11T22:53:02.000Z</time>
   </trkpt>
   <trkpt lat="-8.041466" lon="-34.89163">
    <ele>14.6</ele>
    <time>2019-11-11T22:53:03.000Z</time>
   </trkpt>
   <trkpt lat="-8.041428" lon="-34.891586">
    <ele>14.4</ele>
    <time>2019-11-11T22:53:04.000Z</time>
   </trkpt>
   <trkpt lat="-8.04139" lon="-34.891551">
    <ele>14.3</ele>
    <time>2019-11-11T22:53:05.000Z</time>
   </trkpt>
   <trkpt lat="-8.041342" lon="-34.891525">
    <ele>14.1</ele>
    <time>2019-11-11T22:53:06.000Z</time>
   </trkpt>
   <trkpt lat="-8.041287" lon="-34.891511">
    <ele>13.7</ele>
    <time>2019-11-11T22:53:07.000Z</time>
   </trkpt>
   <trkpt lat="-8.041238" lon="-34.89152">
    <ele>13.5</ele>
    <time>2019-11-11T22:53:08.000Z</time>
   </trkpt>
   <trkpt lat="-8.041184" lon="-34.891539">
    <ele>13.4</ele>
    <time>2019-11-11T22:53:09.000Z</time>
   </trkpt>
   <trkpt lat="-8.041128" lon="-34.891565">
    <ele>13.3</ele>
    <time>2019-11-11T22:53:10.000Z</time>
   </trkpt>
   <trkpt lat="-8.041076" lon="-34.891592">
    <ele>13.2</ele>
    <time>2019-11-11T22:53:11.000Z</time>
   </trkpt>
   <trkpt lat="-8.041035" lon="-34.891612">
    <ele>13.1</ele>
    <time>2019-11-11T22:53:12.000Z</time>
   </trkpt>
   <trkpt lat="-8.040987" lon="-34.891627">
    <ele>13</ele>
    <time>2019-11-11T22:53:13.000Z</time>
   </trkpt>
   <trkpt lat="-8.040934" lon="-34.891648">
    <ele>13</ele>
    <time>2019-11-11T22:53:14.000Z</time>
   </trkpt>
   <trkpt lat="-8.040876" lon="-34.891662">
    <ele>13</ele>
    <time>2019-11-11T22:53:15.000Z</time>
   </trkpt>
   <trkpt lat="-8.040835" lon="-34.89169">
    <ele>13</ele>
    <time>2019-11-11T22:53:16.000Z</time>
   </trkpt>
   <trkpt lat="-8.040805" lon="-34.891731">
    <ele>13</ele>
    <time>2019-11-11T22:53:17.000Z</time>
   </trkpt>
   <trkpt lat="-8.040762" lon="-34.891754">
    <ele>13</ele>
    <time>2019-11-11T22:53:18.000Z</time>
   </trkpt>
   <trkpt lat="-8.040726" lon="-34.891776">
    <ele>13</ele>
    <time>2019-11-11T22:53:19.000Z</time>
   </trkpt>
   <trkpt lat="-8.040672" lon="-34.891792">
    <ele>13</ele>
    <time>2019-11-11T22:53:20.000Z</time>
   </trkpt>
   <trkpt lat="-8.040625" lon="-34.891795">
    <ele>13</ele>
    <time>2019-11-11T22:53:21.000Z</time>
   </trkpt>
   <trkpt lat="-8.040587" lon="-34.891798">
    <ele>13</ele>
    <time>2019-11-11T22:53:22.000Z</time>
   </trkpt>
   <trkpt lat="-8.040555" lon="-34.891779">
    <ele>12.9</ele>
    <time>2019-11-11T22:53:23.000Z</time>
   </trkpt>
   <trkpt lat="-8.040524" lon="-34.891736">
    <ele>12.8</ele>
    <time>2019-11-11T22:53:24.000Z</time>
   </trkpt>
   <trkpt lat="-8.040482" lon="-34.891698">
    <ele>12.7</ele>
    <time>2019-11-11T22:53:25.000Z</time>
   </trkpt>
   <trkpt lat="-8.040441" lon="-34.891654">
    <ele>12.5</ele>
    <time>2019-11-11T22:53:26.000Z</time>
   </trkpt>
   <trkpt lat="-8.040404" lon="-34.891606">
    <ele>12.3</ele>
    <time>2019-11-11T22:53:27.000Z</time>
   </trkpt>
   <trkpt lat="-8.040371" lon="-34.891564">
    <ele>12.1</ele>
    <time>2019-11-11T22:53:28.000Z</time>
   </trkpt>
   <trkpt lat="-8.04033" lon="-34.891521">
    <ele>12</ele>
    <time>2019-11-11T22:53:29.000Z</time>
   </trkpt>
   <trkpt lat="-8.040292" lon="-34.891476">
    <ele>11.8</ele>
    <time>2019-11-11T22:53:30.000Z</time>
   </trkpt>
   <trkpt lat="-8.040252" lon="-34.891423">
    <ele>11.6</ele>
    <time>2019-11-11T22:53:31.000Z</time>
   </trkpt>
   <trkpt lat="-8.040215" lon="-34.891373">
    <ele>11.3</ele>
    <time>2019-11-11T22:53:32.000Z</time>
   </trkpt>
   <trkpt lat="-8.040174" lon="-34.891322">
    <ele>11.2</ele>
    <time>2019-11-11T22:53:33.000Z</time>
   </trkpt>
   <trkpt lat="-8.040137" lon="-34.891273">
    <ele>11</ele>
    <time>2019-11-11T22:53:34.000Z</time>
   </trkpt>
   <trkpt lat="-8.040097" lon="-34.891232">
    <ele>10.8</ele>
    <time>2019-11-11T22:53:35.000Z</time>
   </trkpt>
   <trkpt lat="-8.040056" lon="-34.891191">
    <ele>10.7</ele>
    <time>2019-11-11T22:53:36.000Z</time>
   </trkpt>
   <trkpt lat="-8.040021" lon="-34.891147">
    <ele>10.6</ele>
    <time>2019-11-11T22:53:37.000Z</time>
   </trkpt>
   <trkpt lat="-8.039988" lon="-34.8911">
    <ele>10.5</ele>
    <time>2019-11-11T22:53:38.000Z</time>
   </trkpt>
   <trkpt lat="-8.039955" lon="-34.891052">
    <ele>11.3</ele>
    <time>2019-11-11T22:53:39.000Z</time>
   </trkpt>
   <trkpt lat="-8.03992" lon="-34.891007">
    <ele>11.8</ele>
    <time>2019-11-11T22:53:40.000Z</time>
   </trkpt>
   <trkpt lat="-8.039874" lon="-34.890965">
    <ele>12.1</ele>
    <time>2019-11-11T22:53:41.000Z</time>
   </trkpt>
   <trkpt lat="-8.039835" lon="-34.89092">
    <ele>12.4</ele>
    <time>2019-11-11T22:53:42.000Z</time>
   </trkpt>
   <trkpt lat="-8.039804" lon="-34.890876">
    <ele>12.6</ele>
    <time>2019-11-11T22:53:43.000Z</time>
   </trkpt>
   <trkpt lat="-8.039776" lon="-34.890824">
    <ele>12.9</ele>
    <time>2019-11-11T22:53:44.000Z</time>
   </trkpt>
   <trkpt lat="-8.03974" lon="-34.890789">
    <ele>12.9</ele>
    <time>2019-11-11T22:53:45.000Z</time>
   </trkpt>
   <trkpt lat="-8.039711" lon="-34.890753">
    <ele>12.8</ele>
    <time>2019-11-11T22:53:46.000Z</time>
   </trkpt>
   <trkpt lat="-8.039683" lon="-34.890713">
    <ele>12.6</ele>
    <time>2019-11-11T22:53:47.000Z</time>
   </trkpt>
   <trkpt lat="-8.039653" lon="-34.890672">
    <ele>12.3</ele>
    <time>2019-11-11T22:53:48.000Z</time>
   </trkpt>
   <trkpt lat="-8.039624" lon="-34.89063">
    <ele>12.1</ele>
    <time>2019-11-11T22:53:49.000Z</time>
   </trkpt>
   <trkpt lat="-8.0396" lon="-34.890595">
    <ele>12</ele>
    <time>2019-11-11T22:53:50.000Z</time>
   </trkpt>
   <trkpt lat="-8.039572" lon="-34.890564">
    <ele>11.8</ele>
    <time>2019-11-11T22:53:51.000Z</time>
   </trkpt>
   <trkpt lat="-8.039544" lon="-34.890534">
    <ele>11.6</ele>
    <time>2019-11-11T22:53:52.000Z</time>
   </trkpt>
   <trkpt lat="-8.039497" lon="-34.890521">
    <ele>11.4</ele>
    <time>2019-11-11T22:53:53.000Z</time>
   </trkpt>
   <trkpt lat="-8.039465" lon="-34.890508">
    <ele>11.2</ele>
    <time>2019-11-11T22:53:54.000Z</time>
   </trkpt>
   <trkpt lat="-8.039424" lon="-34.890498">
    <ele>11</ele>
    <time>2019-11-11T22:53:55.000Z</time>
   </trkpt>
   <trkpt lat="-8.039384" lon="-34.890487">
    <ele>11</ele>
    <time>2019-11-11T22:53:56.000Z</time>
   </trkpt>
   <trkpt lat="-8.039337" lon="-34.890479">
    <ele>11</ele>
    <time>2019-11-11T22:53:57.000Z</time>
   </trkpt>
   <trkpt lat="-8.039282" lon="-34.890467">
    <ele>10.8</ele>
    <time>2019-11-11T22:53:58.000Z</time>
   </trkpt>
   <trkpt lat="-8.039228" lon="-34.890447">
    <ele>10.7</ele>
    <time>2019-11-11T22:53:59.000Z</time>
   </trkpt>
   <trkpt lat="-8.039167" lon="-34.890442">
    <ele>10.6</ele>
    <time>2019-11-11T22:54:00.000Z</time>
   </trkpt>
   <trkpt lat="-8.039113" lon="-34.89042">
    <ele>10.3</ele>
    <time>2019-11-11T22:54:01.000Z</time>
   </trkpt>
   <trkpt lat="-8.039062" lon="-34.890408">
    <ele>10</ele>
    <time>2019-11-11T22:54:02.000Z</time>
   </trkpt>
   <trkpt lat="-8.039013" lon="-34.89039">
    <ele>9.5</ele>
    <time>2019-11-11T22:54:03.000Z</time>
   </trkpt>
   <trkpt lat="-8.038979" lon="-34.890364">
    <ele>9.1</ele>
    <time>2019-11-11T22:54:04.000Z</time>
   </trkpt>
   <trkpt lat="-8.038952" lon="-34.890326">
    <ele>8.7</ele>
    <time>2019-11-11T22:54:05.000Z</time>
   </trkpt>
   <trkpt lat="-8.038902" lon="-34.890304">
    <ele>8.7</ele>
    <time>2019-11-11T22:54:06.000Z</time>
   </trkpt>
   <trkpt lat="-8.038849" lon="-34.890289">
    <ele>8.7</ele>
    <time>2019-11-11T22:54:07.000Z</time>
   </trkpt>
   <trkpt lat="-8.038798" lon="-34.890257">
    <ele>8.8</ele>
    <time>2019-11-11T22:54:08.000Z</time>
   </trkpt>
   <trkpt lat="-8.038749" lon="-34.890229">
    <ele>8.8</ele>
    <time>2019-11-11T22:54:09.000Z</time>
   </trkpt>
   <trkpt lat="-8.038698" lon="-34.890206">
    <ele>8.9</ele>
    <time>2019-11-11T22:54:10.000Z</time>
   </trkpt>
   <trkpt lat="-8.03864" lon="-34.890187">
    <ele>9.1</ele>
    <time>2019-11-11T22:54:11.000Z</time>
   </trkpt>
   <trkpt lat="-8.038589" lon="-34.890165">
    <ele>9.7</ele>
    <time>2019-11-11T22:54:12.000Z</time>
   </trkpt>
   <trkpt lat="-8.038533" lon="-34.890157">
    <ele>10.3</ele>
    <time>2019-11-11T22:54:13.000Z</time>
   </trkpt>
   <trkpt lat="-8.038484" lon="-34.890134">
    <ele>11</ele>
    <time>2019-11-11T22:54:14.000Z</time>
   </trkpt>
   <trkpt lat="-8.038438" lon="-34.890106">
    <ele>11.4</ele>
    <time>2019-11-11T22:54:15.000Z</time>
   </trkpt>
   <trkpt lat="-8.03839" lon="-34.890083">
    <ele>11.7</ele>
    <time>2019-11-11T22:54:16.000Z</time>
   </trkpt>
   <trkpt lat="-8.038345" lon="-34.890058">
    <ele>11.7</ele>
    <time>2019-11-11T22:54:17.000Z</time>
   </trkpt>
   <trkpt lat="-8.038301" lon="-34.890034">
    <ele>11.7</ele>
    <time>2019-11-11T22:54:18.000Z</time>
   </trkpt>
   <trkpt lat="-8.038255" lon="-34.890015">
    <ele>11.7</ele>
    <time>2019-11-11T22:54:19.000Z</time>
   </trkpt>
   <trkpt lat="-8.038213" lon="-34.889998">
    <ele>11.9</ele>
    <time>2019-11-11T22:54:20.000Z</time>
   </trkpt>
   <trkpt lat="-8.038169" lon="-34.889974">
    <ele>12.1</ele>
    <time>2019-11-11T22:54:21.000Z</time>
   </trkpt>
   <trkpt lat="-8.038124" lon="-34.889952">
    <ele>12.4</ele>
    <time>2019-11-11T22:54:22.000Z</time>
   </trkpt>
   <trkpt lat="-8.038081" lon="-34.889932">
    <ele>12.6</ele>
    <time>2019-11-11T22:54:23.000Z</time>
   </trkpt>
   <trkpt lat="-8.038043" lon="-34.889909">
    <ele>12.6</ele>
    <time>2019-11-11T22:54:24.000Z</time>
   </trkpt>
   <trkpt lat="-8.03801" lon="-34.889899">
    <ele>12.6</ele>
    <time>2019-11-11T22:54:25.000Z</time>
   </trkpt>
   <trkpt lat="-8.037984" lon="-34.88989">
    <ele>12.6</ele>
    <time>2019-11-11T22:54:26.000Z</time>
   </trkpt>
   <trkpt lat="-8.037956" lon="-34.88989">
    <ele>12.5</ele>
    <time>2019-11-11T22:54:27.000Z</time>
   </trkpt>
   <trkpt lat="-8.037928" lon="-34.889875">
    <ele>12.4</ele>
    <time>2019-11-11T22:54:29.000Z</time>
   </trkpt>
   <trkpt lat="-8.037884" lon="-34.88986">
    <ele>12.3</ele>
    <time>2019-11-11T22:54:31.000Z</time>
   </trkpt>
   <trkpt lat="-8.037842" lon="-34.889857">
    <ele>12.1</ele>
    <time>2019-11-11T22:54:32.000Z</time>
   </trkpt>
   <trkpt lat="-8.037811" lon="-34.889864">
    <ele>12.1</ele>
    <time>2019-11-11T22:54:33.000Z</time>
   </trkpt>
   <trkpt lat="-8.03779" lon="-34.889894">
    <ele>12</ele>
    <time>2019-11-11T22:54:34.000Z</time>
   </trkpt>
   <trkpt lat="-8.037773" lon="-34.889934">
    <ele>11.9</ele>
    <time>2019-11-11T22:54:35.000Z</time>
   </trkpt>
   <trkpt lat="-8.037753" lon="-34.889972">
    <ele>11.8</ele>
    <time>2019-11-11T22:54:36.000Z</time>
   </trkpt>
   <trkpt lat="-8.037737" lon="-34.889997">
    <ele>11.7</ele>
    <time>2019-11-11T22:54:37.000Z</time>
   </trkpt>
   <trkpt lat="-8.037719" lon="-34.890037">
    <ele>11.5</ele>
    <time>2019-11-11T22:54:38.000Z</time>
   </trkpt>
   <trkpt lat="-8.037699" lon="-34.890089">
    <ele>11.4</ele>
    <time>2019-11-11T22:54:39.000Z</time>
   </trkpt>
   <trkpt lat="-8.037666" lon="-34.890129">
    <ele>11.2</ele>
    <time>2019-11-11T22:54:40.000Z</time>
   </trkpt>
   <trkpt lat="-8.037635" lon="-34.890171">
    <ele>11.1</ele>
    <time>2019-11-11T22:54:41.000Z</time>
   </trkpt>
   <trkpt lat="-8.037604" lon="-34.89021">
    <ele>11.1</ele>
    <time>2019-11-11T22:54:42.000Z</time>
   </trkpt>
   <trkpt lat="-8.037575" lon="-34.890242">
    <ele>11.2</ele>
    <time>2019-11-11T22:54:43.000Z</time>
   </trkpt>
   <trkpt lat="-8.037555" lon="-34.890284">
    <ele>11.4</ele>
    <time>2019-11-11T22:54:44.000Z</time>
   </trkpt>
   <trkpt lat="-8.037534" lon="-34.890324">
    <ele>11.5</ele>
    <time>2019-11-11T22:54:45.000Z</time>
   </trkpt>
   <trkpt lat="-8.037504" lon="-34.890365">
    <ele>11.6</ele>
    <time>2019-11-11T22:54:46.000Z</time>
   </trkpt>
   <trkpt lat="-8.037478" lon="-34.890409">
    <ele>11.7</ele>
    <time>2019-11-11T22:54:47.000Z</time>
   </trkpt>
   <trkpt lat="-8.037448" lon="-34.890443">
    <ele>11.9</ele>
    <time>2019-11-11T22:54:48.000Z</time>
   </trkpt>
   <trkpt lat="-8.037438" lon="-34.890493">
    <ele>12</ele>
    <time>2019-11-11T22:54:49.000Z</time>
   </trkpt>
   <trkpt lat="-8.037419" lon="-34.890528">
    <ele>12.1</ele>
    <time>2019-11-11T22:54:50.000Z</time>
   </trkpt>
   <trkpt lat="-8.037404" lon="-34.890579">
    <ele>11.9</ele>
    <time>2019-11-11T22:54:51.000Z</time>
   </trkpt>
   <trkpt lat="-8.037368" lon="-34.890614">
    <ele>11.6</ele>
    <time>2019-11-11T22:54:52.000Z</time>
   </trkpt>
   <trkpt lat="-8.037348" lon="-34.890648">
    <ele>11.4</ele>
    <time>2019-11-11T22:54:53.000Z</time>
   </trkpt>
   <trkpt lat="-8.03731" lon="-34.890687">
    <ele>11.1</ele>
    <time>2019-11-11T22:54:54.000Z</time>
   </trkpt>
   <trkpt lat="-8.037279" lon="-34.890731">
    <ele>10.8</ele>
    <time>2019-11-11T22:54:55.000Z</time>
   </trkpt>
   <trkpt lat="-8.03725" lon="-34.890775">
    <ele>10.5</ele>
    <time>2019-11-11T22:54:56.000Z</time>
   </trkpt>
   <trkpt lat="-8.037223" lon="-34.890815">
    <ele>10.2</ele>
    <time>2019-11-11T22:54:57.000Z</time>
   </trkpt>
   <trkpt lat="-8.037208" lon="-34.890862">
    <ele>9.1</ele>
    <time>2019-11-11T22:54:58.000Z</time>
   </trkpt>
   <trkpt lat="-8.037204" lon="-34.890906">
    <ele>8.3</ele>
    <time>2019-11-11T22:54:59.000Z</time>
   </trkpt>
   <trkpt lat="-8.037179" lon="-34.890943">
    <ele>7.8</ele>
    <time>2019-11-11T22:55:00.000Z</time>
   </trkpt>
   <trkpt lat="-8.037161" lon="-34.890983">
    <ele>7.5</ele>
    <time>2019-11-11T22:55:01.000Z</time>
   </trkpt>
   <trkpt lat="-8.037141" lon="-34.891015">
    <ele>7.2</ele>
    <time>2019-11-11T22:55:02.000Z</time>
   </trkpt>
   <trkpt lat="-8.03712" lon="-34.891036">
    <ele>7</ele>
    <time>2019-11-11T22:55:03.000Z</time>
   </trkpt>
   <trkpt lat="-8.037099" lon="-34.891061">
    <ele>6.9</ele>
    <time>2019-11-11T22:55:04.000Z</time>
   </trkpt>
   <trkpt lat="-8.037096" lon="-34.891109">
    <ele>7.4</ele>
    <time>2019-11-11T22:55:06.000Z</time>
   </trkpt>
   <trkpt lat="-8.037131" lon="-34.891147">
    <ele>7.3</ele>
    <time>2019-11-11T22:55:08.000Z</time>
   </trkpt>
   <trkpt lat="-8.037161" lon="-34.891165">
    <ele>7.2</ele>
    <time>2019-11-11T22:55:09.000Z</time>
   </trkpt>
   <trkpt lat="-8.037194" lon="-34.891186">
    <ele>7.3</ele>
    <time>2019-11-11T22:55:10.000Z</time>
   </trkpt>
   <trkpt lat="-8.037234" lon="-34.891202">
    <ele>7.8</ele>
    <time>2019-11-11T22:55:11.000Z</time>
   </trkpt>
   <trkpt lat="-8.037266" lon="-34.891214">
    <ele>8.2</ele>
    <time>2019-11-11T22:55:12.000Z</time>
   </trkpt>
   <trkpt lat="-8.0373" lon="-34.891224">
    <ele>8.6</ele>
    <time>2019-11-11T22:55:13.000Z</time>
   </trkpt>
   <trkpt lat="-8.037338" lon="-34.891243">
    <ele>9</ele>
    <time>2019-11-11T22:55:14.000Z</time>
   </trkpt>
   <trkpt lat="-8.037377" lon="-34.89126">
    <ele>9.4</ele>
    <time>2019-11-11T22:55:15.000Z</time>
   </trkpt>
   <trkpt lat="-8.037422" lon="-34.891274">
    <ele>9.8</ele>
    <time>2019-11-11T22:55:16.000Z</time>
   </trkpt>
   <trkpt lat="-8.037452" lon="-34.891296">
    <ele>10.2</ele>
    <time>2019-11-11T22:55:17.000Z</time>
   </trkpt>
   <trkpt lat="-8.03749" lon="-34.891321">
    <ele>10.4</ele>
    <time>2019-11-11T22:55:18.000Z</time>
   </trkpt>
   <trkpt lat="-8.037519" lon="-34.891352">
    <ele>10.7</ele>
    <time>2019-11-11T22:55:19.000Z</time>
   </trkpt>
   <trkpt lat="-8.03755" lon="-34.891374">
    <ele>10.9</ele>
    <time>2019-11-11T22:55:20.000Z</time>
   </trkpt>
   <trkpt lat="-8.037579" lon="-34.891389">
    <ele>11.1</ele>
    <time>2019-11-11T22:55:21.000Z</time>
   </trkpt>
   <trkpt lat="-8.037605" lon="-34.891401">
    <ele>11.2</ele>
    <time>2019-11-11T22:55:22.000Z</time>
   </trkpt>
   <trkpt lat="-8.037629" lon="-34.891415">
    <ele>11.3</ele>
    <time>2019-11-11T22:55:23.000Z</time>
   </trkpt>
   <trkpt lat="-8.037653" lon="-34.891434">
    <ele>11.5</ele>
    <time>2019-11-11T22:55:24.000Z</time>
   </trkpt>
   <trkpt lat="-8.037678" lon="-34.891451">
    <ele>11.6</ele>
    <time>2019-11-11T22:55:25.000Z</time>
   </trkpt>
   <trkpt lat="-8.037699" lon="-34.891472">
    <ele>11.7</ele>
    <time>2019-11-11T22:55:26.000Z</time>
   </trkpt>
   <trkpt lat="-8.037736" lon="-34.891506">
    <ele>11.9</ele>
    <time>2019-11-11T22:55:28.000Z</time>
   </trkpt>
   <trkpt lat="-8.037758" lon="-34.891529">
    <ele>12</ele>
    <time>2019-11-11T22:55:29.000Z</time>
   </trkpt>
   <trkpt lat="-8.037781" lon="-34.891551">
    <ele>11.9</ele>
    <time>2019-11-11T22:55:30.000Z</time>
   </trkpt>
   <trkpt lat="-8.037761" lon="-34.891594">
    <ele>11.7</ele>
    <time>2019-11-11T22:55:32.000Z</time>
   </trkpt>
   <trkpt lat="-8.037727" lon="-34.891643">
    <ele>11.4</ele>
    <time>2019-11-11T22:55:34.000Z</time>
   </trkpt>
   <trkpt lat="-8.037708" lon="-34.891683">
    <ele>11.1</ele>
    <time>2019-11-11T22:55:35.000Z</time>
   </trkpt>
   <trkpt lat="-8.037684" lon="-34.891711">
    <ele>10.9</ele>
    <time>2019-11-11T22:55:36.000Z</time>
   </trkpt>
   <trkpt lat="-8.037664" lon="-34.891745">
    <ele>10.7</ele>
    <time>2019-11-11T22:55:37.000Z</time>
   </trkpt>
   <trkpt lat="-8.037628" lon="-34.891772">
    <ele>10.5</ele>
    <time>2019-11-11T22:55:38.000Z</time>
   </trkpt>
   <trkpt lat="-8.037601" lon="-34.891809">
    <ele>10.4</ele>
    <time>2019-11-11T22:55:39.000Z</time>
   </trkpt>
   <trkpt lat="-8.037567" lon="-34.891848">
    <ele>10.2</ele>
    <time>2019-11-11T22:55:40.000Z</time>
   </trkpt>
   <trkpt lat="-8.037536" lon="-34.891888">
    <ele>10</ele>
    <time>2019-11-11T22:55:41.000Z</time>
   </trkpt>
   <trkpt lat="-8.03751" lon="-34.891931">
    <ele>9.7</ele>
    <time>2019-11-11T22:55:42.000Z</time>
   </trkpt>
   <trkpt lat="-8.037487" lon="-34.89198">
    <ele>9.4</ele>
    <time>2019-11-11T22:55:43.000Z</time>
   </trkpt>
   <trkpt lat="-8.037456" lon="-34.892023">
    <ele>9.1</ele>
    <time>2019-11-11T22:55:44.000Z</time>
   </trkpt>
   <trkpt lat="-8.037433" lon="-34.892069">
    <ele>8.8</ele>
    <time>2019-11-11T22:55:45.000Z</time>
   </trkpt>
   <trkpt lat="-8.037422" lon="-34.89211">
    <ele>8.5</ele>
    <time>2019-11-11T22:55:46.000Z</time>
   </trkpt>
   <trkpt lat="-8.037425" lon="-34.892162">
    <ele>8.6</ele>
    <time>2019-11-11T22:55:47.000Z</time>
   </trkpt>
   <trkpt lat="-8.037432" lon="-34.892214">
    <ele>8.7</ele>
    <time>2019-11-11T22:55:48.000Z</time>
   </trkpt>
   <trkpt lat="-8.037438" lon="-34.892264">
    <ele>8.8</ele>
    <time>2019-11-11T22:55:49.000Z</time>
   </trkpt>
   <trkpt lat="-8.037434" lon="-34.892311">
    <ele>8.9</ele>
    <time>2019-11-11T22:55:50.000Z</time>
   </trkpt>
   <trkpt lat="-8.037429" lon="-34.892358">
    <ele>8.9</ele>
    <time>2019-11-11T22:55:51.000Z</time>
   </trkpt>
   <trkpt lat="-8.037424" lon="-34.892397">
    <ele>9</ele>
    <time>2019-11-11T22:55:52.000Z</time>
   </trkpt>
   <trkpt lat="-8.037422" lon="-34.892436">
    <ele>9.1</ele>
    <time>2019-11-11T22:55:53.000Z</time>
   </trkpt>
   <trkpt lat="-8.037422" lon="-34.892476">
    <ele>9.2</ele>
    <time>2019-11-11T22:55:54.000Z</time>
   </trkpt>
   <trkpt lat="-8.037427" lon="-34.892517">
    <ele>9.3</ele>
    <time>2019-11-11T22:55:55.000Z</time>
   </trkpt>
   <trkpt lat="-8.037427" lon="-34.892555">
    <ele>9.3</ele>
    <time>2019-11-11T22:55:56.000Z</time>
   </trkpt>
   <trkpt lat="-8.037427" lon="-34.892595">
    <ele>9.4</ele>
    <time>2019-11-11T22:55:57.000Z</time>
   </trkpt>
   <trkpt lat="-8.037425" lon="-34.892631">
    <ele>9.5</ele>
    <time>2019-11-11T22:55:58.000Z</time>
   </trkpt>
   <trkpt lat="-8.037414" lon="-34.892669">
    <ele>9.5</ele>
    <time>2019-11-11T22:55:59.000Z</time>
   </trkpt>
   <trkpt lat="-8.037411" lon="-34.892711">
    <ele>9.6</ele>
    <time>2019-11-11T22:56:00.000Z</time>
   </trkpt>
   <trkpt lat="-8.0374" lon="-34.892752">
    <ele>9.7</ele>
    <time>2019-11-11T22:56:01.000Z</time>
   </trkpt>
   <trkpt lat="-8.037378" lon="-34.892782">
    <ele>9.7</ele>
    <time>2019-11-11T22:56:02.000Z</time>
   </trkpt>
   <trkpt lat="-8.037351" lon="-34.892806">
    <ele>9.8</ele>
    <time>2019-11-11T22:56:03.000Z</time>
   </trkpt>
   <trkpt lat="-8.037324" lon="-34.892815">
    <ele>9.9</ele>
    <time>2019-11-11T22:56:04.000Z</time>
   </trkpt>
   <trkpt lat="-8.037296" lon="-34.892812">
    <ele>9.6</ele>
    <time>2019-11-11T22:56:05.000Z</time>
   </trkpt>
   <trkpt lat="-8.037268" lon="-34.892806">
    <ele>9.5</ele>
    <time>2019-11-11T22:56:06.000Z</time>
   </trkpt>
   <trkpt lat="-8.037241" lon="-34.892798">
    <ele>9.4</ele>
    <time>2019-11-11T22:56:07.000Z</time>
   </trkpt>
   <trkpt lat="-8.037202" lon="-34.892771">
    <ele>9.2</ele>
    <time>2019-11-11T22:56:09.000Z</time>
   </trkpt>
   <trkpt lat="-8.037162" lon="-34.892754">
    <ele>9</ele>
    <time>2019-11-11T22:56:11.000Z</time>
   </trkpt>
   <trkpt lat="-8.037117" lon="-34.892741">
    <ele>8.8</ele>
    <time>2019-11-11T22:56:13.000Z</time>
   </trkpt>
   <trkpt lat="-8.03708" lon="-34.892727">
    <ele>8.7</ele>
    <time>2019-11-11T22:56:15.000Z</time>
   </trkpt>
   <trkpt lat="-8.037025" lon="-34.892723">
    <ele>8.5</ele>
    <time>2019-11-11T22:56:17.000Z</time>
   </trkpt>
   <trkpt lat="-8.036997" lon="-34.892713">
    <ele>8.4</ele>
    <time>2019-11-11T22:56:18.000Z</time>
   </trkpt>
   <trkpt lat="-8.036959" lon="-34.892698">
    <ele>8.2</ele>
    <time>2019-11-11T22:56:19.000Z</time>
   </trkpt>
   <trkpt lat="-8.036922" lon="-34.892703">
    <ele>8.1</ele>
    <time>2019-11-11T22:56:20.000Z</time>
   </trkpt>
   <trkpt lat="-8.036889" lon="-34.892724">
    <ele>8</ele>
    <time>2019-11-11T22:56:23.000Z</time>
   </trkpt>
   <trkpt lat="-8.036874" lon="-34.892748">
    <ele>7.9</ele>
    <time>2019-11-11T22:56:26.000Z</time>
   </trkpt>
   <trkpt lat="-8.036863" lon="-34.892781">
    <ele>7.8</ele>
    <time>2019-11-11T22:56:28.000Z</time>
   </trkpt>
   <trkpt lat="-8.036838" lon="-34.8928">
    <ele>7.7</ele>
    <time>2019-11-11T22:56:30.000Z</time>
   </trkpt>
   <trkpt lat="-8.036798" lon="-34.892826">
    <ele>7.6</ele>
    <time>2019-11-11T22:56:32.000Z</time>
   </trkpt>
  </trkseg>
 </trk>
</gpx>
