<?xml version="1.0" encoding="UTF-8"?>
<gpx creator="StravaGPX" version="1.1" xmlns="http://www.topografix.com/GPX/1/1">
 <metadata>
  <time>2020-02-03T12:04:01Z</time>
 </metadata>
 <trk>
  <name>Morning Ride</name>
  <type>1</type>
  <trkseg>
   <trkpt lat="-8.037259" lon="-34.892527">
    <ele>9.3</ele>
    <time>2020-02-03T12:04:01.000Z</time>
   </trkpt>
   <trkpt lat="-8.037205" lon="-34.892544">
    <ele>9.3</ele>
    <time>2020-02-03T12:04:02.000Z</time>
   </trkpt>
   <trkpt lat="-8.037209" lon="-34.892582">
    <ele>9.3</ele>
    <time>2020-02-03T12:04:03.000Z</time>
   </trkpt>
   <trkpt lat="-8.037184" lon="-34.892608">
    <ele>9.2</ele>
    <time>2020-02-03T12:04:04.000Z</time>
   </trkpt>
   <trkpt lat="-8.037183" lon="-34.892643">
    <ele>9.2</ele>
    <time>2020-02-03T12:04:05.000Z</time>
   </trkpt>
   <trkpt lat="-8.037215" lon="-34.892646">
    <ele>9.2</ele>
    <time>2020-02-03T12:04:09.000Z</time>
   </trkpt>
   <trkpt lat="-8.037233" lon="-34.892623">
    <ele>9.1</ele>
    <time>2020-02-03T12:04:12.000Z</time>
   </trkpt>
   <trkpt lat="-8.03726" lon="-34.892632">
    <ele>9.1</ele>
    <time>2020-02-03T12:04:14.000Z</time>
   </trkpt>
   <trkpt lat="-8.037293" lon="-34.892648">
    <ele>9.1</ele>
    <time>2020-02-03T12:04:16.000Z</time>
   </trkpt>
   <trkpt lat="-8.037339" lon="-34.892664">
    <ele>9</ele>
    <time>2020-02-03T12:04:18.000Z</time>
   </trkpt>
   <trkpt lat="-8.037353" lon="-34.89262">
    <ele>9</ele>
    <time>2020-02-03T12:04:19.000Z</time>
   </trkpt>
   <trkpt lat="-8.037381" lon="-34.89262">
    <ele>9</ele>
    <time>2020-02-03T12:04:21.000Z</time>
   </trkpt>
   <trkpt lat="-8.037409" lon="-34.892614">
    <ele>9</ele>
    <time>2020-02-03T12:04:23.000Z</time>
   </trkpt>
   <trkpt lat="-8.037439" lon="-34.892598">
    <ele>8.9</ele>
    <time>2020-02-03T12:04:25.000Z</time>
   </trkpt>
   <trkpt lat="-8.037429" lon="-34.892577">
    <ele>8.9</ele>
    <time>2020-02-03T12:04:28.000Z</time>
   </trkpt>
   <trkpt lat="-8.037436" lon="-34.892545">
    <ele>8.9</ele>
    <time>2020-02-03T12:04:30.000Z</time>
   </trkpt>
   <trkpt lat="-8.037436" lon="-34.892493">
    <ele>8.8</ele>
    <time>2020-02-03T12:04:32.000Z</time>
   </trkpt>
   <trkpt lat="-8.03743" lon="-34.892456">
    <ele>8.8</ele>
    <time>2020-02-03T12:04:33.000Z</time>
   </trkpt>
   <trkpt lat="-8.037418" lon="-34.892425">
    <ele>8.8</ele>
    <time>2020-02-03T12:04:34.000Z</time>
   </trkpt>
   <trkpt lat="-8.037401" lon="-34.892377">
    <ele>8.7</ele>
    <time>2020-02-03T12:04:36.000Z</time>
   </trkpt>
   <trkpt lat="-8.037388" lon="-34.892339">
    <ele>8.7</ele>
    <time>2020-02-03T12:04:38.000Z</time>
   </trkpt>
   <trkpt lat="-8.037388" lon="-34.892272">
    <ele>8.6</ele>
    <time>2020-02-03T12:04:40.000Z</time>
   </trkpt>
   <trkpt lat="-8.037398" lon="-34.892212">
    <ele>8.6</ele>
    <time>2020-02-03T12:04:41.000Z</time>
   </trkpt>
   <trkpt lat="-8.037409" lon="-34.892164">
    <ele>8.6</ele>
    <time>2020-02-03T12:04:42.000Z</time>
   </trkpt>
   <trkpt lat="-8.037414" lon="-34.89211">
    <ele>8.5</ele>
    <time>2020-02-03T12:04:43.000Z</time>
   </trkpt>
   <trkpt lat="-8.037425" lon="-34.89207">
    <ele>8.5</ele>
    <time>2020-02-03T12:04:44.000Z</time>
   </trkpt>
   <trkpt lat="-8.037438" lon="-34.892028">
    <ele>9</ele>
    <time>2020-02-03T12:04:45.000Z</time>
   </trkpt>
   <trkpt lat="-8.03745" lon="-34.891984">
    <ele>9.2</ele>
    <time>2020-02-03T12:04:46.000Z</time>
   </trkpt>
   <trkpt lat="-8.037458" lon="-34.891949">
    <ele>9.3</ele>
    <time>2020-02-03T12:04:47.000Z</time>
   </trkpt>
   <trkpt lat="-8.037468" lon="-34.89191">
    <ele>9.5</ele>
    <time>2020-02-03T12:04:48.000Z</time>
   </trkpt>
   <trkpt lat="-8.037479" lon="-34.891871">
    <ele>9.7</ele>
    <time>2020-02-03T12:04:49.000Z</time>
   </trkpt>
   <trkpt lat="-8.037476" lon="-34.891814">
    <ele>10</ele>
    <time>2020-02-03T12:04:50.000Z</time>
   </trkpt>
   <trkpt lat="-8.037497" lon="-34.891763">
    <ele>10.3</ele>
    <time>2020-02-03T12:04:51.000Z</time>
   </trkpt>
   <trkpt lat="-8.037518" lon="-34.891726">
    <ele>10.4</ele>
    <time>2020-02-03T12:04:52.000Z</time>
   </trkpt>
   <trkpt lat="-8.03753" lon="-34.891693">
    <ele>10.6</ele>
    <time>2020-02-03T12:04:53.000Z</time>
   </trkpt>
   <trkpt lat="-8.037552" lon="-34.891654">
    <ele>10.7</ele>
    <time>2020-02-03T12:04:54.000Z</time>
   </trkpt>
   <trkpt lat="-8.037568" lon="-34.891621">
    <ele>10.9</ele>
    <time>2020-02-03T12:04:55.000Z</time>
   </trkpt>
   <trkpt lat="-8.037585" lon="-34.891588">
    <ele>11.2</ele>
    <time>2020-02-03T12:04:56.000Z</time>
   </trkpt>
   <trkpt lat="-8.037601" lon="-34.891544">
    <ele>11.4</ele>
    <time>2020-02-03T12:04:57.000Z</time>
   </trkpt>
   <trkpt lat="-8.037626" lon="-34.891515">
    <ele>11.6</ele>
    <time>2020-02-03T12:04:58.000Z</time>
   </trkpt>
   <trkpt lat="-8.037676" lon="-34.891507">
    <ele>12.1</ele>
    <time>2020-02-03T12:05:00.000Z</time>
   </trkpt>
   <trkpt lat="-8.037703" lon="-34.891527">
    <ele>12.2</ele>
    <time>2020-02-03T12:05:01.000Z</time>
   </trkpt>
   <trkpt lat="-8.037733" lon="-34.891549">
    <ele>12.2</ele>
    <time>2020-02-03T12:05:02.000Z</time>
   </trkpt>
   <trkpt lat="-8.037761" lon="-34.891561">
    <ele>12.3</ele>
    <time>2020-02-03T12:05:03.000Z</time>
   </trkpt>
   <trkpt lat="-8.037791" lon="-34.891576">
    <ele>12.3</ele>
    <time>2020-02-03T12:05:04.000Z</time>
   </trkpt>
   <trkpt lat="-8.037821" lon="-34.891592">
    <ele>12.3</ele>
    <time>2020-02-03T12:05:05.000Z</time>
   </trkpt>
   <trkpt lat="-8.037848" lon="-34.891612">
    <ele>12.4</ele>
    <time>2020-02-03T12:05:06.000Z</time>
   </trkpt>
   <trkpt lat="-8.037875" lon="-34.891629">
    <ele>12.4</ele>
    <time>2020-02-03T12:05:07.000Z</time>
   </trkpt>
   <trkpt lat="-8.037927" lon="-34.891625">
    <ele>12.5</ele>
    <time>2020-02-03T12:05:08.000Z</time>
   </trkpt>
   <trkpt lat="-8.03796" lon="-34.891641">
    <ele>12.5</ele>
    <time>2020-02-03T12:05:09.000Z</time>
   </trkpt>
   <trkpt lat="-8.037986" lon="-34.891656">
    <ele>12.6</ele>
    <time>2020-02-03T12:05:10.000Z</time>
   </trkpt>
   <trkpt lat="-8.038031" lon="-34.891687">
    <ele>12.6</ele>
    <time>2020-02-03T12:05:12.000Z</time>
   </trkpt>
   <trkpt lat="-8.038056" lon="-34.891703">
    <ele>12.8</ele>
    <time>2020-02-03T12:05:13.000Z</time>
   </trkpt>
   <trkpt lat="-8.038083" lon="-34.891718">
    <ele>12.9</ele>
    <time>2020-02-03T12:05:14.000Z</time>
   </trkpt>
   <trkpt lat="-8.038104" lon="-34.891736">
    <ele>12.9</ele>
    <time>2020-02-03T12:05:15.000Z</time>
   </trkpt>
   <trkpt lat="-8.038145" lon="-34.891758">
    <ele>13.1</ele>
    <time>2020-02-03T12:05:17.000Z</time>
   </trkpt>
   <trkpt lat="-8.038166" lon="-34.891779">
    <ele>13.1</ele>
    <time>2020-02-03T12:05:19.000Z</time>
   </trkpt>
   <trkpt lat="-8.038189" lon="-34.891797">
    <ele>13.1</ele>
    <time>2020-02-03T12:05:20.000Z</time>
   </trkpt>
   <trkpt lat="-8.038211" lon="-34.891816">
    <ele>13.1</ele>
    <time>2020-02-03T12:05:21.000Z</time>
   </trkpt>
   <trkpt lat="-8.038252" lon="-34.891842">
    <ele>13</ele>
    <time>2020-02-03T12:05:23.000Z</time>
   </trkpt>
   <trkpt lat="-8.03829" lon="-34.891847">
    <ele>12.9</ele>
    <time>2020-02-03T12:05:25.000Z</time>
   </trkpt>
   <trkpt lat="-8.038324" lon="-34.891859">
    <ele>12.8</ele>
    <time>2020-02-03T12:05:27.000Z</time>
   </trkpt>
   <trkpt lat="-8.038368" lon="-34.891881">
    <ele>12.6</ele>
    <time>2020-02-03T12:05:29.000Z</time>
   </trkpt>
   <trkpt lat="-8.038441" lon="-34.891897">
    <ele>12.6</ele>
    <time>2020-02-03T12:05:31.000Z</time>
   </trkpt>
   <trkpt lat="-8.038486" lon="-34.891919">
    <ele>12.6</ele>
    <time>2020-02-03T12:05:33.000Z</time>
   </trkpt>
   <trkpt lat="-8.03853" lon="-34.89194">
    <ele>12.6</ele>
    <time>2020-02-03T12:06:16.000Z</time>
   </trkpt>
   <trkpt lat="-8.038575" lon="-34.891962">
    <ele>12.5</ele>
    <time>2020-02-03T12:06:17.000Z</time>
   </trkpt>
   <trkpt lat="-8.03861" lon="-34.891982">
    <ele>12.5</ele>
    <time>2020-02-03T12:06:18.000Z</time>
   </trkpt>
   <trkpt lat="-8.03865" lon="-34.892005">
    <ele>12.4</ele>
    <time>2020-02-03T12:06:19.000Z</time>
   </trkpt>
   <trkpt lat="-8.038699" lon="-34.892021">
    <ele>12.3</ele>
    <time>2020-02-03T12:06:20.000Z</time>
   </trkpt>
   <trkpt lat="-8.038748" lon="-34.892039">
    <ele>12.6</ele>
    <time>2020-02-03T12:06:21.000Z</time>
   </trkpt>
   <trkpt lat="-8.038794" lon="-34.892062">
    <ele>12.8</ele>
    <time>2020-02-03T12:06:22.000Z</time>
   </trkpt>
   <trkpt lat="-8.038847" lon="-34.892081">
    <ele>13</ele>
    <time>2020-02-03T12:06:23.000Z</time>
   </trkpt>
   <trkpt lat="-8.0389" lon="-34.892098">
    <ele>13.2</ele>
    <time>2020-02-03T12:06:24.000Z</time>
   </trkpt>
   <trkpt lat="-8.038947" lon="-34.892112">
    <ele>13.3</ele>
    <time>2020-02-03T12:06:25.000Z</time>
   </trkpt>
   <trkpt lat="-8.038998" lon="-34.892133">
    <ele>12.9</ele>
    <time>2020-02-03T12:06:26.000Z</time>
   </trkpt>
   <trkpt lat="-8.039055" lon="-34.89214">
    <ele>12.4</ele>
    <time>2020-02-03T12:06:27.000Z</time>
   </trkpt>
   <trkpt lat="-8.039104" lon="-34.892144">
    <ele>12.1</ele>
    <time>2020-02-03T12:06:28.000Z</time>
   </trkpt>
   <trkpt lat="-8.039156" lon="-34.892154">
    <ele>12</ele>
    <time>2020-02-03T12:06:29.000Z</time>
   </trkpt>
   <trkpt lat="-8.039215" lon="-34.892168">
    <ele>11.9</ele>
    <time>2020-02-03T12:06:30.000Z</time>
   </trkpt>
   <trkpt lat="-8.039272" lon="-34.892172">
    <ele>11.6</ele>
    <time>2020-02-03T12:06:31.000Z</time>
   </trkpt>
   <trkpt lat="-8.03932" lon="-34.892175">
    <ele>11.5</ele>
    <time>2020-02-03T12:06:32.000Z</time>
   </trkpt>
   <trkpt lat="-8.039383" lon="-34.892185">
    <ele>11.5</ele>
    <time>2020-02-03T12:06:33.000Z</time>
   </trkpt>
   <trkpt lat="-8.039445" lon="-34.892201">
    <ele>11.6</ele>
    <time>2020-02-03T12:06:34.000Z</time>
   </trkpt>
   <trkpt lat="-8.039508" lon="-34.892198">
    <ele>11.8</ele>
    <time>2020-02-03T12:06:35.000Z</time>
   </trkpt>
   <trkpt lat="-8.039556" lon="-34.892191">
    <ele>12</ele>
    <time>2020-02-03T12:06:36.000Z</time>
   </trkpt>
   <trkpt lat="-8.039596" lon="-34.892195">
    <ele>12.2</ele>
    <time>2020-02-03T12:06:37.000Z</time>
   </trkpt>
   <trkpt lat="-8.039645" lon="-34.892208">
    <ele>12.3</ele>
    <time>2020-02-03T12:06:38.000Z</time>
   </trkpt>
   <trkpt lat="-8.03969" lon="-34.892221">
    <ele>12.3</ele>
    <time>2020-02-03T12:06:39.000Z</time>
   </trkpt>
   <trkpt lat="-8.039735" lon="-34.89225">
    <ele>12.8</ele>
    <time>2020-02-03T12:06:40.000Z</time>
   </trkpt>
   <trkpt lat="-8.039774" lon="-34.892288">
    <ele>13.2</ele>
    <time>2020-02-03T12:06:41.000Z</time>
   </trkpt>
   <trkpt lat="-8.03982" lon="-34.892314">
    <ele>13.5</ele>
    <time>2020-02-03T12:06:42.000Z</time>
   </trkpt>
   <trkpt lat="-8.039858" lon="-34.892341">
    <ele>13.8</ele>
    <time>2020-02-03T12:06:43.000Z</time>
   </trkpt>
   <trkpt lat="-8.039897" lon="-34.892375">
    <ele>13.9</ele>
    <time>2020-02-03T12:06:44.000Z</time>
   </trkpt>
   <trkpt lat="-8.039937" lon="-34.892405">
    <ele>14</ele>
    <time>2020-02-03T12:06:45.000Z</time>
   </trkpt>
   <trkpt lat="-8.039993" lon="-34.892451">
    <ele>14.3</ele>
    <time>2020-02-03T12:06:46.000Z</time>
   </trkpt>
   <trkpt lat="-8.040043" lon="-34.892492">
    <ele>14.5</ele>
    <time>2020-02-03T12:06:47.000Z</time>
   </trkpt>
   <trkpt lat="-8.040087" lon="-34.892555">
    <ele>14.8</ele>
    <time>2020-02-03T12:06:48.000Z</time>
   </trkpt>
   <trkpt lat="-8.040139" lon="-34.892606">
    <ele>15</ele>
    <time>2020-02-03T12:06:49.000Z</time>
   </trkpt>
   <trkpt lat="-8.040187" lon="-34.892647">
    <ele>15.1</ele>
    <time>2020-02-03T12:06:50.000Z</time>
   </trkpt>
   <trkpt lat="-8.04024" lon="-34.892685">
    <ele>15.1</ele>
    <time>2020-02-03T12:06:51.000Z</time>
   </trkpt>
   <trkpt lat="-8.040293" lon="-34.892729">
    <ele>15.2</ele>
    <time>2020-02-03T12:06:52.000Z</time>
   </trkpt>
   <trkpt lat="-8.040348" lon="-34.892775">
    <ele>15.2</ele>
    <time>2020-02-03T12:06:53.000Z</time>
   </trkpt>
   <trkpt lat="-8.040397" lon="-34.892817">
    <ele>15.3</ele>
    <time>2020-02-03T12:06:54.000Z</time>
   </trkpt>
   <trkpt lat="-8.040443" lon="-34.892866">
    <ele>15.4</ele>
    <time>2020-02-03T12:06:55.000Z</time>
   </trkpt>
   <trkpt lat="-8.040493" lon="-34.89291">
    <ele>15.5</ele>
    <time>2020-02-03T12:06:56.000Z</time>
   </trkpt>
   <trkpt lat="-8.040543" lon="-34.892951">
    <ele>15.7</ele>
    <time>2020-02-03T12:06:57.000Z</time>
   </trkpt>
   <trkpt lat="-8.040591" lon="-34.892992">
    <ele>15.8</ele>
    <time>2020-02-03T12:06:58.000Z</time>
   </trkpt>
   <trkpt lat="-8.040643" lon="-34.893031">
    <ele>15.9</ele>
    <time>2020-02-03T12:06:59.000Z</time>
   </trkpt>
   <trkpt lat="-8.040696" lon="-34.893073">
    <ele>16</ele>
    <time>2020-02-03T12:07:00.000Z</time>
   </trkpt>
   <trkpt lat="-8.040746" lon="-34.893115">
    <ele>16.1</ele>
    <time>2020-02-03T12:07:01.000Z</time>
   </trkpt>
   <trkpt lat="-8.040781" lon="-34.893182">
    <ele>16.2</ele>
    <time>2020-02-03T12:07:02.000Z</time>
   </trkpt>
   <trkpt lat="-8.040828" lon="-34.89322">
    <ele>16.3</ele>
    <time>2020-02-03T12:07:03.000Z</time>
   </trkpt>
   <trkpt lat="-8.040873" lon="-34.893255">
    <ele>16.5</ele>
    <time>2020-02-03T12:07:04.000Z</time>
   </trkpt>
   <trkpt lat="-8.040922" lon="-34.893303">
    <ele>16.6</ele>
    <time>2020-02-03T12:07:05.000Z</time>
   </trkpt>
   <trkpt lat="-8.040971" lon="-34.893363">
    <ele>16.8</ele>
    <time>2020-02-03T12:07:06.000Z</time>
   </trkpt>
   <trkpt lat="-8.041021" lon="-34.893422">
    <ele>17</ele>
    <time>2020-02-03T12:07:07.000Z</time>
   </trkpt>
   <trkpt lat="-8.041069" lon="-34.893469">
    <ele>17.2</ele>
    <time>2020-02-03T12:07:08.000Z</time>
   </trkpt>
   <trkpt lat="-8.041119" lon="-34.893513">
    <ele>17.4</ele>
    <time>2020-02-03T12:07:09.000Z</time>
   </trkpt>
   <trkpt lat="-8.041168" lon="-34.893553">
    <ele>17.6</ele>
    <time>2020-02-03T12:07:10.000Z</time>
   </trkpt>
   <trkpt lat="-8.041213" lon="-34.893592">
    <ele>17.8</ele>
    <time>2020-02-03T12:07:11.000Z</time>
   </trkpt>
   <trkpt lat="-8.04125" lon="-34.893626">
    <ele>17.9</ele>
    <time>2020-02-03T12:07:12.000Z</time>
   </trkpt>
   <trkpt lat="-8.041286" lon="-34.893662">
    <ele>18</ele>
    <time>2020-02-03T12:07:13.000Z</time>
   </trkpt>
   <trkpt lat="-8.041325" lon="-34.893696">
    <ele>18.1</ele>
    <time>2020-02-03T12:07:14.000Z</time>
   </trkpt>
   <trkpt lat="-8.041363" lon="-34.893732">
    <ele>18.1</ele>
    <time>2020-02-03T12:07:15.000Z</time>
   </trkpt>
   <trkpt lat="-8.041396" lon="-34.893755">
    <ele>18.1</ele>
    <time>2020-02-03T12:07:16.000Z</time>
   </trkpt>
   <trkpt lat="-8.041442" lon="-34.893769">
    <ele>18.2</ele>
    <time>2020-02-03T12:07:18.000Z</time>
   </trkpt>
   <trkpt lat="-8.041473" lon="-34.893737">
    <ele>17.9</ele>
    <time>2020-02-03T12:07:20.000Z</time>
   </trkpt>
   <trkpt lat="-8.041496" lon="-34.893707">
    <ele>17.8</ele>
    <time>2020-02-03T12:07:21.000Z</time>
   </trkpt>
   <trkpt lat="-8.041541" lon="-34.893661">
    <ele>17.7</ele>
    <time>2020-02-03T12:07:22.000Z</time>
   </trkpt>
   <trkpt lat="-8.041587" lon="-34.893605">
    <ele>17.5</ele>
    <time>2020-02-03T12:07:23.000Z</time>
   </trkpt>
   <trkpt lat="-8.041631" lon="-34.893547">
    <ele>17.4</ele>
    <time>2020-02-03T12:07:24.000Z</time>
   </trkpt>
   <trkpt lat="-8.041669" lon="-34.893486">
    <ele>17.3</ele>
    <time>2020-02-03T12:07:25.000Z</time>
   </trkpt>
   <trkpt lat="-8.041701" lon="-34.893429">
    <ele>17.2</ele>
    <time>2020-02-03T12:07:26.000Z</time>
   </trkpt>
   <trkpt lat="-8.041749" lon="-34.893383">
    <ele>17.2</ele>
    <time>2020-02-03T12:07:27.000Z</time>
   </trkpt>
   <trkpt lat="-8.041788" lon="-34.893327">
    <ele>17.1</ele>
    <time>2020-02-03T12:07:28.000Z</time>
   </trkpt>
   <trkpt lat="-8.041827" lon="-34.893267">
    <ele>17.1</ele>
    <time>2020-02-03T12:07:29.000Z</time>
   </trkpt>
   <trkpt lat="-8.041871" lon="-34.893208">
    <ele>17.1</ele>
    <time>2020-02-03T12:07:30.000Z</time>
   </trkpt>
   <trkpt lat="-8.041925" lon="-34.893119">
    <ele>17.1</ele>
    <time>2020-02-03T12:07:31.000Z</time>
   </trkpt>
   <trkpt lat="-8.041965" lon="-34.893059">
    <ele>17.1</ele>
    <time>2020-02-03T12:07:32.000Z</time>
   </trkpt>
   <trkpt lat="-8.041995" lon="-34.893004">
    <ele>17</ele>
    <time>2020-02-03T12:07:33.000Z</time>
   </trkpt>
   <trkpt lat="-8.042033" lon="-34.892951">
    <ele>17</ele>
    <time>2020-02-03T12:07:34.000Z</time>
   </trkpt>
   <trkpt lat="-8.042069" lon="-34.892894">
    <ele>17</ele>
    <time>2020-02-03T12:07:35.000Z</time>
   </trkpt>
   <trkpt lat="-8.042116" lon="-34.892845">
    <ele>17</ele>
    <time>2020-02-03T12:07:36.000Z</time>
   </trkpt>
   <trkpt lat="-8.042159" lon="-34.892789">
    <ele>17</ele>
    <time>2020-02-03T12:07:37.000Z</time>
   </trkpt>
   <trkpt lat="-8.042192" lon="-34.892742">
    <ele>17</ele>
    <time>2020-02-03T12:07:38.000Z</time>
   </trkpt>
   <trkpt lat="-8.042225" lon="-34.892688">
    <ele>17</ele>
    <time>2020-02-03T12:07:39.000Z</time>
   </trkpt>
   <trkpt lat="-8.042265" lon="-34.892617">
    <ele>17</ele>
    <time>2020-02-03T12:07:40.000Z</time>
   </trkpt>
   <trkpt lat="-8.042294" lon="-34.892558">
    <ele>17</ele>
    <time>2020-02-03T12:07:41.000Z</time>
   </trkpt>
   <trkpt lat="-8.042342" lon="-34.892496">
    <ele>16.8</ele>
    <time>2020-02-03T12:07:42.000Z</time>
   </trkpt>
   <trkpt lat="-8.042384" lon="-34.892439">
    <ele>16.6</ele>
    <time>2020-02-03T12:07:43.000Z</time>
   </trkpt>
   <trkpt lat="-8.042425" lon="-34.892385">
    <ele>16.4</ele>
    <time>2020-02-03T12:07:44.000Z</time>
   </trkpt>
   <trkpt lat="-8.042471" lon="-34.892333">
    <ele>16.2</ele>
    <time>2020-02-03T12:07:45.000Z</time>
   </trkpt>
   <trkpt lat="-8.042515" lon="-34.892289">
    <ele>15.9</ele>
    <time>2020-02-03T12:07:46.000Z</time>
   </trkpt>
   <trkpt lat="-8.042561" lon="-34.89223">
    <ele>15.5</ele>
    <time>2020-02-03T12:07:47.000Z</time>
   </trkpt>
   <trkpt lat="-8.04261" lon="-34.89218">
    <ele>15.3</ele>
    <time>2020-02-03T12:07:48.000Z</time>
   </trkpt>
   <trkpt lat="-8.042654" lon="-34.892129">
    <ele>15.1</ele>
    <time>2020-02-03T12:07:49.000Z</time>
   </trkpt>
   <trkpt lat="-8.042701" lon="-34.892068">
    <ele>15</ele>
    <time>2020-02-03T12:07:50.000Z</time>
   </trkpt>
   <trkpt lat="-8.042737" lon="-34.892032">
    <ele>14.9</ele>
    <time>2020-02-03T12:07:51.000Z</time>
   </trkpt>
   <trkpt lat="-8.04277" lon="-34.891995">
    <ele>14.8</ele>
    <time>2020-02-03T12:07:52.000Z</time>
   </trkpt>
   <trkpt lat="-8.042806" lon="-34.891956">
    <ele>14.8</ele>
    <time>2020-02-03T12:07:53.000Z</time>
   </trkpt>
   <trkpt lat="-8.042838" lon="-34.891915">
    <ele>14.8</ele>
    <time>2020-02-03T12:07:54.000Z</time>
   </trkpt>
   <trkpt lat="-8.04287" lon="-34.891862">
    <ele>14.7</ele>
    <time>2020-02-03T12:07:55.000Z</time>
   </trkpt>
   <trkpt lat="-8.042915" lon="-34.891796">
    <ele>14.7</ele>
    <time>2020-02-03T12:07:56.000Z</time>
   </trkpt>
   <trkpt lat="-8.042959" lon="-34.891735">
    <ele>14.6</ele>
    <time>2020-02-03T12:07:57.000Z</time>
   </trkpt>
   <trkpt lat="-8.043004" lon="-34.89168">
    <ele>14.6</ele>
    <time>2020-02-03T12:07:58.000Z</time>
   </trkpt>
   <trkpt lat="-8.043051" lon="-34.891633">
    <ele>14.5</ele>
    <time>2020-02-03T12:07:59.000Z</time>
   </trkpt>
   <trkpt lat="-8.043095" lon="-34.891583">
    <ele>14.4</ele>
    <time>2020-02-03T12:08:00.000Z</time>
   </trkpt>
   <trkpt lat="-8.043142" lon="-34.891539">
    <ele>14.3</ele>
    <time>2020-02-03T12:08:01.000Z</time>
   </trkpt>
   <trkpt lat="-8.043215" lon="-34.891509">
    <ele>14.2</ele>
    <time>2020-02-03T12:08:02.000Z</time>
   </trkpt>
   <trkpt lat="-8.043273" lon="-34.891472">
    <ele>14.1</ele>
    <time>2020-02-03T12:08:03.000Z</time>
   </trkpt>
   <trkpt lat="-8.043322" lon="-34.891437">
    <ele>14</ele>
    <time>2020-02-03T12:08:04.000Z</time>
   </trkpt>
   <trkpt lat="-8.043371" lon="-34.891396">
    <ele>13.8</ele>
    <time>2020-02-03T12:08:05.000Z</time>
   </trkpt>
   <trkpt lat="-8.043411" lon="-34.891361">
    <ele>13.8</ele>
    <time>2020-02-03T12:08:06.000Z</time>
   </trkpt>
   <trkpt lat="-8.043461" lon="-34.891317">
    <ele>13.7</ele>
    <time>2020-02-03T12:08:07.000Z</time>
   </trkpt>
   <trkpt lat="-8.04351" lon="-34.89125">
    <ele>13.7</ele>
    <time>2020-02-03T12:08:08.000Z</time>
   </trkpt>
   <trkpt lat="-8.043567" lon="-34.891181">
    <ele>13.6</ele>
    <time>2020-02-03T12:08:09.000Z</time>
   </trkpt>
   <trkpt lat="-8.043626" lon="-34.891111">
    <ele>13.6</ele>
    <time>2020-02-03T12:08:10.000Z</time>
   </trkpt>
   <trkpt lat="-8.043687" lon="-34.891039">
    <ele>13.5</ele>
    <time>2020-02-03T12:08:11.000Z</time>
   </trkpt>
   <trkpt lat="-8.043735" lon="-34.890996">
    <ele>13.5</ele>
    <time>2020-02-03T12:08:12.000Z</time>
   </trkpt>
   <trkpt lat="-8.043778" lon="-34.890957">
    <ele>13.4</ele>
    <time>2020-02-03T12:08:13.000Z</time>
   </trkpt>
   <trkpt lat="-8.04381" lon="-34.890919">
    <ele>13.4</ele>
    <time>2020-02-03T12:08:14.000Z</time>
   </trkpt>
   <trkpt lat="-8.043848" lon="-34.890883">
    <ele>13.3</ele>
    <time>2020-02-03T12:08:15.000Z</time>
   </trkpt>
   <trkpt lat="-8.043884" lon="-34.890842">
    <ele>13.2</ele>
    <time>2020-02-03T12:08:16.000Z</time>
   </trkpt>
   <trkpt lat="-8.043921" lon="-34.890791">
    <ele>13</ele>
    <time>2020-02-03T12:08:17.000Z</time>
   </trkpt>
   <trkpt lat="-8.043971" lon="-34.890733">
    <ele>12.8</ele>
    <time>2020-02-03T12:08:18.000Z</time>
   </trkpt>
   <trkpt lat="-8.044021" lon="-34.890668">
    <ele>12.6</ele>
    <time>2020-02-03T12:08:19.000Z</time>
   </trkpt>
   <trkpt lat="-8.044086" lon="-34.890609">
    <ele>12.3</ele>
    <time>2020-02-03T12:08:20.000Z</time>
   </trkpt>
   <trkpt lat="-8.044151" lon="-34.890527">
    <ele>11.9</ele>
    <time>2020-02-03T12:08:21.000Z</time>
   </trkpt>
   <trkpt lat="-8.044222" lon="-34.890456">
    <ele>11.5</ele>
    <time>2020-02-03T12:08:22.000Z</time>
   </trkpt>
   <trkpt lat="-8.044274" lon="-34.890387">
    <ele>11</ele>
    <time>2020-02-03T12:08:23.000Z</time>
   </trkpt>
   <trkpt lat="-8.044328" lon="-34.890329">
    <ele>10.5</ele>
    <time>2020-02-03T12:08:24.000Z</time>
   </trkpt>
   <trkpt lat="-8.044392" lon="-34.890267">
    <ele>9.9</ele>
    <time>2020-02-03T12:08:25.000Z</time>
   </trkpt>
   <trkpt lat="-8.044449" lon="-34.890213">
    <ele>9.4</ele>
    <time>2020-02-03T12:08:26.000Z</time>
   </trkpt>
   <trkpt lat="-8.044506" lon="-34.890165">
    <ele>8.6</ele>
    <time>2020-02-03T12:08:27.000Z</time>
   </trkpt>
   <trkpt lat="-8.044566" lon="-34.890137">
    <ele>8.8</ele>
    <time>2020-02-03T12:08:28.000Z</time>
   </trkpt>
   <trkpt lat="-8.044613" lon="-34.890149">
    <ele>9</ele>
    <time>2020-02-03T12:08:29.000Z</time>
   </trkpt>
   <trkpt lat="-8.044694" lon="-34.890205">
    <ele>9.3</ele>
    <time>2020-02-03T12:08:30.000Z</time>
   </trkpt>
   <trkpt lat="-8.044772" lon="-34.890275">
    <ele>9.5</ele>
    <time>2020-02-03T12:08:31.000Z</time>
   </trkpt>
   <trkpt lat="-8.04484" lon="-34.890333">
    <ele>9.7</ele>
    <time>2020-02-03T12:08:32.000Z</time>
   </trkpt>
   <trkpt lat="-8.044893" lon="-34.89038">
    <ele>9.8</ele>
    <time>2020-02-03T12:08:33.000Z</time>
   </trkpt>
   <trkpt lat="-8.04495" lon="-34.890418">
    <ele>9.9</ele>
    <time>2020-02-03T12:08:34.000Z</time>
   </trkpt>
   <trkpt lat="-8.044999" lon="-34.890445">
    <ele>10.1</ele>
    <time>2020-02-03T12:08:35.000Z</time>
   </trkpt>
   <trkpt lat="-8.04506" lon="-34.890487">
    <ele>10.3</ele>
    <time>2020-02-03T12:08:37.000Z</time>
   </trkpt>
   <trkpt lat="-8.045106" lon="-34.890527">
    <ele>10.4</ele>
    <time>2020-02-03T12:08:38.000Z</time>
   </trkpt>
   <trkpt lat="-8.04517" lon="-34.89058">
    <ele>10.6</ele>
    <time>2020-02-03T12:08:39.000Z</time>
   </trkpt>
   <trkpt lat="-8.045221" lon="-34.890617">
    <ele>10.7</ele>
    <time>2020-02-03T12:08:40.000Z</time>
   </trkpt>
   <trkpt lat="-8.045269" lon="-34.890657">
    <ele>10.7</ele>
    <time>2020-02-03T12:08:41.000Z</time>
   </trkpt>
   <trkpt lat="-8.045314" lon="-34.890695">
    <ele>10.7</ele>
    <time>2020-02-03T12:08:42.000Z</time>
   </trkpt>
   <trkpt lat="-8.045359" lon="-34.890733">
    <ele>10.8</ele>
    <time>2020-02-03T12:08:43.000Z</time>
   </trkpt>
   <trkpt lat="-8.045418" lon="-34.890775">
    <ele>10.9</ele>
    <time>2020-02-03T12:08:44.000Z</time>
   </trkpt>
   <trkpt lat="-8.045481" lon="-34.890813">
    <ele>11.2</ele>
    <time>2020-02-03T12:08:45.000Z</time>
   </trkpt>
   <trkpt lat="-8.045546" lon="-34.890847">
    <ele>11.5</ele>
    <time>2020-02-03T12:08:46.000Z</time>
   </trkpt>
   <trkpt lat="-8.045618" lon="-34.890888">
    <ele>11.8</ele>
    <time>2020-02-03T12:08:47.000Z</time>
   </trkpt>
   <trkpt lat="-8.045694" lon="-34.890953">
    <ele>12.3</ele>
    <time>2020-02-03T12:08:48.000Z</time>
   </trkpt>
   <trkpt lat="-8.045763" lon="-34.890986">
    <ele>12.6</ele>
    <time>2020-02-03T12:08:49.000Z</time>
   </trkpt>
   <trkpt lat="-8.045796" lon="-34.891026">
    <ele>12.8</ele>
    <time>2020-02-03T12:08:50.000Z</time>
   </trkpt>
   <trkpt lat="-8.045846" lon="-34.891067">
    <ele>13.1</ele>
    <time>2020-02-03T12:08:51.000Z</time>
   </trkpt>
   <trkpt lat="-8.045895" lon="-34.891117">
    <ele>13.3</ele>
    <time>2020-02-03T12:08:52.000Z</time>
   </trkpt>
   <trkpt lat="-8.045951" lon="-34.891169">
    <ele>13.9</ele>
    <time>2020-02-03T12:08:53.000Z</time>
   </trkpt>
   <trkpt lat="-8.046001" lon="-34.89122">
    <ele>15.3</ele>
    <time>2020-02-03T12:08:54.000Z</time>
   </trkpt>
   <trkpt lat="-8.046066" lon="-34.891259">
    <ele>16.2</ele>
    <time>2020-02-03T12:08:55.000Z</time>
   </trkpt>
   <trkpt lat="-8.046113" lon="-34.89131">
    <ele>17</ele>
    <time>2020-02-03T12:08:56.000Z</time>
   </trkpt>
   <trkpt lat="-8.046178" lon="-34.891351">
    <ele>17.8</ele>
    <time>2020-02-03T12:08:57.000Z</time>
   </trkpt>
   <trkpt lat="-8.046234" lon="-34.891398">
    <ele>18.1</ele>
    <time>2020-02-03T12:08:58.000Z</time>
   </trkpt>
   <trkpt lat="-8.046286" lon="-34.891448">
    <ele>18.3</ele>
    <time>2020-02-03T12:08:59.000Z</time>
   </trkpt>
   <trkpt lat="-8.04634" lon="-34.891504">
    <ele>18.4</ele>
    <time>2020-02-03T12:09:00.000Z</time>
   </trkpt>
   <trkpt lat="-8.046402" lon="-34.891528">
    <ele>18.4</ele>
    <time>2020-02-03T12:09:01.000Z</time>
   </trkpt>
   <trkpt lat="-8.046441" lon="-34.891572">
    <ele>18.5</ele>
    <time>2020-02-03T12:09:02.000Z</time>
   </trkpt>
   <trkpt lat="-8.046487" lon="-34.891614">
    <ele>18.5</ele>
    <time>2020-02-03T12:09:03.000Z</time>
   </trkpt>
   <trkpt lat="-8.04654" lon="-34.891659">
    <ele>19</ele>
    <time>2020-02-03T12:09:04.000Z</time>
   </trkpt>
   <trkpt lat="-8.046591" lon="-34.891698">
    <ele>19.7</ele>
    <time>2020-02-03T12:09:05.000Z</time>
   </trkpt>
   <trkpt lat="-8.046633" lon="-34.891732">
    <ele>20.3</ele>
    <time>2020-02-03T12:09:06.000Z</time>
   </trkpt>
   <trkpt lat="-8.046716" lon="-34.891757">
    <ele>21.2</ele>
    <time>2020-02-03T12:09:07.000Z</time>
   </trkpt>
   <trkpt lat="-8.046787" lon="-34.891823">
    <ele>22.3</ele>
    <time>2020-02-03T12:09:08.000Z</time>
   </trkpt>
   <trkpt lat="-8.046863" lon="-34.891873">
    <ele>22.9</ele>
    <time>2020-02-03T12:09:09.000Z</time>
   </trkpt>
   <trkpt lat="-8.046929" lon="-34.891928">
    <ele>23.1</ele>
    <time>2020-02-03T12:09:10.000Z</time>
   </trkpt>
   <trkpt lat="-8.046984" lon="-34.891972">
    <ele>23.2</ele>
    <time>2020-02-03T12:09:11.000Z</time>
   </trkpt>
   <trkpt lat="-8.047041" lon="-34.892023">
    <ele>23.4</ele>
    <time>2020-02-03T12:09:12.000Z</time>
   </trkpt>
   <trkpt lat="-8.047121" lon="-34.892069">
    <ele>22</ele>
    <time>2020-02-03T12:09:13.000Z</time>
   </trkpt>
   <trkpt lat="-8.047183" lon="-34.892111">
    <ele>20.3</ele>
    <time>2020-02-03T12:09:14.000Z</time>
   </trkpt>
   <trkpt lat="-8.04724" lon="-34.89213">
    <ele>19.3</ele>
    <time>2020-02-03T12:09:15.000Z</time>
   </trkpt>
   <trkpt lat="-8.04731" lon="-34.892163">
    <ele>17.9</ele>
    <time>2020-02-03T12:09:16.000Z</time>
   </trkpt>
   <trkpt lat="-8.047346" lon="-34.89219">
    <ele>17.1</ele>
    <time>2020-02-03T12:09:17.000Z</time>
   </trkpt>
   <trkpt lat="-8.047384" lon="-34.892213">
    <ele>16.4</ele>
    <time>2020-02-03T12:09:18.000Z</time>
   </trkpt>
   <trkpt lat="-8.047423" lon="-34.892229">
    <ele>15.7</ele>
    <time>2020-02-03T12:09:20.000Z</time>
   </trkpt>
   <trkpt lat="-8.047468" lon="-34.892254">
    <ele>15.1</ele>
    <time>2020-02-03T12:09:22.000Z</time>
   </trkpt>
   <trkpt lat="-8.047486" lon="-34.892278">
    <ele>14.7</ele>
    <time>2020-02-03T12:09:23.000Z</time>
   </trkpt>
   <trkpt lat="-8.047491" lon="-34.892287">
    <ele>14.6</ele>
    <time>2020-02-03T12:09:25.000Z</time>
   </trkpt>
   <trkpt lat="-8.047528" lon="-34.892292">
    <ele>14.1</ele>
    <time>2020-02-03T12:09:26.000Z</time>
   </trkpt>
   <trkpt lat="-8.047556" lon="-34.89233">
    <ele>13.7</ele>
    <time>2020-02-03T12:09:27.000Z</time>
   </trkpt>
   <trkpt lat="-8.047594" lon="-34.89238">
    <ele>13.1</ele>
    <time>2020-02-03T12:09:28.000Z</time>
   </trkpt>
   <trkpt lat="-8.047639" lon="-34.89243">
    <ele>12.6</ele>
    <time>2020-02-03T12:09:29.000Z</time>
   </trkpt>
   <trkpt lat="-8.047688" lon="-34.892471">
    <ele>12.2</ele>
    <time>2020-02-03T12:09:30.000Z</time>
   </trkpt>
   <trkpt lat="-8.047741" lon="-34.892516">
    <ele>11.6</ele>
    <time>2020-02-03T12:09:31.000Z</time>
   </trkpt>
   <trkpt lat="-8.047802" lon="-34.892561">
    <ele>11</ele>
    <time>2020-02-03T12:09:32.000Z</time>
   </trkpt>
   <trkpt lat="-8.047858" lon="-34.892603">
    <ele>10.2</ele>
    <time>2020-02-03T12:09:33.000Z</time>
   </trkpt>
   <trkpt lat="-8.047918" lon="-34.892654">
    <ele>9</ele>
    <time>2020-02-03T12:09:34.000Z</time>
   </trkpt>
   <trkpt lat="-8.047973" lon="-34.892705">
    <ele>7.5</ele>
    <time>2020-02-03T12:09:35.000Z</time>
   </trkpt>
   <trkpt lat="-8.048029" lon="-34.892753">
    <ele>6</ele>
    <time>2020-02-03T12:09:36.000Z</time>
   </trkpt>
   <trkpt lat="-8.04809" lon="-34.892795">
    <ele>6.3</ele>
    <time>2020-02-03T12:09:37.000Z</time>
   </trkpt>
   <trkpt lat="-8.048155" lon="-34.89284">
    <ele>6.5</ele>
    <time>2020-02-03T12:09:38.000Z</time>
   </trkpt>
   <trkpt lat="-8.0482" lon="-34.892875">
    <ele>6.7</ele>
    <time>2020-02-03T12:09:39.000Z</time>
   </trkpt>
   <trkpt lat="-8.048255" lon="-34.892926">
    <ele>6.9</ele>
    <time>2020-02-03T12:09:40.000Z</time>
   </trkpt>
   <trkpt lat="-8.048323" lon="-34.892979">
    <ele>7.2</ele>
    <time>2020-02-03T12:09:41.000Z</time>
   </trkpt>
   <trkpt lat="-8.048408" lon="-34.893027">
    <ele>7.5</ele>
    <time>2020-02-03T12:09:42.000Z</time>
   </trkpt>
   <trkpt lat="-8.048487" lon="-34.893084">
    <ele>7.7</ele>
    <time>2020-02-03T12:09:43.000Z</time>
   </trkpt>
   <trkpt lat="-8.048539" lon="-34.893135">
    <ele>8</ele>
    <time>2020-02-03T12:09:44.000Z</time>
   </trkpt>
   <trkpt lat="-8.048579" lon="-34.893182">
    <ele>8.2</ele>
    <time>2020-02-03T12:09:45.000Z</time>
   </trkpt>
   <trkpt lat="-8.04863" lon="-34.893239">
    <ele>8.4</ele>
    <time>2020-02-03T12:09:46.000Z</time>
   </trkpt>
   <trkpt lat="-8.04868" lon="-34.893282">
    <ele>8.6</ele>
    <time>2020-02-03T12:09:47.000Z</time>
   </trkpt>
   <trkpt lat="-8.048717" lon="-34.893312">
    <ele>8.7</ele>
    <time>2020-02-03T12:09:48.000Z</time>
   </trkpt>
   <trkpt lat="-8.048763" lon="-34.89335">
    <ele>8.9</ele>
    <time>2020-02-03T12:09:49.000Z</time>
   </trkpt>
   <trkpt lat="-8.048814" lon="-34.893382">
    <ele>9.1</ele>
    <time>2020-02-03T12:09:50.000Z</time>
   </trkpt>
   <trkpt lat="-8.048857" lon="-34.893402">
    <ele>9.2</ele>
    <time>2020-02-03T12:09:51.000Z</time>
   </trkpt>
   <trkpt lat="-8.048905" lon="-34.893412">
    <ele>9.4</ele>
    <time>2020-02-03T12:09:52.000Z</time>
   </trkpt>
   <trkpt lat="-8.048949" lon="-34.893449">
    <ele>9.6</ele>
    <time>2020-02-03T12:09:53.000Z</time>
   </trkpt>
   <trkpt lat="-8.048991" lon="-34.893479">
    <ele>9.8</ele>
    <time>2020-02-03T12:09:54.000Z</time>
   </trkpt>
   <trkpt lat="-8.04903" lon="-34.893518">
    <ele>10.1</ele>
    <time>2020-02-03T12:09:55.000Z</time>
   </trkpt>
   <trkpt lat="-8.049062" lon="-34.893553">
    <ele>10.4</ele>
    <time>2020-02-03T12:09:56.000Z</time>
   </trkpt>
   <trkpt lat="-8.049097" lon="-34.89359">
    <ele>10.7</ele>
    <time>2020-02-03T12:09:57.000Z</time>
   </trkpt>
   <trkpt lat="-8.049151" lon="-34.893606">
    <ele>10.9</ele>
    <time>2020-02-03T12:09:58.000Z</time>
   </trkpt>
   <trkpt lat="-8.049196" lon="-34.893649">
    <ele>11.2</ele>
    <time>2020-02-03T12:09:59.000Z</time>
   </trkpt>
   <trkpt lat="-8.049235" lon="-34.893699">
    <ele>11.6</ele>
    <time>2020-02-03T12:10:00.000Z</time>
   </trkpt>
   <trkpt lat="-8.049266" lon="-34.893725">
    <ele>11.9</ele>
    <time>2020-02-03T12:10:01.000Z</time>
   </trkpt>
   <trkpt lat="-8.04929" lon="-34.893744">
    <ele>12.1</ele>
    <time>2020-02-03T12:10:02.000Z</time>
   </trkpt>
   <trkpt lat="-8.049317" lon="-34.893768">
    <ele>11.9</ele>
    <time>2020-02-03T12:10:03.000Z</time>
   </trkpt>
   <trkpt lat="-8.049371" lon="-34.893776">
    <ele>11.7</ele>
    <time>2020-02-03T12:10:04.000Z</time>
   </trkpt>
   <trkpt lat="-8.049444" lon="-34.89382">
    <ele>11.3</ele>
    <time>2020-02-03T12:10:05.000Z</time>
   </trkpt>
   <trkpt lat="-8.049514" lon="-34.893868">
    <ele>11.3</ele>
    <time>2020-02-03T12:10:06.000Z</time>
   </trkpt>
   <trkpt lat="-8.04958" lon="-34.893919">
    <ele>11.2</ele>
    <time>2020-02-03T12:10:07.000Z</time>
   </trkpt>
   <trkpt lat="-8.049619" lon="-34.893963">
    <ele>11.2</ele>
    <time>2020-02-03T12:10:08.000Z</time>
   </trkpt>
   <trkpt lat="-8.049693" lon="-34.893992">
    <ele>11</ele>
    <time>2020-02-03T12:10:09.000Z</time>
   </trkpt>
   <trkpt lat="-8.049715" lon="-34.894015">
    <ele>11</ele>
    <time>2020-02-03T12:10:10.000Z</time>
   </trkpt>
   <trkpt lat="-8.049696" lon="-34.894046">
    <ele>10.9</ele>
    <time>2020-02-03T12:10:11.000Z</time>
   </trkpt>
   <trkpt lat="-8.049705" lon="-34.894078">
    <ele>10.9</ele>
    <time>2020-02-03T12:10:12.000Z</time>
   </trkpt>
   <trkpt lat="-8.049733" lon="-34.894101">
    <ele>10.8</ele>
    <time>2020-02-03T12:10:13.000Z</time>
   </trkpt>
   <trkpt lat="-8.049779" lon="-34.894132">
    <ele>10.7</ele>
    <time>2020-02-03T12:10:14.000Z</time>
   </trkpt>
   <trkpt lat="-8.049812" lon="-34.894154">
    <ele>10.6</ele>
    <time>2020-02-03T12:10:15.000Z</time>
   </trkpt>
   <trkpt lat="-8.049847" lon="-34.894173">
    <ele>10</ele>
    <time>2020-02-03T12:10:16.000Z</time>
   </trkpt>
   <trkpt lat="-8.049888" lon="-34.894196">
    <ele>9.6</ele>
    <time>2020-02-03T12:10:17.000Z</time>
   </trkpt>
   <trkpt lat="-8.049924" lon="-34.894223">
    <ele>9.2</ele>
    <time>2020-02-03T12:10:18.000Z</time>
   </trkpt>
   <trkpt lat="-8.049953" lon="-34.894259">
    <ele>8.9</ele>
    <time>2020-02-03T12:10:19.000Z</time>
   </trkpt>
   <trkpt lat="-8.049978" lon="-34.894289">
    <ele>8.6</ele>
    <time>2020-02-03T12:10:20.000Z</time>
   </trkpt>
   <trkpt lat="-8.050004" lon="-34.894317">
    <ele>8.3</ele>
    <time>2020-02-03T12:10:21.000Z</time>
   </trkpt>
   <trkpt lat="-8.050055" lon="-34.894314">
    <ele>8</ele>
    <time>2020-02-03T12:10:22.000Z</time>
   </trkpt>
   <trkpt lat="-8.050121" lon="-34.894351">
    <ele>7.6</ele>
    <time>2020-02-03T12:10:23.000Z</time>
   </trkpt>
   <trkpt lat="-8.05015" lon="-34.894382">
    <ele>7.4</ele>
    <time>2020-02-03T12:10:25.000Z</time>
   </trkpt>
   <trkpt lat="-8.050192" lon="-34.894417">
    <ele>7.2</ele>
    <time>2020-02-03T12:10:27.000Z</time>
   </trkpt>
   <trkpt lat="-8.050221" lon="-34.89444">
    <ele>7.1</ele>
    <time>2020-02-03T12:10:28.000Z</time>
   </trkpt>
   <trkpt lat="-8.050254" lon="-34.894461">
    <ele>7</ele>
    <time>2020-02-03T12:10:29.000Z</time>
   </trkpt>
   <trkpt lat="-8.050283" lon="-34.894485">
    <ele>6.9</ele>
    <time>2020-02-03T12:10:30.000Z</time>
   </trkpt>
   <trkpt lat="-8.050304" lon="-34.894503">
    <ele>6.8</ele>
    <time>2020-02-03T12:10:31.000Z</time>
   </trkpt>
   <trkpt lat="-8.050326" lon="-34.894524">
    <ele>6.7</ele>
    <time>2020-02-03T12:10:33.000Z</time>
   </trkpt>
   <trkpt lat="-8.050367" lon="-34.894554">
    <ele>6.6</ele>
    <time>2020-02-03T12:10:35.000Z</time>
   </trkpt>
   <trkpt lat="-8.050386" lon="-34.894574">
    <ele>6.5</ele>
    <time>2020-02-03T12:10:36.000Z</time>
   </trkpt>
   <trkpt lat="-8.050412" lon="-34.894598">
    <ele>6.4</ele>
    <time>2020-02-03T12:10:37.000Z</time>
   </trkpt>
   <trkpt lat="-8.050438" lon="-34.89462">
    <ele>6.3</ele>
    <time>2020-02-03T12:10:38.000Z</time>
   </trkpt>
   <trkpt lat="-8.050468" lon="-34.894645">
    <ele>6.2</ele>
    <time>2020-02-03T12:10:39.000Z</time>
   </trkpt>
   <trkpt lat="-8.050498" lon="-34.894673">
    <ele>6.1</ele>
    <time>2020-02-03T12:10:40.000Z</time>
   </trkpt>
   <trkpt lat="-8.050526" lon="-34.894699">
    <ele>6</ele>
    <time>2020-02-03T12:10:41.000Z</time>
   </trkpt>
   <trkpt lat="-8.050554" lon="-34.894723">
    <ele>5.9</ele>
    <time>2020-02-03T12:10:42.000Z</time>
   </trkpt>
   <trkpt lat="-8.050587" lon="-34.894753">
    <ele>5.7</ele>
    <time>2020-02-03T12:10:43.000Z</time>
   </trkpt>
   <trkpt lat="-8.050623" lon="-34.894782">
    <ele>5.6</ele>
    <time>2020-02-03T12:10:44.000Z</time>
   </trkpt>
   <trkpt lat="-8.050656" lon="-34.894808">
    <ele>5.5</ele>
    <time>2020-02-03T12:10:45.000Z</time>
   </trkpt>
   <trkpt lat="-8.050687" lon="-34.894835">
    <ele>5.4</ele>
    <time>2020-02-03T12:10:46.000Z</time>
   </trkpt>
   <trkpt lat="-8.050719" lon="-34.894859">
    <ele>5.2</ele>
    <time>2020-02-03T12:10:47.000Z</time>
   </trkpt>
   <trkpt lat="-8.05076" lon="-34.894889">
    <ele>5.1</ele>
    <time>2020-02-03T12:10:48.000Z</time>
   </trkpt>
   <trkpt lat="-8.050799" lon="-34.894921">
    <ele>5</ele>
    <time>2020-02-03T12:10:49.000Z</time>
   </trkpt>
   <trkpt lat="-8.050838" lon="-34.894952">
    <ele>4.8</ele>
    <time>2020-02-03T12:10:50.000Z</time>
   </trkpt>
   <trkpt lat="-8.050881" lon="-34.894993">
    <ele>4.7</ele>
    <time>2020-02-03T12:10:51.000Z</time>
   </trkpt>
   <trkpt lat="-8.050928" lon="-34.89503">
    <ele>4.5</ele>
    <time>2020-02-03T12:10:52.000Z</time>
   </trkpt>
   <trkpt lat="-8.050969" lon="-34.895065">
    <ele>4.4</ele>
    <time>2020-02-03T12:10:53.000Z</time>
   </trkpt>
   <trkpt lat="-8.051013" lon="-34.895096">
    <ele>4.2</ele>
    <time>2020-02-03T12:10:54.000Z</time>
   </trkpt>
   <trkpt lat="-8.051043" lon="-34.89512">
    <ele>4.1</ele>
    <time>2020-02-03T12:10:55.000Z</time>
   </trkpt>
   <trkpt lat="-8.051077" lon="-34.89514">
    <ele>4</ele>
    <time>2020-02-03T12:10:57.000Z</time>
   </trkpt>
   <trkpt lat="-8.051103" lon="-34.895162">
    <ele>3.9</ele>
    <time>2020-02-03T12:10:59.000Z</time>
   </trkpt>
   <trkpt lat="-8.051134" lon="-34.895175">
    <ele>3.8</ele>
    <time>2020-02-03T12:11:01.000Z</time>
   </trkpt>
   <trkpt lat="-8.051149" lon="-34.895199">
    <ele>3.7</ele>
    <time>2020-02-03T12:11:03.000Z</time>
   </trkpt>
   <trkpt lat="-8.051162" lon="-34.895215">
    <ele>3.7</ele>
    <time>2020-02-03T12:11:09.000Z</time>
   </trkpt>
   <trkpt lat="-8.051249" lon="-34.895221">
    <ele>4.1</ele>
    <time>2020-02-03T12:11:50.000Z</time>
   </trkpt>
   <trkpt lat="-8.051293" lon="-34.895252">
    <ele>4.6</ele>
    <time>2020-02-03T12:11:52.000Z</time>
   </trkpt>
   <trkpt lat="-8.051328" lon="-34.89531">
    <ele>4.7</ele>
    <time>2020-02-03T12:11:54.000Z</time>
   </trkpt>
   <trkpt lat="-8.051357" lon="-34.895329">
    <ele>4.7</ele>
    <time>2020-02-03T12:11:55.000Z</time>
   </trkpt>
   <trkpt lat="-8.051363" lon="-34.895368">
    <ele>4.8</ele>
    <time>2020-02-03T12:11:56.000Z</time>
   </trkpt>
   <trkpt lat="-8.051372" lon="-34.895399">
    <ele>4.8</ele>
    <time>2020-02-03T12:11:57.000Z</time>
   </trkpt>
   <trkpt lat="-8.0514" lon="-34.895425">
    <ele>4.8</ele>
    <time>2020-02-03T12:11:58.000Z</time>
   </trkpt>
   <trkpt lat="-8.051422" lon="-34.895456">
    <ele>4.9</ele>
    <time>2020-02-03T12:11:59.000Z</time>
   </trkpt>
   <trkpt lat="-8.051449" lon="-34.895482">
    <ele>4.9</ele>
    <time>2020-02-03T12:12:00.000Z</time>
   </trkpt>
   <trkpt lat="-8.051481" lon="-34.895493">
    <ele>4.9</ele>
    <time>2020-02-03T12:12:01.000Z</time>
   </trkpt>
   <trkpt lat="-8.051504" lon="-34.895524">
    <ele>5</ele>
    <time>2020-02-03T12:12:02.000Z</time>
   </trkpt>
   <trkpt lat="-8.051533" lon="-34.89555">
    <ele>5</ele>
    <time>2020-02-03T12:12:03.000Z</time>
   </trkpt>
   <trkpt lat="-8.051554" lon="-34.895578">
    <ele>5.1</ele>
    <time>2020-02-03T12:12:04.000Z</time>
   </trkpt>
   <trkpt lat="-8.051577" lon="-34.895618">
    <ele>5.1</ele>
    <time>2020-02-03T12:12:05.000Z</time>
   </trkpt>
   <trkpt lat="-8.051597" lon="-34.895643">
    <ele>5.2</ele>
    <time>2020-02-03T12:12:06.000Z</time>
   </trkpt>
   <trkpt lat="-8.051627" lon="-34.895646">
    <ele>5.2</ele>
    <time>2020-02-03T12:12:07.000Z</time>
   </trkpt>
   <trkpt lat="-8.051656" lon="-34.895671">
    <ele>5.2</ele>
    <time>2020-02-03T12:12:08.000Z</time>
   </trkpt>
   <trkpt lat="-8.051684" lon="-34.895716">
    <ele>5.3</ele>
    <time>2020-02-03T12:12:09.000Z</time>
   </trkpt>
   <trkpt lat="-8.051714" lon="-34.895749">
    <ele>5.4</ele>
    <time>2020-02-03T12:12:10.000Z</time>
   </trkpt>
   <trkpt lat="-8.051758" lon="-34.89579">
    <ele>5.5</ele>
    <time>2020-02-03T12:12:11.000Z</time>
   </trkpt>
   <trkpt lat="-8.051809" lon="-34.895835">
    <ele>5.6</ele>
    <time>2020-02-03T12:12:12.000Z</time>
   </trkpt>
   <trkpt lat="-8.051871" lon="-34.895835">
    <ele>5.7</ele>
    <time>2020-02-03T12:12:13.000Z</time>
   </trkpt>
   <trkpt lat="-8.051927" lon="-34.895866">
    <ele>5.8</ele>
    <time>2020-02-03T12:12:14.000Z</time>
   </trkpt>
   <trkpt lat="-8.051969" lon="-34.895908">
    <ele>6</ele>
    <time>2020-02-03T12:12:15.000Z</time>
   </trkpt>
   <trkpt lat="-8.052007" lon="-34.895949">
    <ele>6.1</ele>
    <time>2020-02-03T12:12:16.000Z</time>
   </trkpt>
   <trkpt lat="-8.052052" lon="-34.895982">
    <ele>6.3</ele>
    <time>2020-02-03T12:12:17.000Z</time>
   </trkpt>
   <trkpt lat="-8.052105" lon="-34.896009">
    <ele>6.8</ele>
    <time>2020-02-03T12:12:18.000Z</time>
   </trkpt>
   <trkpt lat="-8.052179" lon="-34.896003">
    <ele>7</ele>
    <time>2020-02-03T12:12:19.000Z</time>
   </trkpt>
   <trkpt lat="-8.05223" lon="-34.896015">
    <ele>7.1</ele>
    <time>2020-02-03T12:12:20.000Z</time>
   </trkpt>
   <trkpt lat="-8.052283" lon="-34.896032">
    <ele>7.2</ele>
    <time>2020-02-03T12:12:21.000Z</time>
   </trkpt>
   <trkpt lat="-8.052333" lon="-34.896053">
    <ele>7.1</ele>
    <time>2020-02-03T12:12:22.000Z</time>
   </trkpt>
   <trkpt lat="-8.052381" lon="-34.896067">
    <ele>7</ele>
    <time>2020-02-03T12:12:23.000Z</time>
   </trkpt>
   <trkpt lat="-8.052421" lon="-34.896089">
    <ele>7</ele>
    <time>2020-02-03T12:12:24.000Z</time>
   </trkpt>
   <trkpt lat="-8.052454" lon="-34.896119">
    <ele>6.9</ele>
    <time>2020-02-03T12:12:25.000Z</time>
   </trkpt>
   <trkpt lat="-8.052491" lon="-34.89614">
    <ele>6.8</ele>
    <time>2020-02-03T12:12:26.000Z</time>
   </trkpt>
   <trkpt lat="-8.052543" lon="-34.896156">
    <ele>6.7</ele>
    <time>2020-02-03T12:12:27.000Z</time>
   </trkpt>
   <trkpt lat="-8.052602" lon="-34.896171">
    <ele>6.6</ele>
    <time>2020-02-03T12:12:28.000Z</time>
   </trkpt>
   <trkpt lat="-8.052653" lon="-34.896194">
    <ele>6.4</ele>
    <time>2020-02-03T12:12:29.000Z</time>
   </trkpt>
   <trkpt lat="-8.052699" lon="-34.896217">
    <ele>6.3</ele>
    <time>2020-02-03T12:12:30.000Z</time>
   </trkpt>
   <trkpt lat="-8.052745" lon="-34.896247">
    <ele>6.3</ele>
    <time>2020-02-03T12:12:31.000Z</time>
   </trkpt>
   <trkpt lat="-8.052791" lon="-34.896273">
    <ele>6.3</ele>
    <time>2020-02-03T12:12:32.000Z</time>
   </trkpt>
   <trkpt lat="-8.052839" lon="-34.896301">
    <ele>6.4</ele>
    <time>2020-02-03T12:12:33.000Z</time>
   </trkpt>
   <trkpt lat="-8.052885" lon="-34.896338">
    <ele>6.4</ele>
    <time>2020-02-03T12:12:34.000Z</time>
   </trkpt>
   <trkpt lat="-8.052924" lon="-34.896381">
    <ele>6.5</ele>
    <time>2020-02-03T12:12:35.000Z</time>
   </trkpt>
   <trkpt lat="-8.052968" lon="-34.896423">
    <ele>6.6</ele>
    <time>2020-02-03T12:12:36.000Z</time>
   </trkpt>
   <trkpt lat="-8.053014" lon="-34.896462">
    <ele>6.8</ele>
    <time>2020-02-03T12:12:37.000Z</time>
   </trkpt>
   <trkpt lat="-8.053051" lon="-34.896498">
    <ele>7</ele>
    <time>2020-02-03T12:12:38.000Z</time>
   </trkpt>
   <trkpt lat="-8.053102" lon="-34.89652">
    <ele>7.2</ele>
    <time>2020-02-03T12:12:39.000Z</time>
   </trkpt>
   <trkpt lat="-8.053132" lon="-34.896533">
    <ele>7.3</ele>
    <time>2020-02-03T12:12:40.000Z</time>
   </trkpt>
   <trkpt lat="-8.053167" lon="-34.896547">
    <ele>7.4</ele>
    <time>2020-02-03T12:12:42.000Z</time>
   </trkpt>
   <trkpt lat="-8.053208" lon="-34.896531">
    <ele>6.1</ele>
    <time>2020-02-03T12:12:44.000Z</time>
   </trkpt>
   <trkpt lat="-8.053266" lon="-34.896547">
    <ele>6.1</ele>
    <time>2020-02-03T12:12:46.000Z</time>
   </trkpt>
   <trkpt lat="-8.0533" lon="-34.896571">
    <ele>6.1</ele>
    <time>2020-02-03T12:12:47.000Z</time>
   </trkpt>
   <trkpt lat="-8.053341" lon="-34.896585">
    <ele>5.9</ele>
    <time>2020-02-03T12:12:48.000Z</time>
   </trkpt>
   <trkpt lat="-8.053382" lon="-34.896598">
    <ele>5.8</ele>
    <time>2020-02-03T12:12:49.000Z</time>
   </trkpt>
   <trkpt lat="-8.053428" lon="-34.896614">
    <ele>5.2</ele>
    <time>2020-02-03T12:12:50.000Z</time>
   </trkpt>
   <trkpt lat="-8.053465" lon="-34.896621">
    <ele>5.2</ele>
    <time>2020-02-03T12:12:51.000Z</time>
   </trkpt>
   <trkpt lat="-8.053505" lon="-34.896637">
    <ele>5.2</ele>
    <time>2020-02-03T12:12:52.000Z</time>
   </trkpt>
   <trkpt lat="-8.053548" lon="-34.896654">
    <ele>5.2</ele>
    <time>2020-02-03T12:12:53.000Z</time>
   </trkpt>
   <trkpt lat="-8.05359" lon="-34.896675">
    <ele>5.2</ele>
    <time>2020-02-03T12:12:54.000Z</time>
   </trkpt>
   <trkpt lat="-8.053628" lon="-34.89671">
    <ele>5.2</ele>
    <time>2020-02-03T12:12:55.000Z</time>
   </trkpt>
   <trkpt lat="-8.053667" lon="-34.896748">
    <ele>5.2</ele>
    <time>2020-02-03T12:12:56.000Z</time>
   </trkpt>
   <trkpt lat="-8.053716" lon="-34.896792">
    <ele>5.2</ele>
    <time>2020-02-03T12:12:57.000Z</time>
   </trkpt>
   <trkpt lat="-8.053772" lon="-34.89683">
    <ele>5.2</ele>
    <time>2020-02-03T12:12:58.000Z</time>
   </trkpt>
   <trkpt lat="-8.053823" lon="-34.896879">
    <ele>5.2</ele>
    <time>2020-02-03T12:12:59.000Z</time>
   </trkpt>
   <trkpt lat="-8.053893" lon="-34.896915">
    <ele>5.3</ele>
    <time>2020-02-03T12:13:00.000Z</time>
   </trkpt>
   <trkpt lat="-8.053947" lon="-34.896959">
    <ele>5.3</ele>
    <time>2020-02-03T12:13:01.000Z</time>
   </trkpt>
   <trkpt lat="-8.053996" lon="-34.897">
    <ele>5.3</ele>
    <time>2020-02-03T12:13:02.000Z</time>
   </trkpt>
   <trkpt lat="-8.054042" lon="-34.89705">
    <ele>5.3</ele>
    <time>2020-02-03T12:13:03.000Z</time>
   </trkpt>
   <trkpt lat="-8.054089" lon="-34.897095">
    <ele>5.3</ele>
    <time>2020-02-03T12:13:04.000Z</time>
   </trkpt>
   <trkpt lat="-8.054134" lon="-34.897141">
    <ele>5.3</ele>
    <time>2020-02-03T12:13:05.000Z</time>
   </trkpt>
   <trkpt lat="-8.054187" lon="-34.897177">
    <ele>5.3</ele>
    <time>2020-02-03T12:13:06.000Z</time>
   </trkpt>
   <trkpt lat="-8.05425" lon="-34.897209">
    <ele>5.3</ele>
    <time>2020-02-03T12:13:07.000Z</time>
   </trkpt>
   <trkpt lat="-8.054296" lon="-34.897245">
    <ele>5.3</ele>
    <time>2020-02-03T12:13:08.000Z</time>
   </trkpt>
   <trkpt lat="-8.054346" lon="-34.897281">
    <ele>5.3</ele>
    <time>2020-02-03T12:13:09.000Z</time>
   </trkpt>
   <trkpt lat="-8.054388" lon="-34.897308">
    <ele>5.3</ele>
    <time>2020-02-03T12:13:10.000Z</time>
   </trkpt>
   <trkpt lat="-8.054429" lon="-34.897344">
    <ele>5.4</ele>
    <time>2020-02-03T12:13:11.000Z</time>
   </trkpt>
   <trkpt lat="-8.054485" lon="-34.897382">
    <ele>5.4</ele>
    <time>2020-02-03T12:13:12.000Z</time>
   </trkpt>
   <trkpt lat="-8.054542" lon="-34.897424">
    <ele>5.4</ele>
    <time>2020-02-03T12:13:13.000Z</time>
   </trkpt>
   <trkpt lat="-8.054593" lon="-34.897467">
    <ele>5.4</ele>
    <time>2020-02-03T12:13:14.000Z</time>
   </trkpt>
   <trkpt lat="-8.054641" lon="-34.8975">
    <ele>5.4</ele>
    <time>2020-02-03T12:13:15.000Z</time>
   </trkpt>
   <trkpt lat="-8.054693" lon="-34.897551">
    <ele>5.4</ele>
    <time>2020-02-03T12:13:16.000Z</time>
   </trkpt>
   <trkpt lat="-8.054748" lon="-34.897585">
    <ele>5.4</ele>
    <time>2020-02-03T12:13:17.000Z</time>
   </trkpt>
   <trkpt lat="-8.054799" lon="-34.897616">
    <ele>5.4</ele>
    <time>2020-02-03T12:13:18.000Z</time>
   </trkpt>
   <trkpt lat="-8.054852" lon="-34.897653">
    <ele>5.4</ele>
    <time>2020-02-03T12:13:19.000Z</time>
   </trkpt>
   <trkpt lat="-8.054907" lon="-34.897684">
    <ele>5.5</ele>
    <time>2020-02-03T12:13:20.000Z</time>
   </trkpt>
   <trkpt lat="-8.05497" lon="-34.897713">
    <ele>5.5</ele>
    <time>2020-02-03T12:13:21.000Z</time>
   </trkpt>
   <trkpt lat="-8.055027" lon="-34.897741">
    <ele>5.5</ele>
    <time>2020-02-03T12:13:22.000Z</time>
   </trkpt>
   <trkpt lat="-8.055083" lon="-34.897772">
    <ele>5.5</ele>
    <time>2020-02-03T12:13:23.000Z</time>
   </trkpt>
   <trkpt lat="-8.055146" lon="-34.897798">
    <ele>5.5</ele>
    <time>2020-02-03T12:13:24.000Z</time>
   </trkpt>
   <trkpt lat="-8.05521" lon="-34.897829">
    <ele>5.5</ele>
    <time>2020-02-03T12:13:25.000Z</time>
   </trkpt>
   <trkpt lat="-8.055287" lon="-34.897861">
    <ele>5.6</ele>
    <time>2020-02-03T12:13:26.000Z</time>
   </trkpt>
   <trkpt lat="-8.055348" lon="-34.897883">
    <ele>5.6</ele>
    <time>2020-02-03T12:13:27.000Z</time>
   </trkpt>
   <trkpt lat="-8.055414" lon="-34.897898">
    <ele>5.7</ele>
    <time>2020-02-03T12:13:28.000Z</time>
   </trkpt>
   <trkpt lat="-8.05547" lon="-34.897909">
    <ele>5.7</ele>
    <time>2020-02-03T12:13:29.000Z</time>
   </trkpt>
   <trkpt lat="-8.055531" lon="-34.897918">
    <ele>5.7</ele>
    <time>2020-02-03T12:13:30.000Z</time>
   </trkpt>
   <trkpt lat="-8.055584" lon="-34.89792">
    <ele>5.8</ele>
    <time>2020-02-03T12:13:31.000Z</time>
   </trkpt>
   <trkpt lat="-8.055629" lon="-34.897915">
    <ele>5.8</ele>
    <time>2020-02-03T12:13:32.000Z</time>
   </trkpt>
   <trkpt lat="-8.055672" lon="-34.89791">
    <ele>5.8</ele>
    <time>2020-02-03T12:13:33.000Z</time>
   </trkpt>
   <trkpt lat="-8.05572" lon="-34.897903">
    <ele>5.9</ele>
    <time>2020-02-03T12:13:34.000Z</time>
   </trkpt>
   <trkpt lat="-8.055772" lon="-34.897905">
    <ele>5.9</ele>
    <time>2020-02-03T12:13:35.000Z</time>
   </trkpt>
   <trkpt lat="-8.055828" lon="-34.897906">
    <ele>6</ele>
    <time>2020-02-03T12:13:36.000Z</time>
   </trkpt>
   <trkpt lat="-8.055883" lon="-34.897905">
    <ele>6</ele>
    <time>2020-02-03T12:13:37.000Z</time>
   </trkpt>
   <trkpt lat="-8.055924" lon="-34.897905">
    <ele>6</ele>
    <time>2020-02-03T12:13:38.000Z</time>
   </trkpt>
   <trkpt lat="-8.055958" lon="-34.897912">
    <ele>6.1</ele>
    <time>2020-02-03T12:13:39.000Z</time>
   </trkpt>
   <trkpt lat="-8.056005" lon="-34.897913">
    <ele>6.1</ele>
    <time>2020-02-03T12:13:40.000Z</time>
   </trkpt>
   <trkpt lat="-8.056065" lon="-34.897917">
    <ele>6.2</ele>
    <time>2020-02-03T12:13:41.000Z</time>
   </trkpt>
   <trkpt lat="-8.056109" lon="-34.897919">
    <ele>6.2</ele>
    <time>2020-02-03T12:13:42.000Z</time>
   </trkpt>
   <trkpt lat="-8.056155" lon="-34.897918">
    <ele>6.2</ele>
    <time>2020-02-03T12:13:43.000Z</time>
   </trkpt>
   <trkpt lat="-8.056191" lon="-34.897919">
    <ele>6.3</ele>
    <time>2020-02-03T12:13:44.000Z</time>
   </trkpt>
   <trkpt lat="-8.056233" lon="-34.897924">
    <ele>6.3</ele>
    <time>2020-02-03T12:13:45.000Z</time>
   </trkpt>
   <trkpt lat="-8.056283" lon="-34.897919">
    <ele>6.4</ele>
    <time>2020-02-03T12:13:46.000Z</time>
   </trkpt>
   <trkpt lat="-8.056334" lon="-34.897909">
    <ele>6.4</ele>
    <time>2020-02-03T12:13:47.000Z</time>
   </trkpt>
   <trkpt lat="-8.056371" lon="-34.897908">
    <ele>6.5</ele>
    <time>2020-02-03T12:13:48.000Z</time>
   </trkpt>
   <trkpt lat="-8.0564" lon="-34.897914">
    <ele>6.5</ele>
    <time>2020-02-03T12:13:49.000Z</time>
   </trkpt>
   <trkpt lat="-8.056432" lon="-34.897948">
    <ele>6.5</ele>
    <time>2020-02-03T12:13:51.000Z</time>
   </trkpt>
   <trkpt lat="-8.056488" lon="-34.897964">
    <ele>6.6</ele>
    <time>2020-02-03T12:13:53.000Z</time>
   </trkpt>
   <trkpt lat="-8.056516" lon="-34.897978">
    <ele>6.7</ele>
    <time>2020-02-03T12:13:54.000Z</time>
   </trkpt>
   <trkpt lat="-8.056542" lon="-34.897976">
    <ele>6.7</ele>
    <time>2020-02-03T12:13:56.000Z</time>
   </trkpt>
   <trkpt lat="-8.056581" lon="-34.897952">
    <ele>7.3</ele>
    <time>2020-02-03T12:13:58.000Z</time>
   </trkpt>
   <trkpt lat="-8.05662" lon="-34.897976">
    <ele>7.3</ele>
    <time>2020-02-03T12:14:01.000Z</time>
   </trkpt>
   <trkpt lat="-8.056652" lon="-34.897942">
    <ele>7.9</ele>
    <time>2020-02-03T12:14:03.000Z</time>
   </trkpt>
   <trkpt lat="-8.056634" lon="-34.897909">
    <ele>7.9</ele>
    <time>2020-02-03T12:14:05.000Z</time>
   </trkpt>
   <trkpt lat="-8.05663" lon="-34.897883">
    <ele>7.9</ele>
    <time>2020-02-03T12:14:07.000Z</time>
   </trkpt>
   <trkpt lat="-8.056634" lon="-34.897854">
    <ele>7.8</ele>
    <time>2020-02-03T12:14:10.000Z</time>
   </trkpt>
   <trkpt lat="-8.056656" lon="-34.897854">
    <ele>7.8</ele>
    <time>2020-02-03T12:14:15.000Z</time>
   </trkpt>
   <trkpt lat="-8.056625" lon="-34.897787">
    <ele>7.8</ele>
    <time>2020-02-03T12:14:40.000Z</time>
   </trkpt>
   <trkpt lat="-8.056627" lon="-34.897755">
    <ele>7.9</ele>
    <time>2020-02-03T12:14:42.000Z</time>
   </trkpt>
   <trkpt lat="-8.056624" lon="-34.897714">
    <ele>8.1</ele>
    <time>2020-02-03T12:14:44.000Z</time>
   </trkpt>
   <trkpt lat="-8.056611" lon="-34.897669">
    <ele>8.1</ele>
    <time>2020-02-03T12:14:47.000Z</time>
   </trkpt>
   <trkpt lat="-8.056599" lon="-34.897637">
    <ele>8.2</ele>
    <time>2020-02-03T12:14:48.000Z</time>
   </trkpt>
   <trkpt lat="-8.056589" lon="-34.8976">
    <ele>8.2</ele>
    <time>2020-02-03T12:14:49.000Z</time>
   </trkpt>
   <trkpt lat="-8.056574" lon="-34.897563">
    <ele>8</ele>
    <time>2020-02-03T12:14:50.000Z</time>
   </trkpt>
   <trkpt lat="-8.056556" lon="-34.897521">
    <ele>7.9</ele>
    <time>2020-02-03T12:14:51.000Z</time>
   </trkpt>
   <trkpt lat="-8.056539" lon="-34.897476">
    <ele>7.7</ele>
    <time>2020-02-03T12:14:52.000Z</time>
   </trkpt>
   <trkpt lat="-8.056522" lon="-34.897431">
    <ele>7.6</ele>
    <time>2020-02-03T12:14:53.000Z</time>
   </trkpt>
   <trkpt lat="-8.056509" lon="-34.897366">
    <ele>7.3</ele>
    <time>2020-02-03T12:14:54.000Z</time>
   </trkpt>
   <trkpt lat="-8.056492" lon="-34.897307">
    <ele>7</ele>
    <time>2020-02-03T12:14:55.000Z</time>
   </trkpt>
   <trkpt lat="-8.056486" lon="-34.897255">
    <ele>6.7</ele>
    <time>2020-02-03T12:14:56.000Z</time>
   </trkpt>
   <trkpt lat="-8.056474" lon="-34.897206">
    <ele>6.5</ele>
    <time>2020-02-03T12:14:57.000Z</time>
   </trkpt>
   <trkpt lat="-8.056459" lon="-34.897181">
    <ele>6.4</ele>
    <time>2020-02-03T12:14:58.000Z</time>
   </trkpt>
   <trkpt lat="-8.056469" lon="-34.89715">
    <ele>6.3</ele>
    <time>2020-02-03T12:14:59.000Z</time>
   </trkpt>
   <trkpt lat="-8.056491" lon="-34.897098">
    <ele>6.1</ele>
    <time>2020-02-03T12:15:00.000Z</time>
   </trkpt>
   <trkpt lat="-8.056527" lon="-34.897067">
    <ele>6.2</ele>
    <time>2020-02-03T12:15:01.000Z</time>
   </trkpt>
   <trkpt lat="-8.056561" lon="-34.897037">
    <ele>6.4</ele>
    <time>2020-02-03T12:15:02.000Z</time>
   </trkpt>
   <trkpt lat="-8.056591" lon="-34.89701">
    <ele>6.6</ele>
    <time>2020-02-03T12:15:03.000Z</time>
   </trkpt>
   <trkpt lat="-8.05663" lon="-34.896984">
    <ele>6.8</ele>
    <time>2020-02-03T12:15:04.000Z</time>
   </trkpt>
   <trkpt lat="-8.05668" lon="-34.896972">
    <ele>6.9</ele>
    <time>2020-02-03T12:15:05.000Z</time>
   </trkpt>
   <trkpt lat="-8.056743" lon="-34.896955">
    <ele>7</ele>
    <time>2020-02-03T12:15:06.000Z</time>
   </trkpt>
   <trkpt lat="-8.056795" lon="-34.896934">
    <ele>7.1</ele>
    <time>2020-02-03T12:15:07.000Z</time>
   </trkpt>
   <trkpt lat="-8.056848" lon="-34.896916">
    <ele>7.2</ele>
    <time>2020-02-03T12:15:08.000Z</time>
   </trkpt>
   <trkpt lat="-8.056898" lon="-34.896894">
    <ele>7.2</ele>
    <time>2020-02-03T12:15:09.000Z</time>
   </trkpt>
   <trkpt lat="-8.056939" lon="-34.896869">
    <ele>7.2</ele>
    <time>2020-02-03T12:15:10.000Z</time>
   </trkpt>
   <trkpt lat="-8.056976" lon="-34.89685">
    <ele>7.2</ele>
    <time>2020-02-03T12:15:11.000Z</time>
   </trkpt>
   <trkpt lat="-8.05702" lon="-34.896834">
    <ele>7.3</ele>
    <time>2020-02-03T12:15:12.000Z</time>
   </trkpt>
   <trkpt lat="-8.057072" lon="-34.896822">
    <ele>7.3</ele>
    <time>2020-02-03T12:15:13.000Z</time>
   </trkpt>
   <trkpt lat="-8.057113" lon="-34.896809">
    <ele>7.4</ele>
    <time>2020-02-03T12:15:14.000Z</time>
   </trkpt>
   <trkpt lat="-8.057166" lon="-34.896785">
    <ele>7.5</ele>
    <time>2020-02-03T12:15:15.000Z</time>
   </trkpt>
   <trkpt lat="-8.05722" lon="-34.896761">
    <ele>7.7</ele>
    <time>2020-02-03T12:15:16.000Z</time>
   </trkpt>
   <trkpt lat="-8.057266" lon="-34.896743">
    <ele>7.8</ele>
    <time>2020-02-03T12:15:17.000Z</time>
   </trkpt>
   <trkpt lat="-8.057309" lon="-34.896744">
    <ele>8</ele>
    <time>2020-02-03T12:15:18.000Z</time>
   </trkpt>
   <trkpt lat="-8.057346" lon="-34.896722">
    <ele>8.2</ele>
    <time>2020-02-03T12:15:19.000Z</time>
   </trkpt>
   <trkpt lat="-8.057383" lon="-34.896695">
    <ele>8.4</ele>
    <time>2020-02-03T12:15:20.000Z</time>
   </trkpt>
   <trkpt lat="-8.057417" lon="-34.896675">
    <ele>8.7</ele>
    <time>2020-02-03T12:15:21.000Z</time>
   </trkpt>
   <trkpt lat="-8.057455" lon="-34.896649">
    <ele>9</ele>
    <time>2020-02-03T12:15:22.000Z</time>
   </trkpt>
   <trkpt lat="-8.057491" lon="-34.896618">
    <ele>9.3</ele>
    <time>2020-02-03T12:15:23.000Z</time>
   </trkpt>
   <trkpt lat="-8.057526" lon="-34.896578">
    <ele>9.6</ele>
    <time>2020-02-03T12:15:24.000Z</time>
   </trkpt>
   <trkpt lat="-8.057547" lon="-34.896533">
    <ele>9.9</ele>
    <time>2020-02-03T12:15:25.000Z</time>
   </trkpt>
   <trkpt lat="-8.057582" lon="-34.896512">
    <ele>10.2</ele>
    <time>2020-02-03T12:15:26.000Z</time>
   </trkpt>
   <trkpt lat="-8.057618" lon="-34.896472">
    <ele>10.5</ele>
    <time>2020-02-03T12:15:27.000Z</time>
   </trkpt>
   <trkpt lat="-8.057673" lon="-34.896441">
    <ele>10.9</ele>
    <time>2020-02-03T12:15:28.000Z</time>
   </trkpt>
   <trkpt lat="-8.057729" lon="-34.896423">
    <ele>11.3</ele>
    <time>2020-02-03T12:15:29.000Z</time>
   </trkpt>
   <trkpt lat="-8.057781" lon="-34.896397">
    <ele>11.8</ele>
    <time>2020-02-03T12:15:30.000Z</time>
   </trkpt>
   <trkpt lat="-8.057825" lon="-34.896357">
    <ele>10.9</ele>
    <time>2020-02-03T12:15:31.000Z</time>
   </trkpt>
   <trkpt lat="-8.057882" lon="-34.896335">
    <ele>10.3</ele>
    <time>2020-02-03T12:15:32.000Z</time>
   </trkpt>
   <trkpt lat="-8.057932" lon="-34.896312">
    <ele>9.9</ele>
    <time>2020-02-03T12:15:33.000Z</time>
   </trkpt>
   <trkpt lat="-8.057977" lon="-34.896294">
    <ele>9.6</ele>
    <time>2020-02-03T12:15:34.000Z</time>
   </trkpt>
   <trkpt lat="-8.058026" lon="-34.896277">
    <ele>9.3</ele>
    <time>2020-02-03T12:15:35.000Z</time>
   </trkpt>
   <trkpt lat="-8.058064" lon="-34.89625">
    <ele>9.2</ele>
    <time>2020-02-03T12:15:36.000Z</time>
   </trkpt>
   <trkpt lat="-8.05812" lon="-34.896232">
    <ele>9.1</ele>
    <time>2020-02-03T12:15:37.000Z</time>
   </trkpt>
   <trkpt lat="-8.058157" lon="-34.896202">
    <ele>9.1</ele>
    <time>2020-02-03T12:15:38.000Z</time>
   </trkpt>
   <trkpt lat="-8.058205" lon="-34.896178">
    <ele>9.1</ele>
    <time>2020-02-03T12:15:39.000Z</time>
   </trkpt>
   <trkpt lat="-8.058256" lon="-34.896151">
    <ele>9.3</ele>
    <time>2020-02-03T12:15:40.000Z</time>
   </trkpt>
   <trkpt lat="-8.058303" lon="-34.896131">
    <ele>9.5</ele>
    <time>2020-02-03T12:15:41.000Z</time>
   </trkpt>
   <trkpt lat="-8.058337" lon="-34.896115">
    <ele>9.6</ele>
    <time>2020-02-03T12:15:42.000Z</time>
   </trkpt>
   <trkpt lat="-8.058366" lon="-34.89608">
    <ele>9.9</ele>
    <time>2020-02-03T12:15:43.000Z</time>
   </trkpt>
   <trkpt lat="-8.058361" lon="-34.896024">
    <ele>11</ele>
    <time>2020-02-03T12:15:44.000Z</time>
   </trkpt>
   <trkpt lat="-8.058368" lon="-34.895969">
    <ele>11.1</ele>
    <time>2020-02-03T12:15:45.000Z</time>
   </trkpt>
   <trkpt lat="-8.058373" lon="-34.895918">
    <ele>11.2</ele>
    <time>2020-02-03T12:15:46.000Z</time>
   </trkpt>
   <trkpt lat="-8.058392" lon="-34.895868">
    <ele>11.3</ele>
    <time>2020-02-03T12:15:47.000Z</time>
   </trkpt>
   <trkpt lat="-8.058385" lon="-34.895826">
    <ele>11.4</ele>
    <time>2020-02-03T12:15:48.000Z</time>
   </trkpt>
   <trkpt lat="-8.058365" lon="-34.895772">
    <ele>11.4</ele>
    <time>2020-02-03T12:15:49.000Z</time>
   </trkpt>
   <trkpt lat="-8.058348" lon="-34.895712">
    <ele>11.5</ele>
    <time>2020-02-03T12:15:50.000Z</time>
   </trkpt>
   <trkpt lat="-8.058328" lon="-34.895646">
    <ele>11.5</ele>
    <time>2020-02-03T12:15:51.000Z</time>
   </trkpt>
   <trkpt lat="-8.058311" lon="-34.895593">
    <ele>11.5</ele>
    <time>2020-02-03T12:15:52.000Z</time>
   </trkpt>
   <trkpt lat="-8.058296" lon="-34.895536">
    <ele>11.5</ele>
    <time>2020-02-03T12:15:53.000Z</time>
   </trkpt>
   <trkpt lat="-8.058288" lon="-34.895484">
    <ele>11.5</ele>
    <time>2020-02-03T12:15:54.000Z</time>
   </trkpt>
   <trkpt lat="-8.058289" lon="-34.895438">
    <ele>11.5</ele>
    <time>2020-02-03T12:15:55.000Z</time>
   </trkpt>
   <trkpt lat="-8.058279" lon="-34.895383">
    <ele>11.5</ele>
    <time>2020-02-03T12:15:56.000Z</time>
   </trkpt>
   <trkpt lat="-8.058261" lon="-34.895324">
    <ele>11.6</ele>
    <time>2020-02-03T12:15:57.000Z</time>
   </trkpt>
   <trkpt lat="-8.058243" lon="-34.895266">
    <ele>11.6</ele>
    <time>2020-02-03T12:15:58.000Z</time>
   </trkpt>
   <trkpt lat="-8.058223" lon="-34.89521">
    <ele>11.7</ele>
    <time>2020-02-03T12:15:59.000Z</time>
   </trkpt>
   <trkpt lat="-8.058203" lon="-34.895137">
    <ele>11.8</ele>
    <time>2020-02-03T12:16:00.000Z</time>
   </trkpt>
   <trkpt lat="-8.058182" lon="-34.895061">
    <ele>12</ele>
    <time>2020-02-03T12:16:01.000Z</time>
   </trkpt>
   <trkpt lat="-8.058176" lon="-34.895003">
    <ele>12.1</ele>
    <time>2020-02-03T12:16:02.000Z</time>
   </trkpt>
   <trkpt lat="-8.058163" lon="-34.894947">
    <ele>12.3</ele>
    <time>2020-02-03T12:16:03.000Z</time>
   </trkpt>
   <trkpt lat="-8.058147" lon="-34.894889">
    <ele>12.4</ele>
    <time>2020-02-03T12:16:04.000Z</time>
   </trkpt>
   <trkpt lat="-8.058114" lon="-34.894827">
    <ele>12.7</ele>
    <time>2020-02-03T12:16:05.000Z</time>
   </trkpt>
   <trkpt lat="-8.058078" lon="-34.894775">
    <ele>12.8</ele>
    <time>2020-02-03T12:16:06.000Z</time>
   </trkpt>
   <trkpt lat="-8.058056" lon="-34.894753">
    <ele>12.9</ele>
    <time>2020-02-03T12:16:07.000Z</time>
   </trkpt>
   <trkpt lat="-8.058047" lon="-34.8947">
    <ele>13</ele>
    <time>2020-02-03T12:16:09.000Z</time>
   </trkpt>
   <trkpt lat="-8.058051" lon="-34.894665">
    <ele>13.1</ele>
    <time>2020-02-03T12:16:10.000Z</time>
   </trkpt>
   <trkpt lat="-8.058057" lon="-34.894638">
    <ele>13.1</ele>
    <time>2020-02-03T12:16:11.000Z</time>
   </trkpt>
   <trkpt lat="-8.058066" lon="-34.894611">
    <ele>13.2</ele>
    <time>2020-02-03T12:16:12.000Z</time>
   </trkpt>
   <trkpt lat="-8.058084" lon="-34.894583">
    <ele>13.3</ele>
    <time>2020-02-03T12:16:13.000Z</time>
   </trkpt>
   <trkpt lat="-8.058118" lon="-34.894549">
    <ele>13.1</ele>
    <time>2020-02-03T12:16:14.000Z</time>
   </trkpt>
   <trkpt lat="-8.058147" lon="-34.894524">
    <ele>13</ele>
    <time>2020-02-03T12:16:15.000Z</time>
   </trkpt>
   <trkpt lat="-8.058179" lon="-34.894508">
    <ele>13</ele>
    <time>2020-02-03T12:16:16.000Z</time>
   </trkpt>
   <trkpt lat="-8.058219" lon="-34.894486">
    <ele>12.9</ele>
    <time>2020-02-03T12:16:17.000Z</time>
   </trkpt>
   <trkpt lat="-8.058268" lon="-34.894456">
    <ele>12.8</ele>
    <time>2020-02-03T12:16:18.000Z</time>
   </trkpt>
   <trkpt lat="-8.058321" lon="-34.894439">
    <ele>12.7</ele>
    <time>2020-02-03T12:16:19.000Z</time>
   </trkpt>
   <trkpt lat="-8.058362" lon="-34.894428">
    <ele>12.7</ele>
    <time>2020-02-03T12:16:20.000Z</time>
   </trkpt>
   <trkpt lat="-8.058408" lon="-34.89442">
    <ele>12.7</ele>
    <time>2020-02-03T12:16:21.000Z</time>
   </trkpt>
   <trkpt lat="-8.058455" lon="-34.89441">
    <ele>12.7</ele>
    <time>2020-02-03T12:16:22.000Z</time>
   </trkpt>
   <trkpt lat="-8.05849" lon="-34.89439">
    <ele>12.7</ele>
    <time>2020-02-03T12:16:23.000Z</time>
   </trkpt>
   <trkpt lat="-8.058522" lon="-34.894367">
    <ele>12.7</ele>
    <time>2020-02-03T12:16:24.000Z</time>
   </trkpt>
   <trkpt lat="-8.058561" lon="-34.894352">
    <ele>12.6</ele>
    <time>2020-02-03T12:16:25.000Z</time>
   </trkpt>
   <trkpt lat="-8.058599" lon="-34.894332">
    <ele>12.6</ele>
    <time>2020-02-03T12:16:26.000Z</time>
   </trkpt>
   <trkpt lat="-8.058637" lon="-34.894328">
    <ele>12.5</ele>
    <time>2020-02-03T12:16:27.000Z</time>
   </trkpt>
   <trkpt lat="-8.05867" lon="-34.894305">
    <ele>12.5</ele>
    <time>2020-02-03T12:16:28.000Z</time>
   </trkpt>
   <trkpt lat="-8.058706" lon="-34.894287">
    <ele>12.4</ele>
    <time>2020-02-03T12:16:29.000Z</time>
   </trkpt>
   <trkpt lat="-8.058749" lon="-34.894268">
    <ele>12.4</ele>
    <time>2020-02-03T12:16:30.000Z</time>
   </trkpt>
   <trkpt lat="-8.058785" lon="-34.894245">
    <ele>12.3</ele>
    <time>2020-02-03T12:16:31.000Z</time>
   </trkpt>
   <trkpt lat="-8.058817" lon="-34.894225">
    <ele>12.3</ele>
    <time>2020-02-03T12:16:32.000Z</time>
   </trkpt>
   <trkpt lat="-8.058859" lon="-34.894204">
    <ele>12.2</ele>
    <time>2020-02-03T12:16:33.000Z</time>
   </trkpt>
   <trkpt lat="-8.058905" lon="-34.894167">
    <ele>12.2</ele>
    <time>2020-02-03T12:16:34.000Z</time>
   </trkpt>
   <trkpt lat="-8.058951" lon="-34.894137">
    <ele>12.1</ele>
    <time>2020-02-03T12:16:35.000Z</time>
   </trkpt>
   <trkpt lat="-8.058983" lon="-34.894115">
    <ele>12</ele>
    <time>2020-02-03T12:16:36.000Z</time>
   </trkpt>
   <trkpt lat="-8.059004" lon="-34.89409">
    <ele>11.9</ele>
    <time>2020-02-03T12:16:37.000Z</time>
   </trkpt>
   <trkpt lat="-8.059025" lon="-34.894056">
    <ele>11.8</ele>
    <time>2020-02-03T12:16:38.000Z</time>
   </trkpt>
   <trkpt lat="-8.059046" lon="-34.894022">
    <ele>11.6</ele>
    <time>2020-02-03T12:16:39.000Z</time>
   </trkpt>
   <trkpt lat="-8.059068" lon="-34.893993">
    <ele>11.5</ele>
    <time>2020-02-03T12:16:40.000Z</time>
   </trkpt>
   <trkpt lat="-8.059091" lon="-34.893956">
    <ele>11.3</ele>
    <time>2020-02-03T12:16:41.000Z</time>
   </trkpt>
   <trkpt lat="-8.059123" lon="-34.893939">
    <ele>11</ele>
    <time>2020-02-03T12:16:42.000Z</time>
   </trkpt>
   <trkpt lat="-8.059159" lon="-34.893944">
    <ele>10.8</ele>
    <time>2020-02-03T12:16:43.000Z</time>
   </trkpt>
   <trkpt lat="-8.059203" lon="-34.893951">
    <ele>10.4</ele>
    <time>2020-02-03T12:16:44.000Z</time>
   </trkpt>
   <trkpt lat="-8.059245" lon="-34.893967">
    <ele>10</ele>
    <time>2020-02-03T12:16:45.000Z</time>
   </trkpt>
   <trkpt lat="-8.059288" lon="-34.893998">
    <ele>9.9</ele>
    <time>2020-02-03T12:16:46.000Z</time>
   </trkpt>
   <trkpt lat="-8.059332" lon="-34.894024">
    <ele>9.8</ele>
    <time>2020-02-03T12:16:47.000Z</time>
   </trkpt>
   <trkpt lat="-8.05937" lon="-34.894057">
    <ele>9.7</ele>
    <time>2020-02-03T12:16:48.000Z</time>
   </trkpt>
   <trkpt lat="-8.059417" lon="-34.894091">
    <ele>9.2</ele>
    <time>2020-02-03T12:16:49.000Z</time>
   </trkpt>
   <trkpt lat="-8.059464" lon="-34.894132">
    <ele>9.3</ele>
    <time>2020-02-03T12:16:50.000Z</time>
   </trkpt>
   <trkpt lat="-8.059521" lon="-34.894165">
    <ele>9.3</ele>
    <time>2020-02-03T12:16:51.000Z</time>
   </trkpt>
   <trkpt lat="-8.059569" lon="-34.894202">
    <ele>9.4</ele>
    <time>2020-02-03T12:16:52.000Z</time>
   </trkpt>
   <trkpt lat="-8.05961" lon="-34.894242">
    <ele>9.4</ele>
    <time>2020-02-03T12:16:53.000Z</time>
   </trkpt>
   <trkpt lat="-8.059646" lon="-34.894288">
    <ele>9.5</ele>
    <time>2020-02-03T12:16:54.000Z</time>
   </trkpt>
   <trkpt lat="-8.059695" lon="-34.89434">
    <ele>9.6</ele>
    <time>2020-02-03T12:16:55.000Z</time>
   </trkpt>
   <trkpt lat="-8.05974" lon="-34.89438">
    <ele>9.6</ele>
    <time>2020-02-03T12:16:56.000Z</time>
   </trkpt>
   <trkpt lat="-8.059796" lon="-34.894408">
    <ele>9.7</ele>
    <time>2020-02-03T12:16:57.000Z</time>
   </trkpt>
   <trkpt lat="-8.059847" lon="-34.894441">
    <ele>9.8</ele>
    <time>2020-02-03T12:16:58.000Z</time>
   </trkpt>
   <trkpt lat="-8.059893" lon="-34.894476">
    <ele>9.6</ele>
    <time>2020-02-03T12:16:59.000Z</time>
   </trkpt>
   <trkpt lat="-8.059942" lon="-34.894509">
    <ele>9.3</ele>
    <time>2020-02-03T12:17:00.000Z</time>
   </trkpt>
   <trkpt lat="-8.059993" lon="-34.894538">
    <ele>9.1</ele>
    <time>2020-02-03T12:17:01.000Z</time>
   </trkpt>
   <trkpt lat="-8.060049" lon="-34.894573">
    <ele>8.8</ele>
    <time>2020-02-03T12:17:02.000Z</time>
   </trkpt>
   <trkpt lat="-8.060107" lon="-34.89461">
    <ele>8.5</ele>
    <time>2020-02-03T12:17:03.000Z</time>
   </trkpt>
   <trkpt lat="-8.060157" lon="-34.894635">
    <ele>8.2</ele>
    <time>2020-02-03T12:17:04.000Z</time>
   </trkpt>
   <trkpt lat="-8.060198" lon="-34.894653">
    <ele>8</ele>
    <time>2020-02-03T12:17:05.000Z</time>
   </trkpt>
   <trkpt lat="-8.060223" lon="-34.894669">
    <ele>7.9</ele>
    <time>2020-02-03T12:17:06.000Z</time>
   </trkpt>
   <trkpt lat="-8.060253" lon="-34.894682">
    <ele>7.8</ele>
    <time>2020-02-03T12:17:08.000Z</time>
   </trkpt>
   <trkpt lat="-8.060279" lon="-34.894694">
    <ele>7.7</ele>
    <time>2020-02-03T12:17:09.000Z</time>
   </trkpt>
   <trkpt lat="-8.060319" lon="-34.894714">
    <ele>7.5</ele>
    <time>2020-02-03T12:17:10.000Z</time>
   </trkpt>
   <trkpt lat="-8.060361" lon="-34.894733">
    <ele>7.3</ele>
    <time>2020-02-03T12:17:11.000Z</time>
   </trkpt>
   <trkpt lat="-8.060395" lon="-34.894749">
    <ele>7.2</ele>
    <time>2020-02-03T12:17:12.000Z</time>
   </trkpt>
   <trkpt lat="-8.060446" lon="-34.894746">
    <ele>6.9</ele>
    <time>2020-02-03T12:17:13.000Z</time>
   </trkpt>
   <trkpt lat="-8.060505" lon="-34.89476">
    <ele>6.7</ele>
    <time>2020-02-03T12:17:14.000Z</time>
   </trkpt>
   <trkpt lat="-8.060574" lon="-34.894768">
    <ele>6.3</ele>
    <time>2020-02-03T12:17:15.000Z</time>
   </trkpt>
   <trkpt lat="-8.060637" lon="-34.894779">
    <ele>6.2</ele>
    <time>2020-02-03T12:17:16.000Z</time>
   </trkpt>
   <trkpt lat="-8.060705" lon="-34.894794">
    <ele>6.4</ele>
    <time>2020-02-03T12:17:17.000Z</time>
   </trkpt>
   <trkpt lat="-8.060768" lon="-34.894807">
    <ele>6.6</ele>
    <time>2020-02-03T12:17:18.000Z</time>
   </trkpt>
   <trkpt lat="-8.06083" lon="-34.894819">
    <ele>6.8</ele>
    <time>2020-02-03T12:17:19.000Z</time>
   </trkpt>
   <trkpt lat="-8.060882" lon="-34.894864">
    <ele>7</ele>
    <time>2020-02-03T12:17:20.000Z</time>
   </trkpt>
   <trkpt lat="-8.060943" lon="-34.894883">
    <ele>7.2</ele>
    <time>2020-02-03T12:17:21.000Z</time>
   </trkpt>
   <trkpt lat="-8.06101" lon="-34.894875">
    <ele>7.8</ele>
    <time>2020-02-03T12:17:22.000Z</time>
   </trkpt>
   <trkpt lat="-8.061081" lon="-34.894887">
    <ele>8</ele>
    <time>2020-02-03T12:17:23.000Z</time>
   </trkpt>
   <trkpt lat="-8.061135" lon="-34.894904">
    <ele>8</ele>
    <time>2020-02-03T12:17:24.000Z</time>
   </trkpt>
   <trkpt lat="-8.061204" lon="-34.894915">
    <ele>8</ele>
    <time>2020-02-03T12:17:25.000Z</time>
   </trkpt>
   <trkpt lat="-8.061262" lon="-34.894922">
    <ele>7.8</ele>
    <time>2020-02-03T12:17:26.000Z</time>
   </trkpt>
   <trkpt lat="-8.061307" lon="-34.894943">
    <ele>7.7</ele>
    <time>2020-02-03T12:17:27.000Z</time>
   </trkpt>
   <trkpt lat="-8.061363" lon="-34.894944">
    <ele>7.4</ele>
    <time>2020-02-03T12:17:28.000Z</time>
   </trkpt>
   <trkpt lat="-8.061421" lon="-34.894945">
    <ele>7.1</ele>
    <time>2020-02-03T12:17:29.000Z</time>
   </trkpt>
   <trkpt lat="-8.06149" lon="-34.894958">
    <ele>6.6</ele>
    <time>2020-02-03T12:17:30.000Z</time>
   </trkpt>
   <trkpt lat="-8.061546" lon="-34.894969">
    <ele>6.4</ele>
    <time>2020-02-03T12:17:31.000Z</time>
   </trkpt>
   <trkpt lat="-8.061593" lon="-34.894987">
    <ele>6.4</ele>
    <time>2020-02-03T12:17:32.000Z</time>
   </trkpt>
   <trkpt lat="-8.061634" lon="-34.895018">
    <ele>6.7</ele>
    <time>2020-02-03T12:17:33.000Z</time>
   </trkpt>
   <trkpt lat="-8.061664" lon="-34.895013">
    <ele>6.9</ele>
    <time>2020-02-03T12:17:34.000Z</time>
   </trkpt>
   <trkpt lat="-8.061716" lon="-34.895012">
    <ele>7</ele>
    <time>2020-02-03T12:17:36.000Z</time>
   </trkpt>
   <trkpt lat="-8.06174" lon="-34.895033">
    <ele>7.1</ele>
    <time>2020-02-03T12:17:38.000Z</time>
   </trkpt>
   <trkpt lat="-8.061764" lon="-34.895053">
    <ele>7.1</ele>
    <time>2020-02-03T12:17:39.000Z</time>
   </trkpt>
   <trkpt lat="-8.06182" lon="-34.895046">
    <ele>7.1</ele>
    <time>2020-02-03T12:17:41.000Z</time>
   </trkpt>
   <trkpt lat="-8.061857" lon="-34.895044">
    <ele>7.1</ele>
    <time>2020-02-03T12:17:42.000Z</time>
   </trkpt>
   <trkpt lat="-8.061893" lon="-34.895049">
    <ele>7.1</ele>
    <time>2020-02-03T12:17:43.000Z</time>
   </trkpt>
   <trkpt lat="-8.061932" lon="-34.895047">
    <ele>7.1</ele>
    <time>2020-02-03T12:17:44.000Z</time>
   </trkpt>
   <trkpt lat="-8.061984" lon="-34.895074">
    <ele>7.1</ele>
    <time>2020-02-03T12:17:45.000Z</time>
   </trkpt>
   <trkpt lat="-8.062035" lon="-34.895075">
    <ele>7.1</ele>
    <time>2020-02-03T12:17:46.000Z</time>
   </trkpt>
   <trkpt lat="-8.062087" lon="-34.895084">
    <ele>7.1</ele>
    <time>2020-02-03T12:17:47.000Z</time>
   </trkpt>
   <trkpt lat="-8.062139" lon="-34.895078">
    <ele>7.1</ele>
    <time>2020-02-03T12:17:48.000Z</time>
   </trkpt>
   <trkpt lat="-8.062181" lon="-34.895072">
    <ele>7.1</ele>
    <time>2020-02-03T12:17:49.000Z</time>
   </trkpt>
   <trkpt lat="-8.062225" lon="-34.895072">
    <ele>7.1</ele>
    <time>2020-02-03T12:17:50.000Z</time>
   </trkpt>
   <trkpt lat="-8.062275" lon="-34.895098">
    <ele>7.1</ele>
    <time>2020-02-03T12:17:51.000Z</time>
   </trkpt>
   <trkpt lat="-8.062324" lon="-34.895119">
    <ele>7</ele>
    <time>2020-02-03T12:17:52.000Z</time>
   </trkpt>
   <trkpt lat="-8.062372" lon="-34.895124">
    <ele>6.9</ele>
    <time>2020-02-03T12:17:53.000Z</time>
   </trkpt>
   <trkpt lat="-8.062415" lon="-34.895131">
    <ele>6.8</ele>
    <time>2020-02-03T12:17:54.000Z</time>
   </trkpt>
   <trkpt lat="-8.062473" lon="-34.895147">
    <ele>6.7</ele>
    <time>2020-02-03T12:17:55.000Z</time>
   </trkpt>
   <trkpt lat="-8.062522" lon="-34.895181">
    <ele>6.6</ele>
    <time>2020-02-03T12:17:56.000Z</time>
   </trkpt>
   <trkpt lat="-8.062556" lon="-34.895225">
    <ele>6.5</ele>
    <time>2020-02-03T12:17:57.000Z</time>
   </trkpt>
   <trkpt lat="-8.062594" lon="-34.895281">
    <ele>6.5</ele>
    <time>2020-02-03T12:17:58.000Z</time>
   </trkpt>
   <trkpt lat="-8.062609" lon="-34.895321">
    <ele>6.5</ele>
    <time>2020-02-03T12:17:59.000Z</time>
   </trkpt>
   <trkpt lat="-8.062609" lon="-34.895361">
    <ele>6.6</ele>
    <time>2020-02-03T12:18:00.000Z</time>
   </trkpt>
   <trkpt lat="-8.062611" lon="-34.895389">
    <ele>6.6</ele>
    <time>2020-02-03T12:18:01.000Z</time>
   </trkpt>
   <trkpt lat="-8.062627" lon="-34.895418">
    <ele>6.7</ele>
    <time>2020-02-03T12:18:03.000Z</time>
   </trkpt>
   <trkpt lat="-8.06266" lon="-34.895455">
    <ele>6.7</ele>
    <time>2020-02-03T12:18:04.000Z</time>
   </trkpt>
   <trkpt lat="-8.062674" lon="-34.895496">
    <ele>6.8</ele>
    <time>2020-02-03T12:18:05.000Z</time>
   </trkpt>
   <trkpt lat="-8.062686" lon="-34.895526">
    <ele>6.8</ele>
    <time>2020-02-03T12:18:06.000Z</time>
   </trkpt>
   <trkpt lat="-8.062694" lon="-34.895552">
    <ele>7</ele>
    <time>2020-02-03T12:18:07.000Z</time>
   </trkpt>
   <trkpt lat="-8.062705" lon="-34.895604">
    <ele>7.4</ele>
    <time>2020-02-03T12:18:09.000Z</time>
   </trkpt>
   <trkpt lat="-8.062734" lon="-34.895635">
    <ele>7.7</ele>
    <time>2020-02-03T12:18:10.000Z</time>
   </trkpt>
   <trkpt lat="-8.062743" lon="-34.895664">
    <ele>8</ele>
    <time>2020-02-03T12:18:11.000Z</time>
   </trkpt>
   <trkpt lat="-8.062753" lon="-34.895694">
    <ele>8.2</ele>
    <time>2020-02-03T12:18:12.000Z</time>
   </trkpt>
   <trkpt lat="-8.062772" lon="-34.89574">
    <ele>8.4</ele>
    <time>2020-02-03T12:18:14.000Z</time>
   </trkpt>
   <trkpt lat="-8.062745" lon="-34.895777">
    <ele>8.5</ele>
    <time>2020-02-03T12:18:16.000Z</time>
   </trkpt>
   <trkpt lat="-8.062719" lon="-34.895835">
    <ele>8.5</ele>
    <time>2020-02-03T12:18:18.000Z</time>
   </trkpt>
   <trkpt lat="-8.06272" lon="-34.895874">
    <ele>8.5</ele>
    <time>2020-02-03T12:18:19.000Z</time>
   </trkpt>
   <trkpt lat="-8.062714" lon="-34.895925">
    <ele>8.4</ele>
    <time>2020-02-03T12:18:21.000Z</time>
   </trkpt>
   <trkpt lat="-8.062724" lon="-34.895953">
    <ele>8.2</ele>
    <time>2020-02-03T12:18:22.000Z</time>
   </trkpt>
   <trkpt lat="-8.062731" lon="-34.895997">
    <ele>8</ele>
    <time>2020-02-03T12:18:24.000Z</time>
   </trkpt>
   <trkpt lat="-8.062737" lon="-34.896033">
    <ele>7.8</ele>
    <time>2020-02-03T12:18:25.000Z</time>
   </trkpt>
   <trkpt lat="-8.062738" lon="-34.896062">
    <ele>7.7</ele>
    <time>2020-02-03T12:18:26.000Z</time>
   </trkpt>
   <trkpt lat="-8.062733" lon="-34.896099">
    <ele>7.5</ele>
    <time>2020-02-03T12:18:28.000Z</time>
   </trkpt>
   <trkpt lat="-8.062696" lon="-34.896113">
    <ele>7.4</ele>
    <time>2020-02-03T12:18:31.000Z</time>
   </trkpt>
   <trkpt lat="-8.062683" lon="-34.896148">
    <ele>7.4</ele>
    <time>2020-02-03T12:18:32.000Z</time>
   </trkpt>
   <trkpt lat="-8.062663" lon="-34.896194">
    <ele>7.3</ele>
    <time>2020-02-03T12:18:33.000Z</time>
   </trkpt>
   <trkpt lat="-8.062653" lon="-34.896236">
    <ele>7.3</ele>
    <time>2020-02-03T12:18:34.000Z</time>
   </trkpt>
   <trkpt lat="-8.062673" lon="-34.896277">
    <ele>7.2</ele>
    <time>2020-02-03T12:18:35.000Z</time>
   </trkpt>
   <trkpt lat="-8.062674" lon="-34.896317">
    <ele>7</ele>
    <time>2020-02-03T12:18:36.000Z</time>
   </trkpt>
   <trkpt lat="-8.062674" lon="-34.896354">
    <ele>6.4</ele>
    <time>2020-02-03T12:18:37.000Z</time>
   </trkpt>
   <trkpt lat="-8.062659" lon="-34.896399">
    <ele>6.4</ele>
    <time>2020-02-03T12:18:38.000Z</time>
   </trkpt>
   <trkpt lat="-8.06266" lon="-34.896425">
    <ele>6.4</ele>
    <time>2020-02-03T12:18:41.000Z</time>
   </trkpt>
   <trkpt lat="-8.062685" lon="-34.896389">
    <ele>6.5</ele>
    <time>2020-02-03T12:18:43.000Z</time>
   </trkpt>
   <trkpt lat="-8.062731" lon="-34.896364">
    <ele>6.5</ele>
    <time>2020-02-03T12:18:46.000Z</time>
   </trkpt>
   <trkpt lat="-8.062776" lon="-34.896371">
    <ele>6.6</ele>
    <time>2020-02-03T12:18:47.000Z</time>
   </trkpt>
   <trkpt lat="-8.062823" lon="-34.896361">
    <ele>6.6</ele>
    <time>2020-02-03T12:18:48.000Z</time>
   </trkpt>
   <trkpt lat="-8.062872" lon="-34.89635">
    <ele>6.6</ele>
    <time>2020-02-03T12:18:49.000Z</time>
   </trkpt>
   <trkpt lat="-8.062927" lon="-34.896334">
    <ele>6.7</ele>
    <time>2020-02-03T12:18:50.000Z</time>
   </trkpt>
   <trkpt lat="-8.062983" lon="-34.896321">
    <ele>6.7</ele>
    <time>2020-02-03T12:18:51.000Z</time>
   </trkpt>
   <trkpt lat="-8.063029" lon="-34.896293">
    <ele>6.8</ele>
    <time>2020-02-03T12:18:52.000Z</time>
   </trkpt>
   <trkpt lat="-8.063116" lon="-34.896394">
    <ele>6.9</ele>
    <time>2020-02-03T12:18:53.000Z</time>
   </trkpt>
   <trkpt lat="-8.063184" lon="-34.896371">
    <ele>6.9</ele>
    <time>2020-02-03T12:18:54.000Z</time>
   </trkpt>
   <trkpt lat="-8.063229" lon="-34.896341">
    <ele>7</ele>
    <time>2020-02-03T12:18:55.000Z</time>
   </trkpt>
   <trkpt lat="-8.063291" lon="-34.896304">
    <ele>7</ele>
    <time>2020-02-03T12:18:56.000Z</time>
   </trkpt>
   <trkpt lat="-8.063361" lon="-34.896248">
    <ele>7.1</ele>
    <time>2020-02-03T12:18:57.000Z</time>
   </trkpt>
   <trkpt lat="-8.063434" lon="-34.896215">
    <ele>7.1</ele>
    <time>2020-02-03T12:18:58.000Z</time>
   </trkpt>
   <trkpt lat="-8.063479" lon="-34.896191">
    <ele>7.2</ele>
    <time>2020-02-03T12:18:59.000Z</time>
   </trkpt>
   <trkpt lat="-8.063523" lon="-34.896176">
    <ele>7.2</ele>
    <time>2020-02-03T12:19:00.000Z</time>
   </trkpt>
   <trkpt lat="-8.063571" lon="-34.896164">
    <ele>7.3</ele>
    <time>2020-02-03T12:19:01.000Z</time>
   </trkpt>
   <trkpt lat="-8.063624" lon="-34.896151">
    <ele>7.3</ele>
    <time>2020-02-03T12:19:02.000Z</time>
   </trkpt>
   <trkpt lat="-8.063709" lon="-34.896148">
    <ele>7.1</ele>
    <time>2020-02-03T12:19:03.000Z</time>
   </trkpt>
   <trkpt lat="-8.063793" lon="-34.896134">
    <ele>7</ele>
    <time>2020-02-03T12:19:04.000Z</time>
   </trkpt>
   <trkpt lat="-8.063875" lon="-34.896112">
    <ele>6.9</ele>
    <time>2020-02-03T12:19:05.000Z</time>
   </trkpt>
   <trkpt lat="-8.063956" lon="-34.896112">
    <ele>6.7</ele>
    <time>2020-02-03T12:19:06.000Z</time>
   </trkpt>
   <trkpt lat="-8.064028" lon="-34.896081">
    <ele>6.6</ele>
    <time>2020-02-03T12:19:07.000Z</time>
   </trkpt>
   <trkpt lat="-8.064089" lon="-34.896055">
    <ele>6.3</ele>
    <time>2020-02-03T12:19:08.000Z</time>
   </trkpt>
   <trkpt lat="-8.06417" lon="-34.896048">
    <ele>6.1</ele>
    <time>2020-02-03T12:19:09.000Z</time>
   </trkpt>
   <trkpt lat="-8.064229" lon="-34.896045">
    <ele>5.8</ele>
    <time>2020-02-03T12:19:10.000Z</time>
   </trkpt>
   <trkpt lat="-8.064273" lon="-34.896025">
    <ele>5.5</ele>
    <time>2020-02-03T12:19:11.000Z</time>
   </trkpt>
   <trkpt lat="-8.064335" lon="-34.896033">
    <ele>5.1</ele>
    <time>2020-02-03T12:19:12.000Z</time>
   </trkpt>
   <trkpt lat="-8.064362" lon="-34.896006">
    <ele>4.9</ele>
    <time>2020-02-03T12:19:13.000Z</time>
   </trkpt>
   <trkpt lat="-8.064407" lon="-34.895962">
    <ele>4.6</ele>
    <time>2020-02-03T12:19:14.000Z</time>
   </trkpt>
   <trkpt lat="-8.064436" lon="-34.895937">
    <ele>4.4</ele>
    <time>2020-02-03T12:19:15.000Z</time>
   </trkpt>
   <trkpt lat="-8.064474" lon="-34.895904">
    <ele>4.1</ele>
    <time>2020-02-03T12:19:16.000Z</time>
   </trkpt>
   <trkpt lat="-8.064501" lon="-34.895863">
    <ele>3.9</ele>
    <time>2020-02-03T12:19:17.000Z</time>
   </trkpt>
   <trkpt lat="-8.064544" lon="-34.895831">
    <ele>3.6</ele>
    <time>2020-02-03T12:19:18.000Z</time>
   </trkpt>
   <trkpt lat="-8.064569" lon="-34.895815">
    <ele>3.5</ele>
    <time>2020-02-03T12:19:19.000Z</time>
   </trkpt>
   <trkpt lat="-8.064623" lon="-34.895796">
    <ele>3.2</ele>
    <time>2020-02-03T12:19:21.000Z</time>
   </trkpt>
   <trkpt lat="-8.064664" lon="-34.895783">
    <ele>3</ele>
    <time>2020-02-03T12:19:22.000Z</time>
   </trkpt>
   <trkpt lat="-8.064709" lon="-34.895768">
    <ele>2.8</ele>
    <time>2020-02-03T12:19:23.000Z</time>
   </trkpt>
   <trkpt lat="-8.064795" lon="-34.895809">
    <ele>2.4</ele>
    <time>2020-02-03T12:19:24.000Z</time>
   </trkpt>
   <trkpt lat="-8.064839" lon="-34.895793">
    <ele>2.3</ele>
    <time>2020-02-03T12:19:25.000Z</time>
   </trkpt>
   <trkpt lat="-8.064891" lon="-34.895767">
    <ele>2</ele>
    <time>2020-02-03T12:19:26.000Z</time>
   </trkpt>
   <trkpt lat="-8.064927" lon="-34.895734">
    <ele>1.9</ele>
    <time>2020-02-03T12:19:27.000Z</time>
   </trkpt>
   <trkpt lat="-8.064933" lon="-34.895694">
    <ele>1.8</ele>
    <time>2020-02-03T12:19:28.000Z</time>
   </trkpt>
   <trkpt lat="-8.064951" lon="-34.895683">
    <ele>0.7</ele>
    <time>2020-02-03T12:19:30.000Z</time>
   </trkpt>
   <trkpt lat="-8.064954" lon="-34.895711">
    <ele>0.8</ele>
    <time>2020-02-03T12:19:31.000Z</time>
   </trkpt>
   <trkpt lat="-8.064967" lon="-34.895748">
    <ele>1</ele>
    <time>2020-02-03T12:19:32.000Z</time>
   </trkpt>
   <trkpt lat="-8.064979" lon="-34.895777">
    <ele>1.1</ele>
    <time>2020-02-03T12:19:33.000Z</time>
   </trkpt>
   <trkpt lat="-8.065003" lon="-34.895825">
    <ele>1.2</ele>
    <time>2020-02-03T12:19:34.000Z</time>
   </trkpt>
   <trkpt lat="-8.06505" lon="-34.895888">
    <ele>1.4</ele>
    <time>2020-02-03T12:19:35.000Z</time>
   </trkpt>
   <trkpt lat="-8.065067" lon="-34.895943">
    <ele>1.6</ele>
    <time>2020-02-03T12:19:36.000Z</time>
   </trkpt>
   <trkpt lat="-8.065098" lon="-34.895968">
    <ele>1.7</ele>
    <time>2020-02-03T12:19:38.000Z</time>
   </trkpt>
   <trkpt lat="-8.065063" lon="-34.895961">
    <ele>1.8</ele>
    <time>2020-02-03T12:19:39.000Z</time>
   </trkpt>
   <trkpt lat="-8.065098" lon="-34.895958">
    <ele>1.9</ele>
    <time>2020-02-03T12:19:41.000Z</time>
   </trkpt>
   <trkpt lat="-8.065121" lon="-34.89604">
    <ele>2.2</ele>
    <time>2020-02-03T12:19:46.000Z</time>
   </trkpt>
   <trkpt lat="-8.065122" lon="-34.896066">
    <ele>2.3</ele>
    <time>2020-02-03T12:19:47.000Z</time>
   </trkpt>
   <trkpt lat="-8.06512" lon="-34.896122">
    <ele>2.6</ele>
    <time>2020-02-03T12:19:49.000Z</time>
   </trkpt>
   <trkpt lat="-8.065108" lon="-34.896151">
    <ele>2.7</ele>
    <time>2020-02-03T12:19:50.000Z</time>
   </trkpt>
   <trkpt lat="-8.065102" lon="-34.896187">
    <ele>2.8</ele>
    <time>2020-02-03T12:19:51.000Z</time>
   </trkpt>
   <trkpt lat="-8.065016" lon="-34.896289">
    <ele>3.2</ele>
    <time>2020-02-03T12:20:01.000Z</time>
   </trkpt>
   <trkpt lat="-8.064998" lon="-34.896317">
    <ele>3.2</ele>
    <time>2020-02-03T12:20:03.000Z</time>
   </trkpt>
  </trkseg>
 </trk>
</gpx>
