<?xml version="1.0" encoding="UTF-8"?>
<gpx creator="StravaGPX" version="1.1" xmlns="http://www.topografix.com/GPX/1/1">
 <metadata>
  <time>2019-12-27T22:55:00Z</time>
 </metadata>
 <trk>
  <name>Evening Ride</name>
  <type>1</type>
  <trkseg>
   <trkpt lat="-8.065141" lon="-34.8969">
    <ele>5</ele>
    <time>2019-12-27T22:55:00.000Z</time>
   </trkpt>
   <trkpt lat="-8.065085" lon="-34.896914">
    <ele>5</ele>
    <time>2019-12-27T22:55:02.000Z</time>
   </trkpt>
   <trkpt lat="-8.065025" lon="-34.896891">
    <ele>5.1</ele>
    <time>2019-12-27T22:55:04.000Z</time>
   </trkpt>
   <trkpt lat="-8.064971" lon="-34.896891">
    <ele>5.1</ele>
    <time>2019-12-27T22:55:05.000Z</time>
   </trkpt>
   <trkpt lat="-8.06492" lon="-34.896912">
    <ele>5.1</ele>
    <time>2019-12-27T22:55:06.000Z</time>
   </trkpt>
   <trkpt lat="-8.064856" lon="-34.896923">
    <ele>5.2</ele>
    <time>2019-12-27T22:55:07.000Z</time>
   </trkpt>
   <trkpt lat="-8.064801" lon="-34.896923">
    <ele>5.2</ele>
    <time>2019-12-27T22:55:08.000Z</time>
   </trkpt>
   <trkpt lat="-8.064757" lon="-34.896924">
    <ele>5.2</ele>
    <time>2019-12-27T22:55:09.000Z</time>
   </trkpt>
   <trkpt lat="-8.064686" lon="-34.896919">
    <ele>5.3</ele>
    <time>2019-12-27T22:55:10.000Z</time>
   </trkpt>
   <trkpt lat="-8.064625" lon="-34.896918">
    <ele>5.3</ele>
    <time>2019-12-27T22:55:11.000Z</time>
   </trkpt>
   <trkpt lat="-8.064571" lon="-34.896913">
    <ele>5.2</ele>
    <time>2019-12-27T22:55:12.000Z</time>
   </trkpt>
   <trkpt lat="-8.064509" lon="-34.896918">
    <ele>5</ele>
    <time>2019-12-27T22:55:13.000Z</time>
   </trkpt>
   <trkpt lat="-8.064454" lon="-34.896915">
    <ele>5.1</ele>
    <time>2019-12-27T22:55:14.000Z</time>
   </trkpt>
   <trkpt lat="-8.064397" lon="-34.896921">
    <ele>5.2</ele>
    <time>2019-12-27T22:55:15.000Z</time>
   </trkpt>
   <trkpt lat="-8.064349" lon="-34.896928">
    <ele>5.3</ele>
    <time>2019-12-27T22:55:16.000Z</time>
   </trkpt>
   <trkpt lat="-8.064294" lon="-34.896939">
    <ele>5.3</ele>
    <time>2019-12-27T22:55:17.000Z</time>
   </trkpt>
   <trkpt lat="-8.064238" lon="-34.896949">
    <ele>5.4</ele>
    <time>2019-12-27T22:55:18.000Z</time>
   </trkpt>
   <trkpt lat="-8.064176" lon="-34.896958">
    <ele>5.5</ele>
    <time>2019-12-27T22:55:19.000Z</time>
   </trkpt>
   <trkpt lat="-8.064121" lon="-34.896999">
    <ele>5.5</ele>
    <time>2019-12-27T22:55:20.000Z</time>
   </trkpt>
   <trkpt lat="-8.064079" lon="-34.897">
    <ele>5.5</ele>
    <time>2019-12-27T22:55:21.000Z</time>
   </trkpt>
   <trkpt lat="-8.064018" lon="-34.897006">
    <ele>5.6</ele>
    <time>2019-12-27T22:55:22.000Z</time>
   </trkpt>
   <trkpt lat="-8.063952" lon="-34.897006">
    <ele>5.6</ele>
    <time>2019-12-27T22:55:23.000Z</time>
   </trkpt>
   <trkpt lat="-8.063884" lon="-34.89701">
    <ele>5.6</ele>
    <time>2019-12-27T22:55:24.000Z</time>
   </trkpt>
   <trkpt lat="-8.06382" lon="-34.897014">
    <ele>5.6</ele>
    <time>2019-12-27T22:55:25.000Z</time>
   </trkpt>
   <trkpt lat="-8.063759" lon="-34.897024">
    <ele>5.6</ele>
    <time>2019-12-27T22:55:26.000Z</time>
   </trkpt>
   <trkpt lat="-8.063707" lon="-34.897036">
    <ele>5.6</ele>
    <time>2019-12-27T22:55:27.000Z</time>
   </trkpt>
   <trkpt lat="-8.063653" lon="-34.897049">
    <ele>5.5</ele>
    <time>2019-12-27T22:55:28.000Z</time>
   </trkpt>
   <trkpt lat="-8.063598" lon="-34.897064">
    <ele>5.4</ele>
    <time>2019-12-27T22:55:29.000Z</time>
   </trkpt>
   <trkpt lat="-8.06354" lon="-34.897076">
    <ele>5.3</ele>
    <time>2019-12-27T22:55:30.000Z</time>
   </trkpt>
   <trkpt lat="-8.06348" lon="-34.897085">
    <ele>5.3</ele>
    <time>2019-12-27T22:55:31.000Z</time>
   </trkpt>
   <trkpt lat="-8.063426" lon="-34.897092">
    <ele>5.2</ele>
    <time>2019-12-27T22:55:32.000Z</time>
   </trkpt>
   <trkpt lat="-8.063363" lon="-34.897104">
    <ele>5.1</ele>
    <time>2019-12-27T22:55:33.000Z</time>
   </trkpt>
   <trkpt lat="-8.063316" lon="-34.897113">
    <ele>5</ele>
    <time>2019-12-27T22:55:34.000Z</time>
   </trkpt>
   <trkpt lat="-8.063264" lon="-34.897119">
    <ele>5</ele>
    <time>2019-12-27T22:55:35.000Z</time>
   </trkpt>
   <trkpt lat="-8.063211" lon="-34.897121">
    <ele>4.8</ele>
    <time>2019-12-27T22:55:36.000Z</time>
   </trkpt>
   <trkpt lat="-8.063157" lon="-34.897128">
    <ele>4.7</ele>
    <time>2019-12-27T22:55:37.000Z</time>
   </trkpt>
   <trkpt lat="-8.063104" lon="-34.897147">
    <ele>4.6</ele>
    <time>2019-12-27T22:55:38.000Z</time>
   </trkpt>
   <trkpt lat="-8.063057" lon="-34.897151">
    <ele>4.4</ele>
    <time>2019-12-27T22:55:39.000Z</time>
   </trkpt>
   <trkpt lat="-8.063015" lon="-34.897152">
    <ele>4.3</ele>
    <time>2019-12-27T22:55:40.000Z</time>
   </trkpt>
   <trkpt lat="-8.062968" lon="-34.897152">
    <ele>4.1</ele>
    <time>2019-12-27T22:55:41.000Z</time>
   </trkpt>
   <trkpt lat="-8.062914" lon="-34.897153">
    <ele>3.9</ele>
    <time>2019-12-27T22:55:42.000Z</time>
   </trkpt>
   <trkpt lat="-8.06286" lon="-34.897158">
    <ele>3.7</ele>
    <time>2019-12-27T22:55:43.000Z</time>
   </trkpt>
   <trkpt lat="-8.062801" lon="-34.897164">
    <ele>3.6</ele>
    <time>2019-12-27T22:55:44.000Z</time>
   </trkpt>
   <trkpt lat="-8.062732" lon="-34.897167">
    <ele>3.4</ele>
    <time>2019-12-27T22:55:45.000Z</time>
   </trkpt>
   <trkpt lat="-8.062684" lon="-34.897171">
    <ele>3.3</ele>
    <time>2019-12-27T22:55:46.000Z</time>
   </trkpt>
   <trkpt lat="-8.062635" lon="-34.897173">
    <ele>3.2</ele>
    <time>2019-12-27T22:55:47.000Z</time>
   </trkpt>
   <trkpt lat="-8.06258" lon="-34.897177">
    <ele>3.2</ele>
    <time>2019-12-27T22:55:48.000Z</time>
   </trkpt>
   <trkpt lat="-8.062524" lon="-34.897181">
    <ele>3.1</ele>
    <time>2019-12-27T22:55:49.000Z</time>
   </trkpt>
   <trkpt lat="-8.062466" lon="-34.89718">
    <ele>3</ele>
    <time>2019-12-27T22:55:50.000Z</time>
   </trkpt>
   <trkpt lat="-8.062391" lon="-34.897195">
    <ele>3.2</ele>
    <time>2019-12-27T22:55:51.000Z</time>
   </trkpt>
   <trkpt lat="-8.062321" lon="-34.897205">
    <ele>3.5</ele>
    <time>2019-12-27T22:55:52.000Z</time>
   </trkpt>
   <trkpt lat="-8.062257" lon="-34.897215">
    <ele>3.8</ele>
    <time>2019-12-27T22:55:53.000Z</time>
   </trkpt>
   <trkpt lat="-8.062185" lon="-34.897226">
    <ele>4.1</ele>
    <time>2019-12-27T22:55:54.000Z</time>
   </trkpt>
   <trkpt lat="-8.062116" lon="-34.897233">
    <ele>4.3</ele>
    <time>2019-12-27T22:55:55.000Z</time>
   </trkpt>
   <trkpt lat="-8.062049" lon="-34.897245">
    <ele>4.7</ele>
    <time>2019-12-27T22:55:56.000Z</time>
   </trkpt>
   <trkpt lat="-8.061983" lon="-34.897253">
    <ele>5</ele>
    <time>2019-12-27T22:55:57.000Z</time>
   </trkpt>
   <trkpt lat="-8.061911" lon="-34.897263">
    <ele>5.3</ele>
    <time>2019-12-27T22:55:58.000Z</time>
   </trkpt>
   <trkpt lat="-8.061837" lon="-34.897273">
    <ele>5.6</ele>
    <time>2019-12-27T22:55:59.000Z</time>
   </trkpt>
   <trkpt lat="-8.061763" lon="-34.897282">
    <ele>5.9</ele>
    <time>2019-12-27T22:56:00.000Z</time>
   </trkpt>
   <trkpt lat="-8.061687" lon="-34.897289">
    <ele>6.2</ele>
    <time>2019-12-27T22:56:01.000Z</time>
   </trkpt>
   <trkpt lat="-8.061602" lon="-34.897288">
    <ele>6.4</ele>
    <time>2019-12-27T22:56:02.000Z</time>
   </trkpt>
   <trkpt lat="-8.061538" lon="-34.89728">
    <ele>6.6</ele>
    <time>2019-12-27T22:56:03.000Z</time>
   </trkpt>
   <trkpt lat="-8.061476" lon="-34.897276">
    <ele>6.8</ele>
    <time>2019-12-27T22:56:04.000Z</time>
   </trkpt>
   <trkpt lat="-8.061401" lon="-34.897288">
    <ele>7</ele>
    <time>2019-12-27T22:56:05.000Z</time>
   </trkpt>
   <trkpt lat="-8.061332" lon="-34.897297">
    <ele>7.2</ele>
    <time>2019-12-27T22:56:06.000Z</time>
   </trkpt>
   <trkpt lat="-8.061258" lon="-34.897304">
    <ele>7.5</ele>
    <time>2019-12-27T22:56:07.000Z</time>
   </trkpt>
   <trkpt lat="-8.06119" lon="-34.897313">
    <ele>7.7</ele>
    <time>2019-12-27T22:56:08.000Z</time>
   </trkpt>
   <trkpt lat="-8.061113" lon="-34.897316">
    <ele>7.9</ele>
    <time>2019-12-27T22:56:09.000Z</time>
   </trkpt>
   <trkpt lat="-8.061039" lon="-34.897321">
    <ele>8.1</ele>
    <time>2019-12-27T22:56:10.000Z</time>
   </trkpt>
   <trkpt lat="-8.060953" lon="-34.897335">
    <ele>8.4</ele>
    <time>2019-12-27T22:56:11.000Z</time>
   </trkpt>
   <trkpt lat="-8.060874" lon="-34.897343">
    <ele>8.7</ele>
    <time>2019-12-27T22:56:12.000Z</time>
   </trkpt>
   <trkpt lat="-8.060803" lon="-34.897353">
    <ele>8.9</ele>
    <time>2019-12-27T22:56:13.000Z</time>
   </trkpt>
   <trkpt lat="-8.060727" lon="-34.897367">
    <ele>9.2</ele>
    <time>2019-12-27T22:56:14.000Z</time>
   </trkpt>
   <trkpt lat="-8.060644" lon="-34.897374">
    <ele>9.5</ele>
    <time>2019-12-27T22:56:15.000Z</time>
   </trkpt>
   <trkpt lat="-8.060555" lon="-34.897384">
    <ele>10.1</ele>
    <time>2019-12-27T22:56:16.000Z</time>
   </trkpt>
   <trkpt lat="-8.06047" lon="-34.897395">
    <ele>10.2</ele>
    <time>2019-12-27T22:56:17.000Z</time>
   </trkpt>
   <trkpt lat="-8.060384" lon="-34.897409">
    <ele>10.4</ele>
    <time>2019-12-27T22:56:18.000Z</time>
   </trkpt>
   <trkpt lat="-8.060298" lon="-34.897421">
    <ele>10.5</ele>
    <time>2019-12-27T22:56:19.000Z</time>
   </trkpt>
   <trkpt lat="-8.060209" lon="-34.897438">
    <ele>10.7</ele>
    <time>2019-12-27T22:56:20.000Z</time>
   </trkpt>
   <trkpt lat="-8.060125" lon="-34.897446">
    <ele>10.8</ele>
    <time>2019-12-27T22:56:21.000Z</time>
   </trkpt>
   <trkpt lat="-8.060039" lon="-34.89745">
    <ele>10.7</ele>
    <time>2019-12-27T22:56:22.000Z</time>
   </trkpt>
   <trkpt lat="-8.059951" lon="-34.897449">
    <ele>10.6</ele>
    <time>2019-12-27T22:56:23.000Z</time>
   </trkpt>
   <trkpt lat="-8.059864" lon="-34.89745">
    <ele>10.5</ele>
    <time>2019-12-27T22:56:24.000Z</time>
   </trkpt>
   <trkpt lat="-8.059799" lon="-34.89745">
    <ele>10.4</ele>
    <time>2019-12-27T22:56:25.000Z</time>
   </trkpt>
   <trkpt lat="-8.059717" lon="-34.897461">
    <ele>10.3</ele>
    <time>2019-12-27T22:56:26.000Z</time>
   </trkpt>
   <trkpt lat="-8.059629" lon="-34.897472">
    <ele>10.2</ele>
    <time>2019-12-27T22:56:27.000Z</time>
   </trkpt>
   <trkpt lat="-8.059543" lon="-34.897482">
    <ele>10.1</ele>
    <time>2019-12-27T22:56:28.000Z</time>
   </trkpt>
   <trkpt lat="-8.059457" lon="-34.89749">
    <ele>10</ele>
    <time>2019-12-27T22:56:29.000Z</time>
   </trkpt>
   <trkpt lat="-8.059386" lon="-34.897498">
    <ele>9.9</ele>
    <time>2019-12-27T22:56:30.000Z</time>
   </trkpt>
   <trkpt lat="-8.059307" lon="-34.8975">
    <ele>9.8</ele>
    <time>2019-12-27T22:56:31.000Z</time>
   </trkpt>
   <trkpt lat="-8.05923" lon="-34.897514">
    <ele>9.7</ele>
    <time>2019-12-27T22:56:32.000Z</time>
   </trkpt>
   <trkpt lat="-8.059157" lon="-34.897521">
    <ele>9.6</ele>
    <time>2019-12-27T22:56:33.000Z</time>
   </trkpt>
   <trkpt lat="-8.059077" lon="-34.897529">
    <ele>9.5</ele>
    <time>2019-12-27T22:56:34.000Z</time>
   </trkpt>
   <trkpt lat="-8.058989" lon="-34.897542">
    <ele>9.4</ele>
    <time>2019-12-27T22:56:35.000Z</time>
   </trkpt>
   <trkpt lat="-8.05891" lon="-34.897553">
    <ele>9.3</ele>
    <time>2019-12-27T22:56:36.000Z</time>
   </trkpt>
   <trkpt lat="-8.058838" lon="-34.897559">
    <ele>9.6</ele>
    <time>2019-12-27T22:56:37.000Z</time>
   </trkpt>
   <trkpt lat="-8.058764" lon="-34.897576">
    <ele>10.4</ele>
    <time>2019-12-27T22:56:38.000Z</time>
   </trkpt>
   <trkpt lat="-8.058683" lon="-34.897589">
    <ele>9.9</ele>
    <time>2019-12-27T22:56:39.000Z</time>
   </trkpt>
   <trkpt lat="-8.058613" lon="-34.89759">
    <ele>9.5</ele>
    <time>2019-12-27T22:56:40.000Z</time>
   </trkpt>
   <trkpt lat="-8.05854" lon="-34.89759">
    <ele>9.1</ele>
    <time>2019-12-27T22:56:41.000Z</time>
   </trkpt>
   <trkpt lat="-8.058472" lon="-34.897591">
    <ele>8.8</ele>
    <time>2019-12-27T22:56:42.000Z</time>
   </trkpt>
   <trkpt lat="-8.058398" lon="-34.89759">
    <ele>8.4</ele>
    <time>2019-12-27T22:56:43.000Z</time>
   </trkpt>
   <trkpt lat="-8.058332" lon="-34.897595">
    <ele>8.2</ele>
    <time>2019-12-27T22:56:44.000Z</time>
   </trkpt>
   <trkpt lat="-8.058264" lon="-34.897603">
    <ele>8</ele>
    <time>2019-12-27T22:56:45.000Z</time>
   </trkpt>
   <trkpt lat="-8.05819" lon="-34.897609">
    <ele>7.9</ele>
    <time>2019-12-27T22:56:46.000Z</time>
   </trkpt>
   <trkpt lat="-8.058109" lon="-34.897614">
    <ele>7.7</ele>
    <time>2019-12-27T22:56:47.000Z</time>
   </trkpt>
   <trkpt lat="-8.058036" lon="-34.897615">
    <ele>7.6</ele>
    <time>2019-12-27T22:56:48.000Z</time>
   </trkpt>
   <trkpt lat="-8.057966" lon="-34.897615">
    <ele>7.6</ele>
    <time>2019-12-27T22:56:49.000Z</time>
   </trkpt>
   <trkpt lat="-8.0579" lon="-34.897615">
    <ele>7.5</ele>
    <time>2019-12-27T22:56:50.000Z</time>
   </trkpt>
   <trkpt lat="-8.057827" lon="-34.897607">
    <ele>7.4</ele>
    <time>2019-12-27T22:56:51.000Z</time>
   </trkpt>
   <trkpt lat="-8.057746" lon="-34.897599">
    <ele>7.4</ele>
    <time>2019-12-27T22:56:52.000Z</time>
   </trkpt>
   <trkpt lat="-8.057676" lon="-34.897593">
    <ele>7.3</ele>
    <time>2019-12-27T22:56:53.000Z</time>
   </trkpt>
   <trkpt lat="-8.057608" lon="-34.897589">
    <ele>7.2</ele>
    <time>2019-12-27T22:56:54.000Z</time>
   </trkpt>
   <trkpt lat="-8.057546" lon="-34.897585">
    <ele>7.2</ele>
    <time>2019-12-27T22:56:55.000Z</time>
   </trkpt>
   <trkpt lat="-8.057488" lon="-34.897583">
    <ele>7.1</ele>
    <time>2019-12-27T22:56:56.000Z</time>
   </trkpt>
   <trkpt lat="-8.057421" lon="-34.89758">
    <ele>7</ele>
    <time>2019-12-27T22:56:57.000Z</time>
   </trkpt>
   <trkpt lat="-8.057346" lon="-34.89758">
    <ele>7.6</ele>
    <time>2019-12-27T22:56:58.000Z</time>
   </trkpt>
   <trkpt lat="-8.057277" lon="-34.897581">
    <ele>8</ele>
    <time>2019-12-27T22:56:59.000Z</time>
   </trkpt>
   <trkpt lat="-8.057198" lon="-34.897589">
    <ele>8.4</ele>
    <time>2019-12-27T22:57:00.000Z</time>
   </trkpt>
   <trkpt lat="-8.057134" lon="-34.897594">
    <ele>8.7</ele>
    <time>2019-12-27T22:57:01.000Z</time>
   </trkpt>
   <trkpt lat="-8.057064" lon="-34.89759">
    <ele>8.7</ele>
    <time>2019-12-27T22:57:02.000Z</time>
   </trkpt>
   <trkpt lat="-8.056997" lon="-34.897596">
    <ele>8.8</ele>
    <time>2019-12-27T22:57:03.000Z</time>
   </trkpt>
   <trkpt lat="-8.056936" lon="-34.897603">
    <ele>8.8</ele>
    <time>2019-12-27T22:57:04.000Z</time>
   </trkpt>
   <trkpt lat="-8.056877" lon="-34.897602">
    <ele>8.8</ele>
    <time>2019-12-27T22:57:05.000Z</time>
   </trkpt>
   <trkpt lat="-8.056804" lon="-34.897601">
    <ele>8.8</ele>
    <time>2019-12-27T22:57:06.000Z</time>
   </trkpt>
   <trkpt lat="-8.056741" lon="-34.897596">
    <ele>8.9</ele>
    <time>2019-12-27T22:57:07.000Z</time>
   </trkpt>
   <trkpt lat="-8.056669" lon="-34.897597">
    <ele>8.4</ele>
    <time>2019-12-27T22:57:08.000Z</time>
   </trkpt>
   <trkpt lat="-8.056595" lon="-34.897595">
    <ele>7.8</ele>
    <time>2019-12-27T22:57:09.000Z</time>
   </trkpt>
   <trkpt lat="-8.056527" lon="-34.897593">
    <ele>7.3</ele>
    <time>2019-12-27T22:57:10.000Z</time>
   </trkpt>
   <trkpt lat="-8.056458" lon="-34.897591">
    <ele>6.8</ele>
    <time>2019-12-27T22:57:11.000Z</time>
   </trkpt>
   <trkpt lat="-8.056387" lon="-34.897594">
    <ele>6.1</ele>
    <time>2019-12-27T22:57:12.000Z</time>
   </trkpt>
   <trkpt lat="-8.056323" lon="-34.897594">
    <ele>5.9</ele>
    <time>2019-12-27T22:57:13.000Z</time>
   </trkpt>
   <trkpt lat="-8.05626" lon="-34.897591">
    <ele>5.8</ele>
    <time>2019-12-27T22:57:14.000Z</time>
   </trkpt>
   <trkpt lat="-8.056195" lon="-34.897593">
    <ele>5.9</ele>
    <time>2019-12-27T22:57:15.000Z</time>
   </trkpt>
   <trkpt lat="-8.056125" lon="-34.897592">
    <ele>6</ele>
    <time>2019-12-27T22:57:16.000Z</time>
   </trkpt>
   <trkpt lat="-8.056053" lon="-34.897586">
    <ele>6.1</ele>
    <time>2019-12-27T22:57:17.000Z</time>
   </trkpt>
   <trkpt lat="-8.055989" lon="-34.897576">
    <ele>6.4</ele>
    <time>2019-12-27T22:57:18.000Z</time>
   </trkpt>
   <trkpt lat="-8.055916" lon="-34.897566">
    <ele>6.4</ele>
    <time>2019-12-27T22:57:19.000Z</time>
   </trkpt>
   <trkpt lat="-8.055834" lon="-34.897551">
    <ele>7.2</ele>
    <time>2019-12-27T22:57:20.000Z</time>
   </trkpt>
   <trkpt lat="-8.055758" lon="-34.897536">
    <ele>8.1</ele>
    <time>2019-12-27T22:57:21.000Z</time>
   </trkpt>
   <trkpt lat="-8.05568" lon="-34.897518">
    <ele>9</ele>
    <time>2019-12-27T22:57:22.000Z</time>
   </trkpt>
   <trkpt lat="-8.055601" lon="-34.897501">
    <ele>9.9</ele>
    <time>2019-12-27T22:57:23.000Z</time>
   </trkpt>
   <trkpt lat="-8.055519" lon="-34.897475">
    <ele>10.8</ele>
    <time>2019-12-27T22:57:24.000Z</time>
   </trkpt>
   <trkpt lat="-8.055441" lon="-34.897445">
    <ele>10.6</ele>
    <time>2019-12-27T22:57:25.000Z</time>
   </trkpt>
   <trkpt lat="-8.055368" lon="-34.897411">
    <ele>10.6</ele>
    <time>2019-12-27T22:57:26.000Z</time>
   </trkpt>
   <trkpt lat="-8.055292" lon="-34.897381">
    <ele>10.5</ele>
    <time>2019-12-27T22:57:27.000Z</time>
   </trkpt>
   <trkpt lat="-8.05522" lon="-34.897347">
    <ele>10.4</ele>
    <time>2019-12-27T22:57:28.000Z</time>
   </trkpt>
   <trkpt lat="-8.055146" lon="-34.89732">
    <ele>10.4</ele>
    <time>2019-12-27T22:57:29.000Z</time>
   </trkpt>
   <trkpt lat="-8.055072" lon="-34.897278">
    <ele>10.3</ele>
    <time>2019-12-27T22:57:30.000Z</time>
   </trkpt>
   <trkpt lat="-8.055007" lon="-34.897236">
    <ele>10.3</ele>
    <time>2019-12-27T22:57:31.000Z</time>
   </trkpt>
   <trkpt lat="-8.054945" lon="-34.897185">
    <ele>10.3</ele>
    <time>2019-12-27T22:57:32.000Z</time>
   </trkpt>
   <trkpt lat="-8.054885" lon="-34.897135">
    <ele>10.2</ele>
    <time>2019-12-27T22:57:33.000Z</time>
   </trkpt>
   <trkpt lat="-8.054835" lon="-34.897095">
    <ele>10.2</ele>
    <time>2019-12-27T22:57:34.000Z</time>
   </trkpt>
   <trkpt lat="-8.054778" lon="-34.897049">
    <ele>10.1</ele>
    <time>2019-12-27T22:57:35.000Z</time>
   </trkpt>
   <trkpt lat="-8.054717" lon="-34.896997">
    <ele>10</ele>
    <time>2019-12-27T22:57:36.000Z</time>
   </trkpt>
   <trkpt lat="-8.054633" lon="-34.896964">
    <ele>9.9</ele>
    <time>2019-12-27T22:57:37.000Z</time>
   </trkpt>
   <trkpt lat="-8.05457" lon="-34.896916">
    <ele>9.8</ele>
    <time>2019-12-27T22:57:38.000Z</time>
   </trkpt>
   <trkpt lat="-8.05451" lon="-34.896869">
    <ele>9.7</ele>
    <time>2019-12-27T22:57:39.000Z</time>
   </trkpt>
   <trkpt lat="-8.054448" lon="-34.896819">
    <ele>9.5</ele>
    <time>2019-12-27T22:57:40.000Z</time>
   </trkpt>
   <trkpt lat="-8.054384" lon="-34.896765">
    <ele>9.2</ele>
    <time>2019-12-27T22:57:41.000Z</time>
   </trkpt>
   <trkpt lat="-8.054321" lon="-34.896715">
    <ele>9</ele>
    <time>2019-12-27T22:57:42.000Z</time>
   </trkpt>
   <trkpt lat="-8.05426" lon="-34.896682">
    <ele>8.8</ele>
    <time>2019-12-27T22:57:43.000Z</time>
   </trkpt>
   <trkpt lat="-8.054196" lon="-34.896637">
    <ele>8.6</ele>
    <time>2019-12-27T22:57:44.000Z</time>
   </trkpt>
   <trkpt lat="-8.05414" lon="-34.896591">
    <ele>8.4</ele>
    <time>2019-12-27T22:57:45.000Z</time>
   </trkpt>
   <trkpt lat="-8.054078" lon="-34.896562">
    <ele>8.1</ele>
    <time>2019-12-27T22:57:46.000Z</time>
   </trkpt>
   <trkpt lat="-8.054019" lon="-34.896522">
    <ele>7.9</ele>
    <time>2019-12-27T22:57:47.000Z</time>
   </trkpt>
   <trkpt lat="-8.053959" lon="-34.896478">
    <ele>7.6</ele>
    <time>2019-12-27T22:57:48.000Z</time>
   </trkpt>
   <trkpt lat="-8.0539" lon="-34.896436">
    <ele>7.1</ele>
    <time>2019-12-27T22:57:49.000Z</time>
   </trkpt>
   <trkpt lat="-8.053842" lon="-34.896389">
    <ele>6.7</ele>
    <time>2019-12-27T22:57:50.000Z</time>
   </trkpt>
   <trkpt lat="-8.053781" lon="-34.896341">
    <ele>6.1</ele>
    <time>2019-12-27T22:57:51.000Z</time>
   </trkpt>
   <trkpt lat="-8.053729" lon="-34.896296">
    <ele>5.6</ele>
    <time>2019-12-27T22:57:52.000Z</time>
   </trkpt>
   <trkpt lat="-8.053673" lon="-34.896251">
    <ele>5.1</ele>
    <time>2019-12-27T22:57:53.000Z</time>
   </trkpt>
   <trkpt lat="-8.053626" lon="-34.896211">
    <ele>4.6</ele>
    <time>2019-12-27T22:57:54.000Z</time>
   </trkpt>
   <trkpt lat="-8.053577" lon="-34.89617">
    <ele>4</ele>
    <time>2019-12-27T22:57:55.000Z</time>
   </trkpt>
   <trkpt lat="-8.053524" lon="-34.896129">
    <ele>3.7</ele>
    <time>2019-12-27T22:57:56.000Z</time>
   </trkpt>
   <trkpt lat="-8.05347" lon="-34.896084">
    <ele>3.5</ele>
    <time>2019-12-27T22:57:57.000Z</time>
   </trkpt>
   <trkpt lat="-8.053409" lon="-34.896049">
    <ele>3.1</ele>
    <time>2019-12-27T22:57:58.000Z</time>
   </trkpt>
   <trkpt lat="-8.053352" lon="-34.896011">
    <ele>2.8</ele>
    <time>2019-12-27T22:57:59.000Z</time>
   </trkpt>
   <trkpt lat="-8.053298" lon="-34.895971">
    <ele>2.5</ele>
    <time>2019-12-27T22:58:00.000Z</time>
   </trkpt>
   <trkpt lat="-8.053234" lon="-34.895935">
    <ele>2.1</ele>
    <time>2019-12-27T22:58:01.000Z</time>
   </trkpt>
   <trkpt lat="-8.053178" lon="-34.895897">
    <ele>1.9</ele>
    <time>2019-12-27T22:58:02.000Z</time>
   </trkpt>
   <trkpt lat="-8.053118" lon="-34.895852">
    <ele>1.7</ele>
    <time>2019-12-27T22:58:03.000Z</time>
   </trkpt>
   <trkpt lat="-8.053067" lon="-34.89581">
    <ele>1.6</ele>
    <time>2019-12-27T22:58:04.000Z</time>
   </trkpt>
   <trkpt lat="-8.053" lon="-34.89577">
    <ele>4.1</ele>
    <time>2019-12-27T22:58:05.000Z</time>
   </trkpt>
   <trkpt lat="-8.052942" lon="-34.895729">
    <ele>5.9</ele>
    <time>2019-12-27T22:58:06.000Z</time>
   </trkpt>
   <trkpt lat="-8.052885" lon="-34.895689">
    <ele>7.4</ele>
    <time>2019-12-27T22:58:07.000Z</time>
   </trkpt>
   <trkpt lat="-8.052826" lon="-34.895646">
    <ele>8.7</ele>
    <time>2019-12-27T22:58:08.000Z</time>
   </trkpt>
   <trkpt lat="-8.052764" lon="-34.895607">
    <ele>9.8</ele>
    <time>2019-12-27T22:58:09.000Z</time>
   </trkpt>
   <trkpt lat="-8.052703" lon="-34.89557">
    <ele>10.8</ele>
    <time>2019-12-27T22:58:10.000Z</time>
   </trkpt>
   <trkpt lat="-8.052641" lon="-34.895528">
    <ele>11.2</ele>
    <time>2019-12-27T22:58:11.000Z</time>
   </trkpt>
   <trkpt lat="-8.052575" lon="-34.895491">
    <ele>11.3</ele>
    <time>2019-12-27T22:58:12.000Z</time>
   </trkpt>
   <trkpt lat="-8.052514" lon="-34.895455">
    <ele>10.8</ele>
    <time>2019-12-27T22:58:13.000Z</time>
   </trkpt>
   <trkpt lat="-8.052463" lon="-34.895419">
    <ele>10.4</ele>
    <time>2019-12-27T22:58:14.000Z</time>
   </trkpt>
   <trkpt lat="-8.052413" lon="-34.895383">
    <ele>9.9</ele>
    <time>2019-12-27T22:58:15.000Z</time>
   </trkpt>
   <trkpt lat="-8.05236" lon="-34.895345">
    <ele>9.4</ele>
    <time>2019-12-27T22:58:16.000Z</time>
   </trkpt>
   <trkpt lat="-8.052309" lon="-34.895319">
    <ele>9.1</ele>
    <time>2019-12-27T22:58:17.000Z</time>
   </trkpt>
   <trkpt lat="-8.052266" lon="-34.895285">
    <ele>8.8</ele>
    <time>2019-12-27T22:58:18.000Z</time>
   </trkpt>
   <trkpt lat="-8.052207" lon="-34.895246">
    <ele>8.4</ele>
    <time>2019-12-27T22:58:19.000Z</time>
   </trkpt>
   <trkpt lat="-8.052151" lon="-34.89521">
    <ele>8.1</ele>
    <time>2019-12-27T22:58:20.000Z</time>
   </trkpt>
   <trkpt lat="-8.052099" lon="-34.895178">
    <ele>7.9</ele>
    <time>2019-12-27T22:58:21.000Z</time>
   </trkpt>
   <trkpt lat="-8.052059" lon="-34.895142">
    <ele>7.7</ele>
    <time>2019-12-27T22:58:22.000Z</time>
   </trkpt>
   <trkpt lat="-8.052023" lon="-34.895113">
    <ele>7.6</ele>
    <time>2019-12-27T22:58:23.000Z</time>
   </trkpt>
   <trkpt lat="-8.051984" lon="-34.895084">
    <ele>7.5</ele>
    <time>2019-12-27T22:58:24.000Z</time>
   </trkpt>
   <trkpt lat="-8.051948" lon="-34.895055">
    <ele>7.4</ele>
    <time>2019-12-27T22:58:25.000Z</time>
   </trkpt>
   <trkpt lat="-8.05191" lon="-34.895031">
    <ele>7.3</ele>
    <time>2019-12-27T22:58:26.000Z</time>
   </trkpt>
   <trkpt lat="-8.051862" lon="-34.895004">
    <ele>7.3</ele>
    <time>2019-12-27T22:58:27.000Z</time>
   </trkpt>
   <trkpt lat="-8.051823" lon="-34.89498">
    <ele>7.2</ele>
    <time>2019-12-27T22:58:28.000Z</time>
   </trkpt>
   <trkpt lat="-8.051786" lon="-34.894959">
    <ele>7.2</ele>
    <time>2019-12-27T22:58:29.000Z</time>
   </trkpt>
   <trkpt lat="-8.051753" lon="-34.894932">
    <ele>7.1</ele>
    <time>2019-12-27T22:58:30.000Z</time>
   </trkpt>
   <trkpt lat="-8.051717" lon="-34.8949">
    <ele>7</ele>
    <time>2019-12-27T22:58:32.000Z</time>
   </trkpt>
   <trkpt lat="-8.051671" lon="-34.894848">
    <ele>6.8</ele>
    <time>2019-12-27T22:58:34.000Z</time>
   </trkpt>
   <trkpt lat="-8.051628" lon="-34.894823">
    <ele>6.1</ele>
    <time>2019-12-27T22:58:35.000Z</time>
   </trkpt>
   <trkpt lat="-8.051589" lon="-34.894809">
    <ele>5.7</ele>
    <time>2019-12-27T22:58:36.000Z</time>
   </trkpt>
   <trkpt lat="-8.05154" lon="-34.894779">
    <ele>5</ele>
    <time>2019-12-27T22:58:37.000Z</time>
   </trkpt>
   <trkpt lat="-8.051497" lon="-34.894743">
    <ele>4.4</ele>
    <time>2019-12-27T22:58:38.000Z</time>
   </trkpt>
   <trkpt lat="-8.051451" lon="-34.894702">
    <ele>3.9</ele>
    <time>2019-12-27T22:58:39.000Z</time>
   </trkpt>
   <trkpt lat="-8.051406" lon="-34.894661">
    <ele>3.3</ele>
    <time>2019-12-27T22:58:40.000Z</time>
   </trkpt>
   <trkpt lat="-8.051338" lon="-34.894627">
    <ele>2.6</ele>
    <time>2019-12-27T22:58:41.000Z</time>
   </trkpt>
   <trkpt lat="-8.051288" lon="-34.894584">
    <ele>2.1</ele>
    <time>2019-12-27T22:58:42.000Z</time>
   </trkpt>
   <trkpt lat="-8.051234" lon="-34.894545">
    <ele>2</ele>
    <time>2019-12-27T22:58:43.000Z</time>
   </trkpt>
   <trkpt lat="-8.051183" lon="-34.894504">
    <ele>2</ele>
    <time>2019-12-27T22:58:44.000Z</time>
   </trkpt>
   <trkpt lat="-8.05115" lon="-34.894444">
    <ele>2</ele>
    <time>2019-12-27T22:58:45.000Z</time>
   </trkpt>
   <trkpt lat="-8.051097" lon="-34.894395">
    <ele>2</ele>
    <time>2019-12-27T22:58:46.000Z</time>
   </trkpt>
   <trkpt lat="-8.051032" lon="-34.894351">
    <ele>2.1</ele>
    <time>2019-12-27T22:58:47.000Z</time>
   </trkpt>
   <trkpt lat="-8.050978" lon="-34.894307">
    <ele>2.1</ele>
    <time>2019-12-27T22:58:48.000Z</time>
   </trkpt>
   <trkpt lat="-8.050916" lon="-34.894258">
    <ele>2.1</ele>
    <time>2019-12-27T22:58:49.000Z</time>
   </trkpt>
   <trkpt lat="-8.050864" lon="-34.894223">
    <ele>2.1</ele>
    <time>2019-12-27T22:58:50.000Z</time>
   </trkpt>
   <trkpt lat="-8.05081" lon="-34.894178">
    <ele>2.1</ele>
    <time>2019-12-27T22:58:51.000Z</time>
   </trkpt>
   <trkpt lat="-8.050744" lon="-34.89414">
    <ele>2.2</ele>
    <time>2019-12-27T22:58:52.000Z</time>
   </trkpt>
   <trkpt lat="-8.050692" lon="-34.894103">
    <ele>2.2</ele>
    <time>2019-12-27T22:58:53.000Z</time>
   </trkpt>
   <trkpt lat="-8.050646" lon="-34.894063">
    <ele>2.2</ele>
    <time>2019-12-27T22:58:54.000Z</time>
   </trkpt>
   <trkpt lat="-8.050578" lon="-34.894016">
    <ele>2.6</ele>
    <time>2019-12-27T22:58:55.000Z</time>
   </trkpt>
   <trkpt lat="-8.050514" lon="-34.893967">
    <ele>3.3</ele>
    <time>2019-12-27T22:58:56.000Z</time>
   </trkpt>
   <trkpt lat="-8.05045" lon="-34.89392">
    <ele>3.9</ele>
    <time>2019-12-27T22:58:57.000Z</time>
   </trkpt>
   <trkpt lat="-8.050388" lon="-34.893875">
    <ele>4.5</ele>
    <time>2019-12-27T22:58:58.000Z</time>
   </trkpt>
   <trkpt lat="-8.05032" lon="-34.893829">
    <ele>5.3</ele>
    <time>2019-12-27T22:58:59.000Z</time>
   </trkpt>
   <trkpt lat="-8.050264" lon="-34.893779">
    <ele>6</ele>
    <time>2019-12-27T22:59:00.000Z</time>
   </trkpt>
   <trkpt lat="-8.050203" lon="-34.893725">
    <ele>6.8</ele>
    <time>2019-12-27T22:59:01.000Z</time>
   </trkpt>
   <trkpt lat="-8.05015" lon="-34.893675">
    <ele>7.3</ele>
    <time>2019-12-27T22:59:02.000Z</time>
   </trkpt>
   <trkpt lat="-8.050106" lon="-34.893631">
    <ele>7.7</ele>
    <time>2019-12-27T22:59:03.000Z</time>
   </trkpt>
   <trkpt lat="-8.050056" lon="-34.893585">
    <ele>8</ele>
    <time>2019-12-27T22:59:04.000Z</time>
   </trkpt>
   <trkpt lat="-8.049999" lon="-34.893551">
    <ele>8.4</ele>
    <time>2019-12-27T22:59:05.000Z</time>
   </trkpt>
   <trkpt lat="-8.049953" lon="-34.893515">
    <ele>8.7</ele>
    <time>2019-12-27T22:59:06.000Z</time>
   </trkpt>
   <trkpt lat="-8.049898" lon="-34.893473">
    <ele>9.1</ele>
    <time>2019-12-27T22:59:07.000Z</time>
   </trkpt>
   <trkpt lat="-8.04985" lon="-34.893437">
    <ele>9.6</ele>
    <time>2019-12-27T22:59:08.000Z</time>
   </trkpt>
   <trkpt lat="-8.0498" lon="-34.893398">
    <ele>10.2</ele>
    <time>2019-12-27T22:59:09.000Z</time>
   </trkpt>
   <trkpt lat="-8.049745" lon="-34.893357">
    <ele>10.9</ele>
    <time>2019-12-27T22:59:10.000Z</time>
   </trkpt>
   <trkpt lat="-8.049698" lon="-34.893326">
    <ele>11.5</ele>
    <time>2019-12-27T22:59:11.000Z</time>
   </trkpt>
   <trkpt lat="-8.049655" lon="-34.893286">
    <ele>12</ele>
    <time>2019-12-27T22:59:12.000Z</time>
   </trkpt>
   <trkpt lat="-8.049618" lon="-34.893252">
    <ele>11.8</ele>
    <time>2019-12-27T22:59:13.000Z</time>
   </trkpt>
   <trkpt lat="-8.049573" lon="-34.89322">
    <ele>11.6</ele>
    <time>2019-12-27T22:59:14.000Z</time>
   </trkpt>
   <trkpt lat="-8.049533" lon="-34.893193">
    <ele>11.3</ele>
    <time>2019-12-27T22:59:15.000Z</time>
   </trkpt>
   <trkpt lat="-8.049487" lon="-34.893169">
    <ele>11</ele>
    <time>2019-12-27T22:59:16.000Z</time>
   </trkpt>
   <trkpt lat="-8.049443" lon="-34.893148">
    <ele>10.6</ele>
    <time>2019-12-27T22:59:17.000Z</time>
   </trkpt>
   <trkpt lat="-8.049413" lon="-34.893119">
    <ele>10.4</ele>
    <time>2019-12-27T22:59:18.000Z</time>
   </trkpt>
   <trkpt lat="-8.049366" lon="-34.893086">
    <ele>10.1</ele>
    <time>2019-12-27T22:59:19.000Z</time>
   </trkpt>
   <trkpt lat="-8.049327" lon="-34.893055">
    <ele>9.9</ele>
    <time>2019-12-27T22:59:20.000Z</time>
   </trkpt>
   <trkpt lat="-8.049301" lon="-34.893034">
    <ele>9.7</ele>
    <time>2019-12-27T22:59:21.000Z</time>
   </trkpt>
   <trkpt lat="-8.04926" lon="-34.893008">
    <ele>9.5</ele>
    <time>2019-12-27T22:59:22.000Z</time>
   </trkpt>
   <trkpt lat="-8.049218" lon="-34.892975">
    <ele>9.3</ele>
    <time>2019-12-27T22:59:23.000Z</time>
   </trkpt>
   <trkpt lat="-8.049183" lon="-34.892947">
    <ele>9</ele>
    <time>2019-12-27T22:59:24.000Z</time>
   </trkpt>
   <trkpt lat="-8.049157" lon="-34.892919">
    <ele>8.8</ele>
    <time>2019-12-27T22:59:25.000Z</time>
   </trkpt>
   <trkpt lat="-8.049123" lon="-34.892896">
    <ele>8.6</ele>
    <time>2019-12-27T22:59:26.000Z</time>
   </trkpt>
   <trkpt lat="-8.049088" lon="-34.892867">
    <ele>8.4</ele>
    <time>2019-12-27T22:59:27.000Z</time>
   </trkpt>
   <trkpt lat="-8.049063" lon="-34.892848">
    <ele>8.2</ele>
    <time>2019-12-27T22:59:28.000Z</time>
   </trkpt>
   <trkpt lat="-8.049036" lon="-34.892821">
    <ele>8</ele>
    <time>2019-12-27T22:59:29.000Z</time>
   </trkpt>
   <trkpt lat="-8.049002" lon="-34.892789">
    <ele>7.7</ele>
    <time>2019-12-27T22:59:30.000Z</time>
   </trkpt>
   <trkpt lat="-8.048971" lon="-34.892769">
    <ele>7.5</ele>
    <time>2019-12-27T22:59:31.000Z</time>
   </trkpt>
   <trkpt lat="-8.048947" lon="-34.892754">
    <ele>7.1</ele>
    <time>2019-12-27T22:59:32.000Z</time>
   </trkpt>
   <trkpt lat="-8.048922" lon="-34.892741">
    <ele>7</ele>
    <time>2019-12-27T22:59:33.000Z</time>
   </trkpt>
   <trkpt lat="-8.048892" lon="-34.892718">
    <ele>7</ele>
    <time>2019-12-27T22:59:35.000Z</time>
   </trkpt>
   <trkpt lat="-8.048858" lon="-34.892738">
    <ele>6.9</ele>
    <time>2019-12-27T22:59:42.000Z</time>
   </trkpt>
   <trkpt lat="-8.048819" lon="-34.892766">
    <ele>4.6</ele>
    <time>2019-12-27T22:59:46.000Z</time>
   </trkpt>
   <trkpt lat="-8.048779" lon="-34.892795">
    <ele>3.7</ele>
    <time>2019-12-27T22:59:51.000Z</time>
   </trkpt>
   <trkpt lat="-8.04874" lon="-34.892823">
    <ele>3.1</ele>
    <time>2019-12-27T22:59:52.000Z</time>
   </trkpt>
   <trkpt lat="-8.048711" lon="-34.892861">
    <ele>3</ele>
    <time>2019-12-27T22:59:53.000Z</time>
   </trkpt>
   <trkpt lat="-8.048686" lon="-34.8929">
    <ele>2.9</ele>
    <time>2019-12-27T22:59:54.000Z</time>
   </trkpt>
   <trkpt lat="-8.048668" lon="-34.892932">
    <ele>2.8</ele>
    <time>2019-12-27T22:59:55.000Z</time>
   </trkpt>
   <trkpt lat="-8.048647" lon="-34.892966">
    <ele>2.6</ele>
    <time>2019-12-27T22:59:56.000Z</time>
   </trkpt>
   <trkpt lat="-8.048622" lon="-34.893005">
    <ele>3.3</ele>
    <time>2019-12-27T22:59:57.000Z</time>
   </trkpt>
   <trkpt lat="-8.048598" lon="-34.893044">
    <ele>3.9</ele>
    <time>2019-12-27T22:59:58.000Z</time>
   </trkpt>
   <trkpt lat="-8.048572" lon="-34.893085">
    <ele>5.1</ele>
    <time>2019-12-27T22:59:59.000Z</time>
   </trkpt>
   <trkpt lat="-8.048543" lon="-34.89314">
    <ele>8</ele>
    <time>2019-12-27T23:00:00.000Z</time>
   </trkpt>
   <trkpt lat="-8.04852" lon="-34.893196">
    <ele>8</ele>
    <time>2019-12-27T23:00:01.000Z</time>
   </trkpt>
   <trkpt lat="-8.048501" lon="-34.893259">
    <ele>8</ele>
    <time>2019-12-27T23:00:02.000Z</time>
   </trkpt>
   <trkpt lat="-8.048469" lon="-34.893315">
    <ele>8</ele>
    <time>2019-12-27T23:00:03.000Z</time>
   </trkpt>
   <trkpt lat="-8.048436" lon="-34.893381">
    <ele>8</ele>
    <time>2019-12-27T23:00:04.000Z</time>
   </trkpt>
   <trkpt lat="-8.048391" lon="-34.89345">
    <ele>8</ele>
    <time>2019-12-27T23:00:05.000Z</time>
   </trkpt>
   <trkpt lat="-8.048345" lon="-34.893524">
    <ele>8</ele>
    <time>2019-12-27T23:00:06.000Z</time>
   </trkpt>
   <trkpt lat="-8.048324" lon="-34.893575">
    <ele>8</ele>
    <time>2019-12-27T23:00:07.000Z</time>
   </trkpt>
   <trkpt lat="-8.048329" lon="-34.893638">
    <ele>8</ele>
    <time>2019-12-27T23:00:08.000Z</time>
   </trkpt>
   <trkpt lat="-8.048299" lon="-34.893706">
    <ele>8</ele>
    <time>2019-12-27T23:00:09.000Z</time>
   </trkpt>
   <trkpt lat="-8.048269" lon="-34.893743">
    <ele>8</ele>
    <time>2019-12-27T23:00:10.000Z</time>
   </trkpt>
   <trkpt lat="-8.048243" lon="-34.893784">
    <ele>8.1</ele>
    <time>2019-12-27T23:00:11.000Z</time>
   </trkpt>
   <trkpt lat="-8.048187" lon="-34.893851">
    <ele>8.1</ele>
    <time>2019-12-27T23:00:12.000Z</time>
   </trkpt>
   <trkpt lat="-8.048126" lon="-34.8939">
    <ele>8.3</ele>
    <time>2019-12-27T23:00:13.000Z</time>
   </trkpt>
   <trkpt lat="-8.048085" lon="-34.893945">
    <ele>8.5</ele>
    <time>2019-12-27T23:00:14.000Z</time>
   </trkpt>
   <trkpt lat="-8.048047" lon="-34.893985">
    <ele>8.7</ele>
    <time>2019-12-27T23:00:15.000Z</time>
   </trkpt>
   <trkpt lat="-8.048018" lon="-34.894042">
    <ele>8.8</ele>
    <time>2019-12-27T23:00:16.000Z</time>
   </trkpt>
   <trkpt lat="-8.047987" lon="-34.894115">
    <ele>8.9</ele>
    <time>2019-12-27T23:00:17.000Z</time>
   </trkpt>
   <trkpt lat="-8.047965" lon="-34.894186">
    <ele>9</ele>
    <time>2019-12-27T23:00:18.000Z</time>
   </trkpt>
   <trkpt lat="-8.04794" lon="-34.894238">
    <ele>9</ele>
    <time>2019-12-27T23:00:19.000Z</time>
   </trkpt>
   <trkpt lat="-8.047934" lon="-34.894311">
    <ele>9.2</ele>
    <time>2019-12-27T23:00:20.000Z</time>
   </trkpt>
   <trkpt lat="-8.047925" lon="-34.894379">
    <ele>9.4</ele>
    <time>2019-12-27T23:00:21.000Z</time>
   </trkpt>
   <trkpt lat="-8.047902" lon="-34.894445">
    <ele>9.8</ele>
    <time>2019-12-27T23:00:22.000Z</time>
   </trkpt>
   <trkpt lat="-8.047874" lon="-34.894503">
    <ele>10.1</ele>
    <time>2019-12-27T23:00:23.000Z</time>
   </trkpt>
   <trkpt lat="-8.047846" lon="-34.894567">
    <ele>10.4</ele>
    <time>2019-12-27T23:00:24.000Z</time>
   </trkpt>
   <trkpt lat="-8.04782" lon="-34.894619">
    <ele>10.6</ele>
    <time>2019-12-27T23:00:25.000Z</time>
   </trkpt>
   <trkpt lat="-8.047798" lon="-34.894669">
    <ele>10.7</ele>
    <time>2019-12-27T23:00:26.000Z</time>
   </trkpt>
   <trkpt lat="-8.047774" lon="-34.894729">
    <ele>10.9</ele>
    <time>2019-12-27T23:00:27.000Z</time>
   </trkpt>
   <trkpt lat="-8.047748" lon="-34.894787">
    <ele>11</ele>
    <time>2019-12-27T23:00:28.000Z</time>
   </trkpt>
   <trkpt lat="-8.047737" lon="-34.894824">
    <ele>11.1</ele>
    <time>2019-12-27T23:00:29.000Z</time>
   </trkpt>
   <trkpt lat="-8.047701" lon="-34.894883">
    <ele>11.2</ele>
    <time>2019-12-27T23:00:30.000Z</time>
   </trkpt>
   <trkpt lat="-8.047678" lon="-34.894926">
    <ele>11.4</ele>
    <time>2019-12-27T23:00:31.000Z</time>
   </trkpt>
   <trkpt lat="-8.04766" lon="-34.894964">
    <ele>11.5</ele>
    <time>2019-12-27T23:00:32.000Z</time>
   </trkpt>
   <trkpt lat="-8.047641" lon="-34.894999">
    <ele>11.6</ele>
    <time>2019-12-27T23:00:33.000Z</time>
   </trkpt>
   <trkpt lat="-8.047637" lon="-34.89503">
    <ele>11.7</ele>
    <time>2019-12-27T23:00:34.000Z</time>
   </trkpt>
   <trkpt lat="-8.047626" lon="-34.89506">
    <ele>11.8</ele>
    <time>2019-12-27T23:00:35.000Z</time>
   </trkpt>
   <trkpt lat="-8.047604" lon="-34.895121">
    <ele>11.9</ele>
    <time>2019-12-27T23:00:36.000Z</time>
   </trkpt>
   <trkpt lat="-8.047598" lon="-34.89515">
    <ele>12</ele>
    <time>2019-12-27T23:00:37.000Z</time>
   </trkpt>
   <trkpt lat="-8.047608" lon="-34.895193">
    <ele>11.7</ele>
    <time>2019-12-27T23:00:38.000Z</time>
   </trkpt>
   <trkpt lat="-8.04766" lon="-34.895217">
    <ele>11.4</ele>
    <time>2019-12-27T23:00:39.000Z</time>
   </trkpt>
   <trkpt lat="-8.047709" lon="-34.895243">
    <ele>11.1</ele>
    <time>2019-12-27T23:00:40.000Z</time>
   </trkpt>
   <trkpt lat="-8.047768" lon="-34.895285">
    <ele>10.9</ele>
    <time>2019-12-27T23:00:41.000Z</time>
   </trkpt>
   <trkpt lat="-8.047834" lon="-34.895324">
    <ele>10.6</ele>
    <time>2019-12-27T23:00:42.000Z</time>
   </trkpt>
   <trkpt lat="-8.047884" lon="-34.895361">
    <ele>10.3</ele>
    <time>2019-12-27T23:00:43.000Z</time>
   </trkpt>
   <trkpt lat="-8.047939" lon="-34.895401">
    <ele>10.1</ele>
    <time>2019-12-27T23:00:44.000Z</time>
   </trkpt>
   <trkpt lat="-8.047991" lon="-34.895414">
    <ele>9.9</ele>
    <time>2019-12-27T23:00:45.000Z</time>
   </trkpt>
   <trkpt lat="-8.048043" lon="-34.895441">
    <ele>9.5</ele>
    <time>2019-12-27T23:00:46.000Z</time>
   </trkpt>
   <trkpt lat="-8.048095" lon="-34.895465">
    <ele>9.3</ele>
    <time>2019-12-27T23:00:47.000Z</time>
   </trkpt>
   <trkpt lat="-8.048142" lon="-34.895488">
    <ele>9.2</ele>
    <time>2019-12-27T23:00:48.000Z</time>
   </trkpt>
   <trkpt lat="-8.048187" lon="-34.895526">
    <ele>9</ele>
    <time>2019-12-27T23:00:49.000Z</time>
   </trkpt>
   <trkpt lat="-8.048231" lon="-34.895568">
    <ele>9</ele>
    <time>2019-12-27T23:00:50.000Z</time>
   </trkpt>
   <trkpt lat="-8.048267" lon="-34.895614">
    <ele>9.4</ele>
    <time>2019-12-27T23:00:51.000Z</time>
   </trkpt>
   <trkpt lat="-8.048306" lon="-34.895657">
    <ele>9.7</ele>
    <time>2019-12-27T23:00:52.000Z</time>
   </trkpt>
   <trkpt lat="-8.048333" lon="-34.89571">
    <ele>10</ele>
    <time>2019-12-27T23:00:53.000Z</time>
   </trkpt>
   <trkpt lat="-8.04837" lon="-34.895764">
    <ele>10.4</ele>
    <time>2019-12-27T23:00:54.000Z</time>
   </trkpt>
   <trkpt lat="-8.048399" lon="-34.895806">
    <ele>10.6</ele>
    <time>2019-12-27T23:00:55.000Z</time>
   </trkpt>
   <trkpt lat="-8.048429" lon="-34.895851">
    <ele>10.7</ele>
    <time>2019-12-27T23:00:56.000Z</time>
   </trkpt>
   <trkpt lat="-8.048467" lon="-34.895891">
    <ele>10.9</ele>
    <time>2019-12-27T23:00:57.000Z</time>
   </trkpt>
   <trkpt lat="-8.048497" lon="-34.895927">
    <ele>11</ele>
    <time>2019-12-27T23:00:58.000Z</time>
   </trkpt>
   <trkpt lat="-8.048539" lon="-34.895972">
    <ele>11.3</ele>
    <time>2019-12-27T23:00:59.000Z</time>
   </trkpt>
   <trkpt lat="-8.048576" lon="-34.896017">
    <ele>11.7</ele>
    <time>2019-12-27T23:01:00.000Z</time>
   </trkpt>
   <trkpt lat="-8.048609" lon="-34.896057">
    <ele>11.8</ele>
    <time>2019-12-27T23:01:01.000Z</time>
   </trkpt>
   <trkpt lat="-8.048643" lon="-34.896096">
    <ele>11.8</ele>
    <time>2019-12-27T23:01:02.000Z</time>
   </trkpt>
   <trkpt lat="-8.048672" lon="-34.896138">
    <ele>11.8</ele>
    <time>2019-12-27T23:01:03.000Z</time>
   </trkpt>
   <trkpt lat="-8.048706" lon="-34.896173">
    <ele>11.9</ele>
    <time>2019-12-27T23:01:04.000Z</time>
   </trkpt>
   <trkpt lat="-8.048745" lon="-34.896202">
    <ele>11.9</ele>
    <time>2019-12-27T23:01:05.000Z</time>
   </trkpt>
   <trkpt lat="-8.048775" lon="-34.896232">
    <ele>12</ele>
    <time>2019-12-27T23:01:06.000Z</time>
   </trkpt>
   <trkpt lat="-8.048804" lon="-34.896283">
    <ele>12</ele>
    <time>2019-12-27T23:01:07.000Z</time>
   </trkpt>
   <trkpt lat="-8.048833" lon="-34.89633">
    <ele>12</ele>
    <time>2019-12-27T23:01:08.000Z</time>
   </trkpt>
   <trkpt lat="-8.048849" lon="-34.89636">
    <ele>12.1</ele>
    <time>2019-12-27T23:01:09.000Z</time>
   </trkpt>
   <trkpt lat="-8.048871" lon="-34.896415">
    <ele>12.1</ele>
    <time>2019-12-27T23:01:11.000Z</time>
   </trkpt>
   <trkpt lat="-8.048856" lon="-34.896444">
    <ele>12.1</ele>
    <time>2019-12-27T23:01:12.000Z</time>
   </trkpt>
   <trkpt lat="-8.048833" lon="-34.896474">
    <ele>12.2</ele>
    <time>2019-12-27T23:01:13.000Z</time>
   </trkpt>
   <trkpt lat="-8.048807" lon="-34.896501">
    <ele>12</ele>
    <time>2019-12-27T23:01:14.000Z</time>
   </trkpt>
   <trkpt lat="-8.048763" lon="-34.896517">
    <ele>11.8</ele>
    <time>2019-12-27T23:01:15.000Z</time>
   </trkpt>
   <trkpt lat="-8.048706" lon="-34.896536">
    <ele>11.5</ele>
    <time>2019-12-27T23:01:16.000Z</time>
   </trkpt>
   <trkpt lat="-8.048651" lon="-34.896561">
    <ele>11.3</ele>
    <time>2019-12-27T23:01:17.000Z</time>
   </trkpt>
   <trkpt lat="-8.048601" lon="-34.896579">
    <ele>11.1</ele>
    <time>2019-12-27T23:01:18.000Z</time>
   </trkpt>
   <trkpt lat="-8.04857" lon="-34.896589">
    <ele>11</ele>
    <time>2019-12-27T23:01:19.000Z</time>
   </trkpt>
   <trkpt lat="-8.04852" lon="-34.896608">
    <ele>10.8</ele>
    <time>2019-12-27T23:01:20.000Z</time>
   </trkpt>
   <trkpt lat="-8.048471" lon="-34.896631">
    <ele>10.6</ele>
    <time>2019-12-27T23:01:21.000Z</time>
   </trkpt>
   <trkpt lat="-8.048433" lon="-34.896652">
    <ele>10.5</ele>
    <time>2019-12-27T23:01:22.000Z</time>
   </trkpt>
   <trkpt lat="-8.048384" lon="-34.896674">
    <ele>10.3</ele>
    <time>2019-12-27T23:01:23.000Z</time>
   </trkpt>
   <trkpt lat="-8.048323" lon="-34.896699">
    <ele>10.2</ele>
    <time>2019-12-27T23:01:24.000Z</time>
   </trkpt>
   <trkpt lat="-8.04826" lon="-34.89672">
    <ele>10.1</ele>
    <time>2019-12-27T23:01:25.000Z</time>
   </trkpt>
   <trkpt lat="-8.048186" lon="-34.896739">
    <ele>10.4</ele>
    <time>2019-12-27T23:01:26.000Z</time>
   </trkpt>
   <trkpt lat="-8.048132" lon="-34.89675">
    <ele>10.7</ele>
    <time>2019-12-27T23:01:27.000Z</time>
   </trkpt>
   <trkpt lat="-8.048075" lon="-34.896772">
    <ele>11.2</ele>
    <time>2019-12-27T23:01:28.000Z</time>
   </trkpt>
   <trkpt lat="-8.048022" lon="-34.896792">
    <ele>11.3</ele>
    <time>2019-12-27T23:01:29.000Z</time>
   </trkpt>
   <trkpt lat="-8.047959" lon="-34.896818">
    <ele>12.2</ele>
    <time>2019-12-27T23:01:30.000Z</time>
   </trkpt>
   <trkpt lat="-8.047901" lon="-34.896837">
    <ele>12.4</ele>
    <time>2019-12-27T23:01:31.000Z</time>
   </trkpt>
   <trkpt lat="-8.047862" lon="-34.896855">
    <ele>12.5</ele>
    <time>2019-12-27T23:01:32.000Z</time>
   </trkpt>
   <trkpt lat="-8.047813" lon="-34.896873">
    <ele>12.6</ele>
    <time>2019-12-27T23:01:33.000Z</time>
   </trkpt>
   <trkpt lat="-8.047756" lon="-34.896889">
    <ele>12.8</ele>
    <time>2019-12-27T23:01:34.000Z</time>
   </trkpt>
   <trkpt lat="-8.047708" lon="-34.896892">
    <ele>13</ele>
    <time>2019-12-27T23:01:35.000Z</time>
   </trkpt>
   <trkpt lat="-8.047662" lon="-34.896897">
    <ele>13.1</ele>
    <time>2019-12-27T23:01:36.000Z</time>
   </trkpt>
   <trkpt lat="-8.047611" lon="-34.896893">
    <ele>13.2</ele>
    <time>2019-12-27T23:01:37.000Z</time>
   </trkpt>
   <trkpt lat="-8.047572" lon="-34.896879">
    <ele>13.8</ele>
    <time>2019-12-27T23:01:38.000Z</time>
   </trkpt>
   <trkpt lat="-8.047525" lon="-34.896849">
    <ele>14</ele>
    <time>2019-12-27T23:01:39.000Z</time>
   </trkpt>
   <trkpt lat="-8.047503" lon="-34.896797">
    <ele>14.2</ele>
    <time>2019-12-27T23:01:40.000Z</time>
   </trkpt>
   <trkpt lat="-8.047474" lon="-34.896731">
    <ele>14.5</ele>
    <time>2019-12-27T23:01:41.000Z</time>
   </trkpt>
   <trkpt lat="-8.04745" lon="-34.896666">
    <ele>14.8</ele>
    <time>2019-12-27T23:01:42.000Z</time>
   </trkpt>
   <trkpt lat="-8.047401" lon="-34.896618">
    <ele>15</ele>
    <time>2019-12-27T23:01:43.000Z</time>
   </trkpt>
   <trkpt lat="-8.047361" lon="-34.896567">
    <ele>15.3</ele>
    <time>2019-12-27T23:01:44.000Z</time>
   </trkpt>
   <trkpt lat="-8.047329" lon="-34.896519">
    <ele>15.5</ele>
    <time>2019-12-27T23:01:45.000Z</time>
   </trkpt>
   <trkpt lat="-8.047297" lon="-34.896469">
    <ele>15.9</ele>
    <time>2019-12-27T23:01:46.000Z</time>
   </trkpt>
   <trkpt lat="-8.047269" lon="-34.896415">
    <ele>16.2</ele>
    <time>2019-12-27T23:01:47.000Z</time>
   </trkpt>
   <trkpt lat="-8.047232" lon="-34.896366">
    <ele>16.7</ele>
    <time>2019-12-27T23:01:48.000Z</time>
   </trkpt>
   <trkpt lat="-8.047191" lon="-34.896318">
    <ele>17.1</ele>
    <time>2019-12-27T23:01:49.000Z</time>
   </trkpt>
   <trkpt lat="-8.047152" lon="-34.896277">
    <ele>17.4</ele>
    <time>2019-12-27T23:01:50.000Z</time>
   </trkpt>
   <trkpt lat="-8.047106" lon="-34.896228">
    <ele>17.8</ele>
    <time>2019-12-27T23:01:51.000Z</time>
   </trkpt>
   <trkpt lat="-8.047071" lon="-34.896183">
    <ele>18</ele>
    <time>2019-12-27T23:01:52.000Z</time>
   </trkpt>
   <trkpt lat="-8.047028" lon="-34.896148">
    <ele>18.3</ele>
    <time>2019-12-27T23:01:53.000Z</time>
   </trkpt>
   <trkpt lat="-8.046993" lon="-34.896112">
    <ele>18.6</ele>
    <time>2019-12-27T23:01:54.000Z</time>
   </trkpt>
   <trkpt lat="-8.046954" lon="-34.896068">
    <ele>18.9</ele>
    <time>2019-12-27T23:01:55.000Z</time>
   </trkpt>
   <trkpt lat="-8.046916" lon="-34.896016">
    <ele>19.2</ele>
    <time>2019-12-27T23:01:56.000Z</time>
   </trkpt>
   <trkpt lat="-8.046868" lon="-34.895968">
    <ele>19.5</ele>
    <time>2019-12-27T23:01:57.000Z</time>
   </trkpt>
   <trkpt lat="-8.046832" lon="-34.895929">
    <ele>19.7</ele>
    <time>2019-12-27T23:01:58.000Z</time>
   </trkpt>
   <trkpt lat="-8.04679" lon="-34.895896">
    <ele>20</ele>
    <time>2019-12-27T23:01:59.000Z</time>
   </trkpt>
   <trkpt lat="-8.046754" lon="-34.895872">
    <ele>20.1</ele>
    <time>2019-12-27T23:02:00.000Z</time>
   </trkpt>
   <trkpt lat="-8.046708" lon="-34.895834">
    <ele>20.4</ele>
    <time>2019-12-27T23:02:01.000Z</time>
   </trkpt>
   <trkpt lat="-8.046655" lon="-34.895789">
    <ele>20.8</ele>
    <time>2019-12-27T23:02:02.000Z</time>
   </trkpt>
   <trkpt lat="-8.046604" lon="-34.895743">
    <ele>21.1</ele>
    <time>2019-12-27T23:02:03.000Z</time>
   </trkpt>
   <trkpt lat="-8.046564" lon="-34.895719">
    <ele>21.4</ele>
    <time>2019-12-27T23:02:04.000Z</time>
   </trkpt>
   <trkpt lat="-8.04652" lon="-34.895687">
    <ele>21.6</ele>
    <time>2019-12-27T23:02:05.000Z</time>
   </trkpt>
   <trkpt lat="-8.046484" lon="-34.895659">
    <ele>21.7</ele>
    <time>2019-12-27T23:02:06.000Z</time>
   </trkpt>
   <trkpt lat="-8.04645" lon="-34.895638">
    <ele>21.9</ele>
    <time>2019-12-27T23:02:07.000Z</time>
   </trkpt>
   <trkpt lat="-8.046406" lon="-34.895612">
    <ele>22.1</ele>
    <time>2019-12-27T23:02:08.000Z</time>
   </trkpt>
   <trkpt lat="-8.046376" lon="-34.895589">
    <ele>22.2</ele>
    <time>2019-12-27T23:02:09.000Z</time>
   </trkpt>
   <trkpt lat="-8.046361" lon="-34.895539">
    <ele>22.4</ele>
    <time>2019-12-27T23:02:10.000Z</time>
   </trkpt>
   <trkpt lat="-8.046319" lon="-34.89553">
    <ele>22.5</ele>
    <time>2019-12-27T23:02:11.000Z</time>
   </trkpt>
   <trkpt lat="-8.046289" lon="-34.895501">
    <ele>22.6</ele>
    <time>2019-12-27T23:02:12.000Z</time>
   </trkpt>
   <trkpt lat="-8.046261" lon="-34.895475">
    <ele>22.7</ele>
    <time>2019-12-27T23:02:13.000Z</time>
   </trkpt>
   <trkpt lat="-8.046237" lon="-34.89545">
    <ele>22.8</ele>
    <time>2019-12-27T23:02:14.000Z</time>
   </trkpt>
   <trkpt lat="-8.046198" lon="-34.895414">
    <ele>22.9</ele>
    <time>2019-12-27T23:02:16.000Z</time>
   </trkpt>
   <trkpt lat="-8.046167" lon="-34.895408">
    <ele>23</ele>
    <time>2019-12-27T23:02:17.000Z</time>
   </trkpt>
   <trkpt lat="-8.04614" lon="-34.895391">
    <ele>23.1</ele>
    <time>2019-12-27T23:02:18.000Z</time>
   </trkpt>
   <trkpt lat="-8.046116" lon="-34.895377">
    <ele>23.1</ele>
    <time>2019-12-27T23:02:19.000Z</time>
   </trkpt>
   <trkpt lat="-8.04609" lon="-34.895361">
    <ele>23.2</ele>
    <time>2019-12-27T23:02:21.000Z</time>
   </trkpt>
   <trkpt lat="-8.04606" lon="-34.895363">
    <ele>23.3</ele>
    <time>2019-12-27T23:02:23.000Z</time>
   </trkpt>
   <trkpt lat="-8.046018" lon="-34.895347">
    <ele>23.5</ele>
    <time>2019-12-27T23:02:26.000Z</time>
   </trkpt>
   <trkpt lat="-8.045998" lon="-34.895326">
    <ele>23.6</ele>
    <time>2019-12-27T23:02:27.000Z</time>
   </trkpt>
   <trkpt lat="-8.045963" lon="-34.895331">
    <ele>23.7</ele>
    <time>2019-12-27T23:02:30.000Z</time>
   </trkpt>
   <trkpt lat="-8.045925" lon="-34.895342">
    <ele>23.9</ele>
    <time>2019-12-27T23:02:32.000Z</time>
   </trkpt>
   <trkpt lat="-8.045858" lon="-34.895319">
    <ele>24.1</ele>
    <time>2019-12-27T23:02:34.000Z</time>
   </trkpt>
   <trkpt lat="-8.045824" lon="-34.895292">
    <ele>23.7</ele>
    <time>2019-12-27T23:02:36.000Z</time>
   </trkpt>
   <trkpt lat="-8.045791" lon="-34.895266">
    <ele>23.3</ele>
    <time>2019-12-27T23:02:46.000Z</time>
   </trkpt>
   <trkpt lat="-8.045757" lon="-34.89524">
    <ele>22.9</ele>
    <time>2019-12-27T23:02:47.000Z</time>
   </trkpt>
   <trkpt lat="-8.045711" lon="-34.895212">
    <ele>22.4</ele>
    <time>2019-12-27T23:02:48.000Z</time>
   </trkpt>
   <trkpt lat="-8.045661" lon="-34.895181">
    <ele>21.9</ele>
    <time>2019-12-27T23:02:49.000Z</time>
   </trkpt>
   <trkpt lat="-8.045619" lon="-34.895149">
    <ele>21.5</ele>
    <time>2019-12-27T23:02:50.000Z</time>
   </trkpt>
   <trkpt lat="-8.045574" lon="-34.895118">
    <ele>21.2</ele>
    <time>2019-12-27T23:02:51.000Z</time>
   </trkpt>
   <trkpt lat="-8.045524" lon="-34.895087">
    <ele>20.8</ele>
    <time>2019-12-27T23:02:52.000Z</time>
   </trkpt>
   <trkpt lat="-8.045471" lon="-34.895045">
    <ele>20.5</ele>
    <time>2019-12-27T23:02:53.000Z</time>
   </trkpt>
   <trkpt lat="-8.045429" lon="-34.895008">
    <ele>20.2</ele>
    <time>2019-12-27T23:02:54.000Z</time>
   </trkpt>
   <trkpt lat="-8.045382" lon="-34.894975">
    <ele>19.8</ele>
    <time>2019-12-27T23:02:55.000Z</time>
   </trkpt>
   <trkpt lat="-8.045348" lon="-34.894949">
    <ele>19.5</ele>
    <time>2019-12-27T23:02:56.000Z</time>
   </trkpt>
   <trkpt lat="-8.045306" lon="-34.894913">
    <ele>19.1</ele>
    <time>2019-12-27T23:02:57.000Z</time>
   </trkpt>
   <trkpt lat="-8.045264" lon="-34.894871">
    <ele>18.7</ele>
    <time>2019-12-27T23:02:58.000Z</time>
   </trkpt>
   <trkpt lat="-8.045227" lon="-34.89483">
    <ele>18.4</ele>
    <time>2019-12-27T23:02:59.000Z</time>
   </trkpt>
   <trkpt lat="-8.045191" lon="-34.894774">
    <ele>18</ele>
    <time>2019-12-27T23:03:00.000Z</time>
   </trkpt>
   <trkpt lat="-8.04516" lon="-34.89472">
    <ele>17.7</ele>
    <time>2019-12-27T23:03:01.000Z</time>
   </trkpt>
   <trkpt lat="-8.045117" lon="-34.894682">
    <ele>17.5</ele>
    <time>2019-12-27T23:03:02.000Z</time>
   </trkpt>
   <trkpt lat="-8.045072" lon="-34.894635">
    <ele>17.1</ele>
    <time>2019-12-27T23:03:03.000Z</time>
   </trkpt>
   <trkpt lat="-8.045024" lon="-34.894588">
    <ele>16.8</ele>
    <time>2019-12-27T23:03:04.000Z</time>
   </trkpt>
   <trkpt lat="-8.044976" lon="-34.894551">
    <ele>16.5</ele>
    <time>2019-12-27T23:03:05.000Z</time>
   </trkpt>
   <trkpt lat="-8.044919" lon="-34.894508">
    <ele>16.1</ele>
    <time>2019-12-27T23:03:06.000Z</time>
   </trkpt>
   <trkpt lat="-8.044871" lon="-34.894478">
    <ele>15.8</ele>
    <time>2019-12-27T23:03:07.000Z</time>
   </trkpt>
   <trkpt lat="-8.04482" lon="-34.89445">
    <ele>15.5</ele>
    <time>2019-12-27T23:03:08.000Z</time>
   </trkpt>
   <trkpt lat="-8.044765" lon="-34.894413">
    <ele>15.2</ele>
    <time>2019-12-27T23:03:09.000Z</time>
   </trkpt>
   <trkpt lat="-8.044715" lon="-34.894373">
    <ele>14.9</ele>
    <time>2019-12-27T23:03:10.000Z</time>
   </trkpt>
   <trkpt lat="-8.044659" lon="-34.894336">
    <ele>14.6</ele>
    <time>2019-12-27T23:03:11.000Z</time>
   </trkpt>
   <trkpt lat="-8.044615" lon="-34.894298">
    <ele>14.3</ele>
    <time>2019-12-27T23:03:12.000Z</time>
   </trkpt>
   <trkpt lat="-8.044568" lon="-34.894264">
    <ele>14.1</ele>
    <time>2019-12-27T23:03:13.000Z</time>
   </trkpt>
   <trkpt lat="-8.044527" lon="-34.894218">
    <ele>13.8</ele>
    <time>2019-12-27T23:03:14.000Z</time>
   </trkpt>
   <trkpt lat="-8.044481" lon="-34.894164">
    <ele>13.6</ele>
    <time>2019-12-27T23:03:15.000Z</time>
   </trkpt>
   <trkpt lat="-8.044431" lon="-34.894098">
    <ele>13.7</ele>
    <time>2019-12-27T23:03:16.000Z</time>
   </trkpt>
   <trkpt lat="-8.04438" lon="-34.894044">
    <ele>13.9</ele>
    <time>2019-12-27T23:03:17.000Z</time>
   </trkpt>
   <trkpt lat="-8.044332" lon="-34.893988">
    <ele>14</ele>
    <time>2019-12-27T23:03:18.000Z</time>
   </trkpt>
   <trkpt lat="-8.044284" lon="-34.893945">
    <ele>14.2</ele>
    <time>2019-12-27T23:03:19.000Z</time>
   </trkpt>
   <trkpt lat="-8.044242" lon="-34.893914">
    <ele>14.3</ele>
    <time>2019-12-27T23:03:20.000Z</time>
   </trkpt>
   <trkpt lat="-8.044191" lon="-34.893895">
    <ele>14.4</ele>
    <time>2019-12-27T23:03:21.000Z</time>
   </trkpt>
   <trkpt lat="-8.044152" lon="-34.893867">
    <ele>14.5</ele>
    <time>2019-12-27T23:03:22.000Z</time>
   </trkpt>
   <trkpt lat="-8.044095" lon="-34.893831">
    <ele>14.5</ele>
    <time>2019-12-27T23:03:23.000Z</time>
   </trkpt>
   <trkpt lat="-8.044042" lon="-34.893799">
    <ele>14.6</ele>
    <time>2019-12-27T23:03:24.000Z</time>
   </trkpt>
   <trkpt lat="-8.044002" lon="-34.893773">
    <ele>14.6</ele>
    <time>2019-12-27T23:03:25.000Z</time>
   </trkpt>
   <trkpt lat="-8.043964" lon="-34.893749">
    <ele>14.6</ele>
    <time>2019-12-27T23:03:26.000Z</time>
   </trkpt>
   <trkpt lat="-8.043917" lon="-34.893733">
    <ele>14.6</ele>
    <time>2019-12-27T23:03:27.000Z</time>
   </trkpt>
   <trkpt lat="-8.043864" lon="-34.893687">
    <ele>14.6</ele>
    <time>2019-12-27T23:03:28.000Z</time>
   </trkpt>
   <trkpt lat="-8.043828" lon="-34.893655">
    <ele>14.7</ele>
    <time>2019-12-27T23:03:29.000Z</time>
   </trkpt>
   <trkpt lat="-8.043784" lon="-34.893623">
    <ele>14.7</ele>
    <time>2019-12-27T23:03:30.000Z</time>
   </trkpt>
   <trkpt lat="-8.043754" lon="-34.8936">
    <ele>14.7</ele>
    <time>2019-12-27T23:03:31.000Z</time>
   </trkpt>
   <trkpt lat="-8.043718" lon="-34.893583">
    <ele>14.7</ele>
    <time>2019-12-27T23:03:33.000Z</time>
   </trkpt>
   <trkpt lat="-8.043687" lon="-34.893587">
    <ele>14.8</ele>
    <time>2019-12-27T23:03:36.000Z</time>
   </trkpt>
   <trkpt lat="-8.043653" lon="-34.893558">
    <ele>14.9</ele>
    <time>2019-12-27T23:03:38.000Z</time>
   </trkpt>
   <trkpt lat="-8.043639" lon="-34.893532">
    <ele>14.9</ele>
    <time>2019-12-27T23:03:39.000Z</time>
   </trkpt>
   <trkpt lat="-8.043627" lon="-34.893503">
    <ele>15</ele>
    <time>2019-12-27T23:03:41.000Z</time>
   </trkpt>
   <trkpt lat="-8.043656" lon="-34.893505">
    <ele>15.1</ele>
    <time>2019-12-27T23:03:43.000Z</time>
   </trkpt>
   <trkpt lat="-8.043692" lon="-34.893496">
    <ele>15.2</ele>
    <time>2019-12-27T23:03:47.000Z</time>
   </trkpt>
   <trkpt lat="-8.043581" lon="-34.893439">
    <ele>15.4</ele>
    <time>2019-12-27T23:04:02.000Z</time>
   </trkpt>
   <trkpt lat="-8.043538" lon="-34.893416">
    <ele>15.5</ele>
    <time>2019-12-27T23:04:04.000Z</time>
   </trkpt>
   <trkpt lat="-8.043511" lon="-34.893393">
    <ele>15.6</ele>
    <time>2019-12-27T23:04:05.000Z</time>
   </trkpt>
   <trkpt lat="-8.043475" lon="-34.89337">
    <ele>15.6</ele>
    <time>2019-12-27T23:04:06.000Z</time>
   </trkpt>
   <trkpt lat="-8.04345" lon="-34.893345">
    <ele>15.7</ele>
    <time>2019-12-27T23:04:07.000Z</time>
   </trkpt>
   <trkpt lat="-8.043411" lon="-34.893313">
    <ele>15.7</ele>
    <time>2019-12-27T23:04:08.000Z</time>
   </trkpt>
   <trkpt lat="-8.043384" lon="-34.893273">
    <ele>15.7</ele>
    <time>2019-12-27T23:04:09.000Z</time>
   </trkpt>
   <trkpt lat="-8.043338" lon="-34.893248">
    <ele>15.7</ele>
    <time>2019-12-27T23:04:10.000Z</time>
   </trkpt>
   <trkpt lat="-8.043278" lon="-34.893221">
    <ele>15.8</ele>
    <time>2019-12-27T23:04:11.000Z</time>
   </trkpt>
   <trkpt lat="-8.043223" lon="-34.893197">
    <ele>15.8</ele>
    <time>2019-12-27T23:04:12.000Z</time>
   </trkpt>
   <trkpt lat="-8.043189" lon="-34.893176">
    <ele>15.8</ele>
    <time>2019-12-27T23:04:13.000Z</time>
   </trkpt>
   <trkpt lat="-8.043156" lon="-34.893146">
    <ele>15.9</ele>
    <time>2019-12-27T23:04:14.000Z</time>
   </trkpt>
   <trkpt lat="-8.04311" lon="-34.893111">
    <ele>16</ele>
    <time>2019-12-27T23:04:15.000Z</time>
   </trkpt>
   <trkpt lat="-8.043055" lon="-34.893069">
    <ele>16.1</ele>
    <time>2019-12-27T23:04:16.000Z</time>
   </trkpt>
   <trkpt lat="-8.043007" lon="-34.893033">
    <ele>16.3</ele>
    <time>2019-12-27T23:04:17.000Z</time>
   </trkpt>
   <trkpt lat="-8.042963" lon="-34.893014">
    <ele>16.4</ele>
    <time>2019-12-27T23:04:18.000Z</time>
   </trkpt>
   <trkpt lat="-8.042913" lon="-34.892985">
    <ele>16.5</ele>
    <time>2019-12-27T23:04:19.000Z</time>
   </trkpt>
   <trkpt lat="-8.042869" lon="-34.892964">
    <ele>16.6</ele>
    <time>2019-12-27T23:04:20.000Z</time>
   </trkpt>
   <trkpt lat="-8.042817" lon="-34.892934">
    <ele>16.7</ele>
    <time>2019-12-27T23:04:21.000Z</time>
   </trkpt>
   <trkpt lat="-8.042763" lon="-34.892895">
    <ele>16.8</ele>
    <time>2019-12-27T23:04:22.000Z</time>
   </trkpt>
   <trkpt lat="-8.042726" lon="-34.892874">
    <ele>16.8</ele>
    <time>2019-12-27T23:04:23.000Z</time>
   </trkpt>
   <trkpt lat="-8.042685" lon="-34.892848">
    <ele>16.8</ele>
    <time>2019-12-27T23:04:24.000Z</time>
   </trkpt>
   <trkpt lat="-8.042647" lon="-34.892815">
    <ele>16.9</ele>
    <time>2019-12-27T23:04:26.000Z</time>
   </trkpt>
   <trkpt lat="-8.042623" lon="-34.892784">
    <ele>16.9</ele>
    <time>2019-12-27T23:04:28.000Z</time>
   </trkpt>
   <trkpt lat="-8.042602" lon="-34.892747">
    <ele>16.9</ele>
    <time>2019-12-27T23:04:30.000Z</time>
   </trkpt>
   <trkpt lat="-8.042574" lon="-34.89271">
    <ele>16.9</ele>
    <time>2019-12-27T23:04:31.000Z</time>
   </trkpt>
   <trkpt lat="-8.042534" lon="-34.892679">
    <ele>16.9</ele>
    <time>2019-12-27T23:04:32.000Z</time>
   </trkpt>
   <trkpt lat="-8.042486" lon="-34.892645">
    <ele>16.9</ele>
    <time>2019-12-27T23:04:33.000Z</time>
   </trkpt>
   <trkpt lat="-8.042434" lon="-34.892623">
    <ele>16.9</ele>
    <time>2019-12-27T23:04:34.000Z</time>
   </trkpt>
   <trkpt lat="-8.042384" lon="-34.892584">
    <ele>16.9</ele>
    <time>2019-12-27T23:04:35.000Z</time>
   </trkpt>
   <trkpt lat="-8.04234" lon="-34.892556">
    <ele>16.9</ele>
    <time>2019-12-27T23:04:36.000Z</time>
   </trkpt>
   <trkpt lat="-8.042305" lon="-34.892545">
    <ele>16.9</ele>
    <time>2019-12-27T23:04:37.000Z</time>
   </trkpt>
   <trkpt lat="-8.042271" lon="-34.892521">
    <ele>16.9</ele>
    <time>2019-12-27T23:04:38.000Z</time>
   </trkpt>
   <trkpt lat="-8.042235" lon="-34.892469">
    <ele>16.8</ele>
    <time>2019-12-27T23:04:39.000Z</time>
   </trkpt>
   <trkpt lat="-8.042203" lon="-34.892429">
    <ele>16.7</ele>
    <time>2019-12-27T23:04:40.000Z</time>
   </trkpt>
   <trkpt lat="-8.042164" lon="-34.892369">
    <ele>16.6</ele>
    <time>2019-12-27T23:04:41.000Z</time>
   </trkpt>
   <trkpt lat="-8.042125" lon="-34.892319">
    <ele>16.4</ele>
    <time>2019-12-27T23:04:42.000Z</time>
   </trkpt>
   <trkpt lat="-8.042071" lon="-34.892266">
    <ele>16.3</ele>
    <time>2019-12-27T23:04:43.000Z</time>
   </trkpt>
   <trkpt lat="-8.042027" lon="-34.892224">
    <ele>16.1</ele>
    <time>2019-12-27T23:04:44.000Z</time>
   </trkpt>
   <trkpt lat="-8.041988" lon="-34.892181">
    <ele>16</ele>
    <time>2019-12-27T23:04:45.000Z</time>
   </trkpt>
   <trkpt lat="-8.04194" lon="-34.892133">
    <ele>15.9</ele>
    <time>2019-12-27T23:04:46.000Z</time>
   </trkpt>
   <trkpt lat="-8.041894" lon="-34.892067">
    <ele>15.9</ele>
    <time>2019-12-27T23:04:47.000Z</time>
   </trkpt>
   <trkpt lat="-8.041843" lon="-34.891992">
    <ele>15.8</ele>
    <time>2019-12-27T23:04:48.000Z</time>
   </trkpt>
   <trkpt lat="-8.04179" lon="-34.891929">
    <ele>15.7</ele>
    <time>2019-12-27T23:04:49.000Z</time>
   </trkpt>
   <trkpt lat="-8.041741" lon="-34.891872">
    <ele>15.5</ele>
    <time>2019-12-27T23:04:50.000Z</time>
   </trkpt>
   <trkpt lat="-8.041694" lon="-34.891821">
    <ele>15.3</ele>
    <time>2019-12-27T23:04:51.000Z</time>
   </trkpt>
   <trkpt lat="-8.041645" lon="-34.891783">
    <ele>15.2</ele>
    <time>2019-12-27T23:04:52.000Z</time>
   </trkpt>
   <trkpt lat="-8.041597" lon="-34.891737">
    <ele>15</ele>
    <time>2019-12-27T23:04:53.000Z</time>
   </trkpt>
   <trkpt lat="-8.041552" lon="-34.891683">
    <ele>14.9</ele>
    <time>2019-12-27T23:04:54.000Z</time>
   </trkpt>
   <trkpt lat="-8.041506" lon="-34.891633">
    <ele>14.8</ele>
    <time>2019-12-27T23:04:55.000Z</time>
   </trkpt>
   <trkpt lat="-8.041466" lon="-34.891584">
    <ele>14.6</ele>
    <time>2019-12-27T23:04:56.000Z</time>
   </trkpt>
   <trkpt lat="-8.041435" lon="-34.891539">
    <ele>14.5</ele>
    <time>2019-12-27T23:04:57.000Z</time>
   </trkpt>
   <trkpt lat="-8.041397" lon="-34.8915">
    <ele>14.4</ele>
    <time>2019-12-27T23:04:58.000Z</time>
   </trkpt>
   <trkpt lat="-8.041369" lon="-34.891465">
    <ele>14.2</ele>
    <time>2019-12-27T23:04:59.000Z</time>
   </trkpt>
   <trkpt lat="-8.041317" lon="-34.891428">
    <ele>14</ele>
    <time>2019-12-27T23:05:00.000Z</time>
   </trkpt>
   <trkpt lat="-8.041263" lon="-34.891403">
    <ele>13.8</ele>
    <time>2019-12-27T23:05:01.000Z</time>
   </trkpt>
   <trkpt lat="-8.041211" lon="-34.891406">
    <ele>13.6</ele>
    <time>2019-12-27T23:05:02.000Z</time>
   </trkpt>
   <trkpt lat="-8.041153" lon="-34.891435">
    <ele>13.4</ele>
    <time>2019-12-27T23:05:03.000Z</time>
   </trkpt>
   <trkpt lat="-8.04108" lon="-34.891469">
    <ele>13.3</ele>
    <time>2019-12-27T23:05:04.000Z</time>
   </trkpt>
   <trkpt lat="-8.041026" lon="-34.891506">
    <ele>13.2</ele>
    <time>2019-12-27T23:05:05.000Z</time>
   </trkpt>
   <trkpt lat="-8.040975" lon="-34.891534">
    <ele>13.1</ele>
    <time>2019-12-27T23:05:06.000Z</time>
   </trkpt>
   <trkpt lat="-8.040917" lon="-34.891564">
    <ele>13</ele>
    <time>2019-12-27T23:05:07.000Z</time>
   </trkpt>
   <trkpt lat="-8.040868" lon="-34.891606">
    <ele>13</ele>
    <time>2019-12-27T23:05:08.000Z</time>
   </trkpt>
   <trkpt lat="-8.040822" lon="-34.891638">
    <ele>13</ele>
    <time>2019-12-27T23:05:09.000Z</time>
   </trkpt>
   <trkpt lat="-8.040773" lon="-34.891667">
    <ele>13</ele>
    <time>2019-12-27T23:05:10.000Z</time>
   </trkpt>
   <trkpt lat="-8.040726" lon="-34.891698">
    <ele>13</ele>
    <time>2019-12-27T23:05:11.000Z</time>
   </trkpt>
   <trkpt lat="-8.040676" lon="-34.891716">
    <ele>13</ele>
    <time>2019-12-27T23:05:12.000Z</time>
   </trkpt>
   <trkpt lat="-8.040615" lon="-34.89174">
    <ele>13</ele>
    <time>2019-12-27T23:05:13.000Z</time>
   </trkpt>
   <trkpt lat="-8.040572" lon="-34.891757">
    <ele>13</ele>
    <time>2019-12-27T23:05:14.000Z</time>
   </trkpt>
   <trkpt lat="-8.040542" lon="-34.891764">
    <ele>13</ele>
    <time>2019-12-27T23:05:15.000Z</time>
   </trkpt>
   <trkpt lat="-8.040516" lon="-34.891744">
    <ele>12.9</ele>
    <time>2019-12-27T23:05:16.000Z</time>
   </trkpt>
   <trkpt lat="-8.040492" lon="-34.891697">
    <ele>12.7</ele>
    <time>2019-12-27T23:05:17.000Z</time>
   </trkpt>
   <trkpt lat="-8.04046" lon="-34.891648">
    <ele>12.5</ele>
    <time>2019-12-27T23:05:18.000Z</time>
   </trkpt>
   <trkpt lat="-8.040403" lon="-34.891588">
    <ele>12.2</ele>
    <time>2019-12-27T23:05:19.000Z</time>
   </trkpt>
   <trkpt lat="-8.040359" lon="-34.891535">
    <ele>12</ele>
    <time>2019-12-27T23:05:20.000Z</time>
   </trkpt>
   <trkpt lat="-8.040322" lon="-34.89148">
    <ele>11.8</ele>
    <time>2019-12-27T23:05:21.000Z</time>
   </trkpt>
   <trkpt lat="-8.040285" lon="-34.891422">
    <ele>11.6</ele>
    <time>2019-12-27T23:05:22.000Z</time>
   </trkpt>
   <trkpt lat="-8.040244" lon="-34.89137">
    <ele>11.3</ele>
    <time>2019-12-27T23:05:23.000Z</time>
   </trkpt>
   <trkpt lat="-8.040207" lon="-34.891321">
    <ele>11.1</ele>
    <time>2019-12-27T23:05:24.000Z</time>
   </trkpt>
   <trkpt lat="-8.040178" lon="-34.891281">
    <ele>11</ele>
    <time>2019-12-27T23:05:25.000Z</time>
   </trkpt>
   <trkpt lat="-8.040141" lon="-34.89124">
    <ele>10.8</ele>
    <time>2019-12-27T23:05:26.000Z</time>
   </trkpt>
   <trkpt lat="-8.0401" lon="-34.891192">
    <ele>10.7</ele>
    <time>2019-12-27T23:05:27.000Z</time>
   </trkpt>
   <trkpt lat="-8.040063" lon="-34.89114">
    <ele>10.6</ele>
    <time>2019-12-27T23:05:28.000Z</time>
   </trkpt>
   <trkpt lat="-8.040023" lon="-34.891087">
    <ele>10.8</ele>
    <time>2019-12-27T23:05:29.000Z</time>
   </trkpt>
   <trkpt lat="-8.039985" lon="-34.891034">
    <ele>11.2</ele>
    <time>2019-12-27T23:05:30.000Z</time>
   </trkpt>
   <trkpt lat="-8.039941" lon="-34.890972">
    <ele>11.9</ele>
    <time>2019-12-27T23:05:31.000Z</time>
   </trkpt>
   <trkpt lat="-8.039903" lon="-34.890919">
    <ele>12.2</ele>
    <time>2019-12-27T23:05:32.000Z</time>
   </trkpt>
   <trkpt lat="-8.039869" lon="-34.890873">
    <ele>12.5</ele>
    <time>2019-12-27T23:05:33.000Z</time>
   </trkpt>
   <trkpt lat="-8.039843" lon="-34.890847">
    <ele>12.6</ele>
    <time>2019-12-27T23:05:34.000Z</time>
   </trkpt>
   <trkpt lat="-8.039817" lon="-34.890825">
    <ele>12.8</ele>
    <time>2019-12-27T23:05:35.000Z</time>
   </trkpt>
   <trkpt lat="-8.039781" lon="-34.890792">
    <ele>13</ele>
    <time>2019-12-27T23:05:36.000Z</time>
   </trkpt>
   <trkpt lat="-8.039746" lon="-34.890751">
    <ele>12.9</ele>
    <time>2019-12-27T23:05:37.000Z</time>
   </trkpt>
   <trkpt lat="-8.039716" lon="-34.89072">
    <ele>12.7</ele>
    <time>2019-12-27T23:05:38.000Z</time>
   </trkpt>
   <trkpt lat="-8.039687" lon="-34.890692">
    <ele>12.5</ele>
    <time>2019-12-27T23:05:39.000Z</time>
   </trkpt>
   <trkpt lat="-8.039662" lon="-34.890665">
    <ele>12.3</ele>
    <time>2019-12-27T23:05:40.000Z</time>
   </trkpt>
   <trkpt lat="-8.039628" lon="-34.890626">
    <ele>12.1</ele>
    <time>2019-12-27T23:05:41.000Z</time>
   </trkpt>
   <trkpt lat="-8.039586" lon="-34.890581">
    <ele>11.9</ele>
    <time>2019-12-27T23:05:42.000Z</time>
   </trkpt>
   <trkpt lat="-8.039532" lon="-34.890547">
    <ele>11.6</ele>
    <time>2019-12-27T23:05:43.000Z</time>
   </trkpt>
   <trkpt lat="-8.039483" lon="-34.890513">
    <ele>11.4</ele>
    <time>2019-12-27T23:05:44.000Z</time>
   </trkpt>
   <trkpt lat="-8.039435" lon="-34.890482">
    <ele>11</ele>
    <time>2019-12-27T23:05:45.000Z</time>
   </trkpt>
   <trkpt lat="-8.039391" lon="-34.890454">
    <ele>11</ele>
    <time>2019-12-27T23:05:46.000Z</time>
   </trkpt>
   <trkpt lat="-8.039344" lon="-34.890426">
    <ele>10.9</ele>
    <time>2019-12-27T23:05:47.000Z</time>
   </trkpt>
   <trkpt lat="-8.039313" lon="-34.890409">
    <ele>10.8</ele>
    <time>2019-12-27T23:05:48.000Z</time>
   </trkpt>
   <trkpt lat="-8.039233" lon="-34.890392">
    <ele>10.7</ele>
    <time>2019-12-27T23:05:50.000Z</time>
   </trkpt>
   <trkpt lat="-8.039182" lon="-34.890374">
    <ele>10.6</ele>
    <time>2019-12-27T23:05:52.000Z</time>
   </trkpt>
   <trkpt lat="-8.03913" lon="-34.890355">
    <ele>10.4</ele>
    <time>2019-12-27T23:05:55.000Z</time>
   </trkpt>
   <trkpt lat="-8.039078" lon="-34.890337">
    <ele>10</ele>
    <time>2019-12-27T23:06:01.000Z</time>
   </trkpt>
   <trkpt lat="-8.039027" lon="-34.890319">
    <ele>9.4</ele>
    <time>2019-12-27T23:06:17.000Z</time>
   </trkpt>
   <trkpt lat="-8.038975" lon="-34.890301">
    <ele>8.9</ele>
    <time>2019-12-27T23:06:18.000Z</time>
   </trkpt>
   <trkpt lat="-8.038914" lon="-34.890282">
    <ele>8.7</ele>
    <time>2019-12-27T23:06:19.000Z</time>
   </trkpt>
   <trkpt lat="-8.038856" lon="-34.890261">
    <ele>8.6</ele>
    <time>2019-12-27T23:06:20.000Z</time>
   </trkpt>
   <trkpt lat="-8.038802" lon="-34.890237">
    <ele>8.8</ele>
    <time>2019-12-27T23:06:21.000Z</time>
   </trkpt>
   <trkpt lat="-8.038754" lon="-34.890218">
    <ele>8.8</ele>
    <time>2019-12-27T23:06:22.000Z</time>
   </trkpt>
   <trkpt lat="-8.038689" lon="-34.890194">
    <ele>8.9</ele>
    <time>2019-12-27T23:06:23.000Z</time>
   </trkpt>
   <trkpt lat="-8.038627" lon="-34.89017">
    <ele>9.2</ele>
    <time>2019-12-27T23:06:24.000Z</time>
   </trkpt>
   <trkpt lat="-8.038564" lon="-34.890144">
    <ele>10</ele>
    <time>2019-12-27T23:06:25.000Z</time>
   </trkpt>
   <trkpt lat="-8.038495" lon="-34.890119">
    <ele>10.9</ele>
    <time>2019-12-27T23:06:26.000Z</time>
   </trkpt>
   <trkpt lat="-8.038422" lon="-34.89008">
    <ele>11.5</ele>
    <time>2019-12-27T23:06:27.000Z</time>
   </trkpt>
   <trkpt lat="-8.038362" lon="-34.890051">
    <ele>11.7</ele>
    <time>2019-12-27T23:06:28.000Z</time>
   </trkpt>
   <trkpt lat="-8.038296" lon="-34.890016">
    <ele>11.7</ele>
    <time>2019-12-27T23:06:29.000Z</time>
   </trkpt>
   <trkpt lat="-8.038228" lon="-34.889986">
    <ele>11.8</ele>
    <time>2019-12-27T23:06:30.000Z</time>
   </trkpt>
   <trkpt lat="-8.038162" lon="-34.889955">
    <ele>12.2</ele>
    <time>2019-12-27T23:06:31.000Z</time>
   </trkpt>
   <trkpt lat="-8.0381" lon="-34.889928">
    <ele>12.5</ele>
    <time>2019-12-27T23:06:32.000Z</time>
   </trkpt>
   <trkpt lat="-8.038041" lon="-34.889909">
    <ele>12.6</ele>
    <time>2019-12-27T23:06:33.000Z</time>
   </trkpt>
   <trkpt lat="-8.037987" lon="-34.889891">
    <ele>12.6</ele>
    <time>2019-12-27T23:06:34.000Z</time>
   </trkpt>
   <trkpt lat="-8.037933" lon="-34.889864">
    <ele>12.4</ele>
    <time>2019-12-27T23:06:35.000Z</time>
   </trkpt>
   <trkpt lat="-8.037879" lon="-34.889834">
    <ele>12.2</ele>
    <time>2019-12-27T23:06:36.000Z</time>
   </trkpt>
   <trkpt lat="-8.037836" lon="-34.889829">
    <ele>12.1</ele>
    <time>2019-12-27T23:06:37.000Z</time>
   </trkpt>
   <trkpt lat="-8.037792" lon="-34.889818">
    <ele>12.1</ele>
    <time>2019-12-27T23:06:38.000Z</time>
   </trkpt>
   <trkpt lat="-8.037757" lon="-34.889829">
    <ele>12.1</ele>
    <time>2019-12-27T23:06:39.000Z</time>
   </trkpt>
   <trkpt lat="-8.037711" lon="-34.889848">
    <ele>12</ele>
    <time>2019-12-27T23:06:40.000Z</time>
   </trkpt>
   <trkpt lat="-8.037687" lon="-34.889901">
    <ele>11.8</ele>
    <time>2019-12-27T23:06:41.000Z</time>
   </trkpt>
   <trkpt lat="-8.037643" lon="-34.889955">
    <ele>11.6</ele>
    <time>2019-12-27T23:06:42.000Z</time>
   </trkpt>
   <trkpt lat="-8.0376" lon="-34.890008">
    <ele>11.4</ele>
    <time>2019-12-27T23:06:43.000Z</time>
   </trkpt>
   <trkpt lat="-8.037564" lon="-34.890063">
    <ele>11.2</ele>
    <time>2019-12-27T23:06:44.000Z</time>
   </trkpt>
   <trkpt lat="-8.037534" lon="-34.890116">
    <ele>11</ele>
    <time>2019-12-27T23:06:45.000Z</time>
   </trkpt>
   <trkpt lat="-8.0375" lon="-34.890166">
    <ele>11.2</ele>
    <time>2019-12-27T23:06:46.000Z</time>
   </trkpt>
   <trkpt lat="-8.037482" lon="-34.890196">
    <ele>11.3</ele>
    <time>2019-12-27T23:06:47.000Z</time>
   </trkpt>
   <trkpt lat="-8.037457" lon="-34.890241">
    <ele>11.4</ele>
    <time>2019-12-27T23:06:48.000Z</time>
   </trkpt>
   <trkpt lat="-8.037437" lon="-34.890291">
    <ele>11.5</ele>
    <time>2019-12-27T23:06:49.000Z</time>
   </trkpt>
   <trkpt lat="-8.037409" lon="-34.890349">
    <ele>11.7</ele>
    <time>2019-12-27T23:06:50.000Z</time>
   </trkpt>
   <trkpt lat="-8.037388" lon="-34.890401">
    <ele>11.9</ele>
    <time>2019-12-27T23:06:51.000Z</time>
   </trkpt>
   <trkpt lat="-8.037359" lon="-34.890461">
    <ele>12.2</ele>
    <time>2019-12-27T23:06:52.000Z</time>
   </trkpt>
   <trkpt lat="-8.037335" lon="-34.890514">
    <ele>11.9</ele>
    <time>2019-12-27T23:06:53.000Z</time>
   </trkpt>
   <trkpt lat="-8.037311" lon="-34.890542">
    <ele>11.7</ele>
    <time>2019-12-27T23:06:54.000Z</time>
   </trkpt>
   <trkpt lat="-8.037282" lon="-34.890616">
    <ele>11.3</ele>
    <time>2019-12-27T23:06:55.000Z</time>
   </trkpt>
   <trkpt lat="-8.037266" lon="-34.890664">
    <ele>11</ele>
    <time>2019-12-27T23:06:56.000Z</time>
   </trkpt>
   <trkpt lat="-8.037244" lon="-34.890715">
    <ele>10.7</ele>
    <time>2019-12-27T23:06:57.000Z</time>
   </trkpt>
   <trkpt lat="-8.037223" lon="-34.890763">
    <ele>10.4</ele>
    <time>2019-12-27T23:06:58.000Z</time>
   </trkpt>
   <trkpt lat="-8.037185" lon="-34.890806">
    <ele>9.9</ele>
    <time>2019-12-27T23:06:59.000Z</time>
   </trkpt>
   <trkpt lat="-8.037158" lon="-34.890851">
    <ele>9.2</ele>
    <time>2019-12-27T23:07:00.000Z</time>
   </trkpt>
   <trkpt lat="-8.037145" lon="-34.890893">
    <ele>8.5</ele>
    <time>2019-12-27T23:07:01.000Z</time>
   </trkpt>
   <trkpt lat="-8.037134" lon="-34.890934">
    <ele>7.9</ele>
    <time>2019-12-27T23:07:02.000Z</time>
   </trkpt>
   <trkpt lat="-8.037117" lon="-34.890976">
    <ele>7</ele>
    <time>2019-12-27T23:07:03.000Z</time>
   </trkpt>
   <trkpt lat="-8.037097" lon="-34.891015">
    <ele>6.9</ele>
    <time>2019-12-27T23:07:04.000Z</time>
   </trkpt>
   <trkpt lat="-8.03707" lon="-34.891054">
    <ele>6.8</ele>
    <time>2019-12-27T23:07:06.000Z</time>
   </trkpt>
   <trkpt lat="-8.037053" lon="-34.891081">
    <ele>7.6</ele>
    <time>2019-12-27T23:07:08.000Z</time>
   </trkpt>
   <trkpt lat="-8.037046" lon="-34.891105">
    <ele>7.5</ele>
    <time>2019-12-27T23:07:11.000Z</time>
   </trkpt>
   <trkpt lat="-8.03706" lon="-34.89114">
    <ele>7.4</ele>
    <time>2019-12-27T23:07:13.000Z</time>
   </trkpt>
   <trkpt lat="-8.037093" lon="-34.891154">
    <ele>7.3</ele>
    <time>2019-12-27T23:07:14.000Z</time>
   </trkpt>
   <trkpt lat="-8.037133" lon="-34.891164">
    <ele>7.2</ele>
    <time>2019-12-27T23:07:15.000Z</time>
   </trkpt>
   <trkpt lat="-8.037177" lon="-34.89119">
    <ele>7.1</ele>
    <time>2019-12-27T23:07:16.000Z</time>
   </trkpt>
   <trkpt lat="-8.037217" lon="-34.891216">
    <ele>7.7</ele>
    <time>2019-12-27T23:07:17.000Z</time>
   </trkpt>
   <trkpt lat="-8.037249" lon="-34.891225">
    <ele>8.1</ele>
    <time>2019-12-27T23:07:18.000Z</time>
   </trkpt>
   <trkpt lat="-8.037295" lon="-34.891241">
    <ele>8.7</ele>
    <time>2019-12-27T23:07:19.000Z</time>
   </trkpt>
   <trkpt lat="-8.037336" lon="-34.891264">
    <ele>9.1</ele>
    <time>2019-12-27T23:07:20.000Z</time>
   </trkpt>
   <trkpt lat="-8.037377" lon="-34.891295">
    <ele>9.6</ele>
    <time>2019-12-27T23:07:21.000Z</time>
   </trkpt>
   <trkpt lat="-8.037412" lon="-34.891336">
    <ele>10</ele>
    <time>2019-12-27T23:07:22.000Z</time>
   </trkpt>
   <trkpt lat="-8.037455" lon="-34.891371">
    <ele>10.4</ele>
    <time>2019-12-27T23:07:23.000Z</time>
   </trkpt>
   <trkpt lat="-8.037491" lon="-34.891392">
    <ele>10.6</ele>
    <time>2019-12-27T23:07:24.000Z</time>
   </trkpt>
   <trkpt lat="-8.037532" lon="-34.891414">
    <ele>10.9</ele>
    <time>2019-12-27T23:07:25.000Z</time>
   </trkpt>
   <trkpt lat="-8.037572" lon="-34.891432">
    <ele>11.1</ele>
    <time>2019-12-27T23:07:26.000Z</time>
   </trkpt>
   <trkpt lat="-8.037589" lon="-34.891462">
    <ele>11.3</ele>
    <time>2019-12-27T23:07:27.000Z</time>
   </trkpt>
   <trkpt lat="-8.037618" lon="-34.89148">
    <ele>11.4</ele>
    <time>2019-12-27T23:07:28.000Z</time>
   </trkpt>
   <trkpt lat="-8.037642" lon="-34.891498">
    <ele>11.6</ele>
    <time>2019-12-27T23:07:29.000Z</time>
   </trkpt>
   <trkpt lat="-8.037665" lon="-34.89152">
    <ele>11.7</ele>
    <time>2019-12-27T23:07:30.000Z</time>
   </trkpt>
   <trkpt lat="-8.037694" lon="-34.891538">
    <ele>11.8</ele>
    <time>2019-12-27T23:07:31.000Z</time>
   </trkpt>
   <trkpt lat="-8.037723" lon="-34.89156">
    <ele>11.9</ele>
    <time>2019-12-27T23:07:32.000Z</time>
   </trkpt>
   <trkpt lat="-8.037741" lon="-34.891591">
    <ele>11.7</ele>
    <time>2019-12-27T23:07:33.000Z</time>
   </trkpt>
   <trkpt lat="-8.037735" lon="-34.891626">
    <ele>11.5</ele>
    <time>2019-12-27T23:07:34.000Z</time>
   </trkpt>
   <trkpt lat="-8.037716" lon="-34.891662">
    <ele>11.2</ele>
    <time>2019-12-27T23:07:35.000Z</time>
   </trkpt>
   <trkpt lat="-8.037688" lon="-34.891695">
    <ele>11</ele>
    <time>2019-12-27T23:07:36.000Z</time>
   </trkpt>
   <trkpt lat="-8.037652" lon="-34.891729">
    <ele>10.7</ele>
    <time>2019-12-27T23:07:37.000Z</time>
   </trkpt>
   <trkpt lat="-8.037625" lon="-34.891763">
    <ele>10.6</ele>
    <time>2019-12-27T23:07:38.000Z</time>
   </trkpt>
   <trkpt lat="-8.037586" lon="-34.891811">
    <ele>10.3</ele>
    <time>2019-12-27T23:07:39.000Z</time>
   </trkpt>
   <trkpt lat="-8.037553" lon="-34.891851">
    <ele>10.1</ele>
    <time>2019-12-27T23:07:40.000Z</time>
   </trkpt>
   <trkpt lat="-8.037519" lon="-34.8919">
    <ele>9.9</ele>
    <time>2019-12-27T23:07:41.000Z</time>
   </trkpt>
   <trkpt lat="-8.037483" lon="-34.891941">
    <ele>9.6</ele>
    <time>2019-12-27T23:07:42.000Z</time>
   </trkpt>
   <trkpt lat="-8.037451" lon="-34.89199">
    <ele>9.3</ele>
    <time>2019-12-27T23:07:43.000Z</time>
   </trkpt>
   <trkpt lat="-8.037424" lon="-34.892039">
    <ele>9.1</ele>
    <time>2019-12-27T23:07:44.000Z</time>
   </trkpt>
   <trkpt lat="-8.037383" lon="-34.892083">
    <ele>8.8</ele>
    <time>2019-12-27T23:07:45.000Z</time>
   </trkpt>
   <trkpt lat="-8.037361" lon="-34.892141">
    <ele>8.5</ele>
    <time>2019-12-27T23:07:46.000Z</time>
   </trkpt>
   <trkpt lat="-8.03736" lon="-34.892201">
    <ele>8.7</ele>
    <time>2019-12-27T23:07:47.000Z</time>
   </trkpt>
   <trkpt lat="-8.037363" lon="-34.892254">
    <ele>8.8</ele>
    <time>2019-12-27T23:07:48.000Z</time>
   </trkpt>
   <trkpt lat="-8.037366" lon="-34.892308">
    <ele>8.9</ele>
    <time>2019-12-27T23:07:49.000Z</time>
   </trkpt>
   <trkpt lat="-8.037368" lon="-34.892365">
    <ele>9</ele>
    <time>2019-12-27T23:07:50.000Z</time>
   </trkpt>
   <trkpt lat="-8.037371" lon="-34.892419">
    <ele>9.1</ele>
    <time>2019-12-27T23:07:51.000Z</time>
   </trkpt>
   <trkpt lat="-8.037374" lon="-34.892468">
    <ele>9.2</ele>
    <time>2019-12-27T23:07:52.000Z</time>
   </trkpt>
   <trkpt lat="-8.037382" lon="-34.892514">
    <ele>9.3</ele>
    <time>2019-12-27T23:07:53.000Z</time>
   </trkpt>
   <trkpt lat="-8.037388" lon="-34.892563">
    <ele>9.4</ele>
    <time>2019-12-27T23:07:54.000Z</time>
   </trkpt>
   <trkpt lat="-8.03739" lon="-34.892613">
    <ele>9.5</ele>
    <time>2019-12-27T23:07:55.000Z</time>
   </trkpt>
   <trkpt lat="-8.037393" lon="-34.892665">
    <ele>9.6</ele>
    <time>2019-12-27T23:07:56.000Z</time>
   </trkpt>
   <trkpt lat="-8.037388" lon="-34.892712">
    <ele>9.7</ele>
    <time>2019-12-27T23:07:57.000Z</time>
   </trkpt>
   <trkpt lat="-8.03738" lon="-34.892759">
    <ele>9.7</ele>
    <time>2019-12-27T23:07:58.000Z</time>
   </trkpt>
   <trkpt lat="-8.037366" lon="-34.892805">
    <ele>9.8</ele>
    <time>2019-12-27T23:07:59.000Z</time>
   </trkpt>
   <trkpt lat="-8.037352" lon="-34.892843">
    <ele>9.9</ele>
    <time>2019-12-27T23:08:00.000Z</time>
   </trkpt>
   <trkpt lat="-8.037302" lon="-34.89286">
    <ele>9.7</ele>
    <time>2019-12-27T23:08:01.000Z</time>
   </trkpt>
   <trkpt lat="-8.037269" lon="-34.892855">
    <ele>9.6</ele>
    <time>2019-12-27T23:08:02.000Z</time>
   </trkpt>
   <trkpt lat="-8.037233" lon="-34.892839">
    <ele>9.5</ele>
    <time>2019-12-27T23:08:03.000Z</time>
   </trkpt>
   <trkpt lat="-8.037202" lon="-34.892823">
    <ele>9.4</ele>
    <time>2019-12-27T23:08:04.000Z</time>
   </trkpt>
   <trkpt lat="-8.037166" lon="-34.892798">
    <ele>9.3</ele>
    <time>2019-12-27T23:08:05.000Z</time>
   </trkpt>
   <trkpt lat="-8.037124" lon="-34.89278">
    <ele>9.1</ele>
    <time>2019-12-27T23:08:06.000Z</time>
   </trkpt>
   <trkpt lat="-8.037088" lon="-34.892759">
    <ele>9</ele>
    <time>2019-12-27T23:08:07.000Z</time>
   </trkpt>
   <trkpt lat="-8.037057" lon="-34.89273">
    <ele>8.9</ele>
    <time>2019-12-27T23:08:08.000Z</time>
   </trkpt>
   <trkpt lat="-8.037025" lon="-34.892714">
    <ele>8.8</ele>
    <time>2019-12-27T23:08:09.000Z</time>
   </trkpt>
   <trkpt lat="-8.036993" lon="-34.892683">
    <ele>8.7</ele>
    <time>2019-12-27T23:08:10.000Z</time>
   </trkpt>
   <trkpt lat="-8.036942" lon="-34.892667">
    <ele>8.5</ele>
    <time>2019-12-27T23:08:12.000Z</time>
   </trkpt>
   <trkpt lat="-8.036904" lon="-34.892673">
    <ele>8.4</ele>
    <time>2019-12-27T23:08:13.000Z</time>
   </trkpt>
   <trkpt lat="-8.036864" lon="-34.892691">
    <ele>8.3</ele>
    <time>2019-12-27T23:08:15.000Z</time>
   </trkpt>
   <trkpt lat="-8.036863" lon="-34.892733">
    <ele>8.2</ele>
    <time>2019-12-27T23:08:17.000Z</time>
   </trkpt>
   <trkpt lat="-8.036843" lon="-34.892783">
    <ele>8.1</ele>
    <time>2019-12-27T23:08:19.000Z</time>
   </trkpt>
   <trkpt lat="-8.036831" lon="-34.89281">
    <ele>8</ele>
    <time>2019-12-27T23:08:20.000Z</time>
   </trkpt>
   <trkpt lat="-8.036812" lon="-34.892838">
    <ele>7.9</ele>
    <time>2019-12-27T23:08:21.000Z</time>
   </trkpt>
   <trkpt lat="-8.036797" lon="-34.892865">
    <ele>7.9</ele>
    <time>2019-12-27T23:08:22.000Z</time>
   </trkpt>
   <trkpt lat="-8.036776" lon="-34.892887">
    <ele>7.8</ele>
    <time>2019-12-27T23:08:23.000Z</time>
   </trkpt>
   <trkpt lat="-8.036758" lon="-34.892921">
    <ele>7.7</ele>
    <time>2019-12-27T23:08:24.000Z</time>
   </trkpt>
   <trkpt lat="-8.036732" lon="-34.892946">
    <ele>7.6</ele>
    <time>2019-12-27T23:08:25.000Z</time>
   </trkpt>
   <trkpt lat="-8.03672" lon="-34.89298">
    <ele>7.6</ele>
    <time>2019-12-27T23:08:26.000Z</time>
   </trkpt>
   <trkpt lat="-8.036522" lon="-34.892986">
    <ele>7.3</ele>
    <time>2019-12-27T23:09:02.000Z</time>
   </trkpt>
   <trkpt lat="-8.036542" lon="-34.892984">
    <ele>7.2</ele>
    <time>2019-12-27T23:09:03.000Z</time>
   </trkpt>
   <trkpt lat="-8.036576" lon="-34.892976">
    <ele>7.2</ele>
    <time>2019-12-27T23:09:04.000Z</time>
   </trkpt>
  </trkseg>
 </trk>
</gpx>
