<?xml version="1.0" encoding="UTF-8"?>
<gpx creator="StravaGPX" version="1.1" xmlns="http://www.topografix.com/GPX/1/1">
 <metadata>
  <time>2025-06-15T07:26:58Z</time>
 </metadata>
 <trk>
  <name>Morning Ride</name>
  <type>1</type>
  <trkseg>
   <trkpt lat="52.475566" lon="13.47666">
    <ele>37.4</ele>
    <time>2025-06-15T07:26:58.000Z</time>
   </trkpt>
   <trkpt lat="52.475576" lon="13.47663">
    <ele>36.6</ele>
    <time>2025-06-15T07:26:59.000Z</time>
   </trkpt>
   <trkpt lat="52.475607" lon="13.476566">
    <ele>36.8</ele>
    <time>2025-06-15T07:27:02.000Z</time>
   </trkpt>
   <trkpt lat="52.475614" lon="13.47655">
    <ele>36.8</ele>
    <time>2025-06-15T07:27:03.000Z</time>
   </trkpt>
   <trkpt lat="52.475618" lon="13.476524">
    <ele>36.6</ele>
    <time>2025-06-15T07:27:04.000Z</time>
   </trkpt>
   <trkpt lat="52.475658" lon="13.476405">
    <ele>36.2</ele>
    <time>2025-06-15T07:27:07.000Z</time>
   </trkpt>
   <trkpt lat="52.475691" lon="13.476353">
    <ele>36.6</ele>
    <time>2025-06-15T07:27:08.000Z</time>
   </trkpt>
   <trkpt lat="52.475814" lon="13.476164">
    <ele>36.6</ele>
    <time>2025-06-15T07:27:12.000Z</time>
   </trkpt>
   <trkpt lat="52.475836" lon="13.476102">
    <ele>36.6</ele>
    <time>2025-06-15T07:27:13.000Z</time>
   </trkpt>
   <trkpt lat="52.475919" lon="13.47592">
    <ele>36.6</ele>
    <time>2025-06-15T07:27:16.000Z</time>
   </trkpt>
   <trkpt lat="52.475942" lon="13.475867">
    <ele>36.6</ele>
    <time>2025-06-15T07:27:17.000Z</time>
   </trkpt>
   <trkpt lat="52.475993" lon="13.475794">
    <ele>36.6</ele>
    <time>2025-06-15T07:27:19.000Z</time>
   </trkpt>
   <trkpt lat="52.476041" lon="13.475821">
    <ele>36.6</ele>
    <time>2025-06-15T07:27:21.000Z</time>
   </trkpt>
   <trkpt lat="52.476062" lon="13.47585">
    <ele>36.6</ele>
    <time>2025-06-15T07:27:22.000Z</time>
   </trkpt>
   <trkpt lat="52.476092" lon="13.475939">
    <ele>36.6</ele>
    <time>2025-06-15T07:27:24.000Z</time>
   </trkpt>
   <trkpt lat="52.476101" lon="13.475985">
    <ele>36.6</ele>
    <time>2025-06-15T07:27:25.000Z</time>
   </trkpt>
   <trkpt lat="52.476153" lon="13.476143">
    <ele>36.6</ele>
    <time>2025-06-15T07:27:29.000Z</time>
   </trkpt>
   <trkpt lat="52.476201" lon="13.476226">
    <ele>36.6</ele>
    <time>2025-06-15T07:27:31.000Z</time>
   </trkpt>
   <trkpt lat="52.476237" lon="13.476271">
    <ele>36.6</ele>
    <time>2025-06-15T07:27:32.000Z</time>
   </trkpt>
   <trkpt lat="52.476281" lon="13.476331">
    <ele>36.6</ele>
    <time>2025-06-15T07:27:33.000Z</time>
   </trkpt>
   <trkpt lat="52.476347" lon="13.476432">
    <ele>36.6</ele>
    <time>2025-06-15T07:27:35.000Z</time>
   </trkpt>
   <trkpt lat="52.476394" lon="13.476465">
    <ele>36.6</ele>
    <time>2025-06-15T07:27:36.000Z</time>
   </trkpt>
   <trkpt lat="52.476448" lon="13.476577">
    <ele>36.6</ele>
    <time>2025-06-15T07:27:38.000Z</time>
   </trkpt>
   <trkpt lat="52.476489" lon="13.476702">
    <ele>36.6</ele>
    <time>2025-06-15T07:27:40.000Z</time>
   </trkpt>
   <trkpt lat="52.476498" lon="13.476741">
    <ele>36.6</ele>
    <time>2025-06-15T07:27:41.000Z</time>
   </trkpt>
   <trkpt lat="52.476518" lon="13.476795">
    <ele>36.8</ele>
    <time>2025-06-15T07:27:42.000Z</time>
   </trkpt>
   <trkpt lat="52.476565" lon="13.476879">
    <ele>37</ele>
    <time>2025-06-15T07:27:44.000Z</time>
   </trkpt>
   <trkpt lat="52.476635" lon="13.476999">
    <ele>37.2</ele>
    <time>2025-06-15T07:27:46.000Z</time>
   </trkpt>
   <trkpt lat="52.476665" lon="13.477045">
    <ele>37.2</ele>
    <time>2025-06-15T07:27:47.000Z</time>
   </trkpt>
   <trkpt lat="52.476698" lon="13.477096">
    <ele>37.2</ele>
    <time>2025-06-15T07:27:48.000Z</time>
   </trkpt>
   <trkpt lat="52.476732" lon="13.477151">
    <ele>37.2</ele>
    <time>2025-06-15T07:27:49.000Z</time>
   </trkpt>
   <trkpt lat="52.476761" lon="13.477202">
    <ele>37.2</ele>
    <time>2025-06-15T07:27:50.000Z</time>
   </trkpt>
   <trkpt lat="52.476792" lon="13.477258">
    <ele>37.2</ele>
    <time>2025-06-15T07:27:51.000Z</time>
   </trkpt>
   <trkpt lat="52.476855" lon="13.477366">
    <ele>37.2</ele>
    <time>2025-06-15T07:27:53.000Z</time>
   </trkpt>
   <trkpt lat="52.476924" lon="13.47747">
    <ele>37.2</ele>
    <time>2025-06-15T07:27:55.000Z</time>
   </trkpt>
   <trkpt lat="52.47709" lon="13.477751">
    <ele>37.4</ele>
    <time>2025-06-15T07:28:00.000Z</time>
   </trkpt>
   <trkpt lat="52.477125" lon="13.477807">
    <ele>37.6</ele>
    <time>2025-06-15T07:28:01.000Z</time>
   </trkpt>
   <trkpt lat="52.477219" lon="13.477971">
    <ele>37.8</ele>
    <time>2025-06-15T07:28:04.000Z</time>
   </trkpt>
   <trkpt lat="52.477381" lon="13.478281">
    <ele>37.8</ele>
    <time>2025-06-15T07:28:10.000Z</time>
   </trkpt>
   <trkpt lat="52.477467" lon="13.47848">
    <ele>38</ele>
    <time>2025-06-15T07:28:15.000Z</time>
   </trkpt>
   <trkpt lat="52.477485" lon="13.478509">
    <ele>38</ele>
    <time>2025-06-15T07:28:16.000Z</time>
   </trkpt>
   <trkpt lat="52.47751" lon="13.478589">
    <ele>38</ele>
    <time>2025-06-15T07:28:19.000Z</time>
   </trkpt>
   <trkpt lat="52.477531" lon="13.478632">
    <ele>37.8</ele>
    <time>2025-06-15T07:29:04.000Z</time>
   </trkpt>
   <trkpt lat="52.477612" lon="13.478789">
    <ele>37.8</ele>
    <time>2025-06-15T07:29:08.000Z</time>
   </trkpt>
   <trkpt lat="52.47764" lon="13.478828">
    <ele>37.8</ele>
    <time>2025-06-15T07:29:09.000Z</time>
   </trkpt>
   <trkpt lat="52.477702" lon="13.478911">
    <ele>37.6</ele>
    <time>2025-06-15T07:29:11.000Z</time>
   </trkpt>
   <trkpt lat="52.477774" lon="13.478994">
    <ele>37.6</ele>
    <time>2025-06-15T07:29:13.000Z</time>
   </trkpt>
   <trkpt lat="52.477803" lon="13.479041">
    <ele>37.6</ele>
    <time>2025-06-15T07:29:14.000Z</time>
   </trkpt>
   <trkpt lat="52.477889" lon="13.479193">
    <ele>37.6</ele>
    <time>2025-06-15T07:29:17.000Z</time>
   </trkpt>
   <trkpt lat="52.477915" lon="13.47925">
    <ele>37.6</ele>
    <time>2025-06-15T07:29:18.000Z</time>
   </trkpt>
   <trkpt lat="52.477953" lon="13.479363">
    <ele>37.8</ele>
    <time>2025-06-15T07:29:20.000Z</time>
   </trkpt>
   <trkpt lat="52.478037" lon="13.479559">
    <ele>37.8</ele>
    <time>2025-06-15T07:29:24.000Z</time>
   </trkpt>
   <trkpt lat="52.478063" lon="13.479605">
    <ele>37.6</ele>
    <time>2025-06-15T07:29:25.000Z</time>
   </trkpt>
   <trkpt lat="52.478123" lon="13.479764">
    <ele>37.6</ele>
    <time>2025-06-15T07:29:28.000Z</time>
   </trkpt>
   <trkpt lat="52.478208" lon="13.479949">
    <ele>37.4</ele>
    <time>2025-06-15T07:29:31.000Z</time>
   </trkpt>
   <trkpt lat="52.478347" lon="13.480218">
    <ele>37.6</ele>
    <time>2025-06-15T07:29:35.000Z</time>
   </trkpt>
   <trkpt lat="52.478408" lon="13.480355">
    <ele>37.6</ele>
    <time>2025-06-15T07:29:37.000Z</time>
   </trkpt>
   <trkpt lat="52.478595" lon="13.480701">
    <ele>37.8</ele>
    <time>2025-06-15T07:29:42.000Z</time>
   </trkpt>
   <trkpt lat="52.478692" lon="13.480893">
    <ele>37.6</ele>
    <time>2025-06-15T07:29:45.000Z</time>
   </trkpt>
   <trkpt lat="52.478773" lon="13.481028">
    <ele>37.6</ele>
    <time>2025-06-15T07:29:47.000Z</time>
   </trkpt>
   <trkpt lat="52.478987" lon="13.481436">
    <ele>37.4</ele>
    <time>2025-06-15T07:29:53.000Z</time>
   </trkpt>
   <trkpt lat="52.47905" lon="13.481557">
    <ele>37.4</ele>
    <time>2025-06-15T07:29:55.000Z</time>
   </trkpt>
   <trkpt lat="52.479225" lon="13.481875">
    <ele>37.6</ele>
    <time>2025-06-15T07:30:00.000Z</time>
   </trkpt>
   <trkpt lat="52.479336" lon="13.482117">
    <ele>37.6</ele>
    <time>2025-06-15T07:30:04.000Z</time>
   </trkpt>
   <trkpt lat="52.479387" lon="13.482208">
    <ele>37.6</ele>
    <time>2025-06-15T07:30:06.000Z</time>
   </trkpt>
   <trkpt lat="52.479427" lon="13.482316">
    <ele>37.6</ele>
    <time>2025-06-15T07:30:08.000Z</time>
   </trkpt>
   <trkpt lat="52.479459" lon="13.482379">
    <ele>37.6</ele>
    <time>2025-06-15T07:30:09.000Z</time>
   </trkpt>
   <trkpt lat="52.479683" lon="13.482797">
    <ele>37</ele>
    <time>2025-06-15T07:30:16.000Z</time>
   </trkpt>
   <trkpt lat="52.479749" lon="13.482914">
    <ele>37.2</ele>
    <time>2025-06-15T07:30:18.000Z</time>
   </trkpt>
   <trkpt lat="52.479886" lon="13.483188">
    <ele>37.2</ele>
    <time>2025-06-15T07:30:23.000Z</time>
   </trkpt>
   <trkpt lat="52.479911" lon="13.483246">
    <ele>37.2</ele>
    <time>2025-06-15T07:30:24.000Z</time>
   </trkpt>
   <trkpt lat="52.479988" lon="13.483413">
    <ele>37.2</ele>
    <time>2025-06-15T07:30:27.000Z</time>
   </trkpt>
   <trkpt lat="52.480031" lon="13.483446">
    <ele>37.4</ele>
    <time>2025-06-15T07:30:28.000Z</time>
   </trkpt>
   <trkpt lat="52.48008" lon="13.483457">
    <ele>37.4</ele>
    <time>2025-06-15T07:30:29.000Z</time>
   </trkpt>
   <trkpt lat="52.480172" lon="13.483413">
    <ele>37.4</ele>
    <time>2025-06-15T07:30:31.000Z</time>
   </trkpt>
   <trkpt lat="52.480251" lon="13.483354">
    <ele>37.4</ele>
    <time>2025-06-15T07:30:33.000Z</time>
   </trkpt>
   <trkpt lat="52.480443" lon="13.483191">
    <ele>37</ele>
    <time>2025-06-15T07:30:37.000Z</time>
   </trkpt>
   <trkpt lat="52.480767" lon="13.482916">
    <ele>37</ele>
    <time>2025-06-15T07:30:44.000Z</time>
   </trkpt>
   <trkpt lat="52.480949" lon="13.482766">
    <ele>36.8</ele>
    <time>2025-06-15T07:30:48.000Z</time>
   </trkpt>
   <trkpt lat="52.481219" lon="13.48251">
    <ele>37</ele>
    <time>2025-06-15T07:30:54.000Z</time>
   </trkpt>
   <trkpt lat="52.481642" lon="13.482135">
    <ele>37</ele>
    <time>2025-06-15T07:31:03.000Z</time>
   </trkpt>
   <trkpt lat="52.481917" lon="13.481904">
    <ele>37</ele>
    <time>2025-06-15T07:31:09.000Z</time>
   </trkpt>
   <trkpt lat="52.481964" lon="13.481871">
    <ele>37</ele>
    <time>2025-06-15T07:31:10.000Z</time>
   </trkpt>
   <trkpt lat="52.482152" lon="13.481694">
    <ele>37</ele>
    <time>2025-06-15T07:31:14.000Z</time>
   </trkpt>
   <trkpt lat="52.482248" lon="13.481621">
    <ele>37</ele>
    <time>2025-06-15T07:31:16.000Z</time>
   </trkpt>
   <trkpt lat="52.482531" lon="13.481378">
    <ele>37.2</ele>
    <time>2025-06-15T07:31:22.000Z</time>
   </trkpt>
   <trkpt lat="52.482961" lon="13.480974">
    <ele>37</ele>
    <time>2025-06-15T07:31:31.000Z</time>
   </trkpt>
   <trkpt lat="52.483392" lon="13.480568">
    <ele>36.8</ele>
    <time>2025-06-15T07:31:40.000Z</time>
   </trkpt>
   <trkpt lat="52.483875" lon="13.48013">
    <ele>36.8</ele>
    <time>2025-06-15T07:31:50.000Z</time>
   </trkpt>
   <trkpt lat="52.483923" lon="13.480083">
    <ele>36.8</ele>
    <time>2025-06-15T07:31:51.000Z</time>
   </trkpt>
   <trkpt lat="52.484267" lon="13.479787">
    <ele>36.6</ele>
    <time>2025-06-15T07:31:58.000Z</time>
   </trkpt>
   <trkpt lat="52.484359" lon="13.479707">
    <ele>36.6</ele>
    <time>2025-06-15T07:32:00.000Z</time>
   </trkpt>
   <trkpt lat="52.484693" lon="13.47948">
    <ele>36.6</ele>
    <time>2025-06-15T07:32:07.000Z</time>
   </trkpt>
   <trkpt lat="52.48474" lon="13.479462">
    <ele>36.6</ele>
    <time>2025-06-15T07:32:08.000Z</time>
   </trkpt>
   <trkpt lat="52.484783" lon="13.479441">
    <ele>36.6</ele>
    <time>2025-06-15T07:32:09.000Z</time>
   </trkpt>
   <trkpt lat="52.484911" lon="13.479335">
    <ele>36.6</ele>
    <time>2025-06-15T07:32:12.000Z</time>
   </trkpt>
   <trkpt lat="52.485119" lon="13.479145">
    <ele>36.6</ele>
    <time>2025-06-15T07:32:17.000Z</time>
   </trkpt>
   <trkpt lat="52.485241" lon="13.479007">
    <ele>36.4</ele>
    <time>2025-06-15T07:32:20.000Z</time>
   </trkpt>
   <trkpt lat="52.485414" lon="13.478849">
    <ele>36.4</ele>
    <time>2025-06-15T07:32:24.000Z</time>
   </trkpt>
   <trkpt lat="52.485508" lon="13.478773">
    <ele>36.2</ele>
    <time>2025-06-15T07:32:26.000Z</time>
   </trkpt>
   <trkpt lat="52.485869" lon="13.478435">
    <ele>36.2</ele>
    <time>2025-06-15T07:32:34.000Z</time>
   </trkpt>
   <trkpt lat="52.486075" lon="13.478214">
    <ele>36</ele>
    <time>2025-06-15T07:32:39.000Z</time>
   </trkpt>
   <trkpt lat="52.486408" lon="13.477933">
    <ele>36.2</ele>
    <time>2025-06-15T07:32:46.000Z</time>
   </trkpt>
   <trkpt lat="52.486748" lon="13.477637">
    <ele>36.2</ele>
    <time>2025-06-15T07:32:54.000Z</time>
   </trkpt>
   <trkpt lat="52.486785" lon="13.477596">
    <ele>36.4</ele>
    <time>2025-06-15T07:32:55.000Z</time>
   </trkpt>
   <trkpt lat="52.486897" lon="13.477474">
    <ele>36.4</ele>
    <time>2025-06-15T07:32:58.000Z</time>
   </trkpt>
   <trkpt lat="52.48699" lon="13.477395">
    <ele>36.4</ele>
    <time>2025-06-15T07:33:00.000Z</time>
   </trkpt>
   <trkpt lat="52.487121" lon="13.477259">
    <ele>36.6</ele>
    <time>2025-06-15T07:33:03.000Z</time>
   </trkpt>
   <trkpt lat="52.487202" lon="13.47717">
    <ele>36.6</ele>
    <time>2025-06-15T07:33:05.000Z</time>
   </trkpt>
   <trkpt lat="52.487246" lon="13.477143">
    <ele>36.6</ele>
    <time>2025-06-15T07:33:06.000Z</time>
   </trkpt>
   <trkpt lat="52.487332" lon="13.477079">
    <ele>36.6</ele>
    <time>2025-06-15T07:33:08.000Z</time>
   </trkpt>
   <trkpt lat="52.487416" lon="13.47701">
    <ele>36.4</ele>
    <time>2025-06-15T07:33:10.000Z</time>
   </trkpt>
   <trkpt lat="52.487453" lon="13.476964">
    <ele>36.4</ele>
    <time>2025-06-15T07:33:11.000Z</time>
   </trkpt>
   <trkpt lat="52.487524" lon="13.476869">
    <ele>36.2</ele>
    <time>2025-06-15T07:33:13.000Z</time>
   </trkpt>
   <trkpt lat="52.487674" lon="13.476677">
    <ele>36.2</ele>
    <time>2025-06-15T07:33:17.000Z</time>
   </trkpt>
   <trkpt lat="52.487756" lon="13.476573">
    <ele>36.2</ele>
    <time>2025-06-15T07:33:19.000Z</time>
   </trkpt>
   <trkpt lat="52.487853" lon="13.47638">
    <ele>36.2</ele>
    <time>2025-06-15T07:33:22.000Z</time>
   </trkpt>
   <trkpt lat="52.4879" lon="13.476259">
    <ele>36.2</ele>
    <time>2025-06-15T07:33:24.000Z</time>
   </trkpt>
   <trkpt lat="52.487926" lon="13.476199">
    <ele>36.2</ele>
    <time>2025-06-15T07:33:25.000Z</time>
   </trkpt>
   <trkpt lat="52.488002" lon="13.476061">
    <ele>36.2</ele>
    <time>2025-06-15T07:33:28.000Z</time>
   </trkpt>
   <trkpt lat="52.488077" lon="13.475888">
    <ele>36</ele>
    <time>2025-06-15T07:33:31.000Z</time>
   </trkpt>
   <trkpt lat="52.488122" lon="13.475736">
    <ele>36</ele>
    <time>2025-06-15T07:33:33.000Z</time>
   </trkpt>
   <trkpt lat="52.488178" lon="13.475549">
    <ele>35.8</ele>
    <time>2025-06-15T07:33:36.000Z</time>
   </trkpt>
   <trkpt lat="52.488221" lon="13.475407">
    <ele>35.8</ele>
    <time>2025-06-15T07:33:38.000Z</time>
   </trkpt>
   <trkpt lat="52.488242" lon="13.475338">
    <ele>35.8</ele>
    <time>2025-06-15T07:33:39.000Z</time>
   </trkpt>
   <trkpt lat="52.488296" lon="13.475114">
    <ele>35.8</ele>
    <time>2025-06-15T07:33:42.000Z</time>
   </trkpt>
   <trkpt lat="52.488331" lon="13.474966">
    <ele>35.8</ele>
    <time>2025-06-15T07:33:44.000Z</time>
   </trkpt>
   <trkpt lat="52.488401" lon="13.474761">
    <ele>35.8</ele>
    <time>2025-06-15T07:33:47.000Z</time>
   </trkpt>
   <trkpt lat="52.48844" lon="13.474624">
    <ele>35.8</ele>
    <time>2025-06-15T07:33:49.000Z</time>
   </trkpt>
   <trkpt lat="52.488472" lon="13.474493">
    <ele>36</ele>
    <time>2025-06-15T07:33:51.000Z</time>
   </trkpt>
   <trkpt lat="52.488507" lon="13.474326">
    <ele>36</ele>
    <time>2025-06-15T07:33:53.000Z</time>
   </trkpt>
   <trkpt lat="52.488575" lon="13.474069">
    <ele>36</ele>
    <time>2025-06-15T07:33:56.000Z</time>
   </trkpt>
   <trkpt lat="52.488631" lon="13.473919">
    <ele>36</ele>
    <time>2025-06-15T07:33:58.000Z</time>
   </trkpt>
   <trkpt lat="52.488653" lon="13.473854">
    <ele>36</ele>
    <time>2025-06-15T07:33:59.000Z</time>
   </trkpt>
   <trkpt lat="52.488679" lon="13.473783">
    <ele>36</ele>
    <time>2025-06-15T07:34:00.000Z</time>
   </trkpt>
   <trkpt lat="52.48873" lon="13.47364">
    <ele>36</ele>
    <time>2025-06-15T07:34:02.000Z</time>
   </trkpt>
   <trkpt lat="52.488749" lon="13.473556">
    <ele>36</ele>
    <time>2025-06-15T07:34:03.000Z</time>
   </trkpt>
   <trkpt lat="52.488767" lon="13.473429">
    <ele>36</ele>
    <time>2025-06-15T07:34:05.000Z</time>
   </trkpt>
   <trkpt lat="52.488796" lon="13.473189">
    <ele>36</ele>
    <time>2025-06-15T07:34:08.000Z</time>
   </trkpt>
   <trkpt lat="52.488838" lon="13.473099">
    <ele>36</ele>
    <time>2025-06-15T07:34:10.000Z</time>
   </trkpt>
   <trkpt lat="52.488881" lon="13.472976">
    <ele>36.2</ele>
    <time>2025-06-15T07:34:12.000Z</time>
   </trkpt>
   <trkpt lat="52.489007" lon="13.472496">
    <ele>36.2</ele>
    <time>2025-06-15T07:34:17.000Z</time>
   </trkpt>
   <trkpt lat="52.489035" lon="13.472431">
    <ele>36.2</ele>
    <time>2025-06-15T07:34:18.000Z</time>
   </trkpt>
   <trkpt lat="52.48906" lon="13.472359">
    <ele>36.2</ele>
    <time>2025-06-15T07:34:19.000Z</time>
   </trkpt>
   <trkpt lat="52.489141" lon="13.472051">
    <ele>36</ele>
    <time>2025-06-15T07:34:23.000Z</time>
   </trkpt>
   <trkpt lat="52.489236" lon="13.47163">
    <ele>35.8</ele>
    <time>2025-06-15T07:34:28.000Z</time>
   </trkpt>
   <trkpt lat="52.489291" lon="13.471484">
    <ele>35.8</ele>
    <time>2025-06-15T07:34:30.000Z</time>
   </trkpt>
   <trkpt lat="52.489381" lon="13.471297">
    <ele>35.8</ele>
    <time>2025-06-15T07:34:33.000Z</time>
   </trkpt>
   <trkpt lat="52.489418" lon="13.471125">
    <ele>35.8</ele>
    <time>2025-06-15T07:34:35.000Z</time>
   </trkpt>
   <trkpt lat="52.489508" lon="13.470875">
    <ele>35.8</ele>
    <time>2025-06-15T07:34:39.000Z</time>
   </trkpt>
   <trkpt lat="52.489571" lon="13.470707">
    <ele>35.8</ele>
    <time>2025-06-15T07:34:41.000Z</time>
   </trkpt>
   <trkpt lat="52.489609" lon="13.470543">
    <ele>35.8</ele>
    <time>2025-06-15T07:34:43.000Z</time>
   </trkpt>
   <trkpt lat="52.489664" lon="13.470372">
    <ele>35.8</ele>
    <time>2025-06-15T07:34:45.000Z</time>
   </trkpt>
   <trkpt lat="52.489683" lon="13.470304">
    <ele>35.8</ele>
    <time>2025-06-15T07:34:46.000Z</time>
   </trkpt>
   <trkpt lat="52.489746" lon="13.470226">
    <ele>35.6</ele>
    <time>2025-06-15T07:34:48.000Z</time>
   </trkpt>
   <trkpt lat="52.489778" lon="13.470033">
    <ele>35.6</ele>
    <time>2025-06-15T07:34:50.000Z</time>
   </trkpt>
   <trkpt lat="52.489793" lon="13.469944">
    <ele>35.6</ele>
    <time>2025-06-15T07:34:51.000Z</time>
   </trkpt>
   <trkpt lat="52.489807" lon="13.469854">
    <ele>35.6</ele>
    <time>2025-06-15T07:34:52.000Z</time>
   </trkpt>
   <trkpt lat="52.489892" lon="13.469589">
    <ele>35.8</ele>
    <time>2025-06-15T07:34:55.000Z</time>
   </trkpt>
   <trkpt lat="52.489927" lon="13.469443">
    <ele>35.8</ele>
    <time>2025-06-15T07:34:57.000Z</time>
   </trkpt>
   <trkpt lat="52.489953" lon="13.469322">
    <ele>35.6</ele>
    <time>2025-06-15T07:34:59.000Z</time>
   </trkpt>
   <trkpt lat="52.489983" lon="13.469171">
    <ele>35.6</ele>
    <time>2025-06-15T07:35:01.000Z</time>
   </trkpt>
   <trkpt lat="52.490087" lon="13.46894">
    <ele>35.4</ele>
    <time>2025-06-15T07:35:04.000Z</time>
   </trkpt>
   <trkpt lat="52.490151" lon="13.468772">
    <ele>35.4</ele>
    <time>2025-06-15T07:35:06.000Z</time>
   </trkpt>
   <trkpt lat="52.490179" lon="13.468688">
    <ele>35.4</ele>
    <time>2025-06-15T07:35:07.000Z</time>
   </trkpt>
   <trkpt lat="52.490212" lon="13.468543">
    <ele>35.2</ele>
    <time>2025-06-15T07:35:09.000Z</time>
   </trkpt>
   <trkpt lat="52.490287" lon="13.468274">
    <ele>35.4</ele>
    <time>2025-06-15T07:35:13.000Z</time>
   </trkpt>
   <trkpt lat="52.490339" lon="13.468138">
    <ele>35.2</ele>
    <time>2025-06-15T07:35:15.000Z</time>
   </trkpt>
   <trkpt lat="52.490399" lon="13.46799">
    <ele>35.2</ele>
    <time>2025-06-15T07:35:17.000Z</time>
   </trkpt>
   <trkpt lat="52.490426" lon="13.467928">
    <ele>35.2</ele>
    <time>2025-06-15T07:35:18.000Z</time>
   </trkpt>
   <trkpt lat="52.490472" lon="13.467774">
    <ele>35</ele>
    <time>2025-06-15T07:35:20.000Z</time>
   </trkpt>
   <trkpt lat="52.490492" lon="13.467702">
    <ele>35</ele>
    <time>2025-06-15T07:35:21.000Z</time>
   </trkpt>
   <trkpt lat="52.49057" lon="13.467429">
    <ele>35.2</ele>
    <time>2025-06-15T07:35:25.000Z</time>
   </trkpt>
   <trkpt lat="52.490611" lon="13.467266">
    <ele>35.2</ele>
    <time>2025-06-15T07:35:27.000Z</time>
   </trkpt>
   <trkpt lat="52.490657" lon="13.467103">
    <ele>35.2</ele>
    <time>2025-06-15T07:35:29.000Z</time>
   </trkpt>
   <trkpt lat="52.490712" lon="13.466895">
    <ele>35.2</ele>
    <time>2025-06-15T07:35:32.000Z</time>
   </trkpt>
   <trkpt lat="52.490778" lon="13.466673">
    <ele>35.4</ele>
    <time>2025-06-15T07:35:35.000Z</time>
   </trkpt>
   <trkpt lat="52.490834" lon="13.466518">
    <ele>35.2</ele>
    <time>2025-06-15T07:35:37.000Z</time>
   </trkpt>
   <trkpt lat="52.490861" lon="13.466442">
    <ele>35.2</ele>
    <time>2025-06-15T07:35:38.000Z</time>
   </trkpt>
   <trkpt lat="52.490876" lon="13.46624">
    <ele>35.4</ele>
    <time>2025-06-15T07:35:40.000Z</time>
   </trkpt>
   <trkpt lat="52.490889" lon="13.466049">
    <ele>35.4</ele>
    <time>2025-06-15T07:35:42.000Z</time>
   </trkpt>
   <trkpt lat="52.490935" lon="13.465915">
    <ele>35.4</ele>
    <time>2025-06-15T07:35:44.000Z</time>
   </trkpt>
   <trkpt lat="52.491016" lon="13.465748">
    <ele>35.4</ele>
    <time>2025-06-15T07:35:47.000Z</time>
   </trkpt>
   <trkpt lat="52.491051" lon="13.465678">
    <ele>35.4</ele>
    <time>2025-06-15T07:35:48.000Z</time>
   </trkpt>
   <trkpt lat="52.491075" lon="13.46561">
    <ele>35.4</ele>
    <time>2025-06-15T07:35:49.000Z</time>
   </trkpt>
   <trkpt lat="52.491118" lon="13.465484">
    <ele>35.6</ele>
    <time>2025-06-15T07:35:51.000Z</time>
   </trkpt>
   <trkpt lat="52.491164" lon="13.465368">
    <ele>35.6</ele>
    <time>2025-06-15T07:35:53.000Z</time>
   </trkpt>
   <trkpt lat="52.491252" lon="13.46508">
    <ele>36.2</ele>
    <time>2025-06-15T07:35:57.000Z</time>
   </trkpt>
   <trkpt lat="52.49134" lon="13.464807">
    <ele>36.2</ele>
    <time>2025-06-15T07:36:01.000Z</time>
   </trkpt>
   <trkpt lat="52.49136" lon="13.464735">
    <ele>36.2</ele>
    <time>2025-06-15T07:36:02.000Z</time>
   </trkpt>
   <trkpt lat="52.491445" lon="13.46444">
    <ele>36.2</ele>
    <time>2025-06-15T07:36:06.000Z</time>
   </trkpt>
   <trkpt lat="52.491488" lon="13.464304">
    <ele>36.2</ele>
    <time>2025-06-15T07:36:08.000Z</time>
   </trkpt>
   <trkpt lat="52.491515" lon="13.464253">
    <ele>36</ele>
    <time>2025-06-15T07:36:09.000Z</time>
   </trkpt>
   <trkpt lat="52.491541" lon="13.4642">
    <ele>36</ele>
    <time>2025-06-15T07:36:10.000Z</time>
   </trkpt>
   <trkpt lat="52.491611" lon="13.464001">
    <ele>36</ele>
    <time>2025-06-15T07:36:13.000Z</time>
   </trkpt>
   <trkpt lat="52.49163" lon="13.463948">
    <ele>36</ele>
    <time>2025-06-15T07:36:14.000Z</time>
   </trkpt>
   <trkpt lat="52.491665" lon="13.463813">
    <ele>36</ele>
    <time>2025-06-15T07:36:16.000Z</time>
   </trkpt>
   <trkpt lat="52.49167" lon="13.46371">
    <ele>36</ele>
    <time>2025-06-15T07:36:17.000Z</time>
   </trkpt>
   <trkpt lat="52.49168" lon="13.463611">
    <ele>35.8</ele>
    <time>2025-06-15T07:36:18.000Z</time>
   </trkpt>
   <trkpt lat="52.491726" lon="13.463355">
    <ele>36</ele>
    <time>2025-06-15T07:36:21.000Z</time>
   </trkpt>
   <trkpt lat="52.491934" lon="13.462667">
    <ele>35.8</ele>
    <time>2025-06-15T07:36:30.000Z</time>
   </trkpt>
   <trkpt lat="52.492062" lon="13.462249">
    <ele>35.8</ele>
    <time>2025-06-15T07:36:36.000Z</time>
   </trkpt>
   <trkpt lat="52.492111" lon="13.462117">
    <ele>35.8</ele>
    <time>2025-06-15T07:36:38.000Z</time>
   </trkpt>
   <trkpt lat="52.492139" lon="13.462062">
    <ele>35.8</ele>
    <time>2025-06-15T07:36:39.000Z</time>
   </trkpt>
   <trkpt lat="52.492188" lon="13.461957">
    <ele>35.8</ele>
    <time>2025-06-15T07:36:41.000Z</time>
   </trkpt>
   <trkpt lat="52.492247" lon="13.461787">
    <ele>35.8</ele>
    <time>2025-06-15T07:36:44.000Z</time>
   </trkpt>
   <trkpt lat="52.492381" lon="13.461376">
    <ele>35.6</ele>
    <time>2025-06-15T07:36:51.000Z</time>
   </trkpt>
   <trkpt lat="52.492437" lon="13.461279">
    <ele>35.6</ele>
    <time>2025-06-15T07:36:53.000Z</time>
   </trkpt>
   <trkpt lat="52.492476" lon="13.461258">
    <ele>35.6</ele>
    <time>2025-06-15T07:36:54.000Z</time>
   </trkpt>
   <trkpt lat="52.492581" lon="13.461302">
    <ele>35.6</ele>
    <time>2025-06-15T07:36:58.000Z</time>
   </trkpt>
   <trkpt lat="52.492602" lon="13.461324">
    <ele>35.6</ele>
    <time>2025-06-15T07:36:59.000Z</time>
   </trkpt>
   <trkpt lat="52.492724" lon="13.461409">
    <ele>35.6</ele>
    <time>2025-06-15T07:37:03.000Z</time>
   </trkpt>
   <trkpt lat="52.492848" lon="13.461484">
    <ele>35.4</ele>
    <time>2025-06-15T07:37:09.000Z</time>
   </trkpt>
   <trkpt lat="52.492974" lon="13.461612">
    <ele>35.6</ele>
    <time>2025-06-15T07:37:14.000Z</time>
   </trkpt>
   <trkpt lat="52.493001" lon="13.461787">
    <ele>35.4</ele>
    <time>2025-06-15T07:37:19.000Z</time>
   </trkpt>
   <trkpt lat="52.493013" lon="13.461782">
    <ele>35</ele>
    <time>2025-06-15T07:38:18.000Z</time>
   </trkpt>
   <trkpt lat="52.493014" lon="13.461763">
    <ele>35</ele>
    <time>2025-06-15T07:38:19.000Z</time>
   </trkpt>
   <trkpt lat="52.493021" lon="13.461746">
    <ele>35</ele>
    <time>2025-06-15T07:38:20.000Z</time>
   </trkpt>
   <trkpt lat="52.493033" lon="13.461735">
    <ele>35</ele>
    <time>2025-06-15T07:38:21.000Z</time>
   </trkpt>
   <trkpt lat="52.493063" lon="13.46174">
    <ele>35.2</ele>
    <time>2025-06-15T07:38:23.000Z</time>
   </trkpt>
   <trkpt lat="52.49308" lon="13.461761">
    <ele>35.2</ele>
    <time>2025-06-15T07:38:24.000Z</time>
   </trkpt>
   <trkpt lat="52.49319" lon="13.461866">
    <ele>35.4</ele>
    <time>2025-06-15T07:38:29.000Z</time>
   </trkpt>
   <trkpt lat="52.493309" lon="13.461968">
    <ele>35.8</ele>
    <time>2025-06-15T07:38:34.000Z</time>
   </trkpt>
   <trkpt lat="52.493381" lon="13.462033">
    <ele>36</ele>
    <time>2025-06-15T07:38:37.000Z</time>
   </trkpt>
   <trkpt lat="52.493565" lon="13.462236">
    <ele>36.6</ele>
    <time>2025-06-15T07:38:44.000Z</time>
   </trkpt>
   <trkpt lat="52.493581" lon="13.46225">
    <ele>36.6</ele>
    <time>2025-06-15T07:38:45.000Z</time>
   </trkpt>
  </trkseg>
 </trk>
</gpx>
