<?xml version="1.0" encoding="UTF-8"?>
<gpx creator="StravaGPX" version="1.1" xmlns="http://www.topografix.com/GPX/1/1">
 <metadata>
  <time>2019-08-06T00:12:45Z</time>
 </metadata>
 <trk>
  <name>Night Ride</name>
  <type>1</type>
  <trkseg>
   <trkpt lat="-8.057489" lon="-34.899093">
    <ele>6</ele>
    <time>2019-08-06T00:12:45.000Z</time>
   </trkpt>
   <trkpt lat="-8.057653" lon="-34.899141">
    <ele>6.3</ele>
    <time>2019-08-06T00:12:53.000Z</time>
   </trkpt>
   <trkpt lat="-8.057626" lon="-34.899162">
    <ele>6.3</ele>
    <time>2019-08-06T00:12:56.000Z</time>
   </trkpt>
   <trkpt lat="-8.057596" lon="-34.899166">
    <ele>6.3</ele>
    <time>2019-08-06T00:12:58.000Z</time>
   </trkpt>
   <trkpt lat="-8.057565" lon="-34.899193">
    <ele>6.4</ele>
    <time>2019-08-06T00:13:00.000Z</time>
   </trkpt>
   <trkpt lat="-8.057558" lon="-34.899251">
    <ele>6.5</ele>
    <time>2019-08-06T00:13:02.000Z</time>
   </trkpt>
   <trkpt lat="-8.057561" lon="-34.899291">
    <ele>6.6</ele>
    <time>2019-08-06T00:13:03.000Z</time>
   </trkpt>
   <trkpt lat="-8.057568" lon="-34.899334">
    <ele>6.7</ele>
    <time>2019-08-06T00:13:04.000Z</time>
   </trkpt>
   <trkpt lat="-8.057581" lon="-34.899373">
    <ele>6.8</ele>
    <time>2019-08-06T00:13:05.000Z</time>
   </trkpt>
   <trkpt lat="-8.057583" lon="-34.899411">
    <ele>6.9</ele>
    <time>2019-08-06T00:13:06.000Z</time>
   </trkpt>
   <trkpt lat="-8.057581" lon="-34.899445">
    <ele>7</ele>
    <time>2019-08-06T00:13:07.000Z</time>
   </trkpt>
   <trkpt lat="-8.057581" lon="-34.899478">
    <ele>7.1</ele>
    <time>2019-08-06T00:13:08.000Z</time>
   </trkpt>
   <trkpt lat="-8.057576" lon="-34.899508">
    <ele>7.1</ele>
    <time>2019-08-06T00:13:09.000Z</time>
   </trkpt>
   <trkpt lat="-8.057578" lon="-34.899543">
    <ele>7.2</ele>
    <time>2019-08-06T00:13:10.000Z</time>
   </trkpt>
   <trkpt lat="-8.057577" lon="-34.899571">
    <ele>7.2</ele>
    <time>2019-08-06T00:13:11.000Z</time>
   </trkpt>
   <trkpt lat="-8.057564" lon="-34.899625">
    <ele>7.3</ele>
    <time>2019-08-06T00:13:13.000Z</time>
   </trkpt>
   <trkpt lat="-8.057566" lon="-34.899662">
    <ele>7.6</ele>
    <time>2019-08-06T00:13:14.000Z</time>
   </trkpt>
   <trkpt lat="-8.057578" lon="-34.899706">
    <ele>7.9</ele>
    <time>2019-08-06T00:13:15.000Z</time>
   </trkpt>
   <trkpt lat="-8.057583" lon="-34.899741">
    <ele>8.1</ele>
    <time>2019-08-06T00:13:16.000Z</time>
   </trkpt>
   <trkpt lat="-8.057579" lon="-34.899778">
    <ele>8.3</ele>
    <time>2019-08-06T00:13:17.000Z</time>
   </trkpt>
   <trkpt lat="-8.057579" lon="-34.899814">
    <ele>8.5</ele>
    <time>2019-08-06T00:13:18.000Z</time>
   </trkpt>
   <trkpt lat="-8.057581" lon="-34.899843">
    <ele>8.6</ele>
    <time>2019-08-06T00:13:19.000Z</time>
   </trkpt>
   <trkpt lat="-8.057574" lon="-34.899872">
    <ele>8.8</ele>
    <time>2019-08-06T00:13:20.000Z</time>
   </trkpt>
   <trkpt lat="-8.057569" lon="-34.899901">
    <ele>9</ele>
    <time>2019-08-06T00:13:21.000Z</time>
   </trkpt>
   <trkpt lat="-8.05756" lon="-34.899932">
    <ele>9.2</ele>
    <time>2019-08-06T00:13:22.000Z</time>
   </trkpt>
   <trkpt lat="-8.057549" lon="-34.899962">
    <ele>9.4</ele>
    <time>2019-08-06T00:13:23.000Z</time>
   </trkpt>
   <trkpt lat="-8.057502" lon="-34.899991">
    <ele>9.8</ele>
    <time>2019-08-06T00:13:25.000Z</time>
   </trkpt>
   <trkpt lat="-8.057475" lon="-34.899999">
    <ele>9.8</ele>
    <time>2019-08-06T00:13:26.000Z</time>
   </trkpt>
   <trkpt lat="-8.057439" lon="-34.9">
    <ele>9.8</ele>
    <time>2019-08-06T00:13:27.000Z</time>
   </trkpt>
   <trkpt lat="-8.057399" lon="-34.900007">
    <ele>9.7</ele>
    <time>2019-08-06T00:13:28.000Z</time>
   </trkpt>
   <trkpt lat="-8.05735" lon="-34.900004">
    <ele>9.6</ele>
    <time>2019-08-06T00:13:29.000Z</time>
   </trkpt>
   <trkpt lat="-8.057309" lon="-34.900007">
    <ele>9.5</ele>
    <time>2019-08-06T00:13:30.000Z</time>
   </trkpt>
   <trkpt lat="-8.057272" lon="-34.900012">
    <ele>9.4</ele>
    <time>2019-08-06T00:13:31.000Z</time>
   </trkpt>
   <trkpt lat="-8.057243" lon="-34.900017">
    <ele>9.3</ele>
    <time>2019-08-06T00:13:32.000Z</time>
   </trkpt>
   <trkpt lat="-8.05721" lon="-34.900016">
    <ele>9.2</ele>
    <time>2019-08-06T00:13:35.000Z</time>
   </trkpt>
   <trkpt lat="-8.057233" lon="-34.900031">
    <ele>9.2</ele>
    <time>2019-08-06T00:13:41.000Z</time>
   </trkpt>
   <trkpt lat="-8.057187" lon="-34.900045">
    <ele>9.1</ele>
    <time>2019-08-06T00:13:52.000Z</time>
   </trkpt>
   <trkpt lat="-8.057143" lon="-34.900045">
    <ele>9</ele>
    <time>2019-08-06T00:13:54.000Z</time>
   </trkpt>
   <trkpt lat="-8.057112" lon="-34.900048">
    <ele>8.9</ele>
    <time>2019-08-06T00:13:55.000Z</time>
   </trkpt>
   <trkpt lat="-8.057079" lon="-34.900061">
    <ele>8.8</ele>
    <time>2019-08-06T00:13:56.000Z</time>
   </trkpt>
   <trkpt lat="-8.057038" lon="-34.90005">
    <ele>8.8</ele>
    <time>2019-08-06T00:13:57.000Z</time>
   </trkpt>
   <trkpt lat="-8.057002" lon="-34.900053">
    <ele>8.8</ele>
    <time>2019-08-06T00:13:58.000Z</time>
   </trkpt>
   <trkpt lat="-8.056963" lon="-34.900058">
    <ele>8.8</ele>
    <time>2019-08-06T00:13:59.000Z</time>
   </trkpt>
   <trkpt lat="-8.056916" lon="-34.90006">
    <ele>9.1</ele>
    <time>2019-08-06T00:14:00.000Z</time>
   </trkpt>
   <trkpt lat="-8.056866" lon="-34.900054">
    <ele>9.3</ele>
    <time>2019-08-06T00:14:01.000Z</time>
   </trkpt>
   <trkpt lat="-8.05681" lon="-34.900051">
    <ele>9.6</ele>
    <time>2019-08-06T00:14:02.000Z</time>
   </trkpt>
   <trkpt lat="-8.056748" lon="-34.900041">
    <ele>9.9</ele>
    <time>2019-08-06T00:14:03.000Z</time>
   </trkpt>
   <trkpt lat="-8.056695" lon="-34.900029">
    <ele>10.1</ele>
    <time>2019-08-06T00:14:04.000Z</time>
   </trkpt>
   <trkpt lat="-8.056643" lon="-34.900023">
    <ele>10.4</ele>
    <time>2019-08-06T00:14:05.000Z</time>
   </trkpt>
   <trkpt lat="-8.056592" lon="-34.900019">
    <ele>10.6</ele>
    <time>2019-08-06T00:14:06.000Z</time>
   </trkpt>
   <trkpt lat="-8.056547" lon="-34.90002">
    <ele>10.8</ele>
    <time>2019-08-06T00:14:07.000Z</time>
   </trkpt>
   <trkpt lat="-8.056499" lon="-34.900026">
    <ele>11</ele>
    <time>2019-08-06T00:14:08.000Z</time>
   </trkpt>
   <trkpt lat="-8.05645" lon="-34.900033">
    <ele>11.2</ele>
    <time>2019-08-06T00:14:09.000Z</time>
   </trkpt>
   <trkpt lat="-8.056402" lon="-34.900038">
    <ele>11.3</ele>
    <time>2019-08-06T00:14:10.000Z</time>
   </trkpt>
   <trkpt lat="-8.056354" lon="-34.900043">
    <ele>11.5</ele>
    <time>2019-08-06T00:14:11.000Z</time>
   </trkpt>
   <trkpt lat="-8.056295" lon="-34.900056">
    <ele>11.7</ele>
    <time>2019-08-06T00:14:12.000Z</time>
   </trkpt>
   <trkpt lat="-8.056235" lon="-34.900072">
    <ele>12</ele>
    <time>2019-08-06T00:14:13.000Z</time>
   </trkpt>
   <trkpt lat="-8.056176" lon="-34.900064">
    <ele>12.2</ele>
    <time>2019-08-06T00:14:14.000Z</time>
   </trkpt>
   <trkpt lat="-8.05611" lon="-34.900066">
    <ele>12.4</ele>
    <time>2019-08-06T00:14:15.000Z</time>
   </trkpt>
   <trkpt lat="-8.056048" lon="-34.900069">
    <ele>12.6</ele>
    <time>2019-08-06T00:14:16.000Z</time>
   </trkpt>
   <trkpt lat="-8.055986" lon="-34.900072">
    <ele>13.1</ele>
    <time>2019-08-06T00:14:17.000Z</time>
   </trkpt>
   <trkpt lat="-8.05593" lon="-34.900069">
    <ele>12.9</ele>
    <time>2019-08-06T00:14:18.000Z</time>
   </trkpt>
   <trkpt lat="-8.055877" lon="-34.900059">
    <ele>12.8</ele>
    <time>2019-08-06T00:14:19.000Z</time>
   </trkpt>
   <trkpt lat="-8.055817" lon="-34.900051">
    <ele>12.6</ele>
    <time>2019-08-06T00:14:20.000Z</time>
   </trkpt>
   <trkpt lat="-8.055763" lon="-34.900065">
    <ele>12.4</ele>
    <time>2019-08-06T00:14:21.000Z</time>
   </trkpt>
   <trkpt lat="-8.055706" lon="-34.900065">
    <ele>12.3</ele>
    <time>2019-08-06T00:14:22.000Z</time>
   </trkpt>
   <trkpt lat="-8.055649" lon="-34.900074">
    <ele>12.1</ele>
    <time>2019-08-06T00:14:23.000Z</time>
   </trkpt>
   <trkpt lat="-8.055596" lon="-34.90008">
    <ele>12</ele>
    <time>2019-08-06T00:14:24.000Z</time>
   </trkpt>
   <trkpt lat="-8.055546" lon="-34.900083">
    <ele>11.9</ele>
    <time>2019-08-06T00:14:25.000Z</time>
   </trkpt>
   <trkpt lat="-8.0555" lon="-34.900089">
    <ele>11.8</ele>
    <time>2019-08-06T00:14:26.000Z</time>
   </trkpt>
   <trkpt lat="-8.055451" lon="-34.90009">
    <ele>11.7</ele>
    <time>2019-08-06T00:14:27.000Z</time>
   </trkpt>
   <trkpt lat="-8.055391" lon="-34.90009">
    <ele>11.5</ele>
    <time>2019-08-06T00:14:28.000Z</time>
   </trkpt>
   <trkpt lat="-8.05534" lon="-34.900094">
    <ele>11.4</ele>
    <time>2019-08-06T00:14:29.000Z</time>
   </trkpt>
   <trkpt lat="-8.055291" lon="-34.900101">
    <ele>11.3</ele>
    <time>2019-08-06T00:14:30.000Z</time>
   </trkpt>
   <trkpt lat="-8.055233" lon="-34.900102">
    <ele>11.2</ele>
    <time>2019-08-06T00:14:31.000Z</time>
   </trkpt>
   <trkpt lat="-8.055177" lon="-34.900102">
    <ele>11.1</ele>
    <time>2019-08-06T00:14:32.000Z</time>
   </trkpt>
   <trkpt lat="-8.055127" lon="-34.900104">
    <ele>10.9</ele>
    <time>2019-08-06T00:14:33.000Z</time>
   </trkpt>
   <trkpt lat="-8.055078" lon="-34.900106">
    <ele>10.9</ele>
    <time>2019-08-06T00:14:34.000Z</time>
   </trkpt>
   <trkpt lat="-8.055023" lon="-34.900098">
    <ele>11.5</ele>
    <time>2019-08-06T00:14:35.000Z</time>
   </trkpt>
   <trkpt lat="-8.054966" lon="-34.900105">
    <ele>13.1</ele>
    <time>2019-08-06T00:14:36.000Z</time>
   </trkpt>
   <trkpt lat="-8.054907" lon="-34.900114">
    <ele>14.1</ele>
    <time>2019-08-06T00:14:37.000Z</time>
   </trkpt>
   <trkpt lat="-8.054848" lon="-34.900136">
    <ele>15.2</ele>
    <time>2019-08-06T00:14:38.000Z</time>
   </trkpt>
   <trkpt lat="-8.054795" lon="-34.90014">
    <ele>16.1</ele>
    <time>2019-08-06T00:14:39.000Z</time>
   </trkpt>
   <trkpt lat="-8.05474" lon="-34.900129">
    <ele>16.6</ele>
    <time>2019-08-06T00:14:40.000Z</time>
   </trkpt>
   <trkpt lat="-8.054675" lon="-34.90013">
    <ele>17.3</ele>
    <time>2019-08-06T00:14:41.000Z</time>
   </trkpt>
   <trkpt lat="-8.054611" lon="-34.90013">
    <ele>17.5</ele>
    <time>2019-08-06T00:14:42.000Z</time>
   </trkpt>
   <trkpt lat="-8.054545" lon="-34.900126">
    <ele>17.7</ele>
    <time>2019-08-06T00:14:43.000Z</time>
   </trkpt>
   <trkpt lat="-8.054478" lon="-34.900136">
    <ele>18.1</ele>
    <time>2019-08-06T00:14:44.000Z</time>
   </trkpt>
   <trkpt lat="-8.054414" lon="-34.90014">
    <ele>18.1</ele>
    <time>2019-08-06T00:14:45.000Z</time>
   </trkpt>
   <trkpt lat="-8.054354" lon="-34.900143">
    <ele>18.1</ele>
    <time>2019-08-06T00:14:46.000Z</time>
   </trkpt>
   <trkpt lat="-8.054296" lon="-34.900149">
    <ele>18.2</ele>
    <time>2019-08-06T00:14:47.000Z</time>
   </trkpt>
   <trkpt lat="-8.054241" lon="-34.900157">
    <ele>18.3</ele>
    <time>2019-08-06T00:14:48.000Z</time>
   </trkpt>
   <trkpt lat="-8.054187" lon="-34.900167">
    <ele>18.3</ele>
    <time>2019-08-06T00:14:49.000Z</time>
   </trkpt>
   <trkpt lat="-8.054133" lon="-34.900184">
    <ele>18.4</ele>
    <time>2019-08-06T00:14:50.000Z</time>
   </trkpt>
   <trkpt lat="-8.054081" lon="-34.900188">
    <ele>18.5</ele>
    <time>2019-08-06T00:14:51.000Z</time>
   </trkpt>
   <trkpt lat="-8.054027" lon="-34.900188">
    <ele>18.5</ele>
    <time>2019-08-06T00:14:52.000Z</time>
   </trkpt>
   <trkpt lat="-8.053979" lon="-34.900188">
    <ele>18.6</ele>
    <time>2019-08-06T00:14:53.000Z</time>
   </trkpt>
   <trkpt lat="-8.053932" lon="-34.90017">
    <ele>18.6</ele>
    <time>2019-08-06T00:14:54.000Z</time>
   </trkpt>
   <trkpt lat="-8.053884" lon="-34.900158">
    <ele>18.7</ele>
    <time>2019-08-06T00:14:55.000Z</time>
   </trkpt>
   <trkpt lat="-8.053834" lon="-34.900148">
    <ele>18.4</ele>
    <time>2019-08-06T00:14:56.000Z</time>
   </trkpt>
   <trkpt lat="-8.053783" lon="-34.900142">
    <ele>18.2</ele>
    <time>2019-08-06T00:14:57.000Z</time>
   </trkpt>
   <trkpt lat="-8.053731" lon="-34.900123">
    <ele>18</ele>
    <time>2019-08-06T00:14:58.000Z</time>
   </trkpt>
   <trkpt lat="-8.053679" lon="-34.900098">
    <ele>17.8</ele>
    <time>2019-08-06T00:14:59.000Z</time>
   </trkpt>
   <trkpt lat="-8.053624" lon="-34.900071">
    <ele>17.7</ele>
    <time>2019-08-06T00:15:00.000Z</time>
   </trkpt>
   <trkpt lat="-8.053574" lon="-34.900051">
    <ele>17.6</ele>
    <time>2019-08-06T00:15:01.000Z</time>
   </trkpt>
   <trkpt lat="-8.053523" lon="-34.900028">
    <ele>17.6</ele>
    <time>2019-08-06T00:15:02.000Z</time>
   </trkpt>
   <trkpt lat="-8.053466" lon="-34.900004">
    <ele>17.6</ele>
    <time>2019-08-06T00:15:03.000Z</time>
   </trkpt>
   <trkpt lat="-8.053416" lon="-34.899981">
    <ele>17.6</ele>
    <time>2019-08-06T00:15:04.000Z</time>
   </trkpt>
   <trkpt lat="-8.053369" lon="-34.899965">
    <ele>17.7</ele>
    <time>2019-08-06T00:15:05.000Z</time>
   </trkpt>
   <trkpt lat="-8.053315" lon="-34.899953">
    <ele>17.5</ele>
    <time>2019-08-06T00:15:06.000Z</time>
   </trkpt>
   <trkpt lat="-8.053265" lon="-34.899942">
    <ele>17.5</ele>
    <time>2019-08-06T00:15:07.000Z</time>
   </trkpt>
   <trkpt lat="-8.053215" lon="-34.89992">
    <ele>17.4</ele>
    <time>2019-08-06T00:15:08.000Z</time>
   </trkpt>
   <trkpt lat="-8.053163" lon="-34.899906">
    <ele>17.2</ele>
    <time>2019-08-06T00:15:09.000Z</time>
   </trkpt>
   <trkpt lat="-8.053113" lon="-34.899887">
    <ele>17.1</ele>
    <time>2019-08-06T00:15:10.000Z</time>
   </trkpt>
   <trkpt lat="-8.053062" lon="-34.899863">
    <ele>17</ele>
    <time>2019-08-06T00:15:11.000Z</time>
   </trkpt>
   <trkpt lat="-8.053016" lon="-34.899841">
    <ele>16.9</ele>
    <time>2019-08-06T00:15:12.000Z</time>
   </trkpt>
   <trkpt lat="-8.052964" lon="-34.899804">
    <ele>16.7</ele>
    <time>2019-08-06T00:15:13.000Z</time>
   </trkpt>
   <trkpt lat="-8.052913" lon="-34.899773">
    <ele>16.6</ele>
    <time>2019-08-06T00:15:14.000Z</time>
   </trkpt>
   <trkpt lat="-8.052863" lon="-34.899745">
    <ele>16.5</ele>
    <time>2019-08-06T00:15:15.000Z</time>
   </trkpt>
   <trkpt lat="-8.05282" lon="-34.899707">
    <ele>16.4</ele>
    <time>2019-08-06T00:15:16.000Z</time>
   </trkpt>
   <trkpt lat="-8.052789" lon="-34.899668">
    <ele>16.3</ele>
    <time>2019-08-06T00:15:17.000Z</time>
   </trkpt>
   <trkpt lat="-8.052758" lon="-34.899637">
    <ele>16.2</ele>
    <time>2019-08-06T00:15:18.000Z</time>
   </trkpt>
   <trkpt lat="-8.052728" lon="-34.899607">
    <ele>16.1</ele>
    <time>2019-08-06T00:15:19.000Z</time>
   </trkpt>
   <trkpt lat="-8.052698" lon="-34.899582">
    <ele>16.1</ele>
    <time>2019-08-06T00:15:20.000Z</time>
   </trkpt>
   <trkpt lat="-8.052674" lon="-34.899562">
    <ele>15.6</ele>
    <time>2019-08-06T00:15:21.000Z</time>
   </trkpt>
   <trkpt lat="-8.05265" lon="-34.899547">
    <ele>15.3</ele>
    <time>2019-08-06T00:15:22.000Z</time>
   </trkpt>
   <trkpt lat="-8.05261" lon="-34.899534">
    <ele>14.7</ele>
    <time>2019-08-06T00:15:24.000Z</time>
   </trkpt>
   <trkpt lat="-8.052584" lon="-34.899523">
    <ele>14.3</ele>
    <time>2019-08-06T00:15:25.000Z</time>
   </trkpt>
   <trkpt lat="-8.052549" lon="-34.899511">
    <ele>13.9</ele>
    <time>2019-08-06T00:15:27.000Z</time>
   </trkpt>
   <trkpt lat="-8.052513" lon="-34.89952">
    <ele>13.4</ele>
    <time>2019-08-06T00:16:06.000Z</time>
   </trkpt>
   <trkpt lat="-8.052481" lon="-34.899519">
    <ele>13</ele>
    <time>2019-08-06T00:16:07.000Z</time>
   </trkpt>
   <trkpt lat="-8.052447" lon="-34.899509">
    <ele>12.5</ele>
    <time>2019-08-06T00:16:08.000Z</time>
   </trkpt>
   <trkpt lat="-8.052403" lon="-34.899495">
    <ele>12.1</ele>
    <time>2019-08-06T00:16:09.000Z</time>
   </trkpt>
   <trkpt lat="-8.052357" lon="-34.899483">
    <ele>11.8</ele>
    <time>2019-08-06T00:16:10.000Z</time>
   </trkpt>
   <trkpt lat="-8.052318" lon="-34.899468">
    <ele>11.6</ele>
    <time>2019-08-06T00:16:11.000Z</time>
   </trkpt>
   <trkpt lat="-8.052279" lon="-34.899446">
    <ele>11.6</ele>
    <time>2019-08-06T00:16:12.000Z</time>
   </trkpt>
   <trkpt lat="-8.05224" lon="-34.899422">
    <ele>11.7</ele>
    <time>2019-08-06T00:16:13.000Z</time>
   </trkpt>
   <trkpt lat="-8.05221" lon="-34.899402">
    <ele>11.7</ele>
    <time>2019-08-06T00:16:14.000Z</time>
   </trkpt>
   <trkpt lat="-8.052186" lon="-34.899386">
    <ele>11.7</ele>
    <time>2019-08-06T00:16:15.000Z</time>
   </trkpt>
   <trkpt lat="-8.052141" lon="-34.899361">
    <ele>11.7</ele>
    <time>2019-08-06T00:16:17.000Z</time>
   </trkpt>
   <trkpt lat="-8.052091" lon="-34.89934">
    <ele>11.8</ele>
    <time>2019-08-06T00:16:18.000Z</time>
   </trkpt>
   <trkpt lat="-8.05204" lon="-34.899324">
    <ele>11.8</ele>
    <time>2019-08-06T00:16:19.000Z</time>
   </trkpt>
   <trkpt lat="-8.051999" lon="-34.899308">
    <ele>11.8</ele>
    <time>2019-08-06T00:16:20.000Z</time>
   </trkpt>
   <trkpt lat="-8.051958" lon="-34.899286">
    <ele>11.8</ele>
    <time>2019-08-06T00:16:21.000Z</time>
   </trkpt>
   <trkpt lat="-8.051919" lon="-34.899262">
    <ele>11.8</ele>
    <time>2019-08-06T00:16:22.000Z</time>
   </trkpt>
   <trkpt lat="-8.051886" lon="-34.899249">
    <ele>11.8</ele>
    <time>2019-08-06T00:16:23.000Z</time>
   </trkpt>
   <trkpt lat="-8.051858" lon="-34.899222">
    <ele>11.9</ele>
    <time>2019-08-06T00:16:24.000Z</time>
   </trkpt>
   <trkpt lat="-8.051828" lon="-34.899199">
    <ele>11.9</ele>
    <time>2019-08-06T00:16:26.000Z</time>
   </trkpt>
   <trkpt lat="-8.051803" lon="-34.899183">
    <ele>11.9</ele>
    <time>2019-08-06T00:16:27.000Z</time>
   </trkpt>
   <trkpt lat="-8.051764" lon="-34.899155">
    <ele>11.9</ele>
    <time>2019-08-06T00:16:28.000Z</time>
   </trkpt>
   <trkpt lat="-8.051728" lon="-34.899139">
    <ele>11.9</ele>
    <time>2019-08-06T00:16:29.000Z</time>
   </trkpt>
   <trkpt lat="-8.051697" lon="-34.899125">
    <ele>12.6</ele>
    <time>2019-08-06T00:16:30.000Z</time>
   </trkpt>
   <trkpt lat="-8.051661" lon="-34.899097">
    <ele>13.2</ele>
    <time>2019-08-06T00:16:32.000Z</time>
   </trkpt>
   <trkpt lat="-8.051624" lon="-34.899066">
    <ele>14.1</ele>
    <time>2019-08-06T00:16:34.000Z</time>
   </trkpt>
   <trkpt lat="-8.051581" lon="-34.899039">
    <ele>15</ele>
    <time>2019-08-06T00:16:36.000Z</time>
   </trkpt>
   <trkpt lat="-8.051546" lon="-34.899023">
    <ele>15.7</ele>
    <time>2019-08-06T00:16:39.000Z</time>
   </trkpt>
   <trkpt lat="-8.051536" lon="-34.898982">
    <ele>16.5</ele>
    <time>2019-08-06T00:16:42.000Z</time>
   </trkpt>
   <trkpt lat="-8.05152" lon="-34.898953">
    <ele>17</ele>
    <time>2019-08-06T00:16:44.000Z</time>
   </trkpt>
   <trkpt lat="-8.051491" lon="-34.898928">
    <ele>17.6</ele>
    <time>2019-08-06T00:16:47.000Z</time>
   </trkpt>
   <trkpt lat="-8.051458" lon="-34.898919">
    <ele>17.6</ele>
    <time>2019-08-06T00:16:49.000Z</time>
   </trkpt>
   <trkpt lat="-8.051442" lon="-34.898895">
    <ele>17.5</ele>
    <time>2019-08-06T00:16:53.000Z</time>
   </trkpt>
   <trkpt lat="-8.051409" lon="-34.898888">
    <ele>17.4</ele>
    <time>2019-08-06T00:16:55.000Z</time>
   </trkpt>
   <trkpt lat="-8.051355" lon="-34.898885">
    <ele>17</ele>
    <time>2019-08-06T00:16:58.000Z</time>
   </trkpt>
   <trkpt lat="-8.051319" lon="-34.898867">
    <ele>16.7</ele>
    <time>2019-08-06T00:17:01.000Z</time>
   </trkpt>
   <trkpt lat="-8.051274" lon="-34.898859">
    <ele>16.3</ele>
    <time>2019-08-06T00:17:03.000Z</time>
   </trkpt>
   <trkpt lat="-8.051238" lon="-34.898848">
    <ele>16</ele>
    <time>2019-08-06T00:17:05.000Z</time>
   </trkpt>
   <trkpt lat="-8.051204" lon="-34.898831">
    <ele>16.1</ele>
    <time>2019-08-06T00:17:07.000Z</time>
   </trkpt>
   <trkpt lat="-8.051169" lon="-34.898814">
    <ele>16.2</ele>
    <time>2019-08-06T00:17:09.000Z</time>
   </trkpt>
   <trkpt lat="-8.051133" lon="-34.898795">
    <ele>16.4</ele>
    <time>2019-08-06T00:17:12.000Z</time>
   </trkpt>
   <trkpt lat="-8.051084" lon="-34.898781">
    <ele>16.8</ele>
    <time>2019-08-06T00:17:14.000Z</time>
   </trkpt>
   <trkpt lat="-8.051031" lon="-34.898766">
    <ele>16.7</ele>
    <time>2019-08-06T00:17:16.000Z</time>
   </trkpt>
   <trkpt lat="-8.05097" lon="-34.898741">
    <ele>16.2</ele>
    <time>2019-08-06T00:17:18.000Z</time>
   </trkpt>
   <trkpt lat="-8.050934" lon="-34.898723">
    <ele>15.6</ele>
    <time>2019-08-06T00:17:19.000Z</time>
   </trkpt>
   <trkpt lat="-8.050906" lon="-34.898707">
    <ele>15.2</ele>
    <time>2019-08-06T00:17:20.000Z</time>
   </trkpt>
   <trkpt lat="-8.050881" lon="-34.898697">
    <ele>14.9</ele>
    <time>2019-08-06T00:17:21.000Z</time>
   </trkpt>
   <trkpt lat="-8.050843" lon="-34.89867">
    <ele>14.6</ele>
    <time>2019-08-06T00:17:23.000Z</time>
   </trkpt>
   <trkpt lat="-8.050808" lon="-34.898665">
    <ele>14.3</ele>
    <time>2019-08-06T00:17:24.000Z</time>
   </trkpt>
   <trkpt lat="-8.050779" lon="-34.898657">
    <ele>14.1</ele>
    <time>2019-08-06T00:17:26.000Z</time>
   </trkpt>
   <trkpt lat="-8.050746" lon="-34.898622">
    <ele>13.9</ele>
    <time>2019-08-06T00:17:28.000Z</time>
   </trkpt>
   <trkpt lat="-8.05072" lon="-34.898612">
    <ele>13.6</ele>
    <time>2019-08-06T00:17:29.000Z</time>
   </trkpt>
   <trkpt lat="-8.050693" lon="-34.898589">
    <ele>13.2</ele>
    <time>2019-08-06T00:17:31.000Z</time>
   </trkpt>
   <trkpt lat="-8.050671" lon="-34.898559">
    <ele>12.8</ele>
    <time>2019-08-06T00:17:33.000Z</time>
   </trkpt>
   <trkpt lat="-8.050642" lon="-34.898518">
    <ele>12.5</ele>
    <time>2019-08-06T00:17:35.000Z</time>
   </trkpt>
   <trkpt lat="-8.050614" lon="-34.898497">
    <ele>12.2</ele>
    <time>2019-08-06T00:17:36.000Z</time>
   </trkpt>
   <trkpt lat="-8.05059" lon="-34.898482">
    <ele>12.1</ele>
    <time>2019-08-06T00:17:37.000Z</time>
   </trkpt>
   <trkpt lat="-8.050566" lon="-34.898467">
    <ele>12</ele>
    <time>2019-08-06T00:17:38.000Z</time>
   </trkpt>
   <trkpt lat="-8.050527" lon="-34.898437">
    <ele>11.9</ele>
    <time>2019-08-06T00:17:40.000Z</time>
   </trkpt>
   <trkpt lat="-8.050475" lon="-34.898392">
    <ele>11.8</ele>
    <time>2019-08-06T00:17:42.000Z</time>
   </trkpt>
   <trkpt lat="-8.050446" lon="-34.898377">
    <ele>11.7</ele>
    <time>2019-08-06T00:17:43.000Z</time>
   </trkpt>
   <trkpt lat="-8.05042" lon="-34.898361">
    <ele>11.7</ele>
    <time>2019-08-06T00:17:44.000Z</time>
   </trkpt>
   <trkpt lat="-8.050386" lon="-34.898352">
    <ele>11.6</ele>
    <time>2019-08-06T00:17:45.000Z</time>
   </trkpt>
   <trkpt lat="-8.050348" lon="-34.898347">
    <ele>11.5</ele>
    <time>2019-08-06T00:17:46.000Z</time>
   </trkpt>
   <trkpt lat="-8.050306" lon="-34.898325">
    <ele>11.4</ele>
    <time>2019-08-06T00:17:48.000Z</time>
   </trkpt>
   <trkpt lat="-8.050278" lon="-34.898305">
    <ele>11.6</ele>
    <time>2019-08-06T00:17:49.000Z</time>
   </trkpt>
   <trkpt lat="-8.05024" lon="-34.898272">
    <ele>12</ele>
    <time>2019-08-06T00:17:50.000Z</time>
   </trkpt>
   <trkpt lat="-8.050196" lon="-34.89824">
    <ele>12.3</ele>
    <time>2019-08-06T00:17:51.000Z</time>
   </trkpt>
   <trkpt lat="-8.050152" lon="-34.898207">
    <ele>12.6</ele>
    <time>2019-08-06T00:17:52.000Z</time>
   </trkpt>
   <trkpt lat="-8.050112" lon="-34.898179">
    <ele>12.9</ele>
    <time>2019-08-06T00:17:53.000Z</time>
   </trkpt>
   <trkpt lat="-8.050068" lon="-34.898148">
    <ele>13.3</ele>
    <time>2019-08-06T00:17:54.000Z</time>
   </trkpt>
   <trkpt lat="-8.050027" lon="-34.898119">
    <ele>13.5</ele>
    <time>2019-08-06T00:17:55.000Z</time>
   </trkpt>
   <trkpt lat="-8.049973" lon="-34.898089">
    <ele>13.3</ele>
    <time>2019-08-06T00:17:56.000Z</time>
   </trkpt>
   <trkpt lat="-8.049966" lon="-34.898043">
    <ele>13.2</ele>
    <time>2019-08-06T00:17:57.000Z</time>
   </trkpt>
   <trkpt lat="-8.049956" lon="-34.897993">
    <ele>13.1</ele>
    <time>2019-08-06T00:17:58.000Z</time>
   </trkpt>
   <trkpt lat="-8.049946" lon="-34.897929">
    <ele>13.1</ele>
    <time>2019-08-06T00:17:59.000Z</time>
   </trkpt>
   <trkpt lat="-8.049945" lon="-34.897868">
    <ele>13</ele>
    <time>2019-08-06T00:18:00.000Z</time>
   </trkpt>
   <trkpt lat="-8.049954" lon="-34.897828">
    <ele>13</ele>
    <time>2019-08-06T00:18:01.000Z</time>
   </trkpt>
   <trkpt lat="-8.049964" lon="-34.89779">
    <ele>13</ele>
    <time>2019-08-06T00:18:02.000Z</time>
   </trkpt>
   <trkpt lat="-8.049963" lon="-34.89775">
    <ele>13</ele>
    <time>2019-08-06T00:18:03.000Z</time>
   </trkpt>
   <trkpt lat="-8.049959" lon="-34.89771">
    <ele>13</ele>
    <time>2019-08-06T00:18:04.000Z</time>
   </trkpt>
   <trkpt lat="-8.049956" lon="-34.897659">
    <ele>13</ele>
    <time>2019-08-06T00:18:05.000Z</time>
   </trkpt>
   <trkpt lat="-8.04996" lon="-34.89761">
    <ele>13</ele>
    <time>2019-08-06T00:18:06.000Z</time>
   </trkpt>
   <trkpt lat="-8.049967" lon="-34.897557">
    <ele>13</ele>
    <time>2019-08-06T00:18:07.000Z</time>
   </trkpt>
   <trkpt lat="-8.049985" lon="-34.897517">
    <ele>13</ele>
    <time>2019-08-06T00:18:08.000Z</time>
   </trkpt>
   <trkpt lat="-8.049998" lon="-34.897465">
    <ele>13</ele>
    <time>2019-08-06T00:18:09.000Z</time>
   </trkpt>
   <trkpt lat="-8.050016" lon="-34.897407">
    <ele>13</ele>
    <time>2019-08-06T00:18:10.000Z</time>
   </trkpt>
   <trkpt lat="-8.050029" lon="-34.89734">
    <ele>13</ele>
    <time>2019-08-06T00:18:11.000Z</time>
   </trkpt>
   <trkpt lat="-8.050033" lon="-34.897268">
    <ele>13</ele>
    <time>2019-08-06T00:18:12.000Z</time>
   </trkpt>
   <trkpt lat="-8.050042" lon="-34.897196">
    <ele>13</ele>
    <time>2019-08-06T00:18:13.000Z</time>
   </trkpt>
   <trkpt lat="-8.050063" lon="-34.897138">
    <ele>13.1</ele>
    <time>2019-08-06T00:18:14.000Z</time>
   </trkpt>
   <trkpt lat="-8.050079" lon="-34.897075">
    <ele>13.4</ele>
    <time>2019-08-06T00:18:15.000Z</time>
   </trkpt>
   <trkpt lat="-8.050093" lon="-34.897008">
    <ele>13.6</ele>
    <time>2019-08-06T00:18:16.000Z</time>
   </trkpt>
   <trkpt lat="-8.050103" lon="-34.896946">
    <ele>13.8</ele>
    <time>2019-08-06T00:18:17.000Z</time>
   </trkpt>
   <trkpt lat="-8.050114" lon="-34.896873">
    <ele>14.2</ele>
    <time>2019-08-06T00:18:18.000Z</time>
   </trkpt>
   <trkpt lat="-8.05012" lon="-34.896819">
    <ele>14.5</ele>
    <time>2019-08-06T00:18:19.000Z</time>
   </trkpt>
   <trkpt lat="-8.050131" lon="-34.896777">
    <ele>14.8</ele>
    <time>2019-08-06T00:18:20.000Z</time>
   </trkpt>
   <trkpt lat="-8.050114" lon="-34.896749">
    <ele>14.8</ele>
    <time>2019-08-06T00:18:21.000Z</time>
   </trkpt>
   <trkpt lat="-8.050062" lon="-34.896752">
    <ele>14.7</ele>
    <time>2019-08-06T00:18:22.000Z</time>
   </trkpt>
   <trkpt lat="-8.050027" lon="-34.896742">
    <ele>14.6</ele>
    <time>2019-08-06T00:18:23.000Z</time>
   </trkpt>
   <trkpt lat="-8.049982" lon="-34.896731">
    <ele>14.5</ele>
    <time>2019-08-06T00:18:24.000Z</time>
   </trkpt>
   <trkpt lat="-8.049937" lon="-34.896721">
    <ele>14.4</ele>
    <time>2019-08-06T00:18:25.000Z</time>
   </trkpt>
   <trkpt lat="-8.049892" lon="-34.896704">
    <ele>14.3</ele>
    <time>2019-08-06T00:18:26.000Z</time>
   </trkpt>
   <trkpt lat="-8.049836" lon="-34.896691">
    <ele>14.1</ele>
    <time>2019-08-06T00:18:27.000Z</time>
   </trkpt>
   <trkpt lat="-8.049779" lon="-34.896671">
    <ele>14</ele>
    <time>2019-08-06T00:18:28.000Z</time>
   </trkpt>
   <trkpt lat="-8.049721" lon="-34.896653">
    <ele>13.9</ele>
    <time>2019-08-06T00:18:29.000Z</time>
   </trkpt>
   <trkpt lat="-8.04966" lon="-34.896645">
    <ele>13.8</ele>
    <time>2019-08-06T00:18:30.000Z</time>
   </trkpt>
   <trkpt lat="-8.0496" lon="-34.896644">
    <ele>13.6</ele>
    <time>2019-08-06T00:18:31.000Z</time>
   </trkpt>
   <trkpt lat="-8.049551" lon="-34.89664">
    <ele>13.5</ele>
    <time>2019-08-06T00:18:32.000Z</time>
   </trkpt>
   <trkpt lat="-8.049492" lon="-34.896626">
    <ele>13.5</ele>
    <time>2019-08-06T00:18:33.000Z</time>
   </trkpt>
   <trkpt lat="-8.049436" lon="-34.896615">
    <ele>13.4</ele>
    <time>2019-08-06T00:18:34.000Z</time>
   </trkpt>
   <trkpt lat="-8.049377" lon="-34.896603">
    <ele>13.3</ele>
    <time>2019-08-06T00:18:35.000Z</time>
   </trkpt>
   <trkpt lat="-8.04932" lon="-34.896593">
    <ele>13.2</ele>
    <time>2019-08-06T00:18:36.000Z</time>
   </trkpt>
   <trkpt lat="-8.049259" lon="-34.896573">
    <ele>13.2</ele>
    <time>2019-08-06T00:18:37.000Z</time>
   </trkpt>
   <trkpt lat="-8.049206" lon="-34.896557">
    <ele>13.1</ele>
    <time>2019-08-06T00:18:38.000Z</time>
   </trkpt>
   <trkpt lat="-8.049154" lon="-34.896545">
    <ele>13</ele>
    <time>2019-08-06T00:18:39.000Z</time>
   </trkpt>
   <trkpt lat="-8.049099" lon="-34.89654">
    <ele>12.9</ele>
    <time>2019-08-06T00:18:40.000Z</time>
   </trkpt>
   <trkpt lat="-8.04905" lon="-34.896538">
    <ele>12.7</ele>
    <time>2019-08-06T00:18:41.000Z</time>
   </trkpt>
   <trkpt lat="-8.04901" lon="-34.896543">
    <ele>12.6</ele>
    <time>2019-08-06T00:18:42.000Z</time>
   </trkpt>
   <trkpt lat="-8.048967" lon="-34.896542">
    <ele>12.5</ele>
    <time>2019-08-06T00:18:43.000Z</time>
   </trkpt>
   <trkpt lat="-8.04892" lon="-34.896548">
    <ele>12.4</ele>
    <time>2019-08-06T00:18:44.000Z</time>
   </trkpt>
   <trkpt lat="-8.048879" lon="-34.896567">
    <ele>12.3</ele>
    <time>2019-08-06T00:18:45.000Z</time>
   </trkpt>
   <trkpt lat="-8.04883" lon="-34.896585">
    <ele>12.1</ele>
    <time>2019-08-06T00:18:46.000Z</time>
   </trkpt>
   <trkpt lat="-8.04878" lon="-34.896597">
    <ele>11.9</ele>
    <time>2019-08-06T00:18:47.000Z</time>
   </trkpt>
   <trkpt lat="-8.048739" lon="-34.896611">
    <ele>11.8</ele>
    <time>2019-08-06T00:18:48.000Z</time>
   </trkpt>
   <trkpt lat="-8.0487" lon="-34.896615">
    <ele>11.6</ele>
    <time>2019-08-06T00:18:49.000Z</time>
   </trkpt>
   <trkpt lat="-8.04866" lon="-34.896616">
    <ele>11.5</ele>
    <time>2019-08-06T00:18:50.000Z</time>
   </trkpt>
   <trkpt lat="-8.048616" lon="-34.896617">
    <ele>11.3</ele>
    <time>2019-08-06T00:18:51.000Z</time>
   </trkpt>
   <trkpt lat="-8.048569" lon="-34.896631">
    <ele>11.1</ele>
    <time>2019-08-06T00:18:52.000Z</time>
   </trkpt>
   <trkpt lat="-8.048514" lon="-34.896646">
    <ele>10.9</ele>
    <time>2019-08-06T00:18:53.000Z</time>
   </trkpt>
   <trkpt lat="-8.04846" lon="-34.896663">
    <ele>10.7</ele>
    <time>2019-08-06T00:18:54.000Z</time>
   </trkpt>
   <trkpt lat="-8.048413" lon="-34.896684">
    <ele>10.6</ele>
    <time>2019-08-06T00:18:55.000Z</time>
   </trkpt>
   <trkpt lat="-8.048356" lon="-34.896707">
    <ele>10.4</ele>
    <time>2019-08-06T00:18:56.000Z</time>
   </trkpt>
   <trkpt lat="-8.048296" lon="-34.896735">
    <ele>10.2</ele>
    <time>2019-08-06T00:18:57.000Z</time>
   </trkpt>
   <trkpt lat="-8.048242" lon="-34.896756">
    <ele>10.2</ele>
    <time>2019-08-06T00:18:58.000Z</time>
   </trkpt>
   <trkpt lat="-8.048191" lon="-34.896776">
    <ele>10.4</ele>
    <time>2019-08-06T00:18:59.000Z</time>
   </trkpt>
   <trkpt lat="-8.048141" lon="-34.896792">
    <ele>10.7</ele>
    <time>2019-08-06T00:19:00.000Z</time>
   </trkpt>
   <trkpt lat="-8.048085" lon="-34.896778">
    <ele>10.9</ele>
    <time>2019-08-06T00:19:01.000Z</time>
   </trkpt>
   <trkpt lat="-8.048029" lon="-34.896791">
    <ele>11.4</ele>
    <time>2019-08-06T00:19:02.000Z</time>
   </trkpt>
   <trkpt lat="-8.047977" lon="-34.896809">
    <ele>11.7</ele>
    <time>2019-08-06T00:19:03.000Z</time>
   </trkpt>
   <trkpt lat="-8.04793" lon="-34.896819">
    <ele>12</ele>
    <time>2019-08-06T00:19:04.000Z</time>
   </trkpt>
   <trkpt lat="-8.047886" lon="-34.896831">
    <ele>12.3</ele>
    <time>2019-08-06T00:19:05.000Z</time>
   </trkpt>
   <trkpt lat="-8.047842" lon="-34.896847">
    <ele>12.4</ele>
    <time>2019-08-06T00:19:06.000Z</time>
   </trkpt>
   <trkpt lat="-8.047792" lon="-34.896859">
    <ele>12.6</ele>
    <time>2019-08-06T00:19:07.000Z</time>
   </trkpt>
   <trkpt lat="-8.047744" lon="-34.896876">
    <ele>12.7</ele>
    <time>2019-08-06T00:19:08.000Z</time>
   </trkpt>
   <trkpt lat="-8.047709" lon="-34.896909">
    <ele>12.9</ele>
    <time>2019-08-06T00:19:09.000Z</time>
   </trkpt>
   <trkpt lat="-8.047647" lon="-34.896924">
    <ele>13.1</ele>
    <time>2019-08-06T00:19:10.000Z</time>
   </trkpt>
   <trkpt lat="-8.047589" lon="-34.896931">
    <ele>13.3</ele>
    <time>2019-08-06T00:19:11.000Z</time>
   </trkpt>
   <trkpt lat="-8.047535" lon="-34.896923">
    <ele>13.1</ele>
    <time>2019-08-06T00:19:12.000Z</time>
   </trkpt>
   <trkpt lat="-8.047498" lon="-34.896893">
    <ele>13</ele>
    <time>2019-08-06T00:19:13.000Z</time>
   </trkpt>
   <trkpt lat="-8.047474" lon="-34.89686">
    <ele>12.9</ele>
    <time>2019-08-06T00:19:14.000Z</time>
   </trkpt>
   <trkpt lat="-8.047452" lon="-34.896828">
    <ele>12.9</ele>
    <time>2019-08-06T00:19:15.000Z</time>
   </trkpt>
   <trkpt lat="-8.047427" lon="-34.896794">
    <ele>12.8</ele>
    <time>2019-08-06T00:19:16.000Z</time>
   </trkpt>
   <trkpt lat="-8.047398" lon="-34.896764">
    <ele>12.8</ele>
    <time>2019-08-06T00:19:17.000Z</time>
   </trkpt>
   <trkpt lat="-8.04734" lon="-34.896704">
    <ele>12.9</ele>
    <time>2019-08-06T00:19:18.000Z</time>
   </trkpt>
   <trkpt lat="-8.047295" lon="-34.896658">
    <ele>13.1</ele>
    <time>2019-08-06T00:19:19.000Z</time>
   </trkpt>
   <trkpt lat="-8.047265" lon="-34.896618">
    <ele>13.2</ele>
    <time>2019-08-06T00:19:20.000Z</time>
   </trkpt>
   <trkpt lat="-8.047231" lon="-34.896578">
    <ele>13.4</ele>
    <time>2019-08-06T00:19:21.000Z</time>
   </trkpt>
   <trkpt lat="-8.0472" lon="-34.896538">
    <ele>13.6</ele>
    <time>2019-08-06T00:19:22.000Z</time>
   </trkpt>
   <trkpt lat="-8.047151" lon="-34.8965">
    <ele>13.9</ele>
    <time>2019-08-06T00:19:23.000Z</time>
   </trkpt>
   <trkpt lat="-8.047115" lon="-34.896468">
    <ele>14.1</ele>
    <time>2019-08-06T00:19:24.000Z</time>
   </trkpt>
   <trkpt lat="-8.047083" lon="-34.896431">
    <ele>14.3</ele>
    <time>2019-08-06T00:19:25.000Z</time>
   </trkpt>
   <trkpt lat="-8.047053" lon="-34.896393">
    <ele>14.6</ele>
    <time>2019-08-06T00:19:26.000Z</time>
   </trkpt>
   <trkpt lat="-8.047026" lon="-34.896352">
    <ele>14.8</ele>
    <time>2019-08-06T00:19:27.000Z</time>
   </trkpt>
   <trkpt lat="-8.046997" lon="-34.896316">
    <ele>15.1</ele>
    <time>2019-08-06T00:19:28.000Z</time>
   </trkpt>
   <trkpt lat="-8.046964" lon="-34.896277">
    <ele>15.4</ele>
    <time>2019-08-06T00:19:29.000Z</time>
   </trkpt>
   <trkpt lat="-8.046932" lon="-34.896237">
    <ele>15.7</ele>
    <time>2019-08-06T00:19:30.000Z</time>
   </trkpt>
   <trkpt lat="-8.046903" lon="-34.896197">
    <ele>16</ele>
    <time>2019-08-06T00:19:31.000Z</time>
   </trkpt>
   <trkpt lat="-8.046878" lon="-34.896161">
    <ele>16.3</ele>
    <time>2019-08-06T00:19:32.000Z</time>
   </trkpt>
   <trkpt lat="-8.046856" lon="-34.896118">
    <ele>16.5</ele>
    <time>2019-08-06T00:19:33.000Z</time>
   </trkpt>
   <trkpt lat="-8.046834" lon="-34.896084">
    <ele>16.8</ele>
    <time>2019-08-06T00:19:34.000Z</time>
   </trkpt>
   <trkpt lat="-8.046815" lon="-34.896057">
    <ele>17</ele>
    <time>2019-08-06T00:19:35.000Z</time>
   </trkpt>
   <trkpt lat="-8.046792" lon="-34.896037">
    <ele>17.2</ele>
    <time>2019-08-06T00:19:36.000Z</time>
   </trkpt>
   <trkpt lat="-8.046767" lon="-34.896016">
    <ele>17.4</ele>
    <time>2019-08-06T00:19:37.000Z</time>
   </trkpt>
   <trkpt lat="-8.046747" lon="-34.895988">
    <ele>17.6</ele>
    <time>2019-08-06T00:19:38.000Z</time>
   </trkpt>
   <trkpt lat="-8.046719" lon="-34.895958">
    <ele>17.8</ele>
    <time>2019-08-06T00:19:39.000Z</time>
   </trkpt>
   <trkpt lat="-8.046678" lon="-34.895913">
    <ele>18.2</ele>
    <time>2019-08-06T00:19:40.000Z</time>
   </trkpt>
   <trkpt lat="-8.046638" lon="-34.895865">
    <ele>18.5</ele>
    <time>2019-08-06T00:19:41.000Z</time>
   </trkpt>
   <trkpt lat="-8.046593" lon="-34.895828">
    <ele>18.8</ele>
    <time>2019-08-06T00:19:42.000Z</time>
   </trkpt>
   <trkpt lat="-8.046552" lon="-34.895802">
    <ele>19.1</ele>
    <time>2019-08-06T00:19:43.000Z</time>
   </trkpt>
   <trkpt lat="-8.046517" lon="-34.895773">
    <ele>19.3</ele>
    <time>2019-08-06T00:19:44.000Z</time>
   </trkpt>
   <trkpt lat="-8.046488" lon="-34.895742">
    <ele>19.5</ele>
    <time>2019-08-06T00:19:45.000Z</time>
   </trkpt>
   <trkpt lat="-8.04646" lon="-34.895707">
    <ele>19.7</ele>
    <time>2019-08-06T00:19:46.000Z</time>
   </trkpt>
   <trkpt lat="-8.046427" lon="-34.895672">
    <ele>20</ele>
    <time>2019-08-06T00:19:47.000Z</time>
   </trkpt>
   <trkpt lat="-8.046393" lon="-34.895642">
    <ele>20.2</ele>
    <time>2019-08-06T00:19:48.000Z</time>
   </trkpt>
   <trkpt lat="-8.04636" lon="-34.895617">
    <ele>20.4</ele>
    <time>2019-08-06T00:19:49.000Z</time>
   </trkpt>
   <trkpt lat="-8.046323" lon="-34.895595">
    <ele>20.7</ele>
    <time>2019-08-06T00:19:50.000Z</time>
   </trkpt>
   <trkpt lat="-8.046297" lon="-34.895579">
    <ele>20.9</ele>
    <time>2019-08-06T00:19:51.000Z</time>
   </trkpt>
   <trkpt lat="-8.046228" lon="-34.895558">
    <ele>21.4</ele>
    <time>2019-08-06T00:19:53.000Z</time>
   </trkpt>
   <trkpt lat="-8.046198" lon="-34.895525">
    <ele>21.7</ele>
    <time>2019-08-06T00:19:54.000Z</time>
   </trkpt>
   <trkpt lat="-8.046122" lon="-34.895481">
    <ele>22.4</ele>
    <time>2019-08-06T00:19:55.000Z</time>
   </trkpt>
   <trkpt lat="-8.046067" lon="-34.895455">
    <ele>22.8</ele>
    <time>2019-08-06T00:19:56.000Z</time>
   </trkpt>
   <trkpt lat="-8.046025" lon="-34.895443">
    <ele>23</ele>
    <time>2019-08-06T00:19:57.000Z</time>
   </trkpt>
   <trkpt lat="-8.045994" lon="-34.895434">
    <ele>23.2</ele>
    <time>2019-08-06T00:19:58.000Z</time>
   </trkpt>
   <trkpt lat="-8.045954" lon="-34.895459">
    <ele>23.5</ele>
    <time>2019-08-06T00:19:59.000Z</time>
   </trkpt>
   <trkpt lat="-8.045895" lon="-34.895432">
    <ele>23.8</ele>
    <time>2019-08-06T00:20:00.000Z</time>
   </trkpt>
   <trkpt lat="-8.04583" lon="-34.895406">
    <ele>24.2</ele>
    <time>2019-08-06T00:20:01.000Z</time>
   </trkpt>
   <trkpt lat="-8.045803" lon="-34.895386">
    <ele>23.9</ele>
    <time>2019-08-06T00:20:02.000Z</time>
   </trkpt>
   <trkpt lat="-8.045788" lon="-34.895361">
    <ele>23.6</ele>
    <time>2019-08-06T00:20:03.000Z</time>
   </trkpt>
   <trkpt lat="-8.04576" lon="-34.895338">
    <ele>23.2</ele>
    <time>2019-08-06T00:20:04.000Z</time>
   </trkpt>
   <trkpt lat="-8.04572" lon="-34.895335">
    <ele>22.8</ele>
    <time>2019-08-06T00:20:05.000Z</time>
   </trkpt>
   <trkpt lat="-8.045686" lon="-34.895298">
    <ele>22.5</ele>
    <time>2019-08-06T00:20:06.000Z</time>
   </trkpt>
   <trkpt lat="-8.045655" lon="-34.895267">
    <ele>22.3</ele>
    <time>2019-08-06T00:20:07.000Z</time>
   </trkpt>
   <trkpt lat="-8.045617" lon="-34.895238">
    <ele>22</ele>
    <time>2019-08-06T00:20:08.000Z</time>
   </trkpt>
   <trkpt lat="-8.045577" lon="-34.895216">
    <ele>21.7</ele>
    <time>2019-08-06T00:20:09.000Z</time>
   </trkpt>
   <trkpt lat="-8.04552" lon="-34.895185">
    <ele>21.3</ele>
    <time>2019-08-06T00:20:10.000Z</time>
   </trkpt>
   <trkpt lat="-8.045477" lon="-34.895157">
    <ele>21</ele>
    <time>2019-08-06T00:20:11.000Z</time>
   </trkpt>
   <trkpt lat="-8.045436" lon="-34.895128">
    <ele>20.7</ele>
    <time>2019-08-06T00:20:12.000Z</time>
   </trkpt>
   <trkpt lat="-8.045403" lon="-34.895103">
    <ele>20.5</ele>
    <time>2019-08-06T00:20:13.000Z</time>
   </trkpt>
   <trkpt lat="-8.045366" lon="-34.895086">
    <ele>20.3</ele>
    <time>2019-08-06T00:20:14.000Z</time>
   </trkpt>
   <trkpt lat="-8.045329" lon="-34.895061">
    <ele>20</ele>
    <time>2019-08-06T00:20:15.000Z</time>
   </trkpt>
   <trkpt lat="-8.045293" lon="-34.895025">
    <ele>19.7</ele>
    <time>2019-08-06T00:20:16.000Z</time>
   </trkpt>
   <trkpt lat="-8.045271" lon="-34.89497">
    <ele>19.4</ele>
    <time>2019-08-06T00:20:17.000Z</time>
   </trkpt>
   <trkpt lat="-8.04525" lon="-34.894928">
    <ele>19</ele>
    <time>2019-08-06T00:20:18.000Z</time>
   </trkpt>
   <trkpt lat="-8.045223" lon="-34.894899">
    <ele>18.8</ele>
    <time>2019-08-06T00:20:19.000Z</time>
   </trkpt>
   <trkpt lat="-8.045196" lon="-34.894874">
    <ele>18.5</ele>
    <time>2019-08-06T00:20:20.000Z</time>
   </trkpt>
   <trkpt lat="-8.045167" lon="-34.89484">
    <ele>18.2</ele>
    <time>2019-08-06T00:20:21.000Z</time>
   </trkpt>
   <trkpt lat="-8.045138" lon="-34.894809">
    <ele>18</ele>
    <time>2019-08-06T00:20:22.000Z</time>
   </trkpt>
   <trkpt lat="-8.045106" lon="-34.894774">
    <ele>17.8</ele>
    <time>2019-08-06T00:20:23.000Z</time>
   </trkpt>
   <trkpt lat="-8.045078" lon="-34.894709">
    <ele>17.5</ele>
    <time>2019-08-06T00:20:24.000Z</time>
   </trkpt>
   <trkpt lat="-8.045041" lon="-34.894671">
    <ele>17.3</ele>
    <time>2019-08-06T00:20:25.000Z</time>
   </trkpt>
   <trkpt lat="-8.045015" lon="-34.894651">
    <ele>17.1</ele>
    <time>2019-08-06T00:20:26.000Z</time>
   </trkpt>
   <trkpt lat="-8.044991" lon="-34.894631">
    <ele>17</ele>
    <time>2019-08-06T00:20:27.000Z</time>
   </trkpt>
   <trkpt lat="-8.044968" lon="-34.894608">
    <ele>16.8</ele>
    <time>2019-08-06T00:20:28.000Z</time>
   </trkpt>
   <trkpt lat="-8.044938" lon="-34.894588">
    <ele>16.7</ele>
    <time>2019-08-06T00:20:29.000Z</time>
   </trkpt>
   <trkpt lat="-8.044887" lon="-34.89458">
    <ele>16.4</ele>
    <time>2019-08-06T00:20:30.000Z</time>
   </trkpt>
   <trkpt lat="-8.044841" lon="-34.894561">
    <ele>16.2</ele>
    <time>2019-08-06T00:20:31.000Z</time>
   </trkpt>
   <trkpt lat="-8.044802" lon="-34.894528">
    <ele>16</ele>
    <time>2019-08-06T00:20:32.000Z</time>
   </trkpt>
   <trkpt lat="-8.044756" lon="-34.894492">
    <ele>15.7</ele>
    <time>2019-08-06T00:20:33.000Z</time>
   </trkpt>
   <trkpt lat="-8.044712" lon="-34.894461">
    <ele>15.5</ele>
    <time>2019-08-06T00:20:34.000Z</time>
   </trkpt>
   <trkpt lat="-8.044665" lon="-34.894431">
    <ele>15.2</ele>
    <time>2019-08-06T00:20:35.000Z</time>
   </trkpt>
   <trkpt lat="-8.044623" lon="-34.894403">
    <ele>15</ele>
    <time>2019-08-06T00:20:36.000Z</time>
   </trkpt>
   <trkpt lat="-8.044591" lon="-34.894374">
    <ele>14.8</ele>
    <time>2019-08-06T00:20:37.000Z</time>
   </trkpt>
   <trkpt lat="-8.044562" lon="-34.894335">
    <ele>14.6</ele>
    <time>2019-08-06T00:20:38.000Z</time>
   </trkpt>
   <trkpt lat="-8.04452" lon="-34.894334">
    <ele>14.4</ele>
    <time>2019-08-06T00:20:40.000Z</time>
   </trkpt>
   <trkpt lat="-8.044506" lon="-34.89429">
    <ele>14.2</ele>
    <time>2019-08-06T00:20:41.000Z</time>
   </trkpt>
   <trkpt lat="-8.044475" lon="-34.894255">
    <ele>14</ele>
    <time>2019-08-06T00:20:42.000Z</time>
   </trkpt>
   <trkpt lat="-8.044436" lon="-34.894215">
    <ele>13.5</ele>
    <time>2019-08-06T00:20:43.000Z</time>
   </trkpt>
   <trkpt lat="-8.044397" lon="-34.894177">
    <ele>13.6</ele>
    <time>2019-08-06T00:20:44.000Z</time>
   </trkpt>
   <trkpt lat="-8.044351" lon="-34.894151">
    <ele>13.6</ele>
    <time>2019-08-06T00:20:45.000Z</time>
   </trkpt>
   <trkpt lat="-8.04431" lon="-34.894117">
    <ele>13.7</ele>
    <time>2019-08-06T00:20:46.000Z</time>
   </trkpt>
   <trkpt lat="-8.044262" lon="-34.894088">
    <ele>13.7</ele>
    <time>2019-08-06T00:20:47.000Z</time>
   </trkpt>
   <trkpt lat="-8.044207" lon="-34.894062">
    <ele>13.8</ele>
    <time>2019-08-06T00:20:48.000Z</time>
   </trkpt>
   <trkpt lat="-8.044154" lon="-34.894025">
    <ele>13.8</ele>
    <time>2019-08-06T00:20:49.000Z</time>
   </trkpt>
   <trkpt lat="-8.044094" lon="-34.893989">
    <ele>13.9</ele>
    <time>2019-08-06T00:20:50.000Z</time>
   </trkpt>
   <trkpt lat="-8.044061" lon="-34.893948">
    <ele>13.9</ele>
    <time>2019-08-06T00:20:51.000Z</time>
   </trkpt>
   <trkpt lat="-8.044013" lon="-34.893905">
    <ele>14</ele>
    <time>2019-08-06T00:20:52.000Z</time>
   </trkpt>
   <trkpt lat="-8.043971" lon="-34.893866">
    <ele>14</ele>
    <time>2019-08-06T00:20:53.000Z</time>
   </trkpt>
   <trkpt lat="-8.043934" lon="-34.893832">
    <ele>14</ele>
    <time>2019-08-06T00:20:54.000Z</time>
   </trkpt>
   <trkpt lat="-8.043901" lon="-34.893799">
    <ele>14.1</ele>
    <time>2019-08-06T00:20:55.000Z</time>
   </trkpt>
   <trkpt lat="-8.043871" lon="-34.893779">
    <ele>14.1</ele>
    <time>2019-08-06T00:20:56.000Z</time>
   </trkpt>
   <trkpt lat="-8.043838" lon="-34.893753">
    <ele>14.1</ele>
    <time>2019-08-06T00:20:57.000Z</time>
   </trkpt>
   <trkpt lat="-8.043804" lon="-34.893722">
    <ele>14.2</ele>
    <time>2019-08-06T00:20:58.000Z</time>
   </trkpt>
   <trkpt lat="-8.043776" lon="-34.893691">
    <ele>14.2</ele>
    <time>2019-08-06T00:20:59.000Z</time>
   </trkpt>
   <trkpt lat="-8.043751" lon="-34.893649">
    <ele>14.2</ele>
    <time>2019-08-06T00:21:00.000Z</time>
   </trkpt>
   <trkpt lat="-8.043726" lon="-34.893623">
    <ele>14.3</ele>
    <time>2019-08-06T00:21:01.000Z</time>
   </trkpt>
   <trkpt lat="-8.043703" lon="-34.893602">
    <ele>14.3</ele>
    <time>2019-08-06T00:21:02.000Z</time>
   </trkpt>
   <trkpt lat="-8.043685" lon="-34.893577">
    <ele>14.3</ele>
    <time>2019-08-06T00:21:03.000Z</time>
   </trkpt>
   <trkpt lat="-8.043667" lon="-34.893554">
    <ele>14.4</ele>
    <time>2019-08-06T00:21:04.000Z</time>
   </trkpt>
   <trkpt lat="-8.043633" lon="-34.893505">
    <ele>14.5</ele>
    <time>2019-08-06T00:21:06.000Z</time>
   </trkpt>
   <trkpt lat="-8.043606" lon="-34.893471">
    <ele>14.6</ele>
    <time>2019-08-06T00:21:08.000Z</time>
   </trkpt>
   <trkpt lat="-8.043579" lon="-34.893446">
    <ele>14.6</ele>
    <time>2019-08-06T00:21:10.000Z</time>
   </trkpt>
   <trkpt lat="-8.04355" lon="-34.893433">
    <ele>14.7</ele>
    <time>2019-08-06T00:21:12.000Z</time>
   </trkpt>
   <trkpt lat="-8.043508" lon="-34.893412">
    <ele>15</ele>
    <time>2019-08-06T00:21:14.000Z</time>
   </trkpt>
   <trkpt lat="-8.043482" lon="-34.893401">
    <ele>15.2</ele>
    <time>2019-08-06T00:21:15.000Z</time>
   </trkpt>
   <trkpt lat="-8.043432" lon="-34.893364">
    <ele>15.7</ele>
    <time>2019-08-06T00:21:17.000Z</time>
   </trkpt>
   <trkpt lat="-8.043397" lon="-34.893342">
    <ele>15.7</ele>
    <time>2019-08-06T00:21:18.000Z</time>
   </trkpt>
   <trkpt lat="-8.043366" lon="-34.893318">
    <ele>15.7</ele>
    <time>2019-08-06T00:21:19.000Z</time>
   </trkpt>
   <trkpt lat="-8.043322" lon="-34.893287">
    <ele>15.8</ele>
    <time>2019-08-06T00:21:20.000Z</time>
   </trkpt>
   <trkpt lat="-8.043276" lon="-34.893256">
    <ele>15.8</ele>
    <time>2019-08-06T00:21:21.000Z</time>
   </trkpt>
   <trkpt lat="-8.043236" lon="-34.893228">
    <ele>15.9</ele>
    <time>2019-08-06T00:21:22.000Z</time>
   </trkpt>
   <trkpt lat="-8.043198" lon="-34.893199">
    <ele>15.9</ele>
    <time>2019-08-06T00:21:23.000Z</time>
   </trkpt>
   <trkpt lat="-8.04316" lon="-34.893172">
    <ele>16</ele>
    <time>2019-08-06T00:21:24.000Z</time>
   </trkpt>
   <trkpt lat="-8.043117" lon="-34.893135">
    <ele>16</ele>
    <time>2019-08-06T00:21:25.000Z</time>
   </trkpt>
   <trkpt lat="-8.043082" lon="-34.893101">
    <ele>16.1</ele>
    <time>2019-08-06T00:21:26.000Z</time>
   </trkpt>
   <trkpt lat="-8.043036" lon="-34.893072">
    <ele>16.1</ele>
    <time>2019-08-06T00:21:27.000Z</time>
   </trkpt>
   <trkpt lat="-8.042986" lon="-34.89304">
    <ele>16.1</ele>
    <time>2019-08-06T00:21:28.000Z</time>
   </trkpt>
   <trkpt lat="-8.042922" lon="-34.89301">
    <ele>16.2</ele>
    <time>2019-08-06T00:21:29.000Z</time>
   </trkpt>
   <trkpt lat="-8.042865" lon="-34.892982">
    <ele>16.2</ele>
    <time>2019-08-06T00:21:30.000Z</time>
   </trkpt>
   <trkpt lat="-8.042811" lon="-34.892949">
    <ele>16.2</ele>
    <time>2019-08-06T00:21:31.000Z</time>
   </trkpt>
   <trkpt lat="-8.042766" lon="-34.892925">
    <ele>16.2</ele>
    <time>2019-08-06T00:21:32.000Z</time>
   </trkpt>
   <trkpt lat="-8.042732" lon="-34.8929">
    <ele>16.3</ele>
    <time>2019-08-06T00:21:33.000Z</time>
   </trkpt>
   <trkpt lat="-8.042699" lon="-34.892875">
    <ele>16.3</ele>
    <time>2019-08-06T00:21:34.000Z</time>
   </trkpt>
   <trkpt lat="-8.042667" lon="-34.892855">
    <ele>16.3</ele>
    <time>2019-08-06T00:21:35.000Z</time>
   </trkpt>
   <trkpt lat="-8.042636" lon="-34.892836">
    <ele>16.3</ele>
    <time>2019-08-06T00:21:36.000Z</time>
   </trkpt>
   <trkpt lat="-8.042608" lon="-34.892805">
    <ele>16.4</ele>
    <time>2019-08-06T00:21:37.000Z</time>
   </trkpt>
   <trkpt lat="-8.042576" lon="-34.892771">
    <ele>16.4</ele>
    <time>2019-08-06T00:21:38.000Z</time>
   </trkpt>
   <trkpt lat="-8.042538" lon="-34.892741">
    <ele>16.5</ele>
    <time>2019-08-06T00:21:39.000Z</time>
   </trkpt>
   <trkpt lat="-8.042504" lon="-34.892715">
    <ele>16.5</ele>
    <time>2019-08-06T00:21:40.000Z</time>
   </trkpt>
   <trkpt lat="-8.042474" lon="-34.892692">
    <ele>16.6</ele>
    <time>2019-08-06T00:21:41.000Z</time>
   </trkpt>
   <trkpt lat="-8.042444" lon="-34.892669">
    <ele>16.6</ele>
    <time>2019-08-06T00:21:42.000Z</time>
   </trkpt>
   <trkpt lat="-8.042422" lon="-34.892653">
    <ele>16.7</ele>
    <time>2019-08-06T00:21:43.000Z</time>
   </trkpt>
   <trkpt lat="-8.042397" lon="-34.892641">
    <ele>16.7</ele>
    <time>2019-08-06T00:21:44.000Z</time>
   </trkpt>
   <trkpt lat="-8.042358" lon="-34.892604">
    <ele>16.8</ele>
    <time>2019-08-06T00:21:46.000Z</time>
   </trkpt>
   <trkpt lat="-8.042339" lon="-34.892575">
    <ele>16.9</ele>
    <time>2019-08-06T00:21:47.000Z</time>
   </trkpt>
   <trkpt lat="-8.042322" lon="-34.892546">
    <ele>17</ele>
    <time>2019-08-06T00:21:48.000Z</time>
   </trkpt>
   <trkpt lat="-8.042302" lon="-34.892508">
    <ele>16.9</ele>
    <time>2019-08-06T00:21:49.000Z</time>
   </trkpt>
   <trkpt lat="-8.04228" lon="-34.892467">
    <ele>16.8</ele>
    <time>2019-08-06T00:21:50.000Z</time>
   </trkpt>
   <trkpt lat="-8.04225" lon="-34.892429">
    <ele>16.7</ele>
    <time>2019-08-06T00:21:51.000Z</time>
   </trkpt>
   <trkpt lat="-8.042219" lon="-34.892388">
    <ele>16.6</ele>
    <time>2019-08-06T00:21:52.000Z</time>
   </trkpt>
   <trkpt lat="-8.042184" lon="-34.892347">
    <ele>16.5</ele>
    <time>2019-08-06T00:21:53.000Z</time>
   </trkpt>
   <trkpt lat="-8.042143" lon="-34.892309">
    <ele>16.4</ele>
    <time>2019-08-06T00:21:54.000Z</time>
   </trkpt>
   <trkpt lat="-8.042083" lon="-34.892278">
    <ele>16.3</ele>
    <time>2019-08-06T00:21:55.000Z</time>
   </trkpt>
   <trkpt lat="-8.042036" lon="-34.892236">
    <ele>16.2</ele>
    <time>2019-08-06T00:21:56.000Z</time>
   </trkpt>
   <trkpt lat="-8.04199" lon="-34.892193">
    <ele>16.1</ele>
    <time>2019-08-06T00:21:57.000Z</time>
   </trkpt>
   <trkpt lat="-8.041945" lon="-34.892151">
    <ele>16</ele>
    <time>2019-08-06T00:21:58.000Z</time>
   </trkpt>
   <trkpt lat="-8.041911" lon="-34.892108">
    <ele>16</ele>
    <time>2019-08-06T00:21:59.000Z</time>
   </trkpt>
   <trkpt lat="-8.041859" lon="-34.892059">
    <ele>15.8</ele>
    <time>2019-08-06T00:22:00.000Z</time>
   </trkpt>
   <trkpt lat="-8.041801" lon="-34.89201">
    <ele>15.7</ele>
    <time>2019-08-06T00:22:01.000Z</time>
   </trkpt>
   <trkpt lat="-8.041743" lon="-34.891959">
    <ele>15.6</ele>
    <time>2019-08-06T00:22:02.000Z</time>
   </trkpt>
   <trkpt lat="-8.04169" lon="-34.891912">
    <ele>15.5</ele>
    <time>2019-08-06T00:22:03.000Z</time>
   </trkpt>
   <trkpt lat="-8.041649" lon="-34.891872">
    <ele>15.3</ele>
    <time>2019-08-06T00:22:04.000Z</time>
   </trkpt>
   <trkpt lat="-8.041613" lon="-34.891838">
    <ele>15.2</ele>
    <time>2019-08-06T00:22:05.000Z</time>
   </trkpt>
   <trkpt lat="-8.041582" lon="-34.891805">
    <ele>15.1</ele>
    <time>2019-08-06T00:22:06.000Z</time>
   </trkpt>
   <trkpt lat="-8.041551" lon="-34.891773">
    <ele>15</ele>
    <time>2019-08-06T00:22:07.000Z</time>
   </trkpt>
   <trkpt lat="-8.041519" lon="-34.891728">
    <ele>14.8</ele>
    <time>2019-08-06T00:22:08.000Z</time>
   </trkpt>
   <trkpt lat="-8.041483" lon="-34.891691">
    <ele>14.7</ele>
    <time>2019-08-06T00:22:09.000Z</time>
   </trkpt>
   <trkpt lat="-8.041453" lon="-34.891658">
    <ele>14.6</ele>
    <time>2019-08-06T00:22:10.000Z</time>
   </trkpt>
   <trkpt lat="-8.041423" lon="-34.891627">
    <ele>14.5</ele>
    <time>2019-08-06T00:22:11.000Z</time>
   </trkpt>
   <trkpt lat="-8.041382" lon="-34.891598">
    <ele>14.3</ele>
    <time>2019-08-06T00:22:12.000Z</time>
   </trkpt>
   <trkpt lat="-8.041347" lon="-34.891573">
    <ele>14.2</ele>
    <time>2019-08-06T00:22:13.000Z</time>
   </trkpt>
   <trkpt lat="-8.041308" lon="-34.891559">
    <ele>14.1</ele>
    <time>2019-08-06T00:22:14.000Z</time>
   </trkpt>
   <trkpt lat="-8.041269" lon="-34.891552">
    <ele>13.6</ele>
    <time>2019-08-06T00:22:15.000Z</time>
   </trkpt>
   <trkpt lat="-8.041228" lon="-34.891561">
    <ele>13.6</ele>
    <time>2019-08-06T00:22:16.000Z</time>
   </trkpt>
   <trkpt lat="-8.041185" lon="-34.891571">
    <ele>13.5</ele>
    <time>2019-08-06T00:22:17.000Z</time>
   </trkpt>
   <trkpt lat="-8.041121" lon="-34.891596">
    <ele>13.4</ele>
    <time>2019-08-06T00:22:18.000Z</time>
   </trkpt>
   <trkpt lat="-8.041076" lon="-34.891625">
    <ele>13.3</ele>
    <time>2019-08-06T00:22:19.000Z</time>
   </trkpt>
   <trkpt lat="-8.041041" lon="-34.891658">
    <ele>13.2</ele>
    <time>2019-08-06T00:22:20.000Z</time>
   </trkpt>
   <trkpt lat="-8.040999" lon="-34.891681">
    <ele>13.1</ele>
    <time>2019-08-06T00:22:21.000Z</time>
   </trkpt>
   <trkpt lat="-8.040952" lon="-34.891699">
    <ele>13</ele>
    <time>2019-08-06T00:22:22.000Z</time>
   </trkpt>
   <trkpt lat="-8.040908" lon="-34.891717">
    <ele>13</ele>
    <time>2019-08-06T00:22:23.000Z</time>
   </trkpt>
   <trkpt lat="-8.040867" lon="-34.891736">
    <ele>13</ele>
    <time>2019-08-06T00:22:24.000Z</time>
   </trkpt>
   <trkpt lat="-8.040825" lon="-34.891761">
    <ele>13</ele>
    <time>2019-08-06T00:22:25.000Z</time>
   </trkpt>
   <trkpt lat="-8.040784" lon="-34.891779">
    <ele>12.9</ele>
    <time>2019-08-06T00:22:26.000Z</time>
   </trkpt>
   <trkpt lat="-8.040743" lon="-34.891799">
    <ele>12.9</ele>
    <time>2019-08-06T00:22:27.000Z</time>
   </trkpt>
   <trkpt lat="-8.040707" lon="-34.891816">
    <ele>13</ele>
    <time>2019-08-06T00:22:28.000Z</time>
   </trkpt>
   <trkpt lat="-8.040664" lon="-34.891833">
    <ele>13</ele>
    <time>2019-08-06T00:22:29.000Z</time>
   </trkpt>
   <trkpt lat="-8.040622" lon="-34.891847">
    <ele>13</ele>
    <time>2019-08-06T00:22:30.000Z</time>
   </trkpt>
   <trkpt lat="-8.040566" lon="-34.891843">
    <ele>13</ele>
    <time>2019-08-06T00:22:31.000Z</time>
   </trkpt>
   <trkpt lat="-8.040511" lon="-34.891829">
    <ele>13</ele>
    <time>2019-08-06T00:22:32.000Z</time>
   </trkpt>
   <trkpt lat="-8.040479" lon="-34.89179">
    <ele>12.9</ele>
    <time>2019-08-06T00:22:33.000Z</time>
   </trkpt>
   <trkpt lat="-8.040405" lon="-34.891735">
    <ele>12.8</ele>
    <time>2019-08-06T00:22:34.000Z</time>
   </trkpt>
   <trkpt lat="-8.04034" lon="-34.891685">
    <ele>12.7</ele>
    <time>2019-08-06T00:22:35.000Z</time>
   </trkpt>
   <trkpt lat="-8.040284" lon="-34.891639">
    <ele>12.7</ele>
    <time>2019-08-06T00:22:36.000Z</time>
   </trkpt>
   <trkpt lat="-8.040236" lon="-34.891594">
    <ele>12.6</ele>
    <time>2019-08-06T00:22:37.000Z</time>
   </trkpt>
   <trkpt lat="-8.040196" lon="-34.891551">
    <ele>12.6</ele>
    <time>2019-08-06T00:22:38.000Z</time>
   </trkpt>
   <trkpt lat="-8.040157" lon="-34.891506">
    <ele>12.5</ele>
    <time>2019-08-06T00:22:39.000Z</time>
   </trkpt>
   <trkpt lat="-8.040126" lon="-34.891462">
    <ele>12.4</ele>
    <time>2019-08-06T00:22:40.000Z</time>
   </trkpt>
   <trkpt lat="-8.040101" lon="-34.891424">
    <ele>12.4</ele>
    <time>2019-08-06T00:22:41.000Z</time>
   </trkpt>
   <trkpt lat="-8.040073" lon="-34.891382">
    <ele>12.3</ele>
    <time>2019-08-06T00:22:42.000Z</time>
   </trkpt>
   <trkpt lat="-8.040039" lon="-34.891337">
    <ele>12.3</ele>
    <time>2019-08-06T00:22:43.000Z</time>
   </trkpt>
   <trkpt lat="-8.04001" lon="-34.891292">
    <ele>12.2</ele>
    <time>2019-08-06T00:22:44.000Z</time>
   </trkpt>
   <trkpt lat="-8.03997" lon="-34.891257">
    <ele>12.1</ele>
    <time>2019-08-06T00:22:45.000Z</time>
   </trkpt>
   <trkpt lat="-8.039941" lon="-34.891197">
    <ele>12</ele>
    <time>2019-08-06T00:22:46.000Z</time>
   </trkpt>
   <trkpt lat="-8.039908" lon="-34.891155">
    <ele>12</ele>
    <time>2019-08-06T00:22:47.000Z</time>
   </trkpt>
   <trkpt lat="-8.039874" lon="-34.891099">
    <ele>11.9</ele>
    <time>2019-08-06T00:22:48.000Z</time>
   </trkpt>
   <trkpt lat="-8.039832" lon="-34.891057">
    <ele>11.8</ele>
    <time>2019-08-06T00:22:49.000Z</time>
   </trkpt>
   <trkpt lat="-8.039793" lon="-34.891017">
    <ele>11.8</ele>
    <time>2019-08-06T00:22:50.000Z</time>
   </trkpt>
   <trkpt lat="-8.039761" lon="-34.890977">
    <ele>11.7</ele>
    <time>2019-08-06T00:22:51.000Z</time>
   </trkpt>
   <trkpt lat="-8.039726" lon="-34.890935">
    <ele>11.7</ele>
    <time>2019-08-06T00:22:52.000Z</time>
   </trkpt>
   <trkpt lat="-8.039694" lon="-34.890894">
    <ele>11.6</ele>
    <time>2019-08-06T00:22:53.000Z</time>
   </trkpt>
   <trkpt lat="-8.039667" lon="-34.890848">
    <ele>11.6</ele>
    <time>2019-08-06T00:22:54.000Z</time>
   </trkpt>
   <trkpt lat="-8.039635" lon="-34.890803">
    <ele>11.5</ele>
    <time>2019-08-06T00:22:55.000Z</time>
   </trkpt>
   <trkpt lat="-8.0396" lon="-34.890758">
    <ele>11.4</ele>
    <time>2019-08-06T00:22:56.000Z</time>
   </trkpt>
   <trkpt lat="-8.039568" lon="-34.89072">
    <ele>11.4</ele>
    <time>2019-08-06T00:22:57.000Z</time>
   </trkpt>
   <trkpt lat="-8.039537" lon="-34.890677">
    <ele>11.3</ele>
    <time>2019-08-06T00:22:58.000Z</time>
   </trkpt>
   <trkpt lat="-8.039498" lon="-34.890637">
    <ele>11.2</ele>
    <time>2019-08-06T00:22:59.000Z</time>
   </trkpt>
   <trkpt lat="-8.03946" lon="-34.890593">
    <ele>11.1</ele>
    <time>2019-08-06T00:23:00.000Z</time>
   </trkpt>
   <trkpt lat="-8.03942" lon="-34.890559">
    <ele>11.1</ele>
    <time>2019-08-06T00:23:01.000Z</time>
   </trkpt>
   <trkpt lat="-8.03938" lon="-34.890529">
    <ele>11.1</ele>
    <time>2019-08-06T00:23:02.000Z</time>
   </trkpt>
   <trkpt lat="-8.039337" lon="-34.890489">
    <ele>11</ele>
    <time>2019-08-06T00:23:03.000Z</time>
   </trkpt>
   <trkpt lat="-8.039286" lon="-34.890451">
    <ele>10.8</ele>
    <time>2019-08-06T00:23:04.000Z</time>
   </trkpt>
   <trkpt lat="-8.039238" lon="-34.890423">
    <ele>10.7</ele>
    <time>2019-08-06T00:23:05.000Z</time>
   </trkpt>
   <trkpt lat="-8.039183" lon="-34.890409">
    <ele>10.6</ele>
    <time>2019-08-06T00:23:06.000Z</time>
   </trkpt>
   <trkpt lat="-8.039132" lon="-34.890386">
    <ele>10.5</ele>
    <time>2019-08-06T00:23:07.000Z</time>
   </trkpt>
   <trkpt lat="-8.039077" lon="-34.890375">
    <ele>10.1</ele>
    <time>2019-08-06T00:23:08.000Z</time>
   </trkpt>
   <trkpt lat="-8.039026" lon="-34.890368">
    <ele>9.8</ele>
    <time>2019-08-06T00:23:09.000Z</time>
   </trkpt>
   <trkpt lat="-8.038973" lon="-34.890354">
    <ele>9.8</ele>
    <time>2019-08-06T00:23:10.000Z</time>
   </trkpt>
   <trkpt lat="-8.038918" lon="-34.890343">
    <ele>9.9</ele>
    <time>2019-08-06T00:23:11.000Z</time>
   </trkpt>
   <trkpt lat="-8.03887" lon="-34.890329">
    <ele>10</ele>
    <time>2019-08-06T00:23:12.000Z</time>
   </trkpt>
   <trkpt lat="-8.038821" lon="-34.890317">
    <ele>10.1</ele>
    <time>2019-08-06T00:23:13.000Z</time>
   </trkpt>
   <trkpt lat="-8.038773" lon="-34.890301">
    <ele>10.2</ele>
    <time>2019-08-06T00:23:14.000Z</time>
   </trkpt>
   <trkpt lat="-8.03872" lon="-34.890275">
    <ele>10.3</ele>
    <time>2019-08-06T00:23:15.000Z</time>
   </trkpt>
   <trkpt lat="-8.038672" lon="-34.89025">
    <ele>10.4</ele>
    <time>2019-08-06T00:23:16.000Z</time>
   </trkpt>
   <trkpt lat="-8.038622" lon="-34.890223">
    <ele>10.4</ele>
    <time>2019-08-06T00:23:17.000Z</time>
   </trkpt>
   <trkpt lat="-8.038579" lon="-34.890195">
    <ele>10.5</ele>
    <time>2019-08-06T00:23:18.000Z</time>
   </trkpt>
   <trkpt lat="-8.038538" lon="-34.89017">
    <ele>10.6</ele>
    <time>2019-08-06T00:23:19.000Z</time>
   </trkpt>
   <trkpt lat="-8.038494" lon="-34.890157">
    <ele>10.7</ele>
    <time>2019-08-06T00:23:20.000Z</time>
   </trkpt>
   <trkpt lat="-8.038446" lon="-34.890138">
    <ele>10.8</ele>
    <time>2019-08-06T00:23:21.000Z</time>
   </trkpt>
   <trkpt lat="-8.038401" lon="-34.890117">
    <ele>10.9</ele>
    <time>2019-08-06T00:23:22.000Z</time>
   </trkpt>
   <trkpt lat="-8.038352" lon="-34.890093">
    <ele>10.9</ele>
    <time>2019-08-06T00:23:23.000Z</time>
   </trkpt>
   <trkpt lat="-8.038299" lon="-34.890073">
    <ele>11</ele>
    <time>2019-08-06T00:23:24.000Z</time>
   </trkpt>
   <trkpt lat="-8.038251" lon="-34.89005">
    <ele>11.1</ele>
    <time>2019-08-06T00:23:25.000Z</time>
   </trkpt>
   <trkpt lat="-8.038206" lon="-34.890023">
    <ele>11.2</ele>
    <time>2019-08-06T00:23:26.000Z</time>
   </trkpt>
   <trkpt lat="-8.038167" lon="-34.889996">
    <ele>11.3</ele>
    <time>2019-08-06T00:23:27.000Z</time>
   </trkpt>
   <trkpt lat="-8.038122" lon="-34.889965">
    <ele>11.4</ele>
    <time>2019-08-06T00:23:28.000Z</time>
   </trkpt>
   <trkpt lat="-8.038081" lon="-34.889954">
    <ele>11.4</ele>
    <time>2019-08-06T00:23:29.000Z</time>
   </trkpt>
   <trkpt lat="-8.038043" lon="-34.889934">
    <ele>11.5</ele>
    <time>2019-08-06T00:23:30.000Z</time>
   </trkpt>
   <trkpt lat="-8.03801" lon="-34.88992">
    <ele>11.6</ele>
    <time>2019-08-06T00:23:31.000Z</time>
   </trkpt>
   <trkpt lat="-8.037972" lon="-34.8899">
    <ele>11.6</ele>
    <time>2019-08-06T00:23:33.000Z</time>
   </trkpt>
   <trkpt lat="-8.03794" lon="-34.889863">
    <ele>11.7</ele>
    <time>2019-08-06T00:23:35.000Z</time>
   </trkpt>
   <trkpt lat="-8.037913" lon="-34.889843">
    <ele>11.8</ele>
    <time>2019-08-06T00:23:36.000Z</time>
   </trkpt>
   <trkpt lat="-8.037885" lon="-34.889822">
    <ele>11.8</ele>
    <time>2019-08-06T00:23:37.000Z</time>
   </trkpt>
   <trkpt lat="-8.037854" lon="-34.889806">
    <ele>11.9</ele>
    <time>2019-08-06T00:23:38.000Z</time>
   </trkpt>
   <trkpt lat="-8.037818" lon="-34.889791">
    <ele>11.9</ele>
    <time>2019-08-06T00:23:39.000Z</time>
   </trkpt>
   <trkpt lat="-8.037785" lon="-34.889789">
    <ele>12</ele>
    <time>2019-08-06T00:23:40.000Z</time>
   </trkpt>
   <trkpt lat="-8.037764" lon="-34.889823">
    <ele>12</ele>
    <time>2019-08-06T00:23:41.000Z</time>
   </trkpt>
   <trkpt lat="-8.037747" lon="-34.889883">
    <ele>12</ele>
    <time>2019-08-06T00:23:42.000Z</time>
   </trkpt>
   <trkpt lat="-8.037724" lon="-34.889935">
    <ele>11.8</ele>
    <time>2019-08-06T00:23:43.000Z</time>
   </trkpt>
   <trkpt lat="-8.0377" lon="-34.889996">
    <ele>11.7</ele>
    <time>2019-08-06T00:23:44.000Z</time>
   </trkpt>
   <trkpt lat="-8.03767" lon="-34.890043">
    <ele>11.6</ele>
    <time>2019-08-06T00:23:45.000Z</time>
   </trkpt>
   <trkpt lat="-8.037641" lon="-34.890088">
    <ele>11.4</ele>
    <time>2019-08-06T00:23:46.000Z</time>
   </trkpt>
   <trkpt lat="-8.037613" lon="-34.890134">
    <ele>11.3</ele>
    <time>2019-08-06T00:23:47.000Z</time>
   </trkpt>
   <trkpt lat="-8.037586" lon="-34.89019">
    <ele>11.2</ele>
    <time>2019-08-06T00:23:48.000Z</time>
   </trkpt>
   <trkpt lat="-8.037559" lon="-34.89024">
    <ele>11.2</ele>
    <time>2019-08-06T00:23:49.000Z</time>
   </trkpt>
   <trkpt lat="-8.037524" lon="-34.890281">
    <ele>11.3</ele>
    <time>2019-08-06T00:23:50.000Z</time>
   </trkpt>
   <trkpt lat="-8.037495" lon="-34.890323">
    <ele>11.4</ele>
    <time>2019-08-06T00:23:51.000Z</time>
   </trkpt>
   <trkpt lat="-8.037479" lon="-34.890373">
    <ele>11.6</ele>
    <time>2019-08-06T00:23:52.000Z</time>
   </trkpt>
   <trkpt lat="-8.037449" lon="-34.89042">
    <ele>11.9</ele>
    <time>2019-08-06T00:23:53.000Z</time>
   </trkpt>
   <trkpt lat="-8.037418" lon="-34.89045">
    <ele>12.2</ele>
    <time>2019-08-06T00:23:54.000Z</time>
   </trkpt>
   <trkpt lat="-8.037391" lon="-34.890496">
    <ele>12.2</ele>
    <time>2019-08-06T00:23:55.000Z</time>
   </trkpt>
   <trkpt lat="-8.037369" lon="-34.890532">
    <ele>12.2</ele>
    <time>2019-08-06T00:23:56.000Z</time>
   </trkpt>
   <trkpt lat="-8.037344" lon="-34.890563">
    <ele>11.9</ele>
    <time>2019-08-06T00:23:57.000Z</time>
   </trkpt>
   <trkpt lat="-8.037314" lon="-34.89058">
    <ele>11.7</ele>
    <time>2019-08-06T00:23:58.000Z</time>
   </trkpt>
   <trkpt lat="-8.037303" lon="-34.890631">
    <ele>11.4</ele>
    <time>2019-08-06T00:24:00.000Z</time>
   </trkpt>
   <trkpt lat="-8.037301" lon="-34.890662">
    <ele>11.2</ele>
    <time>2019-08-06T00:24:01.000Z</time>
   </trkpt>
   <trkpt lat="-8.037283" lon="-34.890688">
    <ele>11</ele>
    <time>2019-08-06T00:24:03.000Z</time>
   </trkpt>
   <trkpt lat="-8.037264" lon="-34.890719">
    <ele>10.8</ele>
    <time>2019-08-06T00:24:06.000Z</time>
   </trkpt>
   <trkpt lat="-8.037273" lon="-34.890747">
    <ele>10.7</ele>
    <time>2019-08-06T00:24:17.000Z</time>
   </trkpt>
   <trkpt lat="-8.03728" lon="-34.890791">
    <ele>10.4</ele>
    <time>2019-08-06T00:24:19.000Z</time>
   </trkpt>
   <trkpt lat="-8.037284" lon="-34.890846">
    <ele>9.9</ele>
    <time>2019-08-06T00:24:20.000Z</time>
   </trkpt>
   <trkpt lat="-8.037287" lon="-34.890885">
    <ele>9.6</ele>
    <time>2019-08-06T00:24:21.000Z</time>
   </trkpt>
   <trkpt lat="-8.037278" lon="-34.890912">
    <ele>8.4</ele>
    <time>2019-08-06T00:24:22.000Z</time>
   </trkpt>
   <trkpt lat="-8.037267" lon="-34.890965">
    <ele>8.1</ele>
    <time>2019-08-06T00:24:24.000Z</time>
   </trkpt>
   <trkpt lat="-8.037236" lon="-34.890989">
    <ele>7.9</ele>
    <time>2019-08-06T00:24:25.000Z</time>
   </trkpt>
   <trkpt lat="-8.037219" lon="-34.891014">
    <ele>8.5</ele>
    <time>2019-08-06T00:24:26.000Z</time>
   </trkpt>
   <trkpt lat="-8.037223" lon="-34.891042">
    <ele>8.6</ele>
    <time>2019-08-06T00:24:27.000Z</time>
   </trkpt>
   <trkpt lat="-8.037236" lon="-34.891077">
    <ele>8.7</ele>
    <time>2019-08-06T00:24:28.000Z</time>
   </trkpt>
   <trkpt lat="-8.037245" lon="-34.891122">
    <ele>8.9</ele>
    <time>2019-08-06T00:24:29.000Z</time>
   </trkpt>
   <trkpt lat="-8.037275" lon="-34.891144">
    <ele>9.1</ele>
    <time>2019-08-06T00:24:30.000Z</time>
   </trkpt>
   <trkpt lat="-8.03731" lon="-34.891167">
    <ele>9.2</ele>
    <time>2019-08-06T00:24:31.000Z</time>
   </trkpt>
   <trkpt lat="-8.037348" lon="-34.891197">
    <ele>9.3</ele>
    <time>2019-08-06T00:24:32.000Z</time>
   </trkpt>
   <trkpt lat="-8.037385" lon="-34.891231">
    <ele>9.5</ele>
    <time>2019-08-06T00:24:33.000Z</time>
   </trkpt>
   <trkpt lat="-8.037426" lon="-34.891261">
    <ele>9.7</ele>
    <time>2019-08-06T00:24:34.000Z</time>
   </trkpt>
   <trkpt lat="-8.037465" lon="-34.891295">
    <ele>10</ele>
    <time>2019-08-06T00:24:35.000Z</time>
   </trkpt>
   <trkpt lat="-8.037501" lon="-34.891323">
    <ele>10.3</ele>
    <time>2019-08-06T00:24:36.000Z</time>
   </trkpt>
   <trkpt lat="-8.03754" lon="-34.891342">
    <ele>10.6</ele>
    <time>2019-08-06T00:24:37.000Z</time>
   </trkpt>
   <trkpt lat="-8.03757" lon="-34.89136">
    <ele>10.9</ele>
    <time>2019-08-06T00:24:38.000Z</time>
   </trkpt>
   <trkpt lat="-8.037603" lon="-34.891377">
    <ele>11.2</ele>
    <time>2019-08-06T00:24:39.000Z</time>
   </trkpt>
   <trkpt lat="-8.037627" lon="-34.891403">
    <ele>11.5</ele>
    <time>2019-08-06T00:24:40.000Z</time>
   </trkpt>
   <trkpt lat="-8.037661" lon="-34.891424">
    <ele>11.8</ele>
    <time>2019-08-06T00:24:41.000Z</time>
   </trkpt>
   <trkpt lat="-8.037692" lon="-34.891448">
    <ele>12.1</ele>
    <time>2019-08-06T00:24:42.000Z</time>
   </trkpt>
   <trkpt lat="-8.037726" lon="-34.891469">
    <ele>12.4</ele>
    <time>2019-08-06T00:24:43.000Z</time>
   </trkpt>
   <trkpt lat="-8.037767" lon="-34.891499">
    <ele>12.6</ele>
    <time>2019-08-06T00:24:45.000Z</time>
   </trkpt>
   <trkpt lat="-8.037792" lon="-34.891515">
    <ele>12.6</ele>
    <time>2019-08-06T00:24:47.000Z</time>
   </trkpt>
   <trkpt lat="-8.037781" lon="-34.89155">
    <ele>12.1</ele>
    <time>2019-08-06T00:24:50.000Z</time>
   </trkpt>
   <trkpt lat="-8.037756" lon="-34.891603">
    <ele>11.9</ele>
    <time>2019-08-06T00:24:52.000Z</time>
   </trkpt>
   <trkpt lat="-8.037733" lon="-34.891637">
    <ele>11.5</ele>
    <time>2019-08-06T00:24:53.000Z</time>
   </trkpt>
   <trkpt lat="-8.037695" lon="-34.891661">
    <ele>11.1</ele>
    <time>2019-08-06T00:24:54.000Z</time>
   </trkpt>
   <trkpt lat="-8.037658" lon="-34.891697">
    <ele>10.8</ele>
    <time>2019-08-06T00:24:55.000Z</time>
   </trkpt>
   <trkpt lat="-8.03762" lon="-34.891742">
    <ele>10.5</ele>
    <time>2019-08-06T00:24:56.000Z</time>
   </trkpt>
   <trkpt lat="-8.03759" lon="-34.89177">
    <ele>10.3</ele>
    <time>2019-08-06T00:24:57.000Z</time>
   </trkpt>
   <trkpt lat="-8.03755" lon="-34.891811">
    <ele>10.1</ele>
    <time>2019-08-06T00:24:58.000Z</time>
   </trkpt>
   <trkpt lat="-8.037512" lon="-34.891852">
    <ele>10.1</ele>
    <time>2019-08-06T00:24:59.000Z</time>
   </trkpt>
   <trkpt lat="-8.03749" lon="-34.891894">
    <ele>10</ele>
    <time>2019-08-06T00:25:00.000Z</time>
   </trkpt>
   <trkpt lat="-8.037451" lon="-34.891931">
    <ele>9.5</ele>
    <time>2019-08-06T00:25:01.000Z</time>
   </trkpt>
   <trkpt lat="-8.037429" lon="-34.891971">
    <ele>9.3</ele>
    <time>2019-08-06T00:25:02.000Z</time>
   </trkpt>
   <trkpt lat="-8.03744" lon="-34.892035">
    <ele>9</ele>
    <time>2019-08-06T00:25:03.000Z</time>
   </trkpt>
   <trkpt lat="-8.03747" lon="-34.89209">
    <ele>8.8</ele>
    <time>2019-08-06T00:25:04.000Z</time>
   </trkpt>
   <trkpt lat="-8.037489" lon="-34.892147">
    <ele>8.7</ele>
    <time>2019-08-06T00:25:05.000Z</time>
   </trkpt>
   <trkpt lat="-8.037483" lon="-34.892207">
    <ele>8.9</ele>
    <time>2019-08-06T00:25:06.000Z</time>
   </trkpt>
   <trkpt lat="-8.037478" lon="-34.892261">
    <ele>9.1</ele>
    <time>2019-08-06T00:25:07.000Z</time>
   </trkpt>
   <trkpt lat="-8.037469" lon="-34.892313">
    <ele>9.3</ele>
    <time>2019-08-06T00:25:08.000Z</time>
   </trkpt>
   <trkpt lat="-8.037483" lon="-34.89238">
    <ele>9.5</ele>
    <time>2019-08-06T00:25:09.000Z</time>
   </trkpt>
   <trkpt lat="-8.037481" lon="-34.892444">
    <ele>9.8</ele>
    <time>2019-08-06T00:25:10.000Z</time>
   </trkpt>
   <trkpt lat="-8.037473" lon="-34.892498">
    <ele>10</ele>
    <time>2019-08-06T00:25:11.000Z</time>
   </trkpt>
   <trkpt lat="-8.037459" lon="-34.892549">
    <ele>10.1</ele>
    <time>2019-08-06T00:25:12.000Z</time>
   </trkpt>
   <trkpt lat="-8.037453" lon="-34.892596">
    <ele>10.3</ele>
    <time>2019-08-06T00:25:13.000Z</time>
   </trkpt>
   <trkpt lat="-8.037445" lon="-34.892654">
    <ele>10.4</ele>
    <time>2019-08-06T00:25:14.000Z</time>
   </trkpt>
   <trkpt lat="-8.03744" lon="-34.892711">
    <ele>10.4</ele>
    <time>2019-08-06T00:25:15.000Z</time>
   </trkpt>
   <trkpt lat="-8.037435" lon="-34.892769">
    <ele>10.4</ele>
    <time>2019-08-06T00:25:16.000Z</time>
   </trkpt>
   <trkpt lat="-8.037421" lon="-34.892818">
    <ele>10.3</ele>
    <time>2019-08-06T00:25:17.000Z</time>
   </trkpt>
   <trkpt lat="-8.037403" lon="-34.892847">
    <ele>10.2</ele>
    <time>2019-08-06T00:25:18.000Z</time>
   </trkpt>
   <trkpt lat="-8.037379" lon="-34.892867">
    <ele>10</ele>
    <time>2019-08-06T00:25:19.000Z</time>
   </trkpt>
   <trkpt lat="-8.037342" lon="-34.89289">
    <ele>10</ele>
    <time>2019-08-06T00:25:21.000Z</time>
   </trkpt>
   <trkpt lat="-8.0373" lon="-34.892859">
    <ele>10</ele>
    <time>2019-08-06T00:25:23.000Z</time>
   </trkpt>
   <trkpt lat="-8.037263" lon="-34.892833">
    <ele>10</ele>
    <time>2019-08-06T00:25:24.000Z</time>
   </trkpt>
   <trkpt lat="-8.037225" lon="-34.892818">
    <ele>10</ele>
    <time>2019-08-06T00:25:25.000Z</time>
   </trkpt>
   <trkpt lat="-8.037199" lon="-34.89281">
    <ele>10</ele>
    <time>2019-08-06T00:25:26.000Z</time>
   </trkpt>
   <trkpt lat="-8.037174" lon="-34.892788">
    <ele>10</ele>
    <time>2019-08-06T00:25:27.000Z</time>
   </trkpt>
   <trkpt lat="-8.037136" lon="-34.892762">
    <ele>10</ele>
    <time>2019-08-06T00:25:29.000Z</time>
   </trkpt>
   <trkpt lat="-8.037108" lon="-34.892746">
    <ele>10</ele>
    <time>2019-08-06T00:25:30.000Z</time>
   </trkpt>
   <trkpt lat="-8.037064" lon="-34.892737">
    <ele>10</ele>
    <time>2019-08-06T00:25:31.000Z</time>
   </trkpt>
   <trkpt lat="-8.037018" lon="-34.892726">
    <ele>10</ele>
    <time>2019-08-06T00:25:32.000Z</time>
   </trkpt>
   <trkpt lat="-8.036975" lon="-34.892721">
    <ele>10</ele>
    <time>2019-08-06T00:25:34.000Z</time>
   </trkpt>
   <trkpt lat="-8.036947" lon="-34.892724">
    <ele>10</ele>
    <time>2019-08-06T00:25:36.000Z</time>
   </trkpt>
   <trkpt lat="-8.036921" lon="-34.892737">
    <ele>10</ele>
    <time>2019-08-06T00:25:39.000Z</time>
   </trkpt>
   <trkpt lat="-8.036903" lon="-34.892774">
    <ele>10</ele>
    <time>2019-08-06T00:25:42.000Z</time>
   </trkpt>
  </trkseg>
 </trk>
</gpx>
