<?xml version="1.0" encoding="UTF-8"?>
<gpx creator="StravaGPX" version="1.1" xmlns="http://www.topografix.com/GPX/1/1">
 <metadata>
  <time>2019-09-18T21:23:00Z</time>
 </metadata>
 <trk>
  <name>Evening Ride</name>
  <type>1</type>
  <trkseg>
   <trkpt lat="-8.057777" lon="-34.899277">
    <ele>6.6</ele>
    <time>2019-09-18T21:23:00.000Z</time>
   </trkpt>
   <trkpt lat="-8.057617" lon="-34.899096">
    <ele>6.4</ele>
    <time>2019-09-18T21:23:29.000Z</time>
   </trkpt>
   <trkpt lat="-8.057596" lon="-34.899113">
    <ele>6.4</ele>
    <time>2019-09-18T21:23:30.000Z</time>
   </trkpt>
   <trkpt lat="-8.057563" lon="-34.899107">
    <ele>6.5</ele>
    <time>2019-09-18T21:23:34.000Z</time>
   </trkpt>
   <trkpt lat="-8.057528" lon="-34.899094">
    <ele>6.6</ele>
    <time>2019-09-18T21:23:40.000Z</time>
   </trkpt>
   <trkpt lat="-8.057507" lon="-34.899047">
    <ele>6.8</ele>
    <time>2019-09-18T21:23:42.000Z</time>
   </trkpt>
   <trkpt lat="-8.05751" lon="-34.898993">
    <ele>7.1</ele>
    <time>2019-09-18T21:23:44.000Z</time>
   </trkpt>
   <trkpt lat="-8.05752" lon="-34.89896">
    <ele>7.3</ele>
    <time>2019-09-18T21:23:45.000Z</time>
   </trkpt>
   <trkpt lat="-8.057535" lon="-34.89892">
    <ele>7.7</ele>
    <time>2019-09-18T21:23:46.000Z</time>
   </trkpt>
   <trkpt lat="-8.057552" lon="-34.898877">
    <ele>8</ele>
    <time>2019-09-18T21:23:47.000Z</time>
   </trkpt>
   <trkpt lat="-8.057541" lon="-34.89884">
    <ele>8.3</ele>
    <time>2019-09-18T21:23:48.000Z</time>
   </trkpt>
   <trkpt lat="-8.057544" lon="-34.898797">
    <ele>8.7</ele>
    <time>2019-09-18T21:23:49.000Z</time>
   </trkpt>
   <trkpt lat="-8.057531" lon="-34.898758">
    <ele>9.1</ele>
    <time>2019-09-18T21:23:50.000Z</time>
   </trkpt>
   <trkpt lat="-8.057514" lon="-34.898709">
    <ele>9.3</ele>
    <time>2019-09-18T21:23:51.000Z</time>
   </trkpt>
   <trkpt lat="-8.057503" lon="-34.898678">
    <ele>9.3</ele>
    <time>2019-09-18T21:23:52.000Z</time>
   </trkpt>
   <trkpt lat="-8.057495" lon="-34.898644">
    <ele>9.3</ele>
    <time>2019-09-18T21:23:53.000Z</time>
   </trkpt>
   <trkpt lat="-8.057497" lon="-34.898611">
    <ele>9.5</ele>
    <time>2019-09-18T21:23:54.000Z</time>
   </trkpt>
   <trkpt lat="-8.057513" lon="-34.898578">
    <ele>9.6</ele>
    <time>2019-09-18T21:23:55.000Z</time>
   </trkpt>
   <trkpt lat="-8.057537" lon="-34.898555">
    <ele>10</ele>
    <time>2019-09-18T21:23:56.000Z</time>
   </trkpt>
   <trkpt lat="-8.057562" lon="-34.89853">
    <ele>10.2</ele>
    <time>2019-09-18T21:23:57.000Z</time>
   </trkpt>
   <trkpt lat="-8.0576" lon="-34.898499">
    <ele>10.6</ele>
    <time>2019-09-18T21:23:59.000Z</time>
   </trkpt>
   <trkpt lat="-8.057624" lon="-34.898485">
    <ele>10.8</ele>
    <time>2019-09-18T21:24:00.000Z</time>
   </trkpt>
   <trkpt lat="-8.057659" lon="-34.898484">
    <ele>10.8</ele>
    <time>2019-09-18T21:24:01.000Z</time>
   </trkpt>
   <trkpt lat="-8.05769" lon="-34.898496">
    <ele>10.9</ele>
    <time>2019-09-18T21:24:02.000Z</time>
   </trkpt>
   <trkpt lat="-8.057722" lon="-34.898513">
    <ele>11</ele>
    <time>2019-09-18T21:24:03.000Z</time>
   </trkpt>
   <trkpt lat="-8.057766" lon="-34.898528">
    <ele>11.2</ele>
    <time>2019-09-18T21:24:04.000Z</time>
   </trkpt>
   <trkpt lat="-8.057805" lon="-34.898549">
    <ele>11.2</ele>
    <time>2019-09-18T21:24:05.000Z</time>
   </trkpt>
   <trkpt lat="-8.057841" lon="-34.898577">
    <ele>11.1</ele>
    <time>2019-09-18T21:24:06.000Z</time>
   </trkpt>
   <trkpt lat="-8.05787" lon="-34.898604">
    <ele>11</ele>
    <time>2019-09-18T21:24:07.000Z</time>
   </trkpt>
   <trkpt lat="-8.057902" lon="-34.898616">
    <ele>10.8</ele>
    <time>2019-09-18T21:24:08.000Z</time>
   </trkpt>
   <trkpt lat="-8.057924" lon="-34.89864">
    <ele>10.6</ele>
    <time>2019-09-18T21:24:09.000Z</time>
   </trkpt>
   <trkpt lat="-8.057957" lon="-34.898653">
    <ele>10.5</ele>
    <time>2019-09-18T21:24:10.000Z</time>
   </trkpt>
   <trkpt lat="-8.05799" lon="-34.898665">
    <ele>10.3</ele>
    <time>2019-09-18T21:24:11.000Z</time>
   </trkpt>
   <trkpt lat="-8.058026" lon="-34.898684">
    <ele>10.2</ele>
    <time>2019-09-18T21:24:12.000Z</time>
   </trkpt>
   <trkpt lat="-8.05806" lon="-34.898694">
    <ele>10.3</ele>
    <time>2019-09-18T21:24:13.000Z</time>
   </trkpt>
   <trkpt lat="-8.058098" lon="-34.898711">
    <ele>10.3</ele>
    <time>2019-09-18T21:24:14.000Z</time>
   </trkpt>
   <trkpt lat="-8.05814" lon="-34.898725">
    <ele>10.4</ele>
    <time>2019-09-18T21:24:15.000Z</time>
   </trkpt>
   <trkpt lat="-8.058174" lon="-34.898736">
    <ele>10.4</ele>
    <time>2019-09-18T21:24:16.000Z</time>
   </trkpt>
   <trkpt lat="-8.058215" lon="-34.898752">
    <ele>10.6</ele>
    <time>2019-09-18T21:24:17.000Z</time>
   </trkpt>
   <trkpt lat="-8.05825" lon="-34.898765">
    <ele>10.8</ele>
    <time>2019-09-18T21:24:18.000Z</time>
   </trkpt>
   <trkpt lat="-8.05828" lon="-34.898785">
    <ele>11.1</ele>
    <time>2019-09-18T21:24:19.000Z</time>
   </trkpt>
   <trkpt lat="-8.058301" lon="-34.898812">
    <ele>11.5</ele>
    <time>2019-09-18T21:24:20.000Z</time>
   </trkpt>
   <trkpt lat="-8.058316" lon="-34.898849">
    <ele>12</ele>
    <time>2019-09-18T21:24:21.000Z</time>
   </trkpt>
   <trkpt lat="-8.058311" lon="-34.898895">
    <ele>12</ele>
    <time>2019-09-18T21:24:22.000Z</time>
   </trkpt>
   <trkpt lat="-8.058295" lon="-34.898945">
    <ele>11.9</ele>
    <time>2019-09-18T21:24:23.000Z</time>
   </trkpt>
   <trkpt lat="-8.058289" lon="-34.898985">
    <ele>11.9</ele>
    <time>2019-09-18T21:24:24.000Z</time>
   </trkpt>
   <trkpt lat="-8.05829" lon="-34.899025">
    <ele>11.9</ele>
    <time>2019-09-18T21:24:25.000Z</time>
   </trkpt>
   <trkpt lat="-8.058297" lon="-34.899074">
    <ele>11.8</ele>
    <time>2019-09-18T21:24:26.000Z</time>
   </trkpt>
   <trkpt lat="-8.058303" lon="-34.899111">
    <ele>11.8</ele>
    <time>2019-09-18T21:24:27.000Z</time>
   </trkpt>
   <trkpt lat="-8.058298" lon="-34.899162">
    <ele>11.9</ele>
    <time>2019-09-18T21:24:28.000Z</time>
   </trkpt>
   <trkpt lat="-8.058297" lon="-34.899204">
    <ele>12</ele>
    <time>2019-09-18T21:24:29.000Z</time>
   </trkpt>
   <trkpt lat="-8.058299" lon="-34.899246">
    <ele>12</ele>
    <time>2019-09-18T21:24:30.000Z</time>
   </trkpt>
   <trkpt lat="-8.0583" lon="-34.899289">
    <ele>12</ele>
    <time>2019-09-18T21:24:31.000Z</time>
   </trkpt>
   <trkpt lat="-8.058298" lon="-34.899339">
    <ele>12</ele>
    <time>2019-09-18T21:24:32.000Z</time>
   </trkpt>
   <trkpt lat="-8.05829" lon="-34.899376">
    <ele>12.1</ele>
    <time>2019-09-18T21:24:33.000Z</time>
   </trkpt>
   <trkpt lat="-8.058291" lon="-34.899416">
    <ele>12.4</ele>
    <time>2019-09-18T21:24:34.000Z</time>
   </trkpt>
   <trkpt lat="-8.058302" lon="-34.899476">
    <ele>13.1</ele>
    <time>2019-09-18T21:24:35.000Z</time>
   </trkpt>
   <trkpt lat="-8.058309" lon="-34.899516">
    <ele>13.5</ele>
    <time>2019-09-18T21:24:36.000Z</time>
   </trkpt>
   <trkpt lat="-8.05832" lon="-34.899562">
    <ele>14</ele>
    <time>2019-09-18T21:24:37.000Z</time>
   </trkpt>
   <trkpt lat="-8.058326" lon="-34.899619">
    <ele>14.6</ele>
    <time>2019-09-18T21:24:38.000Z</time>
   </trkpt>
   <trkpt lat="-8.058334" lon="-34.899676">
    <ele>15.1</ele>
    <time>2019-09-18T21:24:39.000Z</time>
   </trkpt>
   <trkpt lat="-8.058335" lon="-34.899728">
    <ele>15.4</ele>
    <time>2019-09-18T21:24:40.000Z</time>
   </trkpt>
   <trkpt lat="-8.058339" lon="-34.899781">
    <ele>15.3</ele>
    <time>2019-09-18T21:24:41.000Z</time>
   </trkpt>
   <trkpt lat="-8.058342" lon="-34.899823">
    <ele>15</ele>
    <time>2019-09-18T21:24:42.000Z</time>
   </trkpt>
   <trkpt lat="-8.058349" lon="-34.899865">
    <ele>14.7</ele>
    <time>2019-09-18T21:24:43.000Z</time>
   </trkpt>
   <trkpt lat="-8.058353" lon="-34.899904">
    <ele>14.3</ele>
    <time>2019-09-18T21:24:44.000Z</time>
   </trkpt>
   <trkpt lat="-8.058355" lon="-34.899955">
    <ele>14.2</ele>
    <time>2019-09-18T21:24:45.000Z</time>
   </trkpt>
   <trkpt lat="-8.058349" lon="-34.899989">
    <ele>14.2</ele>
    <time>2019-09-18T21:24:46.000Z</time>
   </trkpt>
   <trkpt lat="-8.058325" lon="-34.900018">
    <ele>13.6</ele>
    <time>2019-09-18T21:24:47.000Z</time>
   </trkpt>
   <trkpt lat="-8.058294" lon="-34.900044">
    <ele>13</ele>
    <time>2019-09-18T21:24:48.000Z</time>
   </trkpt>
   <trkpt lat="-8.058258" lon="-34.90005">
    <ele>12.6</ele>
    <time>2019-09-18T21:24:49.000Z</time>
   </trkpt>
   <trkpt lat="-8.058214" lon="-34.900045">
    <ele>12.1</ele>
    <time>2019-09-18T21:24:50.000Z</time>
   </trkpt>
   <trkpt lat="-8.058171" lon="-34.900027">
    <ele>11.6</ele>
    <time>2019-09-18T21:24:51.000Z</time>
   </trkpt>
   <trkpt lat="-8.058127" lon="-34.900012">
    <ele>11.1</ele>
    <time>2019-09-18T21:24:52.000Z</time>
   </trkpt>
   <trkpt lat="-8.058072" lon="-34.900026">
    <ele>10.8</ele>
    <time>2019-09-18T21:24:53.000Z</time>
   </trkpt>
   <trkpt lat="-8.05801" lon="-34.900037">
    <ele>10.4</ele>
    <time>2019-09-18T21:24:54.000Z</time>
   </trkpt>
   <trkpt lat="-8.05796" lon="-34.900037">
    <ele>10.2</ele>
    <time>2019-09-18T21:24:55.000Z</time>
   </trkpt>
   <trkpt lat="-8.057903" lon="-34.900037">
    <ele>10.1</ele>
    <time>2019-09-18T21:24:56.000Z</time>
   </trkpt>
   <trkpt lat="-8.057845" lon="-34.900042">
    <ele>10</ele>
    <time>2019-09-18T21:24:57.000Z</time>
   </trkpt>
   <trkpt lat="-8.057792" lon="-34.900041">
    <ele>10</ele>
    <time>2019-09-18T21:24:58.000Z</time>
   </trkpt>
   <trkpt lat="-8.057729" lon="-34.900042">
    <ele>9.9</ele>
    <time>2019-09-18T21:24:59.000Z</time>
   </trkpt>
   <trkpt lat="-8.057661" lon="-34.900045">
    <ele>9.9</ele>
    <time>2019-09-18T21:25:00.000Z</time>
   </trkpt>
   <trkpt lat="-8.057603" lon="-34.900037">
    <ele>9.8</ele>
    <time>2019-09-18T21:25:01.000Z</time>
   </trkpt>
   <trkpt lat="-8.057552" lon="-34.900037">
    <ele>9.8</ele>
    <time>2019-09-18T21:25:02.000Z</time>
   </trkpt>
   <trkpt lat="-8.057507" lon="-34.900036">
    <ele>9.8</ele>
    <time>2019-09-18T21:25:03.000Z</time>
   </trkpt>
   <trkpt lat="-8.057468" lon="-34.900039">
    <ele>9.8</ele>
    <time>2019-09-18T21:25:04.000Z</time>
   </trkpt>
   <trkpt lat="-8.057422" lon="-34.900037">
    <ele>9.8</ele>
    <time>2019-09-18T21:25:05.000Z</time>
   </trkpt>
   <trkpt lat="-8.057384" lon="-34.900038">
    <ele>9.7</ele>
    <time>2019-09-18T21:25:06.000Z</time>
   </trkpt>
   <trkpt lat="-8.057333" lon="-34.900027">
    <ele>9.5</ele>
    <time>2019-09-18T21:25:07.000Z</time>
   </trkpt>
   <trkpt lat="-8.057297" lon="-34.900025">
    <ele>9.4</ele>
    <time>2019-09-18T21:25:08.000Z</time>
   </trkpt>
   <trkpt lat="-8.057268" lon="-34.900025">
    <ele>9.3</ele>
    <time>2019-09-18T21:25:09.000Z</time>
   </trkpt>
   <trkpt lat="-8.057233" lon="-34.900015">
    <ele>9.2</ele>
    <time>2019-09-18T21:25:10.000Z</time>
   </trkpt>
   <trkpt lat="-8.057176" lon="-34.900004">
    <ele>9.1</ele>
    <time>2019-09-18T21:25:12.000Z</time>
   </trkpt>
   <trkpt lat="-8.05715" lon="-34.900006">
    <ele>9</ele>
    <time>2019-09-18T21:25:16.000Z</time>
   </trkpt>
   <trkpt lat="-8.057125" lon="-34.900009">
    <ele>8.9</ele>
    <time>2019-09-18T21:25:25.000Z</time>
   </trkpt>
   <trkpt lat="-8.057099" lon="-34.900011">
    <ele>8.8</ele>
    <time>2019-09-18T21:25:33.000Z</time>
   </trkpt>
   <trkpt lat="-8.057073" lon="-34.900013">
    <ele>8.8</ele>
    <time>2019-09-18T21:26:21.000Z</time>
   </trkpt>
   <trkpt lat="-8.057047" lon="-34.900015">
    <ele>8.8</ele>
    <time>2019-09-18T21:26:22.000Z</time>
   </trkpt>
   <trkpt lat="-8.056995" lon="-34.900009">
    <ele>8.8</ele>
    <time>2019-09-18T21:26:23.000Z</time>
   </trkpt>
   <trkpt lat="-8.056956" lon="-34.900003">
    <ele>8.8</ele>
    <time>2019-09-18T21:26:24.000Z</time>
   </trkpt>
   <trkpt lat="-8.056919" lon="-34.9">
    <ele>8.8</ele>
    <time>2019-09-18T21:26:25.000Z</time>
   </trkpt>
   <trkpt lat="-8.056872" lon="-34.899994">
    <ele>9.2</ele>
    <time>2019-09-18T21:26:26.000Z</time>
   </trkpt>
   <trkpt lat="-8.056836" lon="-34.899985">
    <ele>9.4</ele>
    <time>2019-09-18T21:26:27.000Z</time>
   </trkpt>
   <trkpt lat="-8.056798" lon="-34.899991">
    <ele>9.6</ele>
    <time>2019-09-18T21:26:28.000Z</time>
   </trkpt>
   <trkpt lat="-8.05675" lon="-34.899998">
    <ele>9.8</ele>
    <time>2019-09-18T21:26:29.000Z</time>
   </trkpt>
   <trkpt lat="-8.056707" lon="-34.900003">
    <ele>10</ele>
    <time>2019-09-18T21:26:30.000Z</time>
   </trkpt>
   <trkpt lat="-8.056668" lon="-34.899999">
    <ele>10.2</ele>
    <time>2019-09-18T21:26:31.000Z</time>
   </trkpt>
   <trkpt lat="-8.056616" lon="-34.900011">
    <ele>10.5</ele>
    <time>2019-09-18T21:26:32.000Z</time>
   </trkpt>
   <trkpt lat="-8.056564" lon="-34.900007">
    <ele>11</ele>
    <time>2019-09-18T21:26:33.000Z</time>
   </trkpt>
   <trkpt lat="-8.056512" lon="-34.899999">
    <ele>11</ele>
    <time>2019-09-18T21:26:34.000Z</time>
   </trkpt>
   <trkpt lat="-8.056464" lon="-34.899996">
    <ele>11.1</ele>
    <time>2019-09-18T21:26:35.000Z</time>
   </trkpt>
   <trkpt lat="-8.056416" lon="-34.899991">
    <ele>11.1</ele>
    <time>2019-09-18T21:26:36.000Z</time>
   </trkpt>
   <trkpt lat="-8.056375" lon="-34.899986">
    <ele>11.2</ele>
    <time>2019-09-18T21:26:37.000Z</time>
   </trkpt>
   <trkpt lat="-8.056311" lon="-34.9">
    <ele>11.5</ele>
    <time>2019-09-18T21:26:38.000Z</time>
   </trkpt>
   <trkpt lat="-8.056259" lon="-34.900005">
    <ele>11.8</ele>
    <time>2019-09-18T21:26:39.000Z</time>
   </trkpt>
   <trkpt lat="-8.056216" lon="-34.900018">
    <ele>11.9</ele>
    <time>2019-09-18T21:26:40.000Z</time>
   </trkpt>
   <trkpt lat="-8.056172" lon="-34.900024">
    <ele>12.1</ele>
    <time>2019-09-18T21:26:41.000Z</time>
   </trkpt>
   <trkpt lat="-8.056128" lon="-34.900034">
    <ele>12.3</ele>
    <time>2019-09-18T21:26:42.000Z</time>
   </trkpt>
   <trkpt lat="-8.056096" lon="-34.900036">
    <ele>12.4</ele>
    <time>2019-09-18T21:26:43.000Z</time>
   </trkpt>
   <trkpt lat="-8.056059" lon="-34.900034">
    <ele>12.6</ele>
    <time>2019-09-18T21:26:44.000Z</time>
   </trkpt>
   <trkpt lat="-8.05601" lon="-34.900026">
    <ele>12.8</ele>
    <time>2019-09-18T21:26:45.000Z</time>
   </trkpt>
   <trkpt lat="-8.055959" lon="-34.900031">
    <ele>13</ele>
    <time>2019-09-18T21:26:46.000Z</time>
   </trkpt>
   <trkpt lat="-8.055899" lon="-34.900037">
    <ele>13</ele>
    <time>2019-09-18T21:26:47.000Z</time>
   </trkpt>
   <trkpt lat="-8.055844" lon="-34.900041">
    <ele>12.8</ele>
    <time>2019-09-18T21:26:48.000Z</time>
   </trkpt>
   <trkpt lat="-8.055798" lon="-34.900041">
    <ele>12.7</ele>
    <time>2019-09-18T21:26:49.000Z</time>
   </trkpt>
   <trkpt lat="-8.05575" lon="-34.900051">
    <ele>12.5</ele>
    <time>2019-09-18T21:26:50.000Z</time>
   </trkpt>
   <trkpt lat="-8.055703" lon="-34.900053">
    <ele>12.4</ele>
    <time>2019-09-18T21:26:51.000Z</time>
   </trkpt>
   <trkpt lat="-8.055668" lon="-34.900051">
    <ele>12.3</ele>
    <time>2019-09-18T21:26:52.000Z</time>
   </trkpt>
   <trkpt lat="-8.055617" lon="-34.900043">
    <ele>12.2</ele>
    <time>2019-09-18T21:26:53.000Z</time>
   </trkpt>
   <trkpt lat="-8.055573" lon="-34.900045">
    <ele>12</ele>
    <time>2019-09-18T21:26:54.000Z</time>
   </trkpt>
   <trkpt lat="-8.055519" lon="-34.900048">
    <ele>11.9</ele>
    <time>2019-09-18T21:26:55.000Z</time>
   </trkpt>
   <trkpt lat="-8.055465" lon="-34.900044">
    <ele>11.8</ele>
    <time>2019-09-18T21:26:56.000Z</time>
   </trkpt>
   <trkpt lat="-8.055413" lon="-34.900058">
    <ele>11.6</ele>
    <time>2019-09-18T21:26:57.000Z</time>
   </trkpt>
   <trkpt lat="-8.055368" lon="-34.900063">
    <ele>11.5</ele>
    <time>2019-09-18T21:26:58.000Z</time>
   </trkpt>
   <trkpt lat="-8.055326" lon="-34.900061">
    <ele>11.4</ele>
    <time>2019-09-18T21:26:59.000Z</time>
   </trkpt>
   <trkpt lat="-8.055286" lon="-34.900059">
    <ele>11.4</ele>
    <time>2019-09-18T21:27:00.000Z</time>
   </trkpt>
   <trkpt lat="-8.055255" lon="-34.90006">
    <ele>11.3</ele>
    <time>2019-09-18T21:27:01.000Z</time>
   </trkpt>
   <trkpt lat="-8.055217" lon="-34.90004">
    <ele>11.2</ele>
    <time>2019-09-18T21:27:02.000Z</time>
   </trkpt>
   <trkpt lat="-8.055174" lon="-34.900047">
    <ele>11.1</ele>
    <time>2019-09-18T21:27:03.000Z</time>
   </trkpt>
   <trkpt lat="-8.055126" lon="-34.900053">
    <ele>10.9</ele>
    <time>2019-09-18T21:27:04.000Z</time>
   </trkpt>
   <trkpt lat="-8.05508" lon="-34.90005">
    <ele>10.9</ele>
    <time>2019-09-18T21:27:05.000Z</time>
   </trkpt>
   <trkpt lat="-8.055035" lon="-34.900051">
    <ele>11.1</ele>
    <time>2019-09-18T21:27:06.000Z</time>
   </trkpt>
   <trkpt lat="-8.054995" lon="-34.900052">
    <ele>12.3</ele>
    <time>2019-09-18T21:27:07.000Z</time>
   </trkpt>
   <trkpt lat="-8.054958" lon="-34.900055">
    <ele>13.3</ele>
    <time>2019-09-18T21:27:08.000Z</time>
   </trkpt>
   <trkpt lat="-8.05492" lon="-34.900064">
    <ele>13.9</ele>
    <time>2019-09-18T21:27:09.000Z</time>
   </trkpt>
   <trkpt lat="-8.054878" lon="-34.900076">
    <ele>14.6</ele>
    <time>2019-09-18T21:27:10.000Z</time>
   </trkpt>
   <trkpt lat="-8.054829" lon="-34.900074">
    <ele>15.6</ele>
    <time>2019-09-18T21:27:11.000Z</time>
   </trkpt>
   <trkpt lat="-8.054783" lon="-34.900071">
    <ele>16.2</ele>
    <time>2019-09-18T21:27:12.000Z</time>
   </trkpt>
   <trkpt lat="-8.05474" lon="-34.900074">
    <ele>16.6</ele>
    <time>2019-09-18T21:27:13.000Z</time>
   </trkpt>
   <trkpt lat="-8.054698" lon="-34.900069">
    <ele>17.1</ele>
    <time>2019-09-18T21:27:14.000Z</time>
   </trkpt>
   <trkpt lat="-8.05465" lon="-34.900069">
    <ele>17.5</ele>
    <time>2019-09-18T21:27:15.000Z</time>
   </trkpt>
   <trkpt lat="-8.054605" lon="-34.900072">
    <ele>17.5</ele>
    <time>2019-09-18T21:27:16.000Z</time>
   </trkpt>
   <trkpt lat="-8.054557" lon="-34.90007">
    <ele>17.7</ele>
    <time>2019-09-18T21:27:17.000Z</time>
   </trkpt>
   <trkpt lat="-8.054508" lon="-34.900066">
    <ele>18</ele>
    <time>2019-09-18T21:27:18.000Z</time>
   </trkpt>
   <trkpt lat="-8.054455" lon="-34.900064">
    <ele>18.1</ele>
    <time>2019-09-18T21:27:19.000Z</time>
   </trkpt>
   <trkpt lat="-8.054428" lon="-34.900072">
    <ele>18.1</ele>
    <time>2019-09-18T21:27:20.000Z</time>
   </trkpt>
   <trkpt lat="-8.05439" lon="-34.900075">
    <ele>18.1</ele>
    <time>2019-09-18T21:27:21.000Z</time>
   </trkpt>
   <trkpt lat="-8.05434" lon="-34.900089">
    <ele>18.2</ele>
    <time>2019-09-18T21:27:22.000Z</time>
   </trkpt>
   <trkpt lat="-8.054307" lon="-34.900086">
    <ele>18.2</ele>
    <time>2019-09-18T21:27:23.000Z</time>
   </trkpt>
   <trkpt lat="-8.054266" lon="-34.900092">
    <ele>18.2</ele>
    <time>2019-09-18T21:27:24.000Z</time>
   </trkpt>
   <trkpt lat="-8.05423" lon="-34.900094">
    <ele>18.3</ele>
    <time>2019-09-18T21:27:25.000Z</time>
   </trkpt>
   <trkpt lat="-8.054193" lon="-34.900103">
    <ele>18.3</ele>
    <time>2019-09-18T21:27:26.000Z</time>
   </trkpt>
   <trkpt lat="-8.054156" lon="-34.900109">
    <ele>18.4</ele>
    <time>2019-09-18T21:27:27.000Z</time>
   </trkpt>
   <trkpt lat="-8.054111" lon="-34.900107">
    <ele>18.4</ele>
    <time>2019-09-18T21:27:28.000Z</time>
   </trkpt>
   <trkpt lat="-8.054074" lon="-34.900106">
    <ele>18.5</ele>
    <time>2019-09-18T21:27:29.000Z</time>
   </trkpt>
   <trkpt lat="-8.05403" lon="-34.900103">
    <ele>18.5</ele>
    <time>2019-09-18T21:27:30.000Z</time>
   </trkpt>
   <trkpt lat="-8.053993" lon="-34.900102">
    <ele>18.5</ele>
    <time>2019-09-18T21:27:31.000Z</time>
   </trkpt>
   <trkpt lat="-8.053961" lon="-34.900114">
    <ele>18.6</ele>
    <time>2019-09-18T21:27:32.000Z</time>
   </trkpt>
   <trkpt lat="-8.053908" lon="-34.900109">
    <ele>18.6</ele>
    <time>2019-09-18T21:27:34.000Z</time>
   </trkpt>
   <trkpt lat="-8.05388" lon="-34.900104">
    <ele>18.7</ele>
    <time>2019-09-18T21:27:35.000Z</time>
   </trkpt>
   <trkpt lat="-8.053848" lon="-34.900103">
    <ele>18.4</ele>
    <time>2019-09-18T21:27:36.000Z</time>
   </trkpt>
   <trkpt lat="-8.053818" lon="-34.900099">
    <ele>18.3</ele>
    <time>2019-09-18T21:27:37.000Z</time>
   </trkpt>
   <trkpt lat="-8.05376" lon="-34.900074">
    <ele>18</ele>
    <time>2019-09-18T21:27:39.000Z</time>
   </trkpt>
   <trkpt lat="-8.053721" lon="-34.900057">
    <ele>17.9</ele>
    <time>2019-09-18T21:27:41.000Z</time>
   </trkpt>
   <trkpt lat="-8.053694" lon="-34.900052">
    <ele>17.8</ele>
    <time>2019-09-18T21:27:44.000Z</time>
   </trkpt>
   <trkpt lat="-8.053672" lon="-34.900035">
    <ele>17.8</ele>
    <time>2019-09-18T21:27:58.000Z</time>
   </trkpt>
   <trkpt lat="-8.053636" lon="-34.900004">
    <ele>17.7</ele>
    <time>2019-09-18T21:28:41.000Z</time>
   </trkpt>
   <trkpt lat="-8.053599" lon="-34.900007">
    <ele>17.6</ele>
    <time>2019-09-18T21:28:44.000Z</time>
   </trkpt>
   <trkpt lat="-8.053563" lon="-34.899991">
    <ele>17.6</ele>
    <time>2019-09-18T21:28:47.000Z</time>
   </trkpt>
   <trkpt lat="-8.053541" lon="-34.899973">
    <ele>17.6</ele>
    <time>2019-09-18T21:28:49.000Z</time>
   </trkpt>
   <trkpt lat="-8.053501" lon="-34.899969">
    <ele>17.6</ele>
    <time>2019-09-18T21:28:52.000Z</time>
   </trkpt>
   <trkpt lat="-8.053466" lon="-34.899959">
    <ele>17.6</ele>
    <time>2019-09-18T21:28:54.000Z</time>
   </trkpt>
   <trkpt lat="-8.053442" lon="-34.899942">
    <ele>17.6</ele>
    <time>2019-09-18T21:28:55.000Z</time>
   </trkpt>
   <trkpt lat="-8.05339" lon="-34.899926">
    <ele>17.6</ele>
    <time>2019-09-18T21:28:57.000Z</time>
   </trkpt>
   <trkpt lat="-8.053357" lon="-34.899933">
    <ele>17.6</ele>
    <time>2019-09-18T21:28:58.000Z</time>
   </trkpt>
   <trkpt lat="-8.053329" lon="-34.89993">
    <ele>17.5</ele>
    <time>2019-09-18T21:28:59.000Z</time>
   </trkpt>
   <trkpt lat="-8.053299" lon="-34.899925">
    <ele>17.5</ele>
    <time>2019-09-18T21:29:00.000Z</time>
   </trkpt>
   <trkpt lat="-8.053266" lon="-34.899918">
    <ele>17.4</ele>
    <time>2019-09-18T21:29:01.000Z</time>
   </trkpt>
   <trkpt lat="-8.053233" lon="-34.899909">
    <ele>17.4</ele>
    <time>2019-09-18T21:29:02.000Z</time>
   </trkpt>
   <trkpt lat="-8.053205" lon="-34.899899">
    <ele>17.3</ele>
    <time>2019-09-18T21:29:03.000Z</time>
   </trkpt>
   <trkpt lat="-8.053178" lon="-34.899894">
    <ele>17.2</ele>
    <time>2019-09-18T21:29:04.000Z</time>
   </trkpt>
   <trkpt lat="-8.053146" lon="-34.899889">
    <ele>17.1</ele>
    <time>2019-09-18T21:29:05.000Z</time>
   </trkpt>
   <trkpt lat="-8.053119" lon="-34.899877">
    <ele>17.1</ele>
    <time>2019-09-18T21:29:06.000Z</time>
   </trkpt>
   <trkpt lat="-8.053094" lon="-34.899862">
    <ele>17</ele>
    <time>2019-09-18T21:29:07.000Z</time>
   </trkpt>
   <trkpt lat="-8.053046" lon="-34.899852">
    <ele>16.9</ele>
    <time>2019-09-18T21:29:09.000Z</time>
   </trkpt>
   <trkpt lat="-8.05301" lon="-34.899822">
    <ele>16.8</ele>
    <time>2019-09-18T21:29:11.000Z</time>
   </trkpt>
   <trkpt lat="-8.052981" lon="-34.899804">
    <ele>16.7</ele>
    <time>2019-09-18T21:29:13.000Z</time>
   </trkpt>
   <trkpt lat="-8.05295" lon="-34.899766">
    <ele>16.6</ele>
    <time>2019-09-18T21:29:15.000Z</time>
   </trkpt>
   <trkpt lat="-8.052904" lon="-34.899741">
    <ele>16.5</ele>
    <time>2019-09-18T21:29:17.000Z</time>
   </trkpt>
   <trkpt lat="-8.052865" lon="-34.899718">
    <ele>16.4</ele>
    <time>2019-09-18T21:29:19.000Z</time>
   </trkpt>
   <trkpt lat="-8.052822" lon="-34.899692">
    <ele>16.4</ele>
    <time>2019-09-18T21:29:21.000Z</time>
   </trkpt>
   <trkpt lat="-8.052783" lon="-34.899675">
    <ele>16.3</ele>
    <time>2019-09-18T21:29:23.000Z</time>
   </trkpt>
   <trkpt lat="-8.052741" lon="-34.899669">
    <ele>16.2</ele>
    <time>2019-09-18T21:29:25.000Z</time>
   </trkpt>
   <trkpt lat="-8.0527" lon="-34.899656">
    <ele>16.1</ele>
    <time>2019-09-18T21:29:27.000Z</time>
   </trkpt>
   <trkpt lat="-8.052669" lon="-34.899648">
    <ele>16.1</ele>
    <time>2019-09-18T21:29:28.000Z</time>
   </trkpt>
   <trkpt lat="-8.052632" lon="-34.899642">
    <ele>15.6</ele>
    <time>2019-09-18T21:29:30.000Z</time>
   </trkpt>
   <trkpt lat="-8.052603" lon="-34.899616">
    <ele>15</ele>
    <time>2019-09-18T21:29:32.000Z</time>
   </trkpt>
   <trkpt lat="-8.05257" lon="-34.899617">
    <ele>14.6</ele>
    <time>2019-09-18T21:29:34.000Z</time>
   </trkpt>
   <trkpt lat="-8.052535" lon="-34.899616">
    <ele>14.1</ele>
    <time>2019-09-18T21:30:33.000Z</time>
   </trkpt>
   <trkpt lat="-8.052481" lon="-34.899597">
    <ele>13.3</ele>
    <time>2019-09-18T21:30:35.000Z</time>
   </trkpt>
   <trkpt lat="-8.052442" lon="-34.899578">
    <ele>12.6</ele>
    <time>2019-09-18T21:30:36.000Z</time>
   </trkpt>
   <trkpt lat="-8.052398" lon="-34.899552">
    <ele>12.2</ele>
    <time>2019-09-18T21:30:37.000Z</time>
   </trkpt>
   <trkpt lat="-8.052358" lon="-34.899532">
    <ele>12</ele>
    <time>2019-09-18T21:30:38.000Z</time>
   </trkpt>
   <trkpt lat="-8.052317" lon="-34.8995">
    <ele>11.8</ele>
    <time>2019-09-18T21:30:39.000Z</time>
   </trkpt>
   <trkpt lat="-8.052284" lon="-34.899476">
    <ele>11.6</ele>
    <time>2019-09-18T21:30:40.000Z</time>
   </trkpt>
   <trkpt lat="-8.052246" lon="-34.899456">
    <ele>11.7</ele>
    <time>2019-09-18T21:30:41.000Z</time>
   </trkpt>
   <trkpt lat="-8.052205" lon="-34.89943">
    <ele>11.7</ele>
    <time>2019-09-18T21:30:42.000Z</time>
   </trkpt>
   <trkpt lat="-8.052164" lon="-34.899409">
    <ele>11.7</ele>
    <time>2019-09-18T21:30:43.000Z</time>
   </trkpt>
   <trkpt lat="-8.052121" lon="-34.89939">
    <ele>11.7</ele>
    <time>2019-09-18T21:30:44.000Z</time>
   </trkpt>
   <trkpt lat="-8.052069" lon="-34.89937">
    <ele>11.8</ele>
    <time>2019-09-18T21:30:45.000Z</time>
   </trkpt>
   <trkpt lat="-8.052026" lon="-34.89935">
    <ele>11.8</ele>
    <time>2019-09-18T21:30:46.000Z</time>
   </trkpt>
   <trkpt lat="-8.05199" lon="-34.899337">
    <ele>11.8</ele>
    <time>2019-09-18T21:30:47.000Z</time>
   </trkpt>
   <trkpt lat="-8.051951" lon="-34.899309">
    <ele>11.8</ele>
    <time>2019-09-18T21:30:48.000Z</time>
   </trkpt>
   <trkpt lat="-8.051919" lon="-34.899284">
    <ele>11.8</ele>
    <time>2019-09-18T21:30:49.000Z</time>
   </trkpt>
   <trkpt lat="-8.051882" lon="-34.899255">
    <ele>11.9</ele>
    <time>2019-09-18T21:30:50.000Z</time>
   </trkpt>
   <trkpt lat="-8.051843" lon="-34.899237">
    <ele>11.9</ele>
    <time>2019-09-18T21:30:51.000Z</time>
   </trkpt>
   <trkpt lat="-8.051805" lon="-34.899216">
    <ele>11.9</ele>
    <time>2019-09-18T21:30:52.000Z</time>
   </trkpt>
   <trkpt lat="-8.051768" lon="-34.899197">
    <ele>11.9</ele>
    <time>2019-09-18T21:30:53.000Z</time>
   </trkpt>
   <trkpt lat="-8.051732" lon="-34.899184">
    <ele>11.9</ele>
    <time>2019-09-18T21:30:54.000Z</time>
   </trkpt>
   <trkpt lat="-8.051703" lon="-34.899155">
    <ele>12.4</ele>
    <time>2019-09-18T21:30:55.000Z</time>
   </trkpt>
   <trkpt lat="-8.051669" lon="-34.899131">
    <ele>12.9</ele>
    <time>2019-09-18T21:30:56.000Z</time>
   </trkpt>
   <trkpt lat="-8.051638" lon="-34.899113">
    <ele>13.5</ele>
    <time>2019-09-18T21:30:57.000Z</time>
   </trkpt>
   <trkpt lat="-8.051603" lon="-34.899091">
    <ele>14.3</ele>
    <time>2019-09-18T21:30:58.000Z</time>
   </trkpt>
   <trkpt lat="-8.051563" lon="-34.899056">
    <ele>15.3</ele>
    <time>2019-09-18T21:30:59.000Z</time>
   </trkpt>
   <trkpt lat="-8.051523" lon="-34.899035">
    <ele>16.1</ele>
    <time>2019-09-18T21:31:00.000Z</time>
   </trkpt>
   <trkpt lat="-8.051479" lon="-34.899007">
    <ele>16.9</ele>
    <time>2019-09-18T21:31:01.000Z</time>
   </trkpt>
   <trkpt lat="-8.051439" lon="-34.898985">
    <ele>17.7</ele>
    <time>2019-09-18T21:31:02.000Z</time>
   </trkpt>
   <trkpt lat="-8.051401" lon="-34.89897">
    <ele>17.6</ele>
    <time>2019-09-18T21:31:03.000Z</time>
   </trkpt>
   <trkpt lat="-8.051365" lon="-34.898951">
    <ele>17.5</ele>
    <time>2019-09-18T21:31:04.000Z</time>
   </trkpt>
   <trkpt lat="-8.05134" lon="-34.898934">
    <ele>17.3</ele>
    <time>2019-09-18T21:31:05.000Z</time>
   </trkpt>
   <trkpt lat="-8.051305" lon="-34.898906">
    <ele>16.9</ele>
    <time>2019-09-18T21:31:06.000Z</time>
   </trkpt>
   <trkpt lat="-8.051271" lon="-34.898867">
    <ele>16.5</ele>
    <time>2019-09-18T21:31:07.000Z</time>
   </trkpt>
   <trkpt lat="-8.05123" lon="-34.898854">
    <ele>16.1</ele>
    <time>2019-09-18T21:31:08.000Z</time>
   </trkpt>
   <trkpt lat="-8.051178" lon="-34.898837">
    <ele>16.1</ele>
    <time>2019-09-18T21:31:09.000Z</time>
   </trkpt>
   <trkpt lat="-8.051129" lon="-34.898817">
    <ele>16.2</ele>
    <time>2019-09-18T21:31:10.000Z</time>
   </trkpt>
   <trkpt lat="-8.051091" lon="-34.898794">
    <ele>16.6</ele>
    <time>2019-09-18T21:31:11.000Z</time>
   </trkpt>
   <trkpt lat="-8.051047" lon="-34.898767">
    <ele>16.8</ele>
    <time>2019-09-18T21:31:12.000Z</time>
   </trkpt>
   <trkpt lat="-8.05101" lon="-34.898735">
    <ele>16.6</ele>
    <time>2019-09-18T21:31:13.000Z</time>
   </trkpt>
   <trkpt lat="-8.050972" lon="-34.898709">
    <ele>16.2</ele>
    <time>2019-09-18T21:31:14.000Z</time>
   </trkpt>
   <trkpt lat="-8.050932" lon="-34.898681">
    <ele>15.5</ele>
    <time>2019-09-18T21:31:15.000Z</time>
   </trkpt>
   <trkpt lat="-8.050895" lon="-34.898652">
    <ele>15</ele>
    <time>2019-09-18T21:31:16.000Z</time>
   </trkpt>
   <trkpt lat="-8.050854" lon="-34.898625">
    <ele>14.6</ele>
    <time>2019-09-18T21:31:17.000Z</time>
   </trkpt>
   <trkpt lat="-8.050815" lon="-34.89862">
    <ele>14.3</ele>
    <time>2019-09-18T21:31:18.000Z</time>
   </trkpt>
   <trkpt lat="-8.050777" lon="-34.898609">
    <ele>14.1</ele>
    <time>2019-09-18T21:31:19.000Z</time>
   </trkpt>
   <trkpt lat="-8.050742" lon="-34.898586">
    <ele>13.8</ele>
    <time>2019-09-18T21:31:20.000Z</time>
   </trkpt>
   <trkpt lat="-8.0507" lon="-34.898567">
    <ele>13.2</ele>
    <time>2019-09-18T21:31:21.000Z</time>
   </trkpt>
   <trkpt lat="-8.050668" lon="-34.898544">
    <ele>12.8</ele>
    <time>2019-09-18T21:31:22.000Z</time>
   </trkpt>
   <trkpt lat="-8.05063" lon="-34.898508">
    <ele>12.5</ele>
    <time>2019-09-18T21:31:23.000Z</time>
   </trkpt>
   <trkpt lat="-8.050584" lon="-34.898494">
    <ele>12.2</ele>
    <time>2019-09-18T21:31:24.000Z</time>
   </trkpt>
   <trkpt lat="-8.050538" lon="-34.898478">
    <ele>12</ele>
    <time>2019-09-18T21:31:25.000Z</time>
   </trkpt>
   <trkpt lat="-8.050502" lon="-34.898456">
    <ele>11.9</ele>
    <time>2019-09-18T21:31:26.000Z</time>
   </trkpt>
   <trkpt lat="-8.050465" lon="-34.898437">
    <ele>11.8</ele>
    <time>2019-09-18T21:31:27.000Z</time>
   </trkpt>
   <trkpt lat="-8.050429" lon="-34.898411">
    <ele>11.8</ele>
    <time>2019-09-18T21:31:28.000Z</time>
   </trkpt>
   <trkpt lat="-8.050391" lon="-34.898381">
    <ele>11.6</ele>
    <time>2019-09-18T21:31:29.000Z</time>
   </trkpt>
   <trkpt lat="-8.050357" lon="-34.898342">
    <ele>11.5</ele>
    <time>2019-09-18T21:31:30.000Z</time>
   </trkpt>
   <trkpt lat="-8.050323" lon="-34.89831">
    <ele>11.4</ele>
    <time>2019-09-18T21:31:31.000Z</time>
   </trkpt>
   <trkpt lat="-8.050289" lon="-34.898275">
    <ele>11.6</ele>
    <time>2019-09-18T21:31:32.000Z</time>
   </trkpt>
   <trkpt lat="-8.05025" lon="-34.898242">
    <ele>12</ele>
    <time>2019-09-18T21:31:33.000Z</time>
   </trkpt>
   <trkpt lat="-8.050206" lon="-34.898221">
    <ele>12.2</ele>
    <time>2019-09-18T21:31:34.000Z</time>
   </trkpt>
   <trkpt lat="-8.050162" lon="-34.898209">
    <ele>12.5</ele>
    <time>2019-09-18T21:31:35.000Z</time>
   </trkpt>
   <trkpt lat="-8.050119" lon="-34.898185">
    <ele>12.8</ele>
    <time>2019-09-18T21:31:36.000Z</time>
   </trkpt>
   <trkpt lat="-8.050057" lon="-34.898156">
    <ele>13.3</ele>
    <time>2019-09-18T21:31:37.000Z</time>
   </trkpt>
   <trkpt lat="-8.050017" lon="-34.898132">
    <ele>13.5</ele>
    <time>2019-09-18T21:31:38.000Z</time>
   </trkpt>
   <trkpt lat="-8.049979" lon="-34.898106">
    <ele>13.4</ele>
    <time>2019-09-18T21:31:39.000Z</time>
   </trkpt>
   <trkpt lat="-8.049951" lon="-34.898086">
    <ele>13.2</ele>
    <time>2019-09-18T21:31:40.000Z</time>
   </trkpt>
   <trkpt lat="-8.049921" lon="-34.898064">
    <ele>13.2</ele>
    <time>2019-09-18T21:31:41.000Z</time>
   </trkpt>
   <trkpt lat="-8.049904" lon="-34.89804">
    <ele>13.2</ele>
    <time>2019-09-18T21:31:42.000Z</time>
   </trkpt>
   <trkpt lat="-8.049903" lon="-34.898006">
    <ele>13.1</ele>
    <time>2019-09-18T21:31:43.000Z</time>
   </trkpt>
   <trkpt lat="-8.049908" lon="-34.897958">
    <ele>13.1</ele>
    <time>2019-09-18T21:31:44.000Z</time>
   </trkpt>
   <trkpt lat="-8.049919" lon="-34.897913">
    <ele>13.1</ele>
    <time>2019-09-18T21:31:45.000Z</time>
   </trkpt>
   <trkpt lat="-8.049927" lon="-34.897873">
    <ele>13</ele>
    <time>2019-09-18T21:31:46.000Z</time>
   </trkpt>
   <trkpt lat="-8.049931" lon="-34.897827">
    <ele>13</ele>
    <time>2019-09-18T21:31:47.000Z</time>
   </trkpt>
   <trkpt lat="-8.049942" lon="-34.897779">
    <ele>13</ele>
    <time>2019-09-18T21:31:48.000Z</time>
   </trkpt>
   <trkpt lat="-8.049957" lon="-34.897736">
    <ele>13</ele>
    <time>2019-09-18T21:31:49.000Z</time>
   </trkpt>
   <trkpt lat="-8.049961" lon="-34.897686">
    <ele>13</ele>
    <time>2019-09-18T21:31:50.000Z</time>
   </trkpt>
   <trkpt lat="-8.049962" lon="-34.897638">
    <ele>13</ele>
    <time>2019-09-18T21:31:51.000Z</time>
   </trkpt>
   <trkpt lat="-8.049953" lon="-34.89759">
    <ele>13</ele>
    <time>2019-09-18T21:31:52.000Z</time>
   </trkpt>
   <trkpt lat="-8.049958" lon="-34.897539">
    <ele>13</ele>
    <time>2019-09-18T21:31:53.000Z</time>
   </trkpt>
   <trkpt lat="-8.049968" lon="-34.897489">
    <ele>13</ele>
    <time>2019-09-18T21:31:54.000Z</time>
   </trkpt>
   <trkpt lat="-8.049978" lon="-34.897446">
    <ele>13</ele>
    <time>2019-09-18T21:31:55.000Z</time>
   </trkpt>
   <trkpt lat="-8.050001" lon="-34.897413">
    <ele>13</ele>
    <time>2019-09-18T21:31:56.000Z</time>
   </trkpt>
   <trkpt lat="-8.050006" lon="-34.897365">
    <ele>13</ele>
    <time>2019-09-18T21:31:57.000Z</time>
   </trkpt>
   <trkpt lat="-8.05002" lon="-34.897309">
    <ele>13</ele>
    <time>2019-09-18T21:31:58.000Z</time>
   </trkpt>
   <trkpt lat="-8.050039" lon="-34.897254">
    <ele>13</ele>
    <time>2019-09-18T21:31:59.000Z</time>
   </trkpt>
   <trkpt lat="-8.050058" lon="-34.897188">
    <ele>13</ele>
    <time>2019-09-18T21:32:00.000Z</time>
   </trkpt>
   <trkpt lat="-8.050067" lon="-34.897139">
    <ele>13.1</ele>
    <time>2019-09-18T21:32:01.000Z</time>
   </trkpt>
   <trkpt lat="-8.050095" lon="-34.897092">
    <ele>13.4</ele>
    <time>2019-09-18T21:32:02.000Z</time>
   </trkpt>
   <trkpt lat="-8.05012" lon="-34.897038">
    <ele>13.6</ele>
    <time>2019-09-18T21:32:03.000Z</time>
   </trkpt>
   <trkpt lat="-8.050131" lon="-34.896981">
    <ele>13.8</ele>
    <time>2019-09-18T21:32:04.000Z</time>
   </trkpt>
   <trkpt lat="-8.050143" lon="-34.896932">
    <ele>13.9</ele>
    <time>2019-09-18T21:32:05.000Z</time>
   </trkpt>
   <trkpt lat="-8.050152" lon="-34.896895">
    <ele>14.2</ele>
    <time>2019-09-18T21:32:06.000Z</time>
   </trkpt>
   <trkpt lat="-8.050159" lon="-34.896848">
    <ele>14.4</ele>
    <time>2019-09-18T21:32:07.000Z</time>
   </trkpt>
   <trkpt lat="-8.050164" lon="-34.896806">
    <ele>14.5</ele>
    <time>2019-09-18T21:32:08.000Z</time>
   </trkpt>
   <trkpt lat="-8.050156" lon="-34.896756">
    <ele>14.7</ele>
    <time>2019-09-18T21:32:09.000Z</time>
   </trkpt>
   <trkpt lat="-8.050143" lon="-34.896706">
    <ele>14.8</ele>
    <time>2019-09-18T21:32:10.000Z</time>
   </trkpt>
   <trkpt lat="-8.050119" lon="-34.896665">
    <ele>14.7</ele>
    <time>2019-09-18T21:32:11.000Z</time>
   </trkpt>
   <trkpt lat="-8.050075" lon="-34.89664">
    <ele>14.6</ele>
    <time>2019-09-18T21:32:12.000Z</time>
   </trkpt>
   <trkpt lat="-8.050027" lon="-34.896626">
    <ele>14.5</ele>
    <time>2019-09-18T21:32:13.000Z</time>
   </trkpt>
   <trkpt lat="-8.049981" lon="-34.896608">
    <ele>14.4</ele>
    <time>2019-09-18T21:32:14.000Z</time>
   </trkpt>
   <trkpt lat="-8.049938" lon="-34.896595">
    <ele>14.3</ele>
    <time>2019-09-18T21:32:15.000Z</time>
   </trkpt>
   <trkpt lat="-8.049899" lon="-34.896593">
    <ele>14.2</ele>
    <time>2019-09-18T21:32:16.000Z</time>
   </trkpt>
   <trkpt lat="-8.049855" lon="-34.896593">
    <ele>14.1</ele>
    <time>2019-09-18T21:32:17.000Z</time>
   </trkpt>
   <trkpt lat="-8.049807" lon="-34.896582">
    <ele>14</ele>
    <time>2019-09-18T21:32:18.000Z</time>
   </trkpt>
   <trkpt lat="-8.049757" lon="-34.896569">
    <ele>13.9</ele>
    <time>2019-09-18T21:32:19.000Z</time>
   </trkpt>
   <trkpt lat="-8.049708" lon="-34.896553">
    <ele>13.8</ele>
    <time>2019-09-18T21:32:20.000Z</time>
   </trkpt>
   <trkpt lat="-8.049658" lon="-34.896533">
    <ele>13.7</ele>
    <time>2019-09-18T21:32:21.000Z</time>
   </trkpt>
   <trkpt lat="-8.049603" lon="-34.896517">
    <ele>13.6</ele>
    <time>2019-09-18T21:32:22.000Z</time>
   </trkpt>
   <trkpt lat="-8.049554" lon="-34.896524">
    <ele>13.5</ele>
    <time>2019-09-18T21:32:23.000Z</time>
   </trkpt>
   <trkpt lat="-8.049506" lon="-34.896503">
    <ele>13.4</ele>
    <time>2019-09-18T21:32:24.000Z</time>
   </trkpt>
   <trkpt lat="-8.049453" lon="-34.896488">
    <ele>13.4</ele>
    <time>2019-09-18T21:32:25.000Z</time>
   </trkpt>
   <trkpt lat="-8.0494" lon="-34.896471">
    <ele>13.3</ele>
    <time>2019-09-18T21:32:26.000Z</time>
   </trkpt>
   <trkpt lat="-8.049345" lon="-34.896466">
    <ele>13.2</ele>
    <time>2019-09-18T21:32:27.000Z</time>
   </trkpt>
   <trkpt lat="-8.049292" lon="-34.896458">
    <ele>13.2</ele>
    <time>2019-09-18T21:32:28.000Z</time>
   </trkpt>
   <trkpt lat="-8.049235" lon="-34.896455">
    <ele>13.1</ele>
    <time>2019-09-18T21:32:29.000Z</time>
   </trkpt>
   <trkpt lat="-8.049187" lon="-34.896435">
    <ele>13</ele>
    <time>2019-09-18T21:32:30.000Z</time>
   </trkpt>
   <trkpt lat="-8.049148" lon="-34.896425">
    <ele>13</ele>
    <time>2019-09-18T21:32:31.000Z</time>
   </trkpt>
   <trkpt lat="-8.049114" lon="-34.896431">
    <ele>12.9</ele>
    <time>2019-09-18T21:32:32.000Z</time>
   </trkpt>
   <trkpt lat="-8.049081" lon="-34.896438">
    <ele>12.9</ele>
    <time>2019-09-18T21:32:33.000Z</time>
   </trkpt>
   <trkpt lat="-8.049044" lon="-34.896454">
    <ele>12.8</ele>
    <time>2019-09-18T21:32:34.000Z</time>
   </trkpt>
   <trkpt lat="-8.049008" lon="-34.896464">
    <ele>12.7</ele>
    <time>2019-09-18T21:32:35.000Z</time>
   </trkpt>
   <trkpt lat="-8.048968" lon="-34.896474">
    <ele>12.5</ele>
    <time>2019-09-18T21:32:36.000Z</time>
   </trkpt>
   <trkpt lat="-8.048917" lon="-34.896499">
    <ele>12.4</ele>
    <time>2019-09-18T21:32:37.000Z</time>
   </trkpt>
   <trkpt lat="-8.048876" lon="-34.896528">
    <ele>12.3</ele>
    <time>2019-09-18T21:32:38.000Z</time>
   </trkpt>
   <trkpt lat="-8.048832" lon="-34.896549">
    <ele>12.1</ele>
    <time>2019-09-18T21:32:39.000Z</time>
   </trkpt>
   <trkpt lat="-8.048789" lon="-34.89657">
    <ele>12</ele>
    <time>2019-09-18T21:32:40.000Z</time>
   </trkpt>
   <trkpt lat="-8.048739" lon="-34.89659">
    <ele>11.8</ele>
    <time>2019-09-18T21:32:41.000Z</time>
   </trkpt>
   <trkpt lat="-8.048696" lon="-34.89661">
    <ele>11.6</ele>
    <time>2019-09-18T21:32:42.000Z</time>
   </trkpt>
   <trkpt lat="-8.04865" lon="-34.896634">
    <ele>11.4</ele>
    <time>2019-09-18T21:32:43.000Z</time>
   </trkpt>
   <trkpt lat="-8.048606" lon="-34.896642">
    <ele>11.3</ele>
    <time>2019-09-18T21:32:44.000Z</time>
   </trkpt>
   <trkpt lat="-8.048565" lon="-34.896651">
    <ele>11.1</ele>
    <time>2019-09-18T21:32:45.000Z</time>
   </trkpt>
   <trkpt lat="-8.048522" lon="-34.896662">
    <ele>11</ele>
    <time>2019-09-18T21:32:46.000Z</time>
   </trkpt>
   <trkpt lat="-8.048476" lon="-34.896671">
    <ele>10.8</ele>
    <time>2019-09-18T21:32:47.000Z</time>
   </trkpt>
   <trkpt lat="-8.04843" lon="-34.896679">
    <ele>10.6</ele>
    <time>2019-09-18T21:32:48.000Z</time>
   </trkpt>
   <trkpt lat="-8.048382" lon="-34.89669">
    <ele>10.5</ele>
    <time>2019-09-18T21:32:49.000Z</time>
   </trkpt>
   <trkpt lat="-8.048336" lon="-34.896705">
    <ele>10.3</ele>
    <time>2019-09-18T21:32:50.000Z</time>
   </trkpt>
   <trkpt lat="-8.048295" lon="-34.896721">
    <ele>10.2</ele>
    <time>2019-09-18T21:32:51.000Z</time>
   </trkpt>
   <trkpt lat="-8.048262" lon="-34.896741">
    <ele>10.1</ele>
    <time>2019-09-18T21:32:52.000Z</time>
   </trkpt>
   <trkpt lat="-8.048232" lon="-34.896757">
    <ele>10.2</ele>
    <time>2019-09-18T21:32:53.000Z</time>
   </trkpt>
   <trkpt lat="-8.048197" lon="-34.896767">
    <ele>10.4</ele>
    <time>2019-09-18T21:32:55.000Z</time>
   </trkpt>
   <trkpt lat="-8.048139" lon="-34.896783">
    <ele>10.7</ele>
    <time>2019-09-18T21:32:57.000Z</time>
   </trkpt>
   <trkpt lat="-8.048105" lon="-34.896791">
    <ele>10.9</ele>
    <time>2019-09-18T21:32:58.000Z</time>
   </trkpt>
   <trkpt lat="-8.048067" lon="-34.896811">
    <ele>11.1</ele>
    <time>2019-09-18T21:32:59.000Z</time>
   </trkpt>
   <trkpt lat="-8.048017" lon="-34.896835">
    <ele>11.4</ele>
    <time>2019-09-18T21:33:00.000Z</time>
   </trkpt>
   <trkpt lat="-8.047975" lon="-34.896858">
    <ele>11.8</ele>
    <time>2019-09-18T21:33:01.000Z</time>
   </trkpt>
   <trkpt lat="-8.047934" lon="-34.89688">
    <ele>12</ele>
    <time>2019-09-18T21:33:02.000Z</time>
   </trkpt>
   <trkpt lat="-8.047897" lon="-34.896899">
    <ele>12.2</ele>
    <time>2019-09-18T21:33:03.000Z</time>
   </trkpt>
   <trkpt lat="-8.047849" lon="-34.896916">
    <ele>12.5</ele>
    <time>2019-09-18T21:33:04.000Z</time>
   </trkpt>
   <trkpt lat="-8.047796" lon="-34.896932">
    <ele>12.6</ele>
    <time>2019-09-18T21:33:05.000Z</time>
   </trkpt>
   <trkpt lat="-8.047754" lon="-34.896945">
    <ele>12.8</ele>
    <time>2019-09-18T21:33:06.000Z</time>
   </trkpt>
   <trkpt lat="-8.047714" lon="-34.896953">
    <ele>12.9</ele>
    <time>2019-09-18T21:33:07.000Z</time>
   </trkpt>
   <trkpt lat="-8.047679" lon="-34.896962">
    <ele>13.3</ele>
    <time>2019-09-18T21:33:08.000Z</time>
   </trkpt>
   <trkpt lat="-8.047646" lon="-34.896952">
    <ele>13.2</ele>
    <time>2019-09-18T21:33:09.000Z</time>
   </trkpt>
   <trkpt lat="-8.047608" lon="-34.896914">
    <ele>13.1</ele>
    <time>2019-09-18T21:33:10.000Z</time>
   </trkpt>
   <trkpt lat="-8.047581" lon="-34.896854">
    <ele>13</ele>
    <time>2019-09-18T21:33:11.000Z</time>
   </trkpt>
   <trkpt lat="-8.047551" lon="-34.896813">
    <ele>12.9</ele>
    <time>2019-09-18T21:33:12.000Z</time>
   </trkpt>
   <trkpt lat="-8.047521" lon="-34.896777">
    <ele>12.8</ele>
    <time>2019-09-18T21:33:13.000Z</time>
   </trkpt>
   <trkpt lat="-8.047492" lon="-34.896752">
    <ele>12.8</ele>
    <time>2019-09-18T21:33:14.000Z</time>
   </trkpt>
   <trkpt lat="-8.047471" lon="-34.896724">
    <ele>12.8</ele>
    <time>2019-09-18T21:33:15.000Z</time>
   </trkpt>
   <trkpt lat="-8.047453" lon="-34.896694">
    <ele>12.9</ele>
    <time>2019-09-18T21:33:16.000Z</time>
   </trkpt>
   <trkpt lat="-8.04743" lon="-34.896664">
    <ele>12.9</ele>
    <time>2019-09-18T21:33:17.000Z</time>
   </trkpt>
   <trkpt lat="-8.047402" lon="-34.896631">
    <ele>13</ele>
    <time>2019-09-18T21:33:18.000Z</time>
   </trkpt>
   <trkpt lat="-8.047368" lon="-34.89659">
    <ele>13.1</ele>
    <time>2019-09-18T21:33:19.000Z</time>
   </trkpt>
   <trkpt lat="-8.047339" lon="-34.896549">
    <ele>13.3</ele>
    <time>2019-09-18T21:33:20.000Z</time>
   </trkpt>
   <trkpt lat="-8.047308" lon="-34.896509">
    <ele>13.5</ele>
    <time>2019-09-18T21:33:21.000Z</time>
   </trkpt>
   <trkpt lat="-8.047242" lon="-34.896472">
    <ele>13.8</ele>
    <time>2019-09-18T21:33:22.000Z</time>
   </trkpt>
   <trkpt lat="-8.047201" lon="-34.896436">
    <ele>14.1</ele>
    <time>2019-09-18T21:33:23.000Z</time>
   </trkpt>
   <trkpt lat="-8.047161" lon="-34.896403">
    <ele>14.3</ele>
    <time>2019-09-18T21:33:24.000Z</time>
   </trkpt>
   <trkpt lat="-8.047129" lon="-34.896364">
    <ele>14.5</ele>
    <time>2019-09-18T21:33:25.000Z</time>
   </trkpt>
   <trkpt lat="-8.047099" lon="-34.896326">
    <ele>14.8</ele>
    <time>2019-09-18T21:33:26.000Z</time>
   </trkpt>
   <trkpt lat="-8.047061" lon="-34.896292">
    <ele>15</ele>
    <time>2019-09-18T21:33:27.000Z</time>
   </trkpt>
   <trkpt lat="-8.047028" lon="-34.896245">
    <ele>15.4</ele>
    <time>2019-09-18T21:33:28.000Z</time>
   </trkpt>
   <trkpt lat="-8.046994" lon="-34.89621">
    <ele>15.7</ele>
    <time>2019-09-18T21:33:29.000Z</time>
   </trkpt>
   <trkpt lat="-8.046957" lon="-34.896174">
    <ele>16</ele>
    <time>2019-09-18T21:33:30.000Z</time>
   </trkpt>
   <trkpt lat="-8.046942" lon="-34.89615">
    <ele>16.1</ele>
    <time>2019-09-18T21:33:31.000Z</time>
   </trkpt>
   <trkpt lat="-8.046927" lon="-34.89612">
    <ele>16.3</ele>
    <time>2019-09-18T21:33:32.000Z</time>
   </trkpt>
   <trkpt lat="-8.046912" lon="-34.89609">
    <ele>16.5</ele>
    <time>2019-09-18T21:33:33.000Z</time>
   </trkpt>
   <trkpt lat="-8.046884" lon="-34.896067">
    <ele>16.7</ele>
    <time>2019-09-18T21:33:34.000Z</time>
   </trkpt>
   <trkpt lat="-8.046852" lon="-34.89603">
    <ele>17</ele>
    <time>2019-09-18T21:33:35.000Z</time>
   </trkpt>
   <trkpt lat="-8.046819" lon="-34.896007">
    <ele>17.3</ele>
    <time>2019-09-18T21:33:36.000Z</time>
   </trkpt>
   <trkpt lat="-8.046783" lon="-34.895984">
    <ele>17.5</ele>
    <time>2019-09-18T21:33:37.000Z</time>
   </trkpt>
   <trkpt lat="-8.046743" lon="-34.895959">
    <ele>17.8</ele>
    <time>2019-09-18T21:33:38.000Z</time>
   </trkpt>
   <trkpt lat="-8.046703" lon="-34.895932">
    <ele>18.1</ele>
    <time>2019-09-18T21:33:39.000Z</time>
   </trkpt>
   <trkpt lat="-8.046656" lon="-34.895866">
    <ele>18.5</ele>
    <time>2019-09-18T21:33:40.000Z</time>
   </trkpt>
   <trkpt lat="-8.046623" lon="-34.895838">
    <ele>18.7</ele>
    <time>2019-09-18T21:33:41.000Z</time>
   </trkpt>
   <trkpt lat="-8.046584" lon="-34.895813">
    <ele>18.9</ele>
    <time>2019-09-18T21:33:42.000Z</time>
   </trkpt>
   <trkpt lat="-8.046559" lon="-34.895793">
    <ele>19.1</ele>
    <time>2019-09-18T21:33:43.000Z</time>
   </trkpt>
   <trkpt lat="-8.046534" lon="-34.895776">
    <ele>19.2</ele>
    <time>2019-09-18T21:33:44.000Z</time>
   </trkpt>
   <trkpt lat="-8.046485" lon="-34.895738">
    <ele>19.5</ele>
    <time>2019-09-18T21:33:45.000Z</time>
   </trkpt>
   <trkpt lat="-8.046442" lon="-34.895714">
    <ele>19.8</ele>
    <time>2019-09-18T21:33:46.000Z</time>
   </trkpt>
   <trkpt lat="-8.046413" lon="-34.895688">
    <ele>20</ele>
    <time>2019-09-18T21:33:47.000Z</time>
   </trkpt>
   <trkpt lat="-8.046382" lon="-34.895656">
    <ele>20.2</ele>
    <time>2019-09-18T21:33:48.000Z</time>
   </trkpt>
   <trkpt lat="-8.046353" lon="-34.895632">
    <ele>20.4</ele>
    <time>2019-09-18T21:33:49.000Z</time>
   </trkpt>
   <trkpt lat="-8.046317" lon="-34.895609">
    <ele>20.6</ele>
    <time>2019-09-18T21:33:50.000Z</time>
   </trkpt>
   <trkpt lat="-8.046284" lon="-34.895588">
    <ele>20.9</ele>
    <time>2019-09-18T21:33:51.000Z</time>
   </trkpt>
   <trkpt lat="-8.046257" lon="-34.895567">
    <ele>21.1</ele>
    <time>2019-09-18T21:33:52.000Z</time>
   </trkpt>
   <trkpt lat="-8.046223" lon="-34.895545">
    <ele>21.4</ele>
    <time>2019-09-18T21:33:53.000Z</time>
   </trkpt>
   <trkpt lat="-8.046199" lon="-34.895522">
    <ele>21.6</ele>
    <time>2019-09-18T21:33:55.000Z</time>
   </trkpt>
   <trkpt lat="-8.046175" lon="-34.895506">
    <ele>21.8</ele>
    <time>2019-09-18T21:33:58.000Z</time>
   </trkpt>
   <trkpt lat="-8.046143" lon="-34.895503">
    <ele>22</ele>
    <time>2019-09-18T21:34:02.000Z</time>
   </trkpt>
   <trkpt lat="-8.046122" lon="-34.895483">
    <ele>22.3</ele>
    <time>2019-09-18T21:34:04.000Z</time>
   </trkpt>
   <trkpt lat="-8.046078" lon="-34.895473">
    <ele>22.6</ele>
    <time>2019-09-18T21:34:07.000Z</time>
   </trkpt>
   <trkpt lat="-8.046037" lon="-34.895471">
    <ele>22.8</ele>
    <time>2019-09-18T21:34:08.000Z</time>
   </trkpt>
   <trkpt lat="-8.045994" lon="-34.895459">
    <ele>23.1</ele>
    <time>2019-09-18T21:34:09.000Z</time>
   </trkpt>
   <trkpt lat="-8.045969" lon="-34.895445">
    <ele>23.2</ele>
    <time>2019-09-18T21:34:10.000Z</time>
   </trkpt>
   <trkpt lat="-8.045944" lon="-34.895423">
    <ele>23.4</ele>
    <time>2019-09-18T21:34:12.000Z</time>
   </trkpt>
   <trkpt lat="-8.045936" lon="-34.895451">
    <ele>23.5</ele>
    <time>2019-09-18T21:34:18.000Z</time>
   </trkpt>
   <trkpt lat="-8.045846" lon="-34.895406">
    <ele>24</ele>
    <time>2019-09-18T21:34:41.000Z</time>
   </trkpt>
   <trkpt lat="-8.045809" lon="-34.895383">
    <ele>24.2</ele>
    <time>2019-09-18T21:34:44.000Z</time>
   </trkpt>
   <trkpt lat="-8.045778" lon="-34.895343">
    <ele>23.6</ele>
    <time>2019-09-18T21:34:46.000Z</time>
   </trkpt>
   <trkpt lat="-8.045743" lon="-34.895308">
    <ele>23.1</ele>
    <time>2019-09-18T21:34:48.000Z</time>
   </trkpt>
   <trkpt lat="-8.045722" lon="-34.895273">
    <ele>22.7</ele>
    <time>2019-09-18T21:34:49.000Z</time>
   </trkpt>
   <trkpt lat="-8.045684" lon="-34.895246">
    <ele>22.5</ele>
    <time>2019-09-18T21:34:50.000Z</time>
   </trkpt>
   <trkpt lat="-8.045649" lon="-34.895226">
    <ele>22.2</ele>
    <time>2019-09-18T21:34:51.000Z</time>
   </trkpt>
   <trkpt lat="-8.045618" lon="-34.895217">
    <ele>22.1</ele>
    <time>2019-09-18T21:34:52.000Z</time>
   </trkpt>
   <trkpt lat="-8.045583" lon="-34.895209">
    <ele>21.9</ele>
    <time>2019-09-18T21:34:53.000Z</time>
   </trkpt>
   <trkpt lat="-8.045554" lon="-34.895194">
    <ele>21.7</ele>
    <time>2019-09-18T21:34:54.000Z</time>
   </trkpt>
   <trkpt lat="-8.045522" lon="-34.895168">
    <ele>21.4</ele>
    <time>2019-09-18T21:34:55.000Z</time>
   </trkpt>
   <trkpt lat="-8.045497" lon="-34.895146">
    <ele>21.2</ele>
    <time>2019-09-18T21:34:56.000Z</time>
   </trkpt>
   <trkpt lat="-8.045468" lon="-34.895116">
    <ele>21</ele>
    <time>2019-09-18T21:34:57.000Z</time>
   </trkpt>
   <trkpt lat="-8.045439" lon="-34.895096">
    <ele>20.8</ele>
    <time>2019-09-18T21:34:58.000Z</time>
   </trkpt>
   <trkpt lat="-8.045403" lon="-34.895079">
    <ele>20.6</ele>
    <time>2019-09-18T21:34:59.000Z</time>
   </trkpt>
   <trkpt lat="-8.045369" lon="-34.895073">
    <ele>20.4</ele>
    <time>2019-09-18T21:35:00.000Z</time>
   </trkpt>
   <trkpt lat="-8.045362" lon="-34.895033">
    <ele>20.2</ele>
    <time>2019-09-18T21:35:01.000Z</time>
   </trkpt>
   <trkpt lat="-8.045332" lon="-34.895">
    <ele>19.9</ele>
    <time>2019-09-18T21:35:03.000Z</time>
   </trkpt>
   <trkpt lat="-8.045315" lon="-34.894949">
    <ele>19.6</ele>
    <time>2019-09-18T21:35:04.000Z</time>
   </trkpt>
   <trkpt lat="-8.045288" lon="-34.894919">
    <ele>19.4</ele>
    <time>2019-09-18T21:35:05.000Z</time>
   </trkpt>
   <trkpt lat="-8.04526" lon="-34.894884">
    <ele>19.1</ele>
    <time>2019-09-18T21:35:06.000Z</time>
   </trkpt>
   <trkpt lat="-8.045232" lon="-34.894862">
    <ele>18.8</ele>
    <time>2019-09-18T21:35:07.000Z</time>
   </trkpt>
   <trkpt lat="-8.045199" lon="-34.894833">
    <ele>18.5</ele>
    <time>2019-09-18T21:35:08.000Z</time>
   </trkpt>
   <trkpt lat="-8.045172" lon="-34.894806">
    <ele>18.3</ele>
    <time>2019-09-18T21:35:09.000Z</time>
   </trkpt>
   <trkpt lat="-8.045143" lon="-34.89478">
    <ele>18</ele>
    <time>2019-09-18T21:35:10.000Z</time>
   </trkpt>
   <trkpt lat="-8.045113" lon="-34.894713">
    <ele>17.7</ele>
    <time>2019-09-18T21:35:11.000Z</time>
   </trkpt>
   <trkpt lat="-8.045081" lon="-34.894674">
    <ele>17.5</ele>
    <time>2019-09-18T21:35:12.000Z</time>
   </trkpt>
   <trkpt lat="-8.045051" lon="-34.894643">
    <ele>17.3</ele>
    <time>2019-09-18T21:35:13.000Z</time>
   </trkpt>
   <trkpt lat="-8.045022" lon="-34.894613">
    <ele>17.2</ele>
    <time>2019-09-18T21:35:14.000Z</time>
   </trkpt>
   <trkpt lat="-8.045" lon="-34.89459">
    <ele>17</ele>
    <time>2019-09-18T21:35:15.000Z</time>
   </trkpt>
   <trkpt lat="-8.044957" lon="-34.894566">
    <ele>16.8</ele>
    <time>2019-09-18T21:35:17.000Z</time>
   </trkpt>
   <trkpt lat="-8.044882" lon="-34.894589">
    <ele>16.5</ele>
    <time>2019-09-18T21:35:18.000Z</time>
   </trkpt>
   <trkpt lat="-8.044823" lon="-34.894573">
    <ele>16.2</ele>
    <time>2019-09-18T21:35:19.000Z</time>
   </trkpt>
   <trkpt lat="-8.04477" lon="-34.89456">
    <ele>15.9</ele>
    <time>2019-09-18T21:35:20.000Z</time>
   </trkpt>
   <trkpt lat="-8.04473" lon="-34.894542">
    <ele>15.7</ele>
    <time>2019-09-18T21:35:21.000Z</time>
   </trkpt>
   <trkpt lat="-8.044701" lon="-34.894508">
    <ele>15.5</ele>
    <time>2019-09-18T21:35:22.000Z</time>
   </trkpt>
   <trkpt lat="-8.044676" lon="-34.894469">
    <ele>15.3</ele>
    <time>2019-09-18T21:35:23.000Z</time>
   </trkpt>
   <trkpt lat="-8.044662" lon="-34.894429">
    <ele>15.2</ele>
    <time>2019-09-18T21:35:24.000Z</time>
   </trkpt>
   <trkpt lat="-8.04465" lon="-34.894391">
    <ele>15</ele>
    <time>2019-09-18T21:35:25.000Z</time>
   </trkpt>
   <trkpt lat="-8.044633" lon="-34.894367">
    <ele>14.9</ele>
    <time>2019-09-18T21:35:26.000Z</time>
   </trkpt>
   <trkpt lat="-8.044599" lon="-34.894342">
    <ele>14.7</ele>
    <time>2019-09-18T21:35:27.000Z</time>
   </trkpt>
   <trkpt lat="-8.044575" lon="-34.894317">
    <ele>14.6</ele>
    <time>2019-09-18T21:35:28.000Z</time>
   </trkpt>
   <trkpt lat="-8.044558" lon="-34.894281">
    <ele>14.4</ele>
    <time>2019-09-18T21:35:29.000Z</time>
   </trkpt>
   <trkpt lat="-8.044541" lon="-34.894241">
    <ele>14.2</ele>
    <time>2019-09-18T21:35:30.000Z</time>
   </trkpt>
   <trkpt lat="-8.044514" lon="-34.894216">
    <ele>14</ele>
    <time>2019-09-18T21:35:31.000Z</time>
   </trkpt>
   <trkpt lat="-8.044488" lon="-34.894206">
    <ele>13.8</ele>
    <time>2019-09-18T21:35:32.000Z</time>
   </trkpt>
   <trkpt lat="-8.044457" lon="-34.894196">
    <ele>13.6</ele>
    <time>2019-09-18T21:35:33.000Z</time>
   </trkpt>
   <trkpt lat="-8.044428" lon="-34.894146">
    <ele>13.6</ele>
    <time>2019-09-18T21:35:34.000Z</time>
   </trkpt>
   <trkpt lat="-8.044402" lon="-34.894105">
    <ele>13.6</ele>
    <time>2019-09-18T21:35:35.000Z</time>
   </trkpt>
   <trkpt lat="-8.044366" lon="-34.894065">
    <ele>13.6</ele>
    <time>2019-09-18T21:35:36.000Z</time>
   </trkpt>
   <trkpt lat="-8.044329" lon="-34.894032">
    <ele>13.7</ele>
    <time>2019-09-18T21:35:37.000Z</time>
   </trkpt>
   <trkpt lat="-8.044289" lon="-34.893995">
    <ele>13.7</ele>
    <time>2019-09-18T21:35:38.000Z</time>
   </trkpt>
   <trkpt lat="-8.044258" lon="-34.893973">
    <ele>13.8</ele>
    <time>2019-09-18T21:35:39.000Z</time>
   </trkpt>
   <trkpt lat="-8.044208" lon="-34.893952">
    <ele>13.8</ele>
    <time>2019-09-18T21:35:40.000Z</time>
   </trkpt>
   <trkpt lat="-8.044183" lon="-34.893935">
    <ele>13.8</ele>
    <time>2019-09-18T21:35:41.000Z</time>
   </trkpt>
   <trkpt lat="-8.044154" lon="-34.893907">
    <ele>13.9</ele>
    <time>2019-09-18T21:35:42.000Z</time>
   </trkpt>
   <trkpt lat="-8.044116" lon="-34.893885">
    <ele>13.9</ele>
    <time>2019-09-18T21:35:43.000Z</time>
   </trkpt>
   <trkpt lat="-8.044077" lon="-34.893865">
    <ele>13.9</ele>
    <time>2019-09-18T21:35:44.000Z</time>
   </trkpt>
   <trkpt lat="-8.044043" lon="-34.893833">
    <ele>14</ele>
    <time>2019-09-18T21:35:45.000Z</time>
   </trkpt>
   <trkpt lat="-8.044009" lon="-34.893796">
    <ele>14</ele>
    <time>2019-09-18T21:35:46.000Z</time>
   </trkpt>
   <trkpt lat="-8.043982" lon="-34.89377">
    <ele>14</ele>
    <time>2019-09-18T21:35:47.000Z</time>
   </trkpt>
   <trkpt lat="-8.043954" lon="-34.893741">
    <ele>14.1</ele>
    <time>2019-09-18T21:35:48.000Z</time>
   </trkpt>
   <trkpt lat="-8.043925" lon="-34.893728">
    <ele>14.1</ele>
    <time>2019-09-18T21:35:49.000Z</time>
   </trkpt>
   <trkpt lat="-8.04388" lon="-34.893711">
    <ele>14.1</ele>
    <time>2019-09-18T21:35:50.000Z</time>
   </trkpt>
   <trkpt lat="-8.043848" lon="-34.893692">
    <ele>14.1</ele>
    <time>2019-09-18T21:35:51.000Z</time>
   </trkpt>
   <trkpt lat="-8.043807" lon="-34.893679">
    <ele>14.2</ele>
    <time>2019-09-18T21:35:52.000Z</time>
   </trkpt>
   <trkpt lat="-8.043776" lon="-34.893666">
    <ele>14.2</ele>
    <time>2019-09-18T21:35:53.000Z</time>
   </trkpt>
   <trkpt lat="-8.043767" lon="-34.893631">
    <ele>14.2</ele>
    <time>2019-09-18T21:35:55.000Z</time>
   </trkpt>
   <trkpt lat="-8.043738" lon="-34.8936">
    <ele>14.2</ele>
    <time>2019-09-18T21:35:58.000Z</time>
   </trkpt>
   <trkpt lat="-8.043714" lon="-34.893569">
    <ele>14.3</ele>
    <time>2019-09-18T21:36:01.000Z</time>
   </trkpt>
   <trkpt lat="-8.043689" lon="-34.893545">
    <ele>14.3</ele>
    <time>2019-09-18T21:36:04.000Z</time>
   </trkpt>
   <trkpt lat="-8.043667" lon="-34.893526">
    <ele>14.4</ele>
    <time>2019-09-18T21:36:05.000Z</time>
   </trkpt>
   <trkpt lat="-8.043605" lon="-34.893512">
    <ele>14.4</ele>
    <time>2019-09-18T21:36:07.000Z</time>
   </trkpt>
   <trkpt lat="-8.043562" lon="-34.893508">
    <ele>14.5</ele>
    <time>2019-09-18T21:36:08.000Z</time>
   </trkpt>
   <trkpt lat="-8.043523" lon="-34.893488">
    <ele>14.6</ele>
    <time>2019-09-18T21:36:09.000Z</time>
   </trkpt>
   <trkpt lat="-8.043491" lon="-34.893456">
    <ele>14.7</ele>
    <time>2019-09-18T21:36:10.000Z</time>
   </trkpt>
   <trkpt lat="-8.043468" lon="-34.893428">
    <ele>14.9</ele>
    <time>2019-09-18T21:36:11.000Z</time>
   </trkpt>
   <trkpt lat="-8.043439" lon="-34.893405">
    <ele>15.1</ele>
    <time>2019-09-18T21:36:12.000Z</time>
   </trkpt>
   <trkpt lat="-8.04341" lon="-34.893386">
    <ele>15.4</ele>
    <time>2019-09-18T21:36:13.000Z</time>
   </trkpt>
   <trkpt lat="-8.043363" lon="-34.893379">
    <ele>15.7</ele>
    <time>2019-09-18T21:36:14.000Z</time>
   </trkpt>
   <trkpt lat="-8.043325" lon="-34.89335">
    <ele>15.8</ele>
    <time>2019-09-18T21:36:15.000Z</time>
   </trkpt>
   <trkpt lat="-8.043294" lon="-34.893325">
    <ele>15.8</ele>
    <time>2019-09-18T21:36:16.000Z</time>
   </trkpt>
   <trkpt lat="-8.043262" lon="-34.893291">
    <ele>15.8</ele>
    <time>2019-09-18T21:36:17.000Z</time>
   </trkpt>
   <trkpt lat="-8.043245" lon="-34.893261">
    <ele>15.8</ele>
    <time>2019-09-18T21:36:18.000Z</time>
   </trkpt>
   <trkpt lat="-8.043226" lon="-34.89323">
    <ele>15.9</ele>
    <time>2019-09-18T21:36:19.000Z</time>
   </trkpt>
   <trkpt lat="-8.043191" lon="-34.893208">
    <ele>15.9</ele>
    <time>2019-09-18T21:36:20.000Z</time>
   </trkpt>
   <trkpt lat="-8.043149" lon="-34.893186">
    <ele>16</ele>
    <time>2019-09-18T21:36:21.000Z</time>
   </trkpt>
   <trkpt lat="-8.04311" lon="-34.89317">
    <ele>16</ele>
    <time>2019-09-18T21:36:22.000Z</time>
   </trkpt>
   <trkpt lat="-8.04308" lon="-34.893156">
    <ele>16</ele>
    <time>2019-09-18T21:36:23.000Z</time>
   </trkpt>
   <trkpt lat="-8.043033" lon="-34.893144">
    <ele>16.1</ele>
    <time>2019-09-18T21:36:24.000Z</time>
   </trkpt>
   <trkpt lat="-8.042989" lon="-34.893131">
    <ele>16.1</ele>
    <time>2019-09-18T21:36:25.000Z</time>
   </trkpt>
   <trkpt lat="-8.042951" lon="-34.893121">
    <ele>16.1</ele>
    <time>2019-09-18T21:36:26.000Z</time>
   </trkpt>
   <trkpt lat="-8.042918" lon="-34.893102">
    <ele>16.1</ele>
    <time>2019-09-18T21:36:27.000Z</time>
   </trkpt>
   <trkpt lat="-8.042886" lon="-34.893082">
    <ele>16.1</ele>
    <time>2019-09-18T21:36:28.000Z</time>
   </trkpt>
   <trkpt lat="-8.042854" lon="-34.893074">
    <ele>16.2</ele>
    <time>2019-09-18T21:36:29.000Z</time>
   </trkpt>
   <trkpt lat="-8.042825" lon="-34.893063">
    <ele>16.2</ele>
    <time>2019-09-18T21:36:30.000Z</time>
   </trkpt>
   <trkpt lat="-8.042794" lon="-34.893046">
    <ele>16.2</ele>
    <time>2019-09-18T21:36:31.000Z</time>
   </trkpt>
   <trkpt lat="-8.042759" lon="-34.893008">
    <ele>16.2</ele>
    <time>2019-09-18T21:36:32.000Z</time>
   </trkpt>
   <trkpt lat="-8.042728" lon="-34.892968">
    <ele>16.2</ele>
    <time>2019-09-18T21:36:33.000Z</time>
   </trkpt>
   <trkpt lat="-8.042703" lon="-34.892938">
    <ele>16.3</ele>
    <time>2019-09-18T21:36:34.000Z</time>
   </trkpt>
   <trkpt lat="-8.042688" lon="-34.892911">
    <ele>16.3</ele>
    <time>2019-09-18T21:36:35.000Z</time>
   </trkpt>
   <trkpt lat="-8.04266" lon="-34.892873">
    <ele>16.3</ele>
    <time>2019-09-18T21:36:37.000Z</time>
   </trkpt>
   <trkpt lat="-8.042635" lon="-34.892834">
    <ele>16.3</ele>
    <time>2019-09-18T21:36:39.000Z</time>
   </trkpt>
   <trkpt lat="-8.042605" lon="-34.89279">
    <ele>16.4</ele>
    <time>2019-09-18T21:36:40.000Z</time>
   </trkpt>
   <trkpt lat="-8.042577" lon="-34.892742">
    <ele>16.4</ele>
    <time>2019-09-18T21:36:41.000Z</time>
   </trkpt>
   <trkpt lat="-8.042541" lon="-34.892712">
    <ele>16.5</ele>
    <time>2019-09-18T21:36:42.000Z</time>
   </trkpt>
   <trkpt lat="-8.042505" lon="-34.892654">
    <ele>16.6</ele>
    <time>2019-09-18T21:36:43.000Z</time>
   </trkpt>
   <trkpt lat="-8.042478" lon="-34.89262">
    <ele>16.6</ele>
    <time>2019-09-18T21:36:44.000Z</time>
   </trkpt>
   <trkpt lat="-8.04243" lon="-34.89263">
    <ele>16.7</ele>
    <time>2019-09-18T21:36:45.000Z</time>
   </trkpt>
   <trkpt lat="-8.042391" lon="-34.892599">
    <ele>17</ele>
    <time>2019-09-18T21:36:46.000Z</time>
   </trkpt>
   <trkpt lat="-8.042343" lon="-34.892576">
    <ele>16.9</ele>
    <time>2019-09-18T21:36:47.000Z</time>
   </trkpt>
   <trkpt lat="-8.042319" lon="-34.892537">
    <ele>16.8</ele>
    <time>2019-09-18T21:36:48.000Z</time>
   </trkpt>
   <trkpt lat="-8.042303" lon="-34.892501">
    <ele>16.7</ele>
    <time>2019-09-18T21:36:49.000Z</time>
   </trkpt>
   <trkpt lat="-8.042281" lon="-34.89246">
    <ele>16.7</ele>
    <time>2019-09-18T21:36:50.000Z</time>
   </trkpt>
   <trkpt lat="-8.04224" lon="-34.892426">
    <ele>16.6</ele>
    <time>2019-09-18T21:36:51.000Z</time>
   </trkpt>
   <trkpt lat="-8.042205" lon="-34.892395">
    <ele>16.5</ele>
    <time>2019-09-18T21:36:52.000Z</time>
   </trkpt>
   <trkpt lat="-8.042168" lon="-34.892351">
    <ele>16.4</ele>
    <time>2019-09-18T21:36:53.000Z</time>
   </trkpt>
   <trkpt lat="-8.042104" lon="-34.892325">
    <ele>16.3</ele>
    <time>2019-09-18T21:36:54.000Z</time>
   </trkpt>
   <trkpt lat="-8.042057" lon="-34.89229">
    <ele>16.2</ele>
    <time>2019-09-18T21:36:55.000Z</time>
   </trkpt>
   <trkpt lat="-8.042016" lon="-34.892256">
    <ele>16.2</ele>
    <time>2019-09-18T21:36:56.000Z</time>
   </trkpt>
   <trkpt lat="-8.041977" lon="-34.89223">
    <ele>16.1</ele>
    <time>2019-09-18T21:36:57.000Z</time>
   </trkpt>
   <trkpt lat="-8.041939" lon="-34.892188">
    <ele>16</ele>
    <time>2019-09-18T21:36:58.000Z</time>
   </trkpt>
   <trkpt lat="-8.041911" lon="-34.892153">
    <ele>16</ele>
    <time>2019-09-18T21:36:59.000Z</time>
   </trkpt>
   <trkpt lat="-8.041882" lon="-34.892109">
    <ele>15.9</ele>
    <time>2019-09-18T21:37:00.000Z</time>
   </trkpt>
   <trkpt lat="-8.041855" lon="-34.892046">
    <ele>15.8</ele>
    <time>2019-09-18T21:37:01.000Z</time>
   </trkpt>
   <trkpt lat="-8.041846" lon="-34.891996">
    <ele>15.7</ele>
    <time>2019-09-18T21:37:02.000Z</time>
   </trkpt>
   <trkpt lat="-8.0418" lon="-34.891971">
    <ele>15.7</ele>
    <time>2019-09-18T21:37:03.000Z</time>
   </trkpt>
   <trkpt lat="-8.041761" lon="-34.891949">
    <ele>15.6</ele>
    <time>2019-09-18T21:37:04.000Z</time>
   </trkpt>
   <trkpt lat="-8.041711" lon="-34.891925">
    <ele>15.5</ele>
    <time>2019-09-18T21:37:05.000Z</time>
   </trkpt>
   <trkpt lat="-8.041669" lon="-34.891897">
    <ele>15.4</ele>
    <time>2019-09-18T21:37:06.000Z</time>
   </trkpt>
   <trkpt lat="-8.041642" lon="-34.891845">
    <ele>15.3</ele>
    <time>2019-09-18T21:37:07.000Z</time>
   </trkpt>
   <trkpt lat="-8.041631" lon="-34.891808">
    <ele>15.2</ele>
    <time>2019-09-18T21:37:08.000Z</time>
   </trkpt>
   <trkpt lat="-8.041605" lon="-34.89177">
    <ele>15.1</ele>
    <time>2019-09-18T21:37:10.000Z</time>
   </trkpt>
   <trkpt lat="-8.041585" lon="-34.891726">
    <ele>15</ele>
    <time>2019-09-18T21:37:12.000Z</time>
   </trkpt>
   <trkpt lat="-8.041571" lon="-34.89167">
    <ele>14.8</ele>
    <time>2019-09-18T21:37:14.000Z</time>
   </trkpt>
   <trkpt lat="-8.041549" lon="-34.891637">
    <ele>14.7</ele>
    <time>2019-09-18T21:37:15.000Z</time>
   </trkpt>
   <trkpt lat="-8.041525" lon="-34.891615">
    <ele>14.6</ele>
    <time>2019-09-18T21:37:16.000Z</time>
   </trkpt>
   <trkpt lat="-8.041511" lon="-34.891591">
    <ele>14.6</ele>
    <time>2019-09-18T21:37:17.000Z</time>
   </trkpt>
   <trkpt lat="-8.041485" lon="-34.891561">
    <ele>14.5</ele>
    <time>2019-09-18T21:37:18.000Z</time>
   </trkpt>
   <trkpt lat="-8.041446" lon="-34.891533">
    <ele>14.4</ele>
    <time>2019-09-18T21:37:19.000Z</time>
   </trkpt>
   <trkpt lat="-8.04139" lon="-34.891512">
    <ele>14.2</ele>
    <time>2019-09-18T21:37:20.000Z</time>
   </trkpt>
   <trkpt lat="-8.041347" lon="-34.891511">
    <ele>14.1</ele>
    <time>2019-09-18T21:37:21.000Z</time>
   </trkpt>
   <trkpt lat="-8.041311" lon="-34.891515">
    <ele>14</ele>
    <time>2019-09-18T21:37:22.000Z</time>
   </trkpt>
   <trkpt lat="-8.041268" lon="-34.891523">
    <ele>13.7</ele>
    <time>2019-09-18T21:37:23.000Z</time>
   </trkpt>
   <trkpt lat="-8.04123" lon="-34.891526">
    <ele>13.6</ele>
    <time>2019-09-18T21:37:24.000Z</time>
   </trkpt>
   <trkpt lat="-8.041192" lon="-34.891537">
    <ele>13.5</ele>
    <time>2019-09-18T21:37:25.000Z</time>
   </trkpt>
   <trkpt lat="-8.041162" lon="-34.891552">
    <ele>13.5</ele>
    <time>2019-09-18T21:37:26.000Z</time>
   </trkpt>
   <trkpt lat="-8.04113" lon="-34.89157">
    <ele>13.4</ele>
    <time>2019-09-18T21:37:27.000Z</time>
   </trkpt>
   <trkpt lat="-8.041083" lon="-34.891583">
    <ele>13.3</ele>
    <time>2019-09-18T21:37:28.000Z</time>
   </trkpt>
   <trkpt lat="-8.041047" lon="-34.891603">
    <ele>13.2</ele>
    <time>2019-09-18T21:37:29.000Z</time>
   </trkpt>
   <trkpt lat="-8.041015" lon="-34.891614">
    <ele>13.2</ele>
    <time>2019-09-18T21:37:30.000Z</time>
   </trkpt>
   <trkpt lat="-8.040971" lon="-34.891618">
    <ele>13.1</ele>
    <time>2019-09-18T21:37:31.000Z</time>
   </trkpt>
   <trkpt lat="-8.040948" lon="-34.891635">
    <ele>13.1</ele>
    <time>2019-09-18T21:37:32.000Z</time>
   </trkpt>
   <trkpt lat="-8.040925" lon="-34.89165">
    <ele>13</ele>
    <time>2019-09-18T21:37:33.000Z</time>
   </trkpt>
   <trkpt lat="-8.040897" lon="-34.891659">
    <ele>13</ele>
    <time>2019-09-18T21:37:34.000Z</time>
   </trkpt>
   <trkpt lat="-8.040872" lon="-34.891674">
    <ele>13</ele>
    <time>2019-09-18T21:37:35.000Z</time>
   </trkpt>
   <trkpt lat="-8.040845" lon="-34.891703">
    <ele>13</ele>
    <time>2019-09-18T21:37:36.000Z</time>
   </trkpt>
   <trkpt lat="-8.040815" lon="-34.891716">
    <ele>13</ele>
    <time>2019-09-18T21:37:37.000Z</time>
   </trkpt>
   <trkpt lat="-8.040764" lon="-34.891734">
    <ele>12.9</ele>
    <time>2019-09-18T21:37:39.000Z</time>
   </trkpt>
   <trkpt lat="-8.040702" lon="-34.891755">
    <ele>12.9</ele>
    <time>2019-09-18T21:37:41.000Z</time>
   </trkpt>
   <trkpt lat="-8.040648" lon="-34.891768">
    <ele>13</ele>
    <time>2019-09-18T21:37:42.000Z</time>
   </trkpt>
   <trkpt lat="-8.040605" lon="-34.891768">
    <ele>13</ele>
    <time>2019-09-18T21:37:43.000Z</time>
   </trkpt>
   <trkpt lat="-8.040555" lon="-34.891731">
    <ele>13</ele>
    <time>2019-09-18T21:37:45.000Z</time>
   </trkpt>
   <trkpt lat="-8.040507" lon="-34.891707">
    <ele>12.9</ele>
    <time>2019-09-18T21:37:46.000Z</time>
   </trkpt>
   <trkpt lat="-8.04046" lon="-34.891674">
    <ele>12.8</ele>
    <time>2019-09-18T21:37:47.000Z</time>
   </trkpt>
   <trkpt lat="-8.040413" lon="-34.891638">
    <ele>12.7</ele>
    <time>2019-09-18T21:37:48.000Z</time>
   </trkpt>
   <trkpt lat="-8.040371" lon="-34.891603">
    <ele>12.7</ele>
    <time>2019-09-18T21:37:49.000Z</time>
   </trkpt>
   <trkpt lat="-8.04033" lon="-34.891573">
    <ele>12.6</ele>
    <time>2019-09-18T21:37:50.000Z</time>
   </trkpt>
   <trkpt lat="-8.040292" lon="-34.891537">
    <ele>12.6</ele>
    <time>2019-09-18T21:37:51.000Z</time>
   </trkpt>
   <trkpt lat="-8.040268" lon="-34.891502">
    <ele>12.6</ele>
    <time>2019-09-18T21:37:52.000Z</time>
   </trkpt>
   <trkpt lat="-8.040242" lon="-34.891479">
    <ele>12.5</ele>
    <time>2019-09-18T21:37:53.000Z</time>
   </trkpt>
   <trkpt lat="-8.040224" lon="-34.891452">
    <ele>12.5</ele>
    <time>2019-09-18T21:37:54.000Z</time>
   </trkpt>
   <trkpt lat="-8.040181" lon="-34.891417">
    <ele>12.4</ele>
    <time>2019-09-18T21:37:56.000Z</time>
   </trkpt>
   <trkpt lat="-8.040141" lon="-34.891372">
    <ele>12.4</ele>
    <time>2019-09-18T21:37:58.000Z</time>
   </trkpt>
   <trkpt lat="-8.040096" lon="-34.891335">
    <ele>12.3</ele>
    <time>2019-09-18T21:38:00.000Z</time>
   </trkpt>
   <trkpt lat="-8.040085" lon="-34.891307">
    <ele>12.3</ele>
    <time>2019-09-18T21:38:01.000Z</time>
   </trkpt>
   <trkpt lat="-8.040066" lon="-34.891274">
    <ele>12.2</ele>
    <time>2019-09-18T21:38:03.000Z</time>
   </trkpt>
   <trkpt lat="-8.040036" lon="-34.891266">
    <ele>12.2</ele>
    <time>2019-09-18T21:38:04.000Z</time>
   </trkpt>
   <trkpt lat="-8.040017" lon="-34.891243">
    <ele>12.1</ele>
    <time>2019-09-18T21:38:05.000Z</time>
   </trkpt>
   <trkpt lat="-8.039988" lon="-34.89121">
    <ele>12.1</ele>
    <time>2019-09-18T21:38:07.000Z</time>
   </trkpt>
   <trkpt lat="-8.039978" lon="-34.891183">
    <ele>12</ele>
    <time>2019-09-18T21:38:08.000Z</time>
   </trkpt>
   <trkpt lat="-8.039959" lon="-34.891136">
    <ele>12</ele>
    <time>2019-09-18T21:38:10.000Z</time>
   </trkpt>
   <trkpt lat="-8.039912" lon="-34.891102">
    <ele>11.9</ele>
    <time>2019-09-18T21:38:12.000Z</time>
   </trkpt>
   <trkpt lat="-8.039885" lon="-34.891066">
    <ele>11.9</ele>
    <time>2019-09-18T21:38:14.000Z</time>
   </trkpt>
   <trkpt lat="-8.03987" lon="-34.891039">
    <ele>11.8</ele>
    <time>2019-09-18T21:38:15.000Z</time>
   </trkpt>
   <trkpt lat="-8.03985" lon="-34.891018">
    <ele>11.8</ele>
    <time>2019-09-18T21:38:16.000Z</time>
   </trkpt>
   <trkpt lat="-8.039825" lon="-34.891002">
    <ele>11.8</ele>
    <time>2019-09-18T21:38:17.000Z</time>
   </trkpt>
   <trkpt lat="-8.039798" lon="-34.890993">
    <ele>11.7</ele>
    <time>2019-09-18T21:38:18.000Z</time>
   </trkpt>
   <trkpt lat="-8.039771" lon="-34.890954">
    <ele>11.7</ele>
    <time>2019-09-18T21:38:20.000Z</time>
   </trkpt>
   <trkpt lat="-8.039729" lon="-34.890925">
    <ele>11.6</ele>
    <time>2019-09-18T21:38:22.000Z</time>
   </trkpt>
   <trkpt lat="-8.039705" lon="-34.890904">
    <ele>11.6</ele>
    <time>2019-09-18T21:38:23.000Z</time>
   </trkpt>
   <trkpt lat="-8.039689" lon="-34.890872">
    <ele>11.6</ele>
    <time>2019-09-18T21:38:24.000Z</time>
   </trkpt>
   <trkpt lat="-8.039666" lon="-34.890832">
    <ele>11.5</ele>
    <time>2019-09-18T21:38:25.000Z</time>
   </trkpt>
   <trkpt lat="-8.039639" lon="-34.890802">
    <ele>11.5</ele>
    <time>2019-09-18T21:38:26.000Z</time>
   </trkpt>
   <trkpt lat="-8.03961" lon="-34.890777">
    <ele>11.4</ele>
    <time>2019-09-18T21:38:27.000Z</time>
   </trkpt>
   <trkpt lat="-8.039589" lon="-34.890746">
    <ele>11.4</ele>
    <time>2019-09-18T21:38:28.000Z</time>
   </trkpt>
   <trkpt lat="-8.039558" lon="-34.890714">
    <ele>11.3</ele>
    <time>2019-09-18T21:38:29.000Z</time>
   </trkpt>
   <trkpt lat="-8.039526" lon="-34.89069">
    <ele>11.2</ele>
    <time>2019-09-18T21:38:30.000Z</time>
   </trkpt>
   <trkpt lat="-8.039481" lon="-34.89066">
    <ele>11.2</ele>
    <time>2019-09-18T21:38:31.000Z</time>
   </trkpt>
   <trkpt lat="-8.039435" lon="-34.890618">
    <ele>11.1</ele>
    <time>2019-09-18T21:38:32.000Z</time>
   </trkpt>
   <trkpt lat="-8.03939" lon="-34.890576">
    <ele>11.1</ele>
    <time>2019-09-18T21:38:33.000Z</time>
   </trkpt>
   <trkpt lat="-8.039346" lon="-34.890527">
    <ele>11</ele>
    <time>2019-09-18T21:38:34.000Z</time>
   </trkpt>
   <trkpt lat="-8.0393" lon="-34.890466">
    <ele>10.9</ele>
    <time>2019-09-18T21:38:35.000Z</time>
   </trkpt>
   <trkpt lat="-8.039237" lon="-34.890459">
    <ele>10.7</ele>
    <time>2019-09-18T21:38:36.000Z</time>
   </trkpt>
   <trkpt lat="-8.039176" lon="-34.890431">
    <ele>10.5</ele>
    <time>2019-09-18T21:38:37.000Z</time>
   </trkpt>
   <trkpt lat="-8.039119" lon="-34.890412">
    <ele>10.3</ele>
    <time>2019-09-18T21:38:38.000Z</time>
   </trkpt>
   <trkpt lat="-8.039072" lon="-34.890381">
    <ele>10</ele>
    <time>2019-09-18T21:38:39.000Z</time>
   </trkpt>
   <trkpt lat="-8.039024" lon="-34.890356">
    <ele>9.8</ele>
    <time>2019-09-18T21:38:40.000Z</time>
   </trkpt>
   <trkpt lat="-8.038962" lon="-34.890334">
    <ele>9.9</ele>
    <time>2019-09-18T21:38:41.000Z</time>
   </trkpt>
   <trkpt lat="-8.038914" lon="-34.890325">
    <ele>10</ele>
    <time>2019-09-18T21:38:42.000Z</time>
   </trkpt>
   <trkpt lat="-8.038862" lon="-34.890311">
    <ele>10</ele>
    <time>2019-09-18T21:38:43.000Z</time>
   </trkpt>
   <trkpt lat="-8.038816" lon="-34.890288">
    <ele>10.1</ele>
    <time>2019-09-18T21:38:44.000Z</time>
   </trkpt>
   <trkpt lat="-8.038769" lon="-34.890269">
    <ele>10.2</ele>
    <time>2019-09-18T21:38:45.000Z</time>
   </trkpt>
   <trkpt lat="-8.03872" lon="-34.89025">
    <ele>10.3</ele>
    <time>2019-09-18T21:38:46.000Z</time>
   </trkpt>
   <trkpt lat="-8.03867" lon="-34.89022">
    <ele>10.4</ele>
    <time>2019-09-18T21:38:47.000Z</time>
   </trkpt>
   <trkpt lat="-8.038633" lon="-34.890194">
    <ele>10.4</ele>
    <time>2019-09-18T21:38:48.000Z</time>
   </trkpt>
   <trkpt lat="-8.038589" lon="-34.890175">
    <ele>10.5</ele>
    <time>2019-09-18T21:38:49.000Z</time>
   </trkpt>
   <trkpt lat="-8.038544" lon="-34.890147">
    <ele>10.6</ele>
    <time>2019-09-18T21:38:50.000Z</time>
   </trkpt>
   <trkpt lat="-8.038496" lon="-34.89012">
    <ele>10.7</ele>
    <time>2019-09-18T21:38:51.000Z</time>
   </trkpt>
   <trkpt lat="-8.038454" lon="-34.890096">
    <ele>10.8</ele>
    <time>2019-09-18T21:38:52.000Z</time>
   </trkpt>
   <trkpt lat="-8.038406" lon="-34.890073">
    <ele>10.9</ele>
    <time>2019-09-18T21:38:53.000Z</time>
   </trkpt>
   <trkpt lat="-8.038353" lon="-34.890062">
    <ele>11</ele>
    <time>2019-09-18T21:38:54.000Z</time>
   </trkpt>
   <trkpt lat="-8.038312" lon="-34.890053">
    <ele>11</ele>
    <time>2019-09-18T21:38:55.000Z</time>
   </trkpt>
   <trkpt lat="-8.038271" lon="-34.890036">
    <ele>11.1</ele>
    <time>2019-09-18T21:38:56.000Z</time>
   </trkpt>
   <trkpt lat="-8.03823" lon="-34.890016">
    <ele>11.2</ele>
    <time>2019-09-18T21:38:57.000Z</time>
   </trkpt>
   <trkpt lat="-8.038183" lon="-34.889999">
    <ele>11.2</ele>
    <time>2019-09-18T21:38:58.000Z</time>
   </trkpt>
   <trkpt lat="-8.038135" lon="-34.889983">
    <ele>11.3</ele>
    <time>2019-09-18T21:38:59.000Z</time>
   </trkpt>
   <trkpt lat="-8.038094" lon="-34.889974">
    <ele>11.4</ele>
    <time>2019-09-18T21:39:00.000Z</time>
   </trkpt>
   <trkpt lat="-8.038057" lon="-34.889951">
    <ele>11.5</ele>
    <time>2019-09-18T21:39:01.000Z</time>
   </trkpt>
   <trkpt lat="-8.038014" lon="-34.889929">
    <ele>11.5</ele>
    <time>2019-09-18T21:39:02.000Z</time>
   </trkpt>
   <trkpt lat="-8.037978" lon="-34.889911">
    <ele>11.6</ele>
    <time>2019-09-18T21:39:03.000Z</time>
   </trkpt>
   <trkpt lat="-8.037948" lon="-34.889899">
    <ele>11.6</ele>
    <time>2019-09-18T21:39:04.000Z</time>
   </trkpt>
   <trkpt lat="-8.037908" lon="-34.889897">
    <ele>11.7</ele>
    <time>2019-09-18T21:39:05.000Z</time>
   </trkpt>
   <trkpt lat="-8.037878" lon="-34.889893">
    <ele>11.8</ele>
    <time>2019-09-18T21:39:06.000Z</time>
   </trkpt>
   <trkpt lat="-8.037832" lon="-34.889874">
    <ele>11.8</ele>
    <time>2019-09-18T21:39:08.000Z</time>
   </trkpt>
   <trkpt lat="-8.037803" lon="-34.889871">
    <ele>11.9</ele>
    <time>2019-09-18T21:39:10.000Z</time>
   </trkpt>
   <trkpt lat="-8.037771" lon="-34.889883">
    <ele>11.9</ele>
    <time>2019-09-18T21:39:12.000Z</time>
   </trkpt>
   <trkpt lat="-8.037754" lon="-34.889904">
    <ele>11.9</ele>
    <time>2019-09-18T21:39:13.000Z</time>
   </trkpt>
   <trkpt lat="-8.037734" lon="-34.889934">
    <ele>11.9</ele>
    <time>2019-09-18T21:39:14.000Z</time>
   </trkpt>
   <trkpt lat="-8.037717" lon="-34.889968">
    <ele>11.8</ele>
    <time>2019-09-18T21:39:15.000Z</time>
   </trkpt>
   <trkpt lat="-8.037699" lon="-34.889997">
    <ele>11.7</ele>
    <time>2019-09-18T21:39:16.000Z</time>
   </trkpt>
   <trkpt lat="-8.037689" lon="-34.89003">
    <ele>11.6</ele>
    <time>2019-09-18T21:39:17.000Z</time>
   </trkpt>
   <trkpt lat="-8.037674" lon="-34.89007">
    <ele>11.5</ele>
    <time>2019-09-18T21:39:18.000Z</time>
   </trkpt>
   <trkpt lat="-8.037654" lon="-34.890107">
    <ele>11.4</ele>
    <time>2019-09-18T21:39:19.000Z</time>
   </trkpt>
   <trkpt lat="-8.037628" lon="-34.890138">
    <ele>11.3</ele>
    <time>2019-09-18T21:39:20.000Z</time>
   </trkpt>
   <trkpt lat="-8.037615" lon="-34.890166">
    <ele>11.3</ele>
    <time>2019-09-18T21:39:21.000Z</time>
   </trkpt>
   <trkpt lat="-8.037595" lon="-34.890207">
    <ele>11.2</ele>
    <time>2019-09-18T21:39:23.000Z</time>
   </trkpt>
   <trkpt lat="-8.03758" lon="-34.890234">
    <ele>11.2</ele>
    <time>2019-09-18T21:39:24.000Z</time>
   </trkpt>
   <trkpt lat="-8.037566" lon="-34.890261">
    <ele>11.3</ele>
    <time>2019-09-18T21:39:25.000Z</time>
   </trkpt>
   <trkpt lat="-8.037547" lon="-34.890293">
    <ele>11.3</ele>
    <time>2019-09-18T21:39:26.000Z</time>
   </trkpt>
   <trkpt lat="-8.037526" lon="-34.890323">
    <ele>11.4</ele>
    <time>2019-09-18T21:39:27.000Z</time>
   </trkpt>
   <trkpt lat="-8.037506" lon="-34.890347">
    <ele>11.5</ele>
    <time>2019-09-18T21:39:28.000Z</time>
   </trkpt>
   <trkpt lat="-8.037487" lon="-34.890371">
    <ele>11.6</ele>
    <time>2019-09-18T21:39:29.000Z</time>
   </trkpt>
   <trkpt lat="-8.037466" lon="-34.8904">
    <ele>11.8</ele>
    <time>2019-09-18T21:39:30.000Z</time>
   </trkpt>
   <trkpt lat="-8.037445" lon="-34.890426">
    <ele>12.1</ele>
    <time>2019-09-18T21:39:31.000Z</time>
   </trkpt>
   <trkpt lat="-8.037423" lon="-34.890446">
    <ele>12.2</ele>
    <time>2019-09-18T21:39:32.000Z</time>
   </trkpt>
   <trkpt lat="-8.037396" lon="-34.890478">
    <ele>12.2</ele>
    <time>2019-09-18T21:39:34.000Z</time>
   </trkpt>
   <trkpt lat="-8.037379" lon="-34.890502">
    <ele>12.2</ele>
    <time>2019-09-18T21:39:35.000Z</time>
   </trkpt>
   <trkpt lat="-8.037359" lon="-34.890535">
    <ele>12.1</ele>
    <time>2019-09-18T21:39:36.000Z</time>
   </trkpt>
   <trkpt lat="-8.037333" lon="-34.890568">
    <ele>11.8</ele>
    <time>2019-09-18T21:39:37.000Z</time>
   </trkpt>
   <trkpt lat="-8.037318" lon="-34.890593">
    <ele>11.6</ele>
    <time>2019-09-18T21:39:38.000Z</time>
   </trkpt>
   <trkpt lat="-8.037298" lon="-34.890614">
    <ele>11.5</ele>
    <time>2019-09-18T21:39:39.000Z</time>
   </trkpt>
   <trkpt lat="-8.037277" lon="-34.890639">
    <ele>11.3</ele>
    <time>2019-09-18T21:39:40.000Z</time>
   </trkpt>
   <trkpt lat="-8.037268" lon="-34.890666">
    <ele>11.1</ele>
    <time>2019-09-18T21:39:41.000Z</time>
   </trkpt>
   <trkpt lat="-8.037249" lon="-34.890699">
    <ele>10.9</ele>
    <time>2019-09-18T21:39:43.000Z</time>
   </trkpt>
   <trkpt lat="-8.037224" lon="-34.89072">
    <ele>10.7</ele>
    <time>2019-09-18T21:39:44.000Z</time>
   </trkpt>
   <trkpt lat="-8.037202" lon="-34.890748">
    <ele>10.5</ele>
    <time>2019-09-18T21:39:45.000Z</time>
   </trkpt>
   <trkpt lat="-8.037194" lon="-34.890793">
    <ele>9.6</ele>
    <time>2019-09-18T21:39:46.000Z</time>
   </trkpt>
   <trkpt lat="-8.037195" lon="-34.890839">
    <ele>9.1</ele>
    <time>2019-09-18T21:39:47.000Z</time>
   </trkpt>
   <trkpt lat="-8.037196" lon="-34.89088">
    <ele>8.8</ele>
    <time>2019-09-18T21:39:48.000Z</time>
   </trkpt>
   <trkpt lat="-8.037191" lon="-34.890916">
    <ele>7.9</ele>
    <time>2019-09-18T21:39:49.000Z</time>
   </trkpt>
   <trkpt lat="-8.037183" lon="-34.890951">
    <ele>7.7</ele>
    <time>2019-09-18T21:39:50.000Z</time>
   </trkpt>
   <trkpt lat="-8.037154" lon="-34.890978">
    <ele>7.5</ele>
    <time>2019-09-18T21:39:51.000Z</time>
   </trkpt>
   <trkpt lat="-8.037132" lon="-34.890998">
    <ele>7</ele>
    <time>2019-09-18T21:39:52.000Z</time>
   </trkpt>
   <trkpt lat="-8.03709" lon="-34.891016">
    <ele>6.9</ele>
    <time>2019-09-18T21:39:54.000Z</time>
   </trkpt>
   <trkpt lat="-8.03707" lon="-34.891043">
    <ele>6.8</ele>
    <time>2019-09-18T21:39:56.000Z</time>
   </trkpt>
   <trkpt lat="-8.037053" lon="-34.891065">
    <ele>6.7</ele>
    <time>2019-09-18T21:40:02.000Z</time>
   </trkpt>
   <trkpt lat="-8.037023" lon="-34.891087">
    <ele>6.8</ele>
    <time>2019-09-18T21:40:09.000Z</time>
   </trkpt>
   <trkpt lat="-8.036981" lon="-34.891111">
    <ele>6.9</ele>
    <time>2019-09-18T21:40:36.000Z</time>
   </trkpt>
   <trkpt lat="-8.036934" lon="-34.891118">
    <ele>7</ele>
    <time>2019-09-18T21:40:38.000Z</time>
   </trkpt>
   <trkpt lat="-8.036898" lon="-34.891134">
    <ele>7.1</ele>
    <time>2019-09-18T21:40:40.000Z</time>
   </trkpt>
   <trkpt lat="-8.036891" lon="-34.891161">
    <ele>7.2</ele>
    <time>2019-09-18T21:40:41.000Z</time>
   </trkpt>
   <trkpt lat="-8.036917" lon="-34.891192">
    <ele>7.9</ele>
    <time>2019-09-18T21:40:43.000Z</time>
   </trkpt>
   <trkpt lat="-8.036928" lon="-34.891218">
    <ele>8</ele>
    <time>2019-09-18T21:40:44.000Z</time>
   </trkpt>
   <trkpt lat="-8.036939" lon="-34.891249">
    <ele>8.1</ele>
    <time>2019-09-18T21:40:45.000Z</time>
   </trkpt>
   <trkpt lat="-8.036952" lon="-34.891277">
    <ele>8.2</ele>
    <time>2019-09-18T21:40:46.000Z</time>
   </trkpt>
   <trkpt lat="-8.036979" lon="-34.891311">
    <ele>8.3</ele>
    <time>2019-09-18T21:40:48.000Z</time>
   </trkpt>
   <trkpt lat="-8.037007" lon="-34.891364">
    <ele>8.4</ele>
    <time>2019-09-18T21:40:50.000Z</time>
   </trkpt>
   <trkpt lat="-8.037032" lon="-34.891386">
    <ele>8.4</ele>
    <time>2019-09-18T21:40:51.000Z</time>
   </trkpt>
   <trkpt lat="-8.037064" lon="-34.891401">
    <ele>9.2</ele>
    <time>2019-09-18T21:40:52.000Z</time>
   </trkpt>
   <trkpt lat="-8.037103" lon="-34.891414">
    <ele>9.2</ele>
    <time>2019-09-18T21:40:53.000Z</time>
   </trkpt>
   <trkpt lat="-8.037137" lon="-34.89143">
    <ele>9.4</ele>
    <time>2019-09-18T21:40:54.000Z</time>
   </trkpt>
   <trkpt lat="-8.037172" lon="-34.89144">
    <ele>9.6</ele>
    <time>2019-09-18T21:40:55.000Z</time>
   </trkpt>
   <trkpt lat="-8.03721" lon="-34.891452">
    <ele>9.9</ele>
    <time>2019-09-18T21:40:56.000Z</time>
   </trkpt>
   <trkpt lat="-8.037247" lon="-34.891462">
    <ele>10.1</ele>
    <time>2019-09-18T21:40:57.000Z</time>
   </trkpt>
   <trkpt lat="-8.037286" lon="-34.89147">
    <ele>10.2</ele>
    <time>2019-09-18T21:40:58.000Z</time>
   </trkpt>
   <trkpt lat="-8.037318" lon="-34.89149">
    <ele>10.2</ele>
    <time>2019-09-18T21:40:59.000Z</time>
   </trkpt>
   <trkpt lat="-8.037355" lon="-34.891508">
    <ele>10.1</ele>
    <time>2019-09-18T21:41:00.000Z</time>
   </trkpt>
   <trkpt lat="-8.037389" lon="-34.891529">
    <ele>10.2</ele>
    <time>2019-09-18T21:41:01.000Z</time>
   </trkpt>
   <trkpt lat="-8.03742" lon="-34.891553">
    <ele>10.2</ele>
    <time>2019-09-18T21:41:02.000Z</time>
   </trkpt>
   <trkpt lat="-8.037454" lon="-34.891579">
    <ele>10.2</ele>
    <time>2019-09-18T21:41:03.000Z</time>
   </trkpt>
   <trkpt lat="-8.037489" lon="-34.891606">
    <ele>10.1</ele>
    <time>2019-09-18T21:41:04.000Z</time>
   </trkpt>
   <trkpt lat="-8.037512" lon="-34.891635">
    <ele>10.1</ele>
    <time>2019-09-18T21:41:05.000Z</time>
   </trkpt>
   <trkpt lat="-8.037537" lon="-34.891662">
    <ele>10.1</ele>
    <time>2019-09-18T21:41:06.000Z</time>
   </trkpt>
   <trkpt lat="-8.037542" lon="-34.891691">
    <ele>10.1</ele>
    <time>2019-09-18T21:41:07.000Z</time>
   </trkpt>
   <trkpt lat="-8.037564" lon="-34.891724">
    <ele>10.1</ele>
    <time>2019-09-18T21:41:08.000Z</time>
   </trkpt>
   <trkpt lat="-8.037564" lon="-34.891754">
    <ele>10.1</ele>
    <time>2019-09-18T21:41:09.000Z</time>
   </trkpt>
   <trkpt lat="-8.037551" lon="-34.891783">
    <ele>10.1</ele>
    <time>2019-09-18T21:41:10.000Z</time>
   </trkpt>
   <trkpt lat="-8.037539" lon="-34.891809">
    <ele>10</ele>
    <time>2019-09-18T21:41:11.000Z</time>
   </trkpt>
   <trkpt lat="-8.037523" lon="-34.891859">
    <ele>10</ele>
    <time>2019-09-18T21:41:13.000Z</time>
   </trkpt>
   <trkpt lat="-8.037505" lon="-34.891888">
    <ele>10</ele>
    <time>2019-09-18T21:41:14.000Z</time>
   </trkpt>
   <trkpt lat="-8.037484" lon="-34.891916">
    <ele>9.7</ele>
    <time>2019-09-18T21:41:15.000Z</time>
   </trkpt>
   <trkpt lat="-8.037463" lon="-34.891946">
    <ele>9.5</ele>
    <time>2019-09-18T21:41:16.000Z</time>
   </trkpt>
   <trkpt lat="-8.037438" lon="-34.891979">
    <ele>9.3</ele>
    <time>2019-09-18T21:41:17.000Z</time>
   </trkpt>
   <trkpt lat="-8.037416" lon="-34.892022">
    <ele>9</ele>
    <time>2019-09-18T21:41:18.000Z</time>
   </trkpt>
   <trkpt lat="-8.037398" lon="-34.892075">
    <ele>8.7</ele>
    <time>2019-09-18T21:41:19.000Z</time>
   </trkpt>
   <trkpt lat="-8.037393" lon="-34.892126">
    <ele>8.5</ele>
    <time>2019-09-18T21:41:20.000Z</time>
   </trkpt>
   <trkpt lat="-8.037409" lon="-34.892189">
    <ele>8.8</ele>
    <time>2019-09-18T21:41:21.000Z</time>
   </trkpt>
   <trkpt lat="-8.037414" lon="-34.892252">
    <ele>9.1</ele>
    <time>2019-09-18T21:41:22.000Z</time>
   </trkpt>
   <trkpt lat="-8.037414" lon="-34.892317">
    <ele>9.3</ele>
    <time>2019-09-18T21:41:23.000Z</time>
   </trkpt>
   <trkpt lat="-8.037413" lon="-34.892372">
    <ele>9.5</ele>
    <time>2019-09-18T21:41:24.000Z</time>
   </trkpt>
   <trkpt lat="-8.037425" lon="-34.89243">
    <ele>9.7</ele>
    <time>2019-09-18T21:41:25.000Z</time>
   </trkpt>
   <trkpt lat="-8.037432" lon="-34.892489">
    <ele>9.9</ele>
    <time>2019-09-18T21:41:26.000Z</time>
   </trkpt>
   <trkpt lat="-8.037438" lon="-34.892543">
    <ele>10.1</ele>
    <time>2019-09-18T21:41:27.000Z</time>
   </trkpt>
   <trkpt lat="-8.037435" lon="-34.892597">
    <ele>10.3</ele>
    <time>2019-09-18T21:41:28.000Z</time>
   </trkpt>
   <trkpt lat="-8.03742" lon="-34.892638">
    <ele>10.4</ele>
    <time>2019-09-18T21:41:29.000Z</time>
   </trkpt>
   <trkpt lat="-8.037418" lon="-34.892678">
    <ele>10.4</ele>
    <time>2019-09-18T21:41:30.000Z</time>
   </trkpt>
   <trkpt lat="-8.037416" lon="-34.892717">
    <ele>10.4</ele>
    <time>2019-09-18T21:41:31.000Z</time>
   </trkpt>
   <trkpt lat="-8.037407" lon="-34.892747">
    <ele>10.4</ele>
    <time>2019-09-18T21:41:32.000Z</time>
   </trkpt>
   <trkpt lat="-8.037398" lon="-34.892777">
    <ele>10.4</ele>
    <time>2019-09-18T21:41:33.000Z</time>
   </trkpt>
   <trkpt lat="-8.037387" lon="-34.892804">
    <ele>10.3</ele>
    <time>2019-09-18T21:41:34.000Z</time>
   </trkpt>
   <trkpt lat="-8.037358" lon="-34.892824">
    <ele>10</ele>
    <time>2019-09-18T21:41:36.000Z</time>
   </trkpt>
   <trkpt lat="-8.037313" lon="-34.892804">
    <ele>10</ele>
    <time>2019-09-18T21:41:38.000Z</time>
   </trkpt>
   <trkpt lat="-8.037284" lon="-34.892789">
    <ele>10</ele>
    <time>2019-09-18T21:41:39.000Z</time>
   </trkpt>
   <trkpt lat="-8.037258" lon="-34.892773">
    <ele>10</ele>
    <time>2019-09-18T21:41:40.000Z</time>
   </trkpt>
   <trkpt lat="-8.037232" lon="-34.892755">
    <ele>10</ele>
    <time>2019-09-18T21:41:42.000Z</time>
   </trkpt>
   <trkpt lat="-8.037202" lon="-34.892735">
    <ele>10</ele>
    <time>2019-09-18T21:41:44.000Z</time>
   </trkpt>
   <trkpt lat="-8.037175" lon="-34.89272">
    <ele>10</ele>
    <time>2019-09-18T21:41:46.000Z</time>
   </trkpt>
   <trkpt lat="-8.037147" lon="-34.892715">
    <ele>10</ele>
    <time>2019-09-18T21:41:47.000Z</time>
   </trkpt>
   <trkpt lat="-8.037117" lon="-34.892709">
    <ele>10</ele>
    <time>2019-09-18T21:41:48.000Z</time>
   </trkpt>
   <trkpt lat="-8.037089" lon="-34.8927">
    <ele>10</ele>
    <time>2019-09-18T21:41:49.000Z</time>
   </trkpt>
   <trkpt lat="-8.037049" lon="-34.892705">
    <ele>10</ele>
    <time>2019-09-18T21:41:50.000Z</time>
   </trkpt>
   <trkpt lat="-8.037001" lon="-34.892699">
    <ele>10</ele>
    <time>2019-09-18T21:41:52.000Z</time>
   </trkpt>
   <trkpt lat="-8.036956" lon="-34.892712">
    <ele>10</ele>
    <time>2019-09-18T21:41:54.000Z</time>
   </trkpt>
   <trkpt lat="-8.036924" lon="-34.892721">
    <ele>10</ele>
    <time>2019-09-18T21:41:55.000Z</time>
   </trkpt>
   <trkpt lat="-8.036894" lon="-34.892743">
    <ele>10</ele>
    <time>2019-09-18T21:41:57.000Z</time>
   </trkpt>
   <trkpt lat="-8.036873" lon="-34.892772">
    <ele>10</ele>
    <time>2019-09-18T21:41:59.000Z</time>
   </trkpt>
   <trkpt lat="-8.036863" lon="-34.892812">
    <ele>10</ele>
    <time>2019-09-18T21:42:01.000Z</time>
   </trkpt>
   <trkpt lat="-8.036858" lon="-34.892849">
    <ele>10</ele>
    <time>2019-09-18T21:42:03.000Z</time>
   </trkpt>
   <trkpt lat="-8.036829" lon="-34.892885">
    <ele>10</ele>
    <time>2019-09-18T21:42:05.000Z</time>
   </trkpt>
   <trkpt lat="-8.036797" lon="-34.892938">
    <ele>9.9</ele>
    <time>2019-09-18T21:42:08.000Z</time>
   </trkpt>
   <trkpt lat="-8.036769" lon="-34.892949">
    <ele>9.8</ele>
    <time>2019-09-18T21:42:10.000Z</time>
   </trkpt>
  </trkseg>
 </trk>
</gpx>
