<?xml version="1.0" encoding="UTF-8"?>
<gpx creator="StravaGPX" version="1.1" xmlns="http://www.topografix.com/GPX/1/1">
 <metadata>
  <time>2020-03-10T13:07:52Z</time>
 </metadata>
 <trk>
  <name>Morning Ride</name>
  <type>1</type>
  <trkseg>
   <trkpt lat="-8.037016" lon="-34.89275">
    <ele>8.3</ele>
    <time>2020-03-10T13:07:52.000Z</time>
   </trkpt>
   <trkpt lat="-8.037045" lon="-34.892768">
    <ele>8.4</ele>
    <time>2020-03-10T13:07:53.000Z</time>
   </trkpt>
   <trkpt lat="-8.037072" lon="-34.892771">
    <ele>8.5</ele>
    <time>2020-03-10T13:07:54.000Z</time>
   </trkpt>
   <trkpt lat="-8.037106" lon="-34.892787">
    <ele>8.7</ele>
    <time>2020-03-10T13:07:55.000Z</time>
   </trkpt>
   <trkpt lat="-8.037139" lon="-34.892767">
    <ele>8.8</ele>
    <time>2020-03-10T13:07:57.000Z</time>
   </trkpt>
   <trkpt lat="-8.037174" lon="-34.892788">
    <ele>9</ele>
    <time>2020-03-10T13:07:58.000Z</time>
   </trkpt>
   <trkpt lat="-8.037204" lon="-34.892803">
    <ele>9.2</ele>
    <time>2020-03-10T13:07:59.000Z</time>
   </trkpt>
   <trkpt lat="-8.037254" lon="-34.892807">
    <ele>9.4</ele>
    <time>2020-03-10T13:08:01.000Z</time>
   </trkpt>
   <trkpt lat="-8.0373" lon="-34.892781">
    <ele>9.8</ele>
    <time>2020-03-10T13:08:03.000Z</time>
   </trkpt>
   <trkpt lat="-8.037349" lon="-34.892749">
    <ele>9.7</ele>
    <time>2020-03-10T13:08:05.000Z</time>
   </trkpt>
   <trkpt lat="-8.037362" lon="-34.892714">
    <ele>9.6</ele>
    <time>2020-03-10T13:08:06.000Z</time>
   </trkpt>
   <trkpt lat="-8.037371" lon="-34.89268">
    <ele>9.6</ele>
    <time>2020-03-10T13:08:07.000Z</time>
   </trkpt>
   <trkpt lat="-8.037378" lon="-34.892649">
    <ele>9.5</ele>
    <time>2020-03-10T13:08:08.000Z</time>
   </trkpt>
   <trkpt lat="-8.037388" lon="-34.892613">
    <ele>9.4</ele>
    <time>2020-03-10T13:08:09.000Z</time>
   </trkpt>
   <trkpt lat="-8.037398" lon="-34.892578">
    <ele>9.4</ele>
    <time>2020-03-10T13:08:10.000Z</time>
   </trkpt>
   <trkpt lat="-8.037406" lon="-34.892545">
    <ele>9.3</ele>
    <time>2020-03-10T13:08:11.000Z</time>
   </trkpt>
   <trkpt lat="-8.037413" lon="-34.892494">
    <ele>9.2</ele>
    <time>2020-03-10T13:08:13.000Z</time>
   </trkpt>
   <trkpt lat="-8.037412" lon="-34.892459">
    <ele>9.2</ele>
    <time>2020-03-10T13:08:14.000Z</time>
   </trkpt>
   <trkpt lat="-8.037408" lon="-34.892396">
    <ele>9</ele>
    <time>2020-03-10T13:08:16.000Z</time>
   </trkpt>
   <trkpt lat="-8.037405" lon="-34.892357">
    <ele>9</ele>
    <time>2020-03-10T13:08:17.000Z</time>
   </trkpt>
   <trkpt lat="-8.037406" lon="-34.892321">
    <ele>8.9</ele>
    <time>2020-03-10T13:08:18.000Z</time>
   </trkpt>
   <trkpt lat="-8.037413" lon="-34.892279">
    <ele>8.8</ele>
    <time>2020-03-10T13:08:19.000Z</time>
   </trkpt>
   <trkpt lat="-8.037411" lon="-34.892239">
    <ele>8.7</ele>
    <time>2020-03-10T13:08:20.000Z</time>
   </trkpt>
   <trkpt lat="-8.03741" lon="-34.89219">
    <ele>8.7</ele>
    <time>2020-03-10T13:08:21.000Z</time>
   </trkpt>
   <trkpt lat="-8.037419" lon="-34.892145">
    <ele>8.6</ele>
    <time>2020-03-10T13:08:22.000Z</time>
   </trkpt>
   <trkpt lat="-8.037439" lon="-34.892106">
    <ele>8.5</ele>
    <time>2020-03-10T13:08:23.000Z</time>
   </trkpt>
   <trkpt lat="-8.037459" lon="-34.89207">
    <ele>8.8</ele>
    <time>2020-03-10T13:08:24.000Z</time>
   </trkpt>
   <trkpt lat="-8.037472" lon="-34.892036">
    <ele>9</ele>
    <time>2020-03-10T13:08:25.000Z</time>
   </trkpt>
   <trkpt lat="-8.037472" lon="-34.891987">
    <ele>9.3</ele>
    <time>2020-03-10T13:08:26.000Z</time>
   </trkpt>
   <trkpt lat="-8.037493" lon="-34.891948">
    <ele>9.5</ele>
    <time>2020-03-10T13:08:27.000Z</time>
   </trkpt>
   <trkpt lat="-8.037515" lon="-34.891909">
    <ele>9.8</ele>
    <time>2020-03-10T13:08:28.000Z</time>
   </trkpt>
   <trkpt lat="-8.037536" lon="-34.891871">
    <ele>10</ele>
    <time>2020-03-10T13:08:29.000Z</time>
   </trkpt>
   <trkpt lat="-8.037557" lon="-34.891825">
    <ele>10.2</ele>
    <time>2020-03-10T13:08:30.000Z</time>
   </trkpt>
   <trkpt lat="-8.037579" lon="-34.891787">
    <ele>10.4</ele>
    <time>2020-03-10T13:08:31.000Z</time>
   </trkpt>
   <trkpt lat="-8.037598" lon="-34.891744">
    <ele>10.6</ele>
    <time>2020-03-10T13:08:32.000Z</time>
   </trkpt>
   <trkpt lat="-8.037618" lon="-34.891713">
    <ele>10.7</ele>
    <time>2020-03-10T13:08:33.000Z</time>
   </trkpt>
   <trkpt lat="-8.037641" lon="-34.891679">
    <ele>10.9</ele>
    <time>2020-03-10T13:08:34.000Z</time>
   </trkpt>
   <trkpt lat="-8.037663" lon="-34.89165">
    <ele>11.1</ele>
    <time>2020-03-10T13:08:35.000Z</time>
   </trkpt>
   <trkpt lat="-8.0377" lon="-34.89161">
    <ele>11.4</ele>
    <time>2020-03-10T13:08:36.000Z</time>
   </trkpt>
   <trkpt lat="-8.037737" lon="-34.891576">
    <ele>12.1</ele>
    <time>2020-03-10T13:08:37.000Z</time>
   </trkpt>
   <trkpt lat="-8.037773" lon="-34.891573">
    <ele>12.2</ele>
    <time>2020-03-10T13:08:38.000Z</time>
   </trkpt>
   <trkpt lat="-8.037808" lon="-34.891584">
    <ele>12.2</ele>
    <time>2020-03-10T13:08:39.000Z</time>
   </trkpt>
   <trkpt lat="-8.037845" lon="-34.891604">
    <ele>12.3</ele>
    <time>2020-03-10T13:08:40.000Z</time>
   </trkpt>
   <trkpt lat="-8.037888" lon="-34.891615">
    <ele>12.4</ele>
    <time>2020-03-10T13:08:41.000Z</time>
   </trkpt>
   <trkpt lat="-8.037933" lon="-34.891628">
    <ele>12.5</ele>
    <time>2020-03-10T13:08:42.000Z</time>
   </trkpt>
   <trkpt lat="-8.037964" lon="-34.891648">
    <ele>12.5</ele>
    <time>2020-03-10T13:08:43.000Z</time>
   </trkpt>
   <trkpt lat="-8.037993" lon="-34.891675">
    <ele>12.6</ele>
    <time>2020-03-10T13:08:44.000Z</time>
   </trkpt>
   <trkpt lat="-8.038021" lon="-34.891695">
    <ele>12.7</ele>
    <time>2020-03-10T13:08:45.000Z</time>
   </trkpt>
   <trkpt lat="-8.038051" lon="-34.891714">
    <ele>12.8</ele>
    <time>2020-03-10T13:08:46.000Z</time>
   </trkpt>
   <trkpt lat="-8.038069" lon="-34.891738">
    <ele>12.9</ele>
    <time>2020-03-10T13:08:47.000Z</time>
   </trkpt>
   <trkpt lat="-8.03809" lon="-34.891762">
    <ele>13</ele>
    <time>2020-03-10T13:08:48.000Z</time>
   </trkpt>
   <trkpt lat="-8.038123" lon="-34.891789">
    <ele>13.1</ele>
    <time>2020-03-10T13:08:50.000Z</time>
   </trkpt>
   <trkpt lat="-8.03817" lon="-34.891823">
    <ele>13.1</ele>
    <time>2020-03-10T13:08:52.000Z</time>
   </trkpt>
   <trkpt lat="-8.038202" lon="-34.89185">
    <ele>13</ele>
    <time>2020-03-10T13:08:53.000Z</time>
   </trkpt>
   <trkpt lat="-8.038235" lon="-34.891865">
    <ele>13</ele>
    <time>2020-03-10T13:08:54.000Z</time>
   </trkpt>
   <trkpt lat="-8.038275" lon="-34.891887">
    <ele>12.8</ele>
    <time>2020-03-10T13:08:56.000Z</time>
   </trkpt>
   <trkpt lat="-8.038315" lon="-34.891899">
    <ele>12.7</ele>
    <time>2020-03-10T13:08:58.000Z</time>
   </trkpt>
   <trkpt lat="-8.038367" lon="-34.891921">
    <ele>12.6</ele>
    <time>2020-03-10T13:09:00.000Z</time>
   </trkpt>
   <trkpt lat="-8.038406" lon="-34.891947">
    <ele>12.6</ele>
    <time>2020-03-10T13:09:01.000Z</time>
   </trkpt>
   <trkpt lat="-8.038439" lon="-34.891977">
    <ele>12.6</ele>
    <time>2020-03-10T13:09:03.000Z</time>
   </trkpt>
   <trkpt lat="-8.038469" lon="-34.892007">
    <ele>12.6</ele>
    <time>2020-03-10T13:09:05.000Z</time>
   </trkpt>
   <trkpt lat="-8.038534" lon="-34.892026">
    <ele>12.5</ele>
    <time>2020-03-10T13:09:11.000Z</time>
   </trkpt>
   <trkpt lat="-8.038578" lon="-34.892035">
    <ele>12.5</ele>
    <time>2020-03-10T13:09:20.000Z</time>
   </trkpt>
   <trkpt lat="-8.038621" lon="-34.892044">
    <ele>12.4</ele>
    <time>2020-03-10T13:09:21.000Z</time>
   </trkpt>
   <trkpt lat="-8.038661" lon="-34.892059">
    <ele>12.4</ele>
    <time>2020-03-10T13:09:22.000Z</time>
   </trkpt>
   <trkpt lat="-8.038707" lon="-34.892079">
    <ele>12.4</ele>
    <time>2020-03-10T13:09:23.000Z</time>
   </trkpt>
   <trkpt lat="-8.038752" lon="-34.892099">
    <ele>12.7</ele>
    <time>2020-03-10T13:09:24.000Z</time>
   </trkpt>
   <trkpt lat="-8.0388" lon="-34.892123">
    <ele>12.9</ele>
    <time>2020-03-10T13:09:25.000Z</time>
   </trkpt>
   <trkpt lat="-8.038864" lon="-34.892129">
    <ele>13.1</ele>
    <time>2020-03-10T13:09:26.000Z</time>
   </trkpt>
   <trkpt lat="-8.038926" lon="-34.892137">
    <ele>13.3</ele>
    <time>2020-03-10T13:09:27.000Z</time>
   </trkpt>
   <trkpt lat="-8.038979" lon="-34.892148">
    <ele>12.9</ele>
    <time>2020-03-10T13:09:28.000Z</time>
   </trkpt>
   <trkpt lat="-8.039035" lon="-34.892153">
    <ele>12.4</ele>
    <time>2020-03-10T13:09:29.000Z</time>
   </trkpt>
   <trkpt lat="-8.039098" lon="-34.892163">
    <ele>12</ele>
    <time>2020-03-10T13:09:30.000Z</time>
   </trkpt>
   <trkpt lat="-8.03916" lon="-34.892175">
    <ele>12</ele>
    <time>2020-03-10T13:09:31.000Z</time>
   </trkpt>
   <trkpt lat="-8.039219" lon="-34.892179">
    <ele>11.7</ele>
    <time>2020-03-10T13:09:32.000Z</time>
   </trkpt>
   <trkpt lat="-8.039268" lon="-34.892183">
    <ele>11.4</ele>
    <time>2020-03-10T13:09:33.000Z</time>
   </trkpt>
   <trkpt lat="-8.039315" lon="-34.892191">
    <ele>11.5</ele>
    <time>2020-03-10T13:09:34.000Z</time>
   </trkpt>
   <trkpt lat="-8.039368" lon="-34.892195">
    <ele>11.5</ele>
    <time>2020-03-10T13:09:35.000Z</time>
   </trkpt>
   <trkpt lat="-8.039434" lon="-34.892207">
    <ele>11.7</ele>
    <time>2020-03-10T13:09:36.000Z</time>
   </trkpt>
   <trkpt lat="-8.039508" lon="-34.892228">
    <ele>12</ele>
    <time>2020-03-10T13:09:37.000Z</time>
   </trkpt>
   <trkpt lat="-8.039579" lon="-34.892235">
    <ele>12.2</ele>
    <time>2020-03-10T13:09:38.000Z</time>
   </trkpt>
   <trkpt lat="-8.039648" lon="-34.89224">
    <ele>12.3</ele>
    <time>2020-03-10T13:09:39.000Z</time>
   </trkpt>
   <trkpt lat="-8.03972" lon="-34.892251">
    <ele>12.7</ele>
    <time>2020-03-10T13:09:40.000Z</time>
   </trkpt>
   <trkpt lat="-8.039786" lon="-34.892263">
    <ele>13.1</ele>
    <time>2020-03-10T13:09:41.000Z</time>
   </trkpt>
   <trkpt lat="-8.039838" lon="-34.8923">
    <ele>13.4</ele>
    <time>2020-03-10T13:09:42.000Z</time>
   </trkpt>
   <trkpt lat="-8.039883" lon="-34.892341">
    <ele>13.8</ele>
    <time>2020-03-10T13:09:43.000Z</time>
   </trkpt>
   <trkpt lat="-8.039927" lon="-34.892381">
    <ele>14</ele>
    <time>2020-03-10T13:09:44.000Z</time>
   </trkpt>
   <trkpt lat="-8.039968" lon="-34.892419">
    <ele>14.1</ele>
    <time>2020-03-10T13:09:45.000Z</time>
   </trkpt>
   <trkpt lat="-8.040011" lon="-34.89246">
    <ele>14.3</ele>
    <time>2020-03-10T13:09:46.000Z</time>
   </trkpt>
   <trkpt lat="-8.040061" lon="-34.892488">
    <ele>14.5</ele>
    <time>2020-03-10T13:09:47.000Z</time>
   </trkpt>
   <trkpt lat="-8.040112" lon="-34.892526">
    <ele>14.8</ele>
    <time>2020-03-10T13:09:48.000Z</time>
   </trkpt>
   <trkpt lat="-8.040156" lon="-34.892575">
    <ele>14.9</ele>
    <time>2020-03-10T13:09:49.000Z</time>
   </trkpt>
   <trkpt lat="-8.040205" lon="-34.892618">
    <ele>15.1</ele>
    <time>2020-03-10T13:09:50.000Z</time>
   </trkpt>
   <trkpt lat="-8.04024" lon="-34.892669">
    <ele>15.1</ele>
    <time>2020-03-10T13:09:51.000Z</time>
   </trkpt>
   <trkpt lat="-8.040284" lon="-34.892712">
    <ele>15.2</ele>
    <time>2020-03-10T13:09:52.000Z</time>
   </trkpt>
   <trkpt lat="-8.040334" lon="-34.892752">
    <ele>15.2</ele>
    <time>2020-03-10T13:09:53.000Z</time>
   </trkpt>
   <trkpt lat="-8.040383" lon="-34.892799">
    <ele>15.3</ele>
    <time>2020-03-10T13:09:54.000Z</time>
   </trkpt>
   <trkpt lat="-8.040442" lon="-34.892845">
    <ele>15.4</ele>
    <time>2020-03-10T13:09:55.000Z</time>
   </trkpt>
   <trkpt lat="-8.040489" lon="-34.892887">
    <ele>15.5</ele>
    <time>2020-03-10T13:09:56.000Z</time>
   </trkpt>
   <trkpt lat="-8.040531" lon="-34.892935">
    <ele>15.6</ele>
    <time>2020-03-10T13:09:57.000Z</time>
   </trkpt>
   <trkpt lat="-8.040588" lon="-34.892979">
    <ele>15.8</ele>
    <time>2020-03-10T13:09:58.000Z</time>
   </trkpt>
   <trkpt lat="-8.040634" lon="-34.893014">
    <ele>15.9</ele>
    <time>2020-03-10T13:09:59.000Z</time>
   </trkpt>
   <trkpt lat="-8.040681" lon="-34.893052">
    <ele>16</ele>
    <time>2020-03-10T13:10:00.000Z</time>
   </trkpt>
   <trkpt lat="-8.040725" lon="-34.893094">
    <ele>16.1</ele>
    <time>2020-03-10T13:10:01.000Z</time>
   </trkpt>
   <trkpt lat="-8.040773" lon="-34.893133">
    <ele>16.2</ele>
    <time>2020-03-10T13:10:02.000Z</time>
   </trkpt>
   <trkpt lat="-8.04083" lon="-34.893181">
    <ele>16.3</ele>
    <time>2020-03-10T13:10:03.000Z</time>
   </trkpt>
   <trkpt lat="-8.040881" lon="-34.893229">
    <ele>16.4</ele>
    <time>2020-03-10T13:10:04.000Z</time>
   </trkpt>
   <trkpt lat="-8.040937" lon="-34.893282">
    <ele>16.6</ele>
    <time>2020-03-10T13:10:05.000Z</time>
   </trkpt>
   <trkpt lat="-8.040991" lon="-34.893341">
    <ele>16.8</ele>
    <time>2020-03-10T13:10:06.000Z</time>
   </trkpt>
   <trkpt lat="-8.041033" lon="-34.893388">
    <ele>17</ele>
    <time>2020-03-10T13:10:07.000Z</time>
   </trkpt>
   <trkpt lat="-8.041073" lon="-34.893427">
    <ele>17.1</ele>
    <time>2020-03-10T13:10:08.000Z</time>
   </trkpt>
   <trkpt lat="-8.041118" lon="-34.893461">
    <ele>17.3</ele>
    <time>2020-03-10T13:10:09.000Z</time>
   </trkpt>
   <trkpt lat="-8.04117" lon="-34.893491">
    <ele>17.5</ele>
    <time>2020-03-10T13:10:10.000Z</time>
   </trkpt>
   <trkpt lat="-8.041212" lon="-34.893533">
    <ele>17.7</ele>
    <time>2020-03-10T13:10:11.000Z</time>
   </trkpt>
   <trkpt lat="-8.041247" lon="-34.893572">
    <ele>17.8</ele>
    <time>2020-03-10T13:10:12.000Z</time>
   </trkpt>
   <trkpt lat="-8.041286" lon="-34.893609">
    <ele>17.9</ele>
    <time>2020-03-10T13:10:13.000Z</time>
   </trkpt>
   <trkpt lat="-8.041321" lon="-34.893653">
    <ele>18</ele>
    <time>2020-03-10T13:10:14.000Z</time>
   </trkpt>
   <trkpt lat="-8.04134" lon="-34.89369">
    <ele>18.1</ele>
    <time>2020-03-10T13:10:15.000Z</time>
   </trkpt>
   <trkpt lat="-8.041357" lon="-34.893718">
    <ele>18.1</ele>
    <time>2020-03-10T13:10:16.000Z</time>
   </trkpt>
   <trkpt lat="-8.041384" lon="-34.893738">
    <ele>18.1</ele>
    <time>2020-03-10T13:10:19.000Z</time>
   </trkpt>
   <trkpt lat="-8.041384" lon="-34.893735">
    <ele>18.1</ele>
    <time>2020-03-10T13:10:21.000Z</time>
   </trkpt>
   <trkpt lat="-8.0414" lon="-34.893752">
    <ele>18</ele>
    <time>2020-03-10T13:10:24.000Z</time>
   </trkpt>
   <trkpt lat="-8.041437" lon="-34.893714">
    <ele>17.9</ele>
    <time>2020-03-10T13:10:26.000Z</time>
   </trkpt>
   <trkpt lat="-8.041466" lon="-34.893677">
    <ele>17.8</ele>
    <time>2020-03-10T13:10:28.000Z</time>
   </trkpt>
   <trkpt lat="-8.04149" lon="-34.893627">
    <ele>17.6</ele>
    <time>2020-03-10T13:10:30.000Z</time>
   </trkpt>
   <trkpt lat="-8.041511" lon="-34.893597">
    <ele>17.6</ele>
    <time>2020-03-10T13:10:31.000Z</time>
   </trkpt>
   <trkpt lat="-8.041535" lon="-34.89357">
    <ele>17.5</ele>
    <time>2020-03-10T13:10:33.000Z</time>
   </trkpt>
   <trkpt lat="-8.041572" lon="-34.893555">
    <ele>17.4</ele>
    <time>2020-03-10T13:10:35.000Z</time>
   </trkpt>
   <trkpt lat="-8.041619" lon="-34.893524">
    <ele>17.3</ele>
    <time>2020-03-10T13:10:37.000Z</time>
   </trkpt>
   <trkpt lat="-8.041636" lon="-34.893502">
    <ele>17.3</ele>
    <time>2020-03-10T13:10:38.000Z</time>
   </trkpt>
   <trkpt lat="-8.041667" lon="-34.893455">
    <ele>17.2</ele>
    <time>2020-03-10T13:10:40.000Z</time>
   </trkpt>
   <trkpt lat="-8.041689" lon="-34.893409">
    <ele>17.2</ele>
    <time>2020-03-10T13:10:41.000Z</time>
   </trkpt>
   <trkpt lat="-8.041712" lon="-34.893358">
    <ele>17.2</ele>
    <time>2020-03-10T13:10:42.000Z</time>
   </trkpt>
   <trkpt lat="-8.041764" lon="-34.8933">
    <ele>17.1</ele>
    <time>2020-03-10T13:10:43.000Z</time>
   </trkpt>
   <trkpt lat="-8.041811" lon="-34.893258">
    <ele>17.1</ele>
    <time>2020-03-10T13:10:44.000Z</time>
   </trkpt>
   <trkpt lat="-8.041865" lon="-34.893224">
    <ele>17.1</ele>
    <time>2020-03-10T13:10:45.000Z</time>
   </trkpt>
   <trkpt lat="-8.041905" lon="-34.893197">
    <ele>17.1</ele>
    <time>2020-03-10T13:10:46.000Z</time>
   </trkpt>
   <trkpt lat="-8.041937" lon="-34.893168">
    <ele>17.1</ele>
    <time>2020-03-10T13:10:47.000Z</time>
   </trkpt>
   <trkpt lat="-8.04198" lon="-34.89313">
    <ele>17.1</ele>
    <time>2020-03-10T13:10:48.000Z</time>
   </trkpt>
   <trkpt lat="-8.041992" lon="-34.893092">
    <ele>17.1</ele>
    <time>2020-03-10T13:10:49.000Z</time>
   </trkpt>
   <trkpt lat="-8.042019" lon="-34.893048">
    <ele>17</ele>
    <time>2020-03-10T13:10:50.000Z</time>
   </trkpt>
   <trkpt lat="-8.042048" lon="-34.892999">
    <ele>17</ele>
    <time>2020-03-10T13:10:51.000Z</time>
   </trkpt>
   <trkpt lat="-8.042062" lon="-34.892967">
    <ele>17</ele>
    <time>2020-03-10T13:10:52.000Z</time>
   </trkpt>
   <trkpt lat="-8.042097" lon="-34.892917">
    <ele>17</ele>
    <time>2020-03-10T13:10:54.000Z</time>
   </trkpt>
   <trkpt lat="-8.042114" lon="-34.89289">
    <ele>17</ele>
    <time>2020-03-10T13:10:55.000Z</time>
   </trkpt>
   <trkpt lat="-8.042135" lon="-34.892848">
    <ele>17</ele>
    <time>2020-03-10T13:10:56.000Z</time>
   </trkpt>
   <trkpt lat="-8.042151" lon="-34.892823">
    <ele>17</ele>
    <time>2020-03-10T13:10:57.000Z</time>
   </trkpt>
   <trkpt lat="-8.042167" lon="-34.892799">
    <ele>17</ele>
    <time>2020-03-10T13:10:58.000Z</time>
   </trkpt>
   <trkpt lat="-8.042184" lon="-34.892773">
    <ele>17</ele>
    <time>2020-03-10T13:10:59.000Z</time>
   </trkpt>
   <trkpt lat="-8.042207" lon="-34.892745">
    <ele>17</ele>
    <time>2020-03-10T13:11:01.000Z</time>
   </trkpt>
   <trkpt lat="-8.042235" lon="-34.892714">
    <ele>17</ele>
    <time>2020-03-10T13:11:04.000Z</time>
   </trkpt>
   <trkpt lat="-8.042243" lon="-34.892674">
    <ele>17</ele>
    <time>2020-03-10T13:11:07.000Z</time>
   </trkpt>
   <trkpt lat="-8.042264" lon="-34.892653">
    <ele>17</ele>
    <time>2020-03-10T13:11:08.000Z</time>
   </trkpt>
   <trkpt lat="-8.042289" lon="-34.892624">
    <ele>17</ele>
    <time>2020-03-10T13:11:09.000Z</time>
   </trkpt>
   <trkpt lat="-8.042306" lon="-34.892604">
    <ele>17</ele>
    <time>2020-03-10T13:11:10.000Z</time>
   </trkpt>
   <trkpt lat="-8.042308" lon="-34.892607">
    <ele>17</ele>
    <time>2020-03-10T13:11:12.000Z</time>
   </trkpt>
   <trkpt lat="-8.042426" lon="-34.892463">
    <ele>16.6</ele>
    <time>2020-03-10T13:11:23.000Z</time>
   </trkpt>
   <trkpt lat="-8.042448" lon="-34.892443">
    <ele>16.5</ele>
    <time>2020-03-10T13:11:24.000Z</time>
   </trkpt>
   <trkpt lat="-8.042485" lon="-34.892412">
    <ele>16.3</ele>
    <time>2020-03-10T13:11:25.000Z</time>
   </trkpt>
   <trkpt lat="-8.042539" lon="-34.89237">
    <ele>16.1</ele>
    <time>2020-03-10T13:11:26.000Z</time>
   </trkpt>
   <trkpt lat="-8.042593" lon="-34.892331">
    <ele>15.8</ele>
    <time>2020-03-10T13:11:27.000Z</time>
   </trkpt>
   <trkpt lat="-8.042628" lon="-34.892297">
    <ele>15.5</ele>
    <time>2020-03-10T13:11:28.000Z</time>
   </trkpt>
   <trkpt lat="-8.042654" lon="-34.892269">
    <ele>15.4</ele>
    <time>2020-03-10T13:11:29.000Z</time>
   </trkpt>
   <trkpt lat="-8.042675" lon="-34.892246">
    <ele>15.3</ele>
    <time>2020-03-10T13:11:30.000Z</time>
   </trkpt>
   <trkpt lat="-8.042696" lon="-34.892224">
    <ele>15.2</ele>
    <time>2020-03-10T13:11:31.000Z</time>
   </trkpt>
   <trkpt lat="-8.042717" lon="-34.892176">
    <ele>15.1</ele>
    <time>2020-03-10T13:11:32.000Z</time>
   </trkpt>
   <trkpt lat="-8.042755" lon="-34.892134">
    <ele>15</ele>
    <time>2020-03-10T13:11:33.000Z</time>
   </trkpt>
   <trkpt lat="-8.042791" lon="-34.892094">
    <ele>14.9</ele>
    <time>2020-03-10T13:11:34.000Z</time>
   </trkpt>
   <trkpt lat="-8.042824" lon="-34.89205">
    <ele>14.8</ele>
    <time>2020-03-10T13:11:35.000Z</time>
   </trkpt>
   <trkpt lat="-8.042865" lon="-34.891982">
    <ele>14.8</ele>
    <time>2020-03-10T13:11:36.000Z</time>
   </trkpt>
   <trkpt lat="-8.042898" lon="-34.891933">
    <ele>14.7</ele>
    <time>2020-03-10T13:11:37.000Z</time>
   </trkpt>
   <trkpt lat="-8.042934" lon="-34.891885">
    <ele>14.7</ele>
    <time>2020-03-10T13:11:38.000Z</time>
   </trkpt>
   <trkpt lat="-8.042968" lon="-34.891836">
    <ele>14.7</ele>
    <time>2020-03-10T13:11:39.000Z</time>
   </trkpt>
   <trkpt lat="-8.042996" lon="-34.89179">
    <ele>14.6</ele>
    <time>2020-03-10T13:11:40.000Z</time>
   </trkpt>
   <trkpt lat="-8.043026" lon="-34.89175">
    <ele>14.6</ele>
    <time>2020-03-10T13:11:41.000Z</time>
   </trkpt>
   <trkpt lat="-8.043066" lon="-34.891698">
    <ele>14.5</ele>
    <time>2020-03-10T13:11:42.000Z</time>
   </trkpt>
   <trkpt lat="-8.043117" lon="-34.891682">
    <ele>14.5</ele>
    <time>2020-03-10T13:11:43.000Z</time>
   </trkpt>
   <trkpt lat="-8.043168" lon="-34.891631">
    <ele>14.4</ele>
    <time>2020-03-10T13:11:44.000Z</time>
   </trkpt>
   <trkpt lat="-8.043242" lon="-34.891561">
    <ele>14.3</ele>
    <time>2020-03-10T13:11:45.000Z</time>
   </trkpt>
   <trkpt lat="-8.043279" lon="-34.891518">
    <ele>14.2</ele>
    <time>2020-03-10T13:11:46.000Z</time>
   </trkpt>
   <trkpt lat="-8.043327" lon="-34.891462">
    <ele>14</ele>
    <time>2020-03-10T13:11:47.000Z</time>
   </trkpt>
   <trkpt lat="-8.043374" lon="-34.891409">
    <ele>13.9</ele>
    <time>2020-03-10T13:11:48.000Z</time>
   </trkpt>
   <trkpt lat="-8.043432" lon="-34.891349">
    <ele>13.8</ele>
    <time>2020-03-10T13:11:49.000Z</time>
   </trkpt>
   <trkpt lat="-8.043504" lon="-34.891306">
    <ele>13.7</ele>
    <time>2020-03-10T13:11:50.000Z</time>
   </trkpt>
   <trkpt lat="-8.043566" lon="-34.891252">
    <ele>13.6</ele>
    <time>2020-03-10T13:11:51.000Z</time>
   </trkpt>
   <trkpt lat="-8.043622" lon="-34.891198">
    <ele>13.6</ele>
    <time>2020-03-10T13:11:52.000Z</time>
   </trkpt>
   <trkpt lat="-8.04368" lon="-34.891142">
    <ele>13.6</ele>
    <time>2020-03-10T13:11:53.000Z</time>
   </trkpt>
   <trkpt lat="-8.043716" lon="-34.891101">
    <ele>13.5</ele>
    <time>2020-03-10T13:11:54.000Z</time>
   </trkpt>
   <trkpt lat="-8.043742" lon="-34.891051">
    <ele>13.5</ele>
    <time>2020-03-10T13:11:55.000Z</time>
   </trkpt>
   <trkpt lat="-8.043767" lon="-34.891004">
    <ele>13.5</ele>
    <time>2020-03-10T13:11:56.000Z</time>
   </trkpt>
   <trkpt lat="-8.043811" lon="-34.890949">
    <ele>13.4</ele>
    <time>2020-03-10T13:11:57.000Z</time>
   </trkpt>
   <trkpt lat="-8.043855" lon="-34.890907">
    <ele>13.4</ele>
    <time>2020-03-10T13:11:58.000Z</time>
   </trkpt>
   <trkpt lat="-8.043908" lon="-34.890845">
    <ele>13.2</ele>
    <time>2020-03-10T13:11:59.000Z</time>
   </trkpt>
   <trkpt lat="-8.043954" lon="-34.89079">
    <ele>12.9</ele>
    <time>2020-03-10T13:12:00.000Z</time>
   </trkpt>
   <trkpt lat="-8.043993" lon="-34.890744">
    <ele>12.8</ele>
    <time>2020-03-10T13:12:01.000Z</time>
   </trkpt>
   <trkpt lat="-8.044029" lon="-34.890691">
    <ele>12.6</ele>
    <time>2020-03-10T13:12:02.000Z</time>
   </trkpt>
   <trkpt lat="-8.044071" lon="-34.890657">
    <ele>12.5</ele>
    <time>2020-03-10T13:12:03.000Z</time>
   </trkpt>
   <trkpt lat="-8.04412" lon="-34.890607">
    <ele>12.2</ele>
    <time>2020-03-10T13:12:04.000Z</time>
   </trkpt>
   <trkpt lat="-8.044175" lon="-34.890541">
    <ele>11.9</ele>
    <time>2020-03-10T13:12:05.000Z</time>
   </trkpt>
   <trkpt lat="-8.044223" lon="-34.890483">
    <ele>11.6</ele>
    <time>2020-03-10T13:12:06.000Z</time>
   </trkpt>
   <trkpt lat="-8.044279" lon="-34.890432">
    <ele>11.2</ele>
    <time>2020-03-10T13:12:07.000Z</time>
   </trkpt>
   <trkpt lat="-8.044336" lon="-34.890387">
    <ele>10.7</ele>
    <time>2020-03-10T13:12:08.000Z</time>
   </trkpt>
   <trkpt lat="-8.044398" lon="-34.890335">
    <ele>10.2</ele>
    <time>2020-03-10T13:12:09.000Z</time>
   </trkpt>
   <trkpt lat="-8.044449" lon="-34.890283">
    <ele>9.7</ele>
    <time>2020-03-10T13:12:10.000Z</time>
   </trkpt>
   <trkpt lat="-8.044512" lon="-34.890233">
    <ele>9.2</ele>
    <time>2020-03-10T13:12:11.000Z</time>
   </trkpt>
   <trkpt lat="-8.044574" lon="-34.890184">
    <ele>8.6</ele>
    <time>2020-03-10T13:12:12.000Z</time>
   </trkpt>
   <trkpt lat="-8.044639" lon="-34.890163">
    <ele>8.9</ele>
    <time>2020-03-10T13:12:13.000Z</time>
   </trkpt>
   <trkpt lat="-8.044703" lon="-34.89016">
    <ele>9</ele>
    <time>2020-03-10T13:12:14.000Z</time>
   </trkpt>
   <trkpt lat="-8.044754" lon="-34.890179">
    <ele>9.2</ele>
    <time>2020-03-10T13:12:15.000Z</time>
   </trkpt>
   <trkpt lat="-8.044805" lon="-34.890204">
    <ele>9.4</ele>
    <time>2020-03-10T13:12:16.000Z</time>
   </trkpt>
   <trkpt lat="-8.04487" lon="-34.890254">
    <ele>9.5</ele>
    <time>2020-03-10T13:12:17.000Z</time>
   </trkpt>
   <trkpt lat="-8.044928" lon="-34.890318">
    <ele>9.7</ele>
    <time>2020-03-10T13:12:18.000Z</time>
   </trkpt>
   <trkpt lat="-8.044969" lon="-34.890377">
    <ele>9.9</ele>
    <time>2020-03-10T13:12:19.000Z</time>
   </trkpt>
   <trkpt lat="-8.045016" lon="-34.890417">
    <ele>10</ele>
    <time>2020-03-10T13:12:20.000Z</time>
   </trkpt>
   <trkpt lat="-8.045068" lon="-34.890466">
    <ele>10.2</ele>
    <time>2020-03-10T13:12:21.000Z</time>
   </trkpt>
   <trkpt lat="-8.045122" lon="-34.890504">
    <ele>10.3</ele>
    <time>2020-03-10T13:12:22.000Z</time>
   </trkpt>
   <trkpt lat="-8.045168" lon="-34.890546">
    <ele>10.5</ele>
    <time>2020-03-10T13:12:23.000Z</time>
   </trkpt>
   <trkpt lat="-8.04522" lon="-34.890587">
    <ele>10.6</ele>
    <time>2020-03-10T13:12:24.000Z</time>
   </trkpt>
   <trkpt lat="-8.04527" lon="-34.890638">
    <ele>10.7</ele>
    <time>2020-03-10T13:12:25.000Z</time>
   </trkpt>
   <trkpt lat="-8.045319" lon="-34.890688">
    <ele>10.7</ele>
    <time>2020-03-10T13:12:26.000Z</time>
   </trkpt>
   <trkpt lat="-8.045368" lon="-34.890727">
    <ele>10.8</ele>
    <time>2020-03-10T13:12:27.000Z</time>
   </trkpt>
   <trkpt lat="-8.045414" lon="-34.890771">
    <ele>10.8</ele>
    <time>2020-03-10T13:12:28.000Z</time>
   </trkpt>
   <trkpt lat="-8.04547" lon="-34.890815">
    <ele>11.1</ele>
    <time>2020-03-10T13:12:29.000Z</time>
   </trkpt>
   <trkpt lat="-8.045516" lon="-34.890851">
    <ele>11.4</ele>
    <time>2020-03-10T13:12:30.000Z</time>
   </trkpt>
   <trkpt lat="-8.045569" lon="-34.890909">
    <ele>11.7</ele>
    <time>2020-03-10T13:12:31.000Z</time>
   </trkpt>
   <trkpt lat="-8.04562" lon="-34.890951">
    <ele>12</ele>
    <time>2020-03-10T13:12:32.000Z</time>
   </trkpt>
   <trkpt lat="-8.045676" lon="-34.890993">
    <ele>12.3</ele>
    <time>2020-03-10T13:12:33.000Z</time>
   </trkpt>
   <trkpt lat="-8.045732" lon="-34.891037">
    <ele>12.6</ele>
    <time>2020-03-10T13:12:34.000Z</time>
   </trkpt>
   <trkpt lat="-8.045798" lon="-34.891071">
    <ele>12.8</ele>
    <time>2020-03-10T13:12:35.000Z</time>
   </trkpt>
   <trkpt lat="-8.045847" lon="-34.8911">
    <ele>13</ele>
    <time>2020-03-10T13:12:36.000Z</time>
   </trkpt>
   <trkpt lat="-8.045897" lon="-34.891143">
    <ele>13.3</ele>
    <time>2020-03-10T13:12:37.000Z</time>
   </trkpt>
   <trkpt lat="-8.045947" lon="-34.891177">
    <ele>13.5</ele>
    <time>2020-03-10T13:12:38.000Z</time>
   </trkpt>
   <trkpt lat="-8.045992" lon="-34.891207">
    <ele>13.7</ele>
    <time>2020-03-10T13:12:39.000Z</time>
   </trkpt>
   <trkpt lat="-8.046026" lon="-34.891241">
    <ele>13.9</ele>
    <time>2020-03-10T13:12:40.000Z</time>
   </trkpt>
   <trkpt lat="-8.046077" lon="-34.891268">
    <ele>15.7</ele>
    <time>2020-03-10T13:12:41.000Z</time>
   </trkpt>
   <trkpt lat="-8.046128" lon="-34.891304">
    <ele>16.5</ele>
    <time>2020-03-10T13:12:42.000Z</time>
   </trkpt>
   <trkpt lat="-8.046173" lon="-34.891345">
    <ele>17.3</ele>
    <time>2020-03-10T13:12:43.000Z</time>
   </trkpt>
   <trkpt lat="-8.04622" lon="-34.891378">
    <ele>17.8</ele>
    <time>2020-03-10T13:12:44.000Z</time>
   </trkpt>
   <trkpt lat="-8.046268" lon="-34.891408">
    <ele>18.1</ele>
    <time>2020-03-10T13:12:45.000Z</time>
   </trkpt>
   <trkpt lat="-8.046307" lon="-34.891441">
    <ele>18.2</ele>
    <time>2020-03-10T13:12:46.000Z</time>
   </trkpt>
   <trkpt lat="-8.046362" lon="-34.891475">
    <ele>18.3</ele>
    <time>2020-03-10T13:12:47.000Z</time>
   </trkpt>
   <trkpt lat="-8.046409" lon="-34.891512">
    <ele>18.4</ele>
    <time>2020-03-10T13:12:48.000Z</time>
   </trkpt>
   <trkpt lat="-8.046456" lon="-34.89155">
    <ele>18.5</ele>
    <time>2020-03-10T13:12:49.000Z</time>
   </trkpt>
   <trkpt lat="-8.046488" lon="-34.891605">
    <ele>18.6</ele>
    <time>2020-03-10T13:12:50.000Z</time>
   </trkpt>
   <trkpt lat="-8.046528" lon="-34.891638">
    <ele>19.1</ele>
    <time>2020-03-10T13:12:51.000Z</time>
   </trkpt>
   <trkpt lat="-8.046563" lon="-34.891665">
    <ele>19.5</ele>
    <time>2020-03-10T13:12:52.000Z</time>
   </trkpt>
   <trkpt lat="-8.046607" lon="-34.891683">
    <ele>20</ele>
    <time>2020-03-10T13:12:53.000Z</time>
   </trkpt>
   <trkpt lat="-8.04666" lon="-34.891718">
    <ele>20.6</ele>
    <time>2020-03-10T13:12:54.000Z</time>
   </trkpt>
   <trkpt lat="-8.046714" lon="-34.891733">
    <ele>21.2</ele>
    <time>2020-03-10T13:12:56.000Z</time>
   </trkpt>
   <trkpt lat="-8.046751" lon="-34.891749">
    <ele>21.6</ele>
    <time>2020-03-10T13:12:57.000Z</time>
   </trkpt>
   <trkpt lat="-8.046781" lon="-34.89177">
    <ele>21.9</ele>
    <time>2020-03-10T13:12:58.000Z</time>
   </trkpt>
   <trkpt lat="-8.046809" lon="-34.891786">
    <ele>22.2</ele>
    <time>2020-03-10T13:12:59.000Z</time>
   </trkpt>
   <trkpt lat="-8.046831" lon="-34.891804">
    <ele>22.5</ele>
    <time>2020-03-10T13:13:00.000Z</time>
   </trkpt>
   <trkpt lat="-8.046855" lon="-34.891839">
    <ele>22.8</ele>
    <time>2020-03-10T13:13:01.000Z</time>
   </trkpt>
   <trkpt lat="-8.04688" lon="-34.891867">
    <ele>22.9</ele>
    <time>2020-03-10T13:13:02.000Z</time>
   </trkpt>
   <trkpt lat="-8.046935" lon="-34.891901">
    <ele>23.1</ele>
    <time>2020-03-10T13:13:04.000Z</time>
   </trkpt>
   <trkpt lat="-8.046969" lon="-34.891921">
    <ele>23.1</ele>
    <time>2020-03-10T13:13:05.000Z</time>
   </trkpt>
   <trkpt lat="-8.04699" lon="-34.891964">
    <ele>23.2</ele>
    <time>2020-03-10T13:13:06.000Z</time>
   </trkpt>
   <trkpt lat="-8.047029" lon="-34.892">
    <ele>23.3</ele>
    <time>2020-03-10T13:13:07.000Z</time>
   </trkpt>
   <trkpt lat="-8.047053" lon="-34.892013">
    <ele>23.4</ele>
    <time>2020-03-10T13:13:08.000Z</time>
   </trkpt>
   <trkpt lat="-8.047088" lon="-34.892035">
    <ele>23.2</ele>
    <time>2020-03-10T13:13:10.000Z</time>
   </trkpt>
   <trkpt lat="-8.04709" lon="-34.892051">
    <ele>22.9</ele>
    <time>2020-03-10T13:13:12.000Z</time>
   </trkpt>
   <trkpt lat="-8.047085" lon="-34.892076">
    <ele>22.4</ele>
    <time>2020-03-10T13:13:15.000Z</time>
   </trkpt>
   <trkpt lat="-8.047101" lon="-34.89208">
    <ele>22</ele>
    <time>2020-03-10T13:13:20.000Z</time>
   </trkpt>
   <trkpt lat="-8.04708" lon="-34.892097">
    <ele>21.5</ele>
    <time>2020-03-10T13:13:22.000Z</time>
   </trkpt>
   <trkpt lat="-8.047109" lon="-34.892078">
    <ele>20.8</ele>
    <time>2020-03-10T13:13:23.000Z</time>
   </trkpt>
   <trkpt lat="-8.047137" lon="-34.892073">
    <ele>20.4</ele>
    <time>2020-03-10T13:13:25.000Z</time>
   </trkpt>
   <trkpt lat="-8.047149" lon="-34.892062">
    <ele>20.1</ele>
    <time>2020-03-10T13:13:30.000Z</time>
   </trkpt>
   <trkpt lat="-8.04717" lon="-34.892062">
    <ele>19.8</ele>
    <time>2020-03-10T13:13:34.000Z</time>
   </trkpt>
   <trkpt lat="-8.047211" lon="-34.89209">
    <ele>19.1</ele>
    <time>2020-03-10T13:13:37.000Z</time>
   </trkpt>
   <trkpt lat="-8.047238" lon="-34.892101">
    <ele>18.7</ele>
    <time>2020-03-10T13:13:38.000Z</time>
   </trkpt>
   <trkpt lat="-8.047264" lon="-34.892125">
    <ele>18.1</ele>
    <time>2020-03-10T13:13:39.000Z</time>
   </trkpt>
   <trkpt lat="-8.047293" lon="-34.892144">
    <ele>17.6</ele>
    <time>2020-03-10T13:13:40.000Z</time>
   </trkpt>
   <trkpt lat="-8.04732" lon="-34.892183">
    <ele>17</ele>
    <time>2020-03-10T13:13:41.000Z</time>
   </trkpt>
   <trkpt lat="-8.04735" lon="-34.892212">
    <ele>16.4</ele>
    <time>2020-03-10T13:13:42.000Z</time>
   </trkpt>
   <trkpt lat="-8.047377" lon="-34.892234">
    <ele>15.9</ele>
    <time>2020-03-10T13:13:43.000Z</time>
   </trkpt>
   <trkpt lat="-8.04741" lon="-34.89226">
    <ele>15.5</ele>
    <time>2020-03-10T13:13:44.000Z</time>
   </trkpt>
   <trkpt lat="-8.047446" lon="-34.892287">
    <ele>14.6</ele>
    <time>2020-03-10T13:13:45.000Z</time>
   </trkpt>
   <trkpt lat="-8.047476" lon="-34.892282">
    <ele>14.3</ele>
    <time>2020-03-10T13:13:49.000Z</time>
   </trkpt>
   <trkpt lat="-8.04753" lon="-34.892335">
    <ele>13.6</ele>
    <time>2020-03-10T13:13:51.000Z</time>
   </trkpt>
   <trkpt lat="-8.047556" lon="-34.892369">
    <ele>13.2</ele>
    <time>2020-03-10T13:13:52.000Z</time>
   </trkpt>
   <trkpt lat="-8.047594" lon="-34.892395">
    <ele>12.8</ele>
    <time>2020-03-10T13:13:53.000Z</time>
   </trkpt>
   <trkpt lat="-8.047629" lon="-34.892417">
    <ele>12.5</ele>
    <time>2020-03-10T13:13:54.000Z</time>
   </trkpt>
   <trkpt lat="-8.047682" lon="-34.892441">
    <ele>12</ele>
    <time>2020-03-10T13:13:56.000Z</time>
   </trkpt>
   <trkpt lat="-8.047712" lon="-34.892469">
    <ele>11.7</ele>
    <time>2020-03-10T13:13:57.000Z</time>
   </trkpt>
   <trkpt lat="-8.04775" lon="-34.892496">
    <ele>11.3</ele>
    <time>2020-03-10T13:13:58.000Z</time>
   </trkpt>
   <trkpt lat="-8.047764" lon="-34.892523">
    <ele>11</ele>
    <time>2020-03-10T13:13:59.000Z</time>
   </trkpt>
   <trkpt lat="-8.047799" lon="-34.892566">
    <ele>10.4</ele>
    <time>2020-03-10T13:14:00.000Z</time>
   </trkpt>
   <trkpt lat="-8.047846" lon="-34.892612">
    <ele>9.4</ele>
    <time>2020-03-10T13:14:01.000Z</time>
   </trkpt>
   <trkpt lat="-8.047903" lon="-34.892655">
    <ele>8.1</ele>
    <time>2020-03-10T13:14:02.000Z</time>
   </trkpt>
   <trkpt lat="-8.047959" lon="-34.892691">
    <ele>6.6</ele>
    <time>2020-03-10T13:14:03.000Z</time>
   </trkpt>
   <trkpt lat="-8.048005" lon="-34.892726">
    <ele>6</ele>
    <time>2020-03-10T13:14:04.000Z</time>
   </trkpt>
   <trkpt lat="-8.048042" lon="-34.892759">
    <ele>6.2</ele>
    <time>2020-03-10T13:14:05.000Z</time>
   </trkpt>
   <trkpt lat="-8.048084" lon="-34.8928">
    <ele>6.3</ele>
    <time>2020-03-10T13:14:06.000Z</time>
   </trkpt>
   <trkpt lat="-8.04813" lon="-34.892839">
    <ele>6.4</ele>
    <time>2020-03-10T13:14:07.000Z</time>
   </trkpt>
   <trkpt lat="-8.048172" lon="-34.892876">
    <ele>6.6</ele>
    <time>2020-03-10T13:14:08.000Z</time>
   </trkpt>
   <trkpt lat="-8.048214" lon="-34.892914">
    <ele>6.8</ele>
    <time>2020-03-10T13:14:09.000Z</time>
   </trkpt>
   <trkpt lat="-8.048261" lon="-34.892947">
    <ele>7</ele>
    <time>2020-03-10T13:14:10.000Z</time>
   </trkpt>
   <trkpt lat="-8.048305" lon="-34.892977">
    <ele>7.1</ele>
    <time>2020-03-10T13:14:11.000Z</time>
   </trkpt>
   <trkpt lat="-8.048332" lon="-34.892997">
    <ele>7.2</ele>
    <time>2020-03-10T13:14:12.000Z</time>
   </trkpt>
   <trkpt lat="-8.048366" lon="-34.893018">
    <ele>7.3</ele>
    <time>2020-03-10T13:14:13.000Z</time>
   </trkpt>
   <trkpt lat="-8.048418" lon="-34.893055">
    <ele>7.5</ele>
    <time>2020-03-10T13:14:14.000Z</time>
   </trkpt>
   <trkpt lat="-8.048474" lon="-34.893086">
    <ele>7.7</ele>
    <time>2020-03-10T13:14:15.000Z</time>
   </trkpt>
   <trkpt lat="-8.048504" lon="-34.893105">
    <ele>7.8</ele>
    <time>2020-03-10T13:14:16.000Z</time>
   </trkpt>
   <trkpt lat="-8.048529" lon="-34.893126">
    <ele>7.8</ele>
    <time>2020-03-10T13:14:17.000Z</time>
   </trkpt>
   <trkpt lat="-8.048545" lon="-34.893149">
    <ele>7.9</ele>
    <time>2020-03-10T13:14:20.000Z</time>
   </trkpt>
   <trkpt lat="-8.048553" lon="-34.893131">
    <ele>6.5</ele>
    <time>2020-03-10T13:14:24.000Z</time>
   </trkpt>
   <trkpt lat="-8.048593" lon="-34.893084">
    <ele>5</ele>
    <time>2020-03-10T13:14:26.000Z</time>
   </trkpt>
   <trkpt lat="-8.048613" lon="-34.89305">
    <ele>4</ele>
    <time>2020-03-10T13:14:27.000Z</time>
   </trkpt>
   <trkpt lat="-8.048632" lon="-34.893026">
    <ele>2.6</ele>
    <time>2020-03-10T13:14:28.000Z</time>
   </trkpt>
   <trkpt lat="-8.048657" lon="-34.892996">
    <ele>2.7</ele>
    <time>2020-03-10T13:14:29.000Z</time>
   </trkpt>
   <trkpt lat="-8.048684" lon="-34.892961">
    <ele>2.8</ele>
    <time>2020-03-10T13:14:30.000Z</time>
   </trkpt>
   <trkpt lat="-8.048715" lon="-34.892925">
    <ele>2.9</ele>
    <time>2020-03-10T13:14:31.000Z</time>
   </trkpt>
   <trkpt lat="-8.048752" lon="-34.892879">
    <ele>3</ele>
    <time>2020-03-10T13:14:32.000Z</time>
   </trkpt>
   <trkpt lat="-8.048787" lon="-34.892843">
    <ele>3.1</ele>
    <time>2020-03-10T13:14:33.000Z</time>
   </trkpt>
   <trkpt lat="-8.048824" lon="-34.892795">
    <ele>4.6</ele>
    <time>2020-03-10T13:14:34.000Z</time>
   </trkpt>
   <trkpt lat="-8.048854" lon="-34.892752">
    <ele>5.4</ele>
    <time>2020-03-10T13:14:35.000Z</time>
   </trkpt>
   <trkpt lat="-8.04888" lon="-34.892722">
    <ele>7.1</ele>
    <time>2020-03-10T13:14:36.000Z</time>
   </trkpt>
   <trkpt lat="-8.048903" lon="-34.892707">
    <ele>7.4</ele>
    <time>2020-03-10T13:14:37.000Z</time>
   </trkpt>
   <trkpt lat="-8.048988" lon="-34.892698">
    <ele>8.5</ele>
    <time>2020-03-10T13:14:39.000Z</time>
   </trkpt>
   <trkpt lat="-8.049055" lon="-34.89271">
    <ele>9.4</ele>
    <time>2020-03-10T13:14:40.000Z</time>
   </trkpt>
   <trkpt lat="-8.049111" lon="-34.892732">
    <ele>10.2</ele>
    <time>2020-03-10T13:14:41.000Z</time>
   </trkpt>
   <trkpt lat="-8.049162" lon="-34.892755">
    <ele>10.9</ele>
    <time>2020-03-10T13:14:42.000Z</time>
   </trkpt>
   <trkpt lat="-8.049202" lon="-34.89277">
    <ele>11.4</ele>
    <time>2020-03-10T13:14:43.000Z</time>
   </trkpt>
   <trkpt lat="-8.049236" lon="-34.8928">
    <ele>12</ele>
    <time>2020-03-10T13:14:44.000Z</time>
   </trkpt>
   <trkpt lat="-8.049266" lon="-34.89284">
    <ele>11.8</ele>
    <time>2020-03-10T13:14:45.000Z</time>
   </trkpt>
   <trkpt lat="-8.049302" lon="-34.892885">
    <ele>11.2</ele>
    <time>2020-03-10T13:14:46.000Z</time>
   </trkpt>
   <trkpt lat="-8.049351" lon="-34.892919">
    <ele>10.9</ele>
    <time>2020-03-10T13:14:47.000Z</time>
   </trkpt>
   <trkpt lat="-8.049395" lon="-34.892947">
    <ele>10.9</ele>
    <time>2020-03-10T13:14:48.000Z</time>
   </trkpt>
   <trkpt lat="-8.049446" lon="-34.892969">
    <ele>11</ele>
    <time>2020-03-10T13:14:49.000Z</time>
   </trkpt>
   <trkpt lat="-8.049506" lon="-34.892993">
    <ele>11.2</ele>
    <time>2020-03-10T13:14:50.000Z</time>
   </trkpt>
   <trkpt lat="-8.049554" lon="-34.893009">
    <ele>11.4</ele>
    <time>2020-03-10T13:14:51.000Z</time>
   </trkpt>
   <trkpt lat="-8.049614" lon="-34.893026">
    <ele>11.7</ele>
    <time>2020-03-10T13:14:52.000Z</time>
   </trkpt>
   <trkpt lat="-8.049656" lon="-34.893047">
    <ele>11.9</ele>
    <time>2020-03-10T13:14:53.000Z</time>
   </trkpt>
   <trkpt lat="-8.049709" lon="-34.893072">
    <ele>12.2</ele>
    <time>2020-03-10T13:14:54.000Z</time>
   </trkpt>
   <trkpt lat="-8.049759" lon="-34.893102">
    <ele>12.4</ele>
    <time>2020-03-10T13:14:55.000Z</time>
   </trkpt>
   <trkpt lat="-8.049812" lon="-34.893117">
    <ele>12.6</ele>
    <time>2020-03-10T13:14:56.000Z</time>
   </trkpt>
   <trkpt lat="-8.049856" lon="-34.893136">
    <ele>12.1</ele>
    <time>2020-03-10T13:14:57.000Z</time>
   </trkpt>
   <trkpt lat="-8.049903" lon="-34.893156">
    <ele>11.6</ele>
    <time>2020-03-10T13:14:58.000Z</time>
   </trkpt>
   <trkpt lat="-8.049955" lon="-34.893174">
    <ele>11</ele>
    <time>2020-03-10T13:14:59.000Z</time>
   </trkpt>
   <trkpt lat="-8.050006" lon="-34.893191">
    <ele>10.4</ele>
    <time>2020-03-10T13:15:00.000Z</time>
   </trkpt>
   <trkpt lat="-8.050059" lon="-34.893219">
    <ele>9.8</ele>
    <time>2020-03-10T13:15:01.000Z</time>
   </trkpt>
   <trkpt lat="-8.050108" lon="-34.893253">
    <ele>9.2</ele>
    <time>2020-03-10T13:15:02.000Z</time>
   </trkpt>
   <trkpt lat="-8.050165" lon="-34.893267">
    <ele>9.1</ele>
    <time>2020-03-10T13:15:03.000Z</time>
   </trkpt>
   <trkpt lat="-8.050217" lon="-34.893282">
    <ele>8.9</ele>
    <time>2020-03-10T13:15:04.000Z</time>
   </trkpt>
   <trkpt lat="-8.050263" lon="-34.893298">
    <ele>8.7</ele>
    <time>2020-03-10T13:15:05.000Z</time>
   </trkpt>
   <trkpt lat="-8.050319" lon="-34.893321">
    <ele>8.5</ele>
    <time>2020-03-10T13:15:06.000Z</time>
   </trkpt>
   <trkpt lat="-8.050376" lon="-34.893351">
    <ele>8.2</ele>
    <time>2020-03-10T13:15:07.000Z</time>
   </trkpt>
   <trkpt lat="-8.050416" lon="-34.89336">
    <ele>8.1</ele>
    <time>2020-03-10T13:15:08.000Z</time>
   </trkpt>
   <trkpt lat="-8.050458" lon="-34.89338">
    <ele>7.9</ele>
    <time>2020-03-10T13:15:09.000Z</time>
   </trkpt>
   <trkpt lat="-8.05051" lon="-34.89342">
    <ele>7.7</ele>
    <time>2020-03-10T13:15:10.000Z</time>
   </trkpt>
   <trkpt lat="-8.050558" lon="-34.893452">
    <ele>7.6</ele>
    <time>2020-03-10T13:15:11.000Z</time>
   </trkpt>
   <trkpt lat="-8.050617" lon="-34.893484">
    <ele>7.5</ele>
    <time>2020-03-10T13:15:12.000Z</time>
   </trkpt>
   <trkpt lat="-8.050672" lon="-34.893514">
    <ele>7.5</ele>
    <time>2020-03-10T13:15:13.000Z</time>
   </trkpt>
   <trkpt lat="-8.050716" lon="-34.893533">
    <ele>7.5</ele>
    <time>2020-03-10T13:15:14.000Z</time>
   </trkpt>
   <trkpt lat="-8.050764" lon="-34.893549">
    <ele>7.5</ele>
    <time>2020-03-10T13:15:15.000Z</time>
   </trkpt>
   <trkpt lat="-8.050822" lon="-34.89357">
    <ele>7.5</ele>
    <time>2020-03-10T13:15:16.000Z</time>
   </trkpt>
   <trkpt lat="-8.05087" lon="-34.893591">
    <ele>7.5</ele>
    <time>2020-03-10T13:15:17.000Z</time>
   </trkpt>
   <trkpt lat="-8.050922" lon="-34.893611">
    <ele>7.5</ele>
    <time>2020-03-10T13:15:18.000Z</time>
   </trkpt>
   <trkpt lat="-8.050975" lon="-34.893631">
    <ele>7.5</ele>
    <time>2020-03-10T13:15:19.000Z</time>
   </trkpt>
   <trkpt lat="-8.051016" lon="-34.893649">
    <ele>7.6</ele>
    <time>2020-03-10T13:15:20.000Z</time>
   </trkpt>
   <trkpt lat="-8.051069" lon="-34.893683">
    <ele>7.6</ele>
    <time>2020-03-10T13:15:21.000Z</time>
   </trkpt>
   <trkpt lat="-8.051128" lon="-34.893704">
    <ele>7.6</ele>
    <time>2020-03-10T13:15:22.000Z</time>
   </trkpt>
   <trkpt lat="-8.051185" lon="-34.893721">
    <ele>7.6</ele>
    <time>2020-03-10T13:15:23.000Z</time>
   </trkpt>
   <trkpt lat="-8.051235" lon="-34.893737">
    <ele>7.6</ele>
    <time>2020-03-10T13:15:24.000Z</time>
   </trkpt>
   <trkpt lat="-8.05128" lon="-34.893746">
    <ele>7.6</ele>
    <time>2020-03-10T13:15:25.000Z</time>
   </trkpt>
   <trkpt lat="-8.051319" lon="-34.893754">
    <ele>7.6</ele>
    <time>2020-03-10T13:15:26.000Z</time>
   </trkpt>
   <trkpt lat="-8.051347" lon="-34.893771">
    <ele>7.7</ele>
    <time>2020-03-10T13:15:27.000Z</time>
   </trkpt>
   <trkpt lat="-8.051398" lon="-34.893785">
    <ele>7.7</ele>
    <time>2020-03-10T13:15:28.000Z</time>
   </trkpt>
   <trkpt lat="-8.051454" lon="-34.893815">
    <ele>7.7</ele>
    <time>2020-03-10T13:15:29.000Z</time>
   </trkpt>
   <trkpt lat="-8.051503" lon="-34.893835">
    <ele>7.7</ele>
    <time>2020-03-10T13:15:30.000Z</time>
   </trkpt>
   <trkpt lat="-8.051544" lon="-34.893845">
    <ele>8.2</ele>
    <time>2020-03-10T13:15:31.000Z</time>
   </trkpt>
   <trkpt lat="-8.051574" lon="-34.893873">
    <ele>8.6</ele>
    <time>2020-03-10T13:15:32.000Z</time>
   </trkpt>
   <trkpt lat="-8.051624" lon="-34.89388">
    <ele>9.2</ele>
    <time>2020-03-10T13:15:33.000Z</time>
   </trkpt>
   <trkpt lat="-8.051682" lon="-34.893905">
    <ele>9.9</ele>
    <time>2020-03-10T13:15:35.000Z</time>
   </trkpt>
   <trkpt lat="-8.051723" lon="-34.8939">
    <ele>10.4</ele>
    <time>2020-03-10T13:15:36.000Z</time>
   </trkpt>
   <trkpt lat="-8.05175" lon="-34.89388">
    <ele>10.7</ele>
    <time>2020-03-10T13:15:37.000Z</time>
   </trkpt>
   <trkpt lat="-8.051763" lon="-34.893848">
    <ele>11.1</ele>
    <time>2020-03-10T13:15:40.000Z</time>
   </trkpt>
   <trkpt lat="-8.051771" lon="-34.893846">
    <ele>11.2</ele>
    <time>2020-03-10T13:15:43.000Z</time>
   </trkpt>
   <trkpt lat="-8.051796" lon="-34.893832">
    <ele>11.5</ele>
    <time>2020-03-10T13:15:45.000Z</time>
   </trkpt>
   <trkpt lat="-8.051816" lon="-34.893817">
    <ele>11.8</ele>
    <time>2020-03-10T13:15:48.000Z</time>
   </trkpt>
   <trkpt lat="-8.051827" lon="-34.893766">
    <ele>12.4</ele>
    <time>2020-03-10T13:15:50.000Z</time>
   </trkpt>
   <trkpt lat="-8.051834" lon="-34.893735">
    <ele>12.7</ele>
    <time>2020-03-10T13:15:51.000Z</time>
   </trkpt>
   <trkpt lat="-8.051846" lon="-34.893689">
    <ele>12.7</ele>
    <time>2020-03-10T13:15:52.000Z</time>
   </trkpt>
   <trkpt lat="-8.051861" lon="-34.893643">
    <ele>12.7</ele>
    <time>2020-03-10T13:15:53.000Z</time>
   </trkpt>
   <trkpt lat="-8.051881" lon="-34.893593">
    <ele>12.7</ele>
    <time>2020-03-10T13:15:54.000Z</time>
   </trkpt>
   <trkpt lat="-8.051893" lon="-34.893562">
    <ele>12.6</ele>
    <time>2020-03-10T13:15:55.000Z</time>
   </trkpt>
   <trkpt lat="-8.051907" lon="-34.893521">
    <ele>12.6</ele>
    <time>2020-03-10T13:15:56.000Z</time>
   </trkpt>
   <trkpt lat="-8.051911" lon="-34.89349">
    <ele>12.6</ele>
    <time>2020-03-10T13:15:57.000Z</time>
   </trkpt>
   <trkpt lat="-8.051923" lon="-34.893452">
    <ele>12.6</ele>
    <time>2020-03-10T13:15:58.000Z</time>
   </trkpt>
   <trkpt lat="-8.051935" lon="-34.893423">
    <ele>12.6</ele>
    <time>2020-03-10T13:15:59.000Z</time>
   </trkpt>
   <trkpt lat="-8.051947" lon="-34.893376">
    <ele>12.6</ele>
    <time>2020-03-10T13:16:00.000Z</time>
   </trkpt>
   <trkpt lat="-8.051961" lon="-34.893326">
    <ele>12.2</ele>
    <time>2020-03-10T13:16:01.000Z</time>
   </trkpt>
   <trkpt lat="-8.051985" lon="-34.893281">
    <ele>11.9</ele>
    <time>2020-03-10T13:16:02.000Z</time>
   </trkpt>
   <trkpt lat="-8.052009" lon="-34.893242">
    <ele>11.6</ele>
    <time>2020-03-10T13:16:03.000Z</time>
   </trkpt>
   <trkpt lat="-8.05203" lon="-34.8932">
    <ele>11.3</ele>
    <time>2020-03-10T13:16:04.000Z</time>
   </trkpt>
   <trkpt lat="-8.052051" lon="-34.893154">
    <ele>11</ele>
    <time>2020-03-10T13:16:05.000Z</time>
   </trkpt>
   <trkpt lat="-8.052065" lon="-34.893117">
    <ele>10.8</ele>
    <time>2020-03-10T13:16:06.000Z</time>
   </trkpt>
   <trkpt lat="-8.052084" lon="-34.893062">
    <ele>10.5</ele>
    <time>2020-03-10T13:16:07.000Z</time>
   </trkpt>
   <trkpt lat="-8.052107" lon="-34.893011">
    <ele>10.3</ele>
    <time>2020-03-10T13:16:08.000Z</time>
   </trkpt>
   <trkpt lat="-8.052134" lon="-34.892944">
    <ele>10</ele>
    <time>2020-03-10T13:16:09.000Z</time>
   </trkpt>
   <trkpt lat="-8.052161" lon="-34.892893">
    <ele>9.9</ele>
    <time>2020-03-10T13:16:10.000Z</time>
   </trkpt>
   <trkpt lat="-8.052187" lon="-34.892833">
    <ele>9.6</ele>
    <time>2020-03-10T13:16:11.000Z</time>
   </trkpt>
   <trkpt lat="-8.052198" lon="-34.892792">
    <ele>9.5</ele>
    <time>2020-03-10T13:16:12.000Z</time>
   </trkpt>
   <trkpt lat="-8.052206" lon="-34.892755">
    <ele>9.3</ele>
    <time>2020-03-10T13:16:13.000Z</time>
   </trkpt>
   <trkpt lat="-8.052214" lon="-34.89272">
    <ele>9.1</ele>
    <time>2020-03-10T13:16:14.000Z</time>
   </trkpt>
   <trkpt lat="-8.052231" lon="-34.892675">
    <ele>8.8</ele>
    <time>2020-03-10T13:16:15.000Z</time>
   </trkpt>
   <trkpt lat="-8.052265" lon="-34.892622">
    <ele>8.7</ele>
    <time>2020-03-10T13:16:16.000Z</time>
   </trkpt>
   <trkpt lat="-8.052293" lon="-34.892594">
    <ele>8.9</ele>
    <time>2020-03-10T13:16:17.000Z</time>
   </trkpt>
   <trkpt lat="-8.052317" lon="-34.892568">
    <ele>9.1</ele>
    <time>2020-03-10T13:16:18.000Z</time>
   </trkpt>
   <trkpt lat="-8.052346" lon="-34.892539">
    <ele>9.3</ele>
    <time>2020-03-10T13:16:19.000Z</time>
   </trkpt>
   <trkpt lat="-8.052385" lon="-34.892499">
    <ele>9.6</ele>
    <time>2020-03-10T13:16:20.000Z</time>
   </trkpt>
   <trkpt lat="-8.05243" lon="-34.892454">
    <ele>10</ele>
    <time>2020-03-10T13:16:21.000Z</time>
   </trkpt>
   <trkpt lat="-8.05247" lon="-34.89241">
    <ele>10.4</ele>
    <time>2020-03-10T13:16:22.000Z</time>
   </trkpt>
   <trkpt lat="-8.052509" lon="-34.892366">
    <ele>10.7</ele>
    <time>2020-03-10T13:16:23.000Z</time>
   </trkpt>
   <trkpt lat="-8.052565" lon="-34.89232">
    <ele>11.5</ele>
    <time>2020-03-10T13:16:24.000Z</time>
   </trkpt>
   <trkpt lat="-8.052605" lon="-34.892296">
    <ele>11.4</ele>
    <time>2020-03-10T13:16:25.000Z</time>
   </trkpt>
   <trkpt lat="-8.052642" lon="-34.892271">
    <ele>11.2</ele>
    <time>2020-03-10T13:16:26.000Z</time>
   </trkpt>
   <trkpt lat="-8.052676" lon="-34.892254">
    <ele>11.1</ele>
    <time>2020-03-10T13:16:27.000Z</time>
   </trkpt>
   <trkpt lat="-8.052714" lon="-34.892233">
    <ele>11</ele>
    <time>2020-03-10T13:16:28.000Z</time>
   </trkpt>
   <trkpt lat="-8.052753" lon="-34.892206">
    <ele>10.8</ele>
    <time>2020-03-10T13:16:29.000Z</time>
   </trkpt>
   <trkpt lat="-8.052788" lon="-34.892176">
    <ele>10.6</ele>
    <time>2020-03-10T13:16:30.000Z</time>
   </trkpt>
   <trkpt lat="-8.052821" lon="-34.892136">
    <ele>10.3</ele>
    <time>2020-03-10T13:16:31.000Z</time>
   </trkpt>
   <trkpt lat="-8.052866" lon="-34.892115">
    <ele>10</ele>
    <time>2020-03-10T13:16:32.000Z</time>
   </trkpt>
   <trkpt lat="-8.052907" lon="-34.892098">
    <ele>9.7</ele>
    <time>2020-03-10T13:16:33.000Z</time>
   </trkpt>
   <trkpt lat="-8.052936" lon="-34.892087">
    <ele>9.5</ele>
    <time>2020-03-10T13:16:34.000Z</time>
   </trkpt>
   <trkpt lat="-8.052962" lon="-34.892067">
    <ele>9.3</ele>
    <time>2020-03-10T13:16:35.000Z</time>
   </trkpt>
   <trkpt lat="-8.052994" lon="-34.892045">
    <ele>9</ele>
    <time>2020-03-10T13:16:36.000Z</time>
   </trkpt>
   <trkpt lat="-8.053022" lon="-34.892022">
    <ele>8.9</ele>
    <time>2020-03-10T13:16:37.000Z</time>
   </trkpt>
   <trkpt lat="-8.053042" lon="-34.892004">
    <ele>8.9</ele>
    <time>2020-03-10T13:16:38.000Z</time>
   </trkpt>
   <trkpt lat="-8.053066" lon="-34.891987">
    <ele>9</ele>
    <time>2020-03-10T13:16:39.000Z</time>
   </trkpt>
   <trkpt lat="-8.053094" lon="-34.891965">
    <ele>9</ele>
    <time>2020-03-10T13:16:40.000Z</time>
   </trkpt>
   <trkpt lat="-8.053118" lon="-34.891939">
    <ele>9</ele>
    <time>2020-03-10T13:16:41.000Z</time>
   </trkpt>
   <trkpt lat="-8.053142" lon="-34.891922">
    <ele>9</ele>
    <time>2020-03-10T13:16:42.000Z</time>
   </trkpt>
   <trkpt lat="-8.053168" lon="-34.8919">
    <ele>9</ele>
    <time>2020-03-10T13:16:43.000Z</time>
   </trkpt>
   <trkpt lat="-8.053196" lon="-34.89188">
    <ele>9.1</ele>
    <time>2020-03-10T13:16:44.000Z</time>
   </trkpt>
   <trkpt lat="-8.053231" lon="-34.891853">
    <ele>9.1</ele>
    <time>2020-03-10T13:16:45.000Z</time>
   </trkpt>
   <trkpt lat="-8.053278" lon="-34.891828">
    <ele>9.1</ele>
    <time>2020-03-10T13:16:46.000Z</time>
   </trkpt>
   <trkpt lat="-8.053338" lon="-34.891847">
    <ele>9.1</ele>
    <time>2020-03-10T13:16:47.000Z</time>
   </trkpt>
   <trkpt lat="-8.053374" lon="-34.891845">
    <ele>9.1</ele>
    <time>2020-03-10T13:16:48.000Z</time>
   </trkpt>
   <trkpt lat="-8.053411" lon="-34.891863">
    <ele>9.2</ele>
    <time>2020-03-10T13:16:49.000Z</time>
   </trkpt>
   <trkpt lat="-8.053459" lon="-34.891857">
    <ele>9.3</ele>
    <time>2020-03-10T13:16:50.000Z</time>
   </trkpt>
   <trkpt lat="-8.053514" lon="-34.891844">
    <ele>9.6</ele>
    <time>2020-03-10T13:16:51.000Z</time>
   </trkpt>
   <trkpt lat="-8.053562" lon="-34.891824">
    <ele>10</ele>
    <time>2020-03-10T13:16:52.000Z</time>
   </trkpt>
   <trkpt lat="-8.053621" lon="-34.891797">
    <ele>10.4</ele>
    <time>2020-03-10T13:16:53.000Z</time>
   </trkpt>
   <trkpt lat="-8.053667" lon="-34.891769">
    <ele>10.6</ele>
    <time>2020-03-10T13:16:54.000Z</time>
   </trkpt>
   <trkpt lat="-8.053713" lon="-34.891735">
    <ele>10.9</ele>
    <time>2020-03-10T13:16:55.000Z</time>
   </trkpt>
   <trkpt lat="-8.053762" lon="-34.891705">
    <ele>11.1</ele>
    <time>2020-03-10T13:16:56.000Z</time>
   </trkpt>
   <trkpt lat="-8.053815" lon="-34.89168">
    <ele>11.3</ele>
    <time>2020-03-10T13:16:57.000Z</time>
   </trkpt>
   <trkpt lat="-8.053863" lon="-34.891661">
    <ele>11.4</ele>
    <time>2020-03-10T13:16:58.000Z</time>
   </trkpt>
   <trkpt lat="-8.053915" lon="-34.891653">
    <ele>11.5</ele>
    <time>2020-03-10T13:16:59.000Z</time>
   </trkpt>
   <trkpt lat="-8.053958" lon="-34.891632">
    <ele>11.6</ele>
    <time>2020-03-10T13:17:00.000Z</time>
   </trkpt>
   <trkpt lat="-8.054" lon="-34.891607">
    <ele>11.6</ele>
    <time>2020-03-10T13:17:01.000Z</time>
   </trkpt>
   <trkpt lat="-8.054049" lon="-34.891575">
    <ele>11.6</ele>
    <time>2020-03-10T13:17:02.000Z</time>
   </trkpt>
   <trkpt lat="-8.054099" lon="-34.891555">
    <ele>11.7</ele>
    <time>2020-03-10T13:17:03.000Z</time>
   </trkpt>
   <trkpt lat="-8.054139" lon="-34.891527">
    <ele>11.7</ele>
    <time>2020-03-10T13:17:04.000Z</time>
   </trkpt>
   <trkpt lat="-8.05418" lon="-34.891509">
    <ele>11.8</ele>
    <time>2020-03-10T13:17:05.000Z</time>
   </trkpt>
   <trkpt lat="-8.054221" lon="-34.891488">
    <ele>11.8</ele>
    <time>2020-03-10T13:17:06.000Z</time>
   </trkpt>
   <trkpt lat="-8.054264" lon="-34.891461">
    <ele>11.9</ele>
    <time>2020-03-10T13:17:07.000Z</time>
   </trkpt>
   <trkpt lat="-8.054315" lon="-34.891426">
    <ele>12</ele>
    <time>2020-03-10T13:17:08.000Z</time>
   </trkpt>
   <trkpt lat="-8.054376" lon="-34.891398">
    <ele>12.1</ele>
    <time>2020-03-10T13:17:09.000Z</time>
   </trkpt>
   <trkpt lat="-8.054429" lon="-34.891376">
    <ele>12.2</ele>
    <time>2020-03-10T13:17:10.000Z</time>
   </trkpt>
   <trkpt lat="-8.054471" lon="-34.891385">
    <ele>12.2</ele>
    <time>2020-03-10T13:17:11.000Z</time>
   </trkpt>
   <trkpt lat="-8.054512" lon="-34.891403">
    <ele>12.2</ele>
    <time>2020-03-10T13:17:12.000Z</time>
   </trkpt>
   <trkpt lat="-8.054551" lon="-34.891418">
    <ele>12.3</ele>
    <time>2020-03-10T13:17:13.000Z</time>
   </trkpt>
   <trkpt lat="-8.054594" lon="-34.891433">
    <ele>12.3</ele>
    <time>2020-03-10T13:17:14.000Z</time>
   </trkpt>
   <trkpt lat="-8.054636" lon="-34.891456">
    <ele>12.4</ele>
    <time>2020-03-10T13:17:15.000Z</time>
   </trkpt>
   <trkpt lat="-8.054688" lon="-34.891472">
    <ele>12.5</ele>
    <time>2020-03-10T13:17:16.000Z</time>
   </trkpt>
   <trkpt lat="-8.054734" lon="-34.891497">
    <ele>12.6</ele>
    <time>2020-03-10T13:17:17.000Z</time>
   </trkpt>
   <trkpt lat="-8.054777" lon="-34.89151">
    <ele>12.6</ele>
    <time>2020-03-10T13:17:18.000Z</time>
   </trkpt>
   <trkpt lat="-8.054815" lon="-34.891543">
    <ele>12.7</ele>
    <time>2020-03-10T13:17:19.000Z</time>
   </trkpt>
   <trkpt lat="-8.054846" lon="-34.891569">
    <ele>12.7</ele>
    <time>2020-03-10T13:17:20.000Z</time>
   </trkpt>
   <trkpt lat="-8.054878" lon="-34.891582">
    <ele>12.8</ele>
    <time>2020-03-10T13:17:21.000Z</time>
   </trkpt>
   <trkpt lat="-8.054911" lon="-34.891587">
    <ele>12.8</ele>
    <time>2020-03-10T13:17:22.000Z</time>
   </trkpt>
   <trkpt lat="-8.054953" lon="-34.891604">
    <ele>12.9</ele>
    <time>2020-03-10T13:17:23.000Z</time>
   </trkpt>
   <trkpt lat="-8.054977" lon="-34.891618">
    <ele>12.9</ele>
    <time>2020-03-10T13:17:24.000Z</time>
   </trkpt>
   <trkpt lat="-8.055011" lon="-34.891661">
    <ele>12.9</ele>
    <time>2020-03-10T13:17:26.000Z</time>
   </trkpt>
   <trkpt lat="-8.055042" lon="-34.891668">
    <ele>12.9</ele>
    <time>2020-03-10T13:17:28.000Z</time>
   </trkpt>
   <trkpt lat="-8.055076" lon="-34.891687">
    <ele>13</ele>
    <time>2020-03-10T13:17:30.000Z</time>
   </trkpt>
   <trkpt lat="-8.055118" lon="-34.891719">
    <ele>13</ele>
    <time>2020-03-10T13:17:32.000Z</time>
   </trkpt>
   <trkpt lat="-8.055134" lon="-34.891749">
    <ele>13.1</ele>
    <time>2020-03-10T13:17:34.000Z</time>
   </trkpt>
   <trkpt lat="-8.055161" lon="-34.891786">
    <ele>13.1</ele>
    <time>2020-03-10T13:17:36.000Z</time>
   </trkpt>
   <trkpt lat="-8.055179" lon="-34.89179">
    <ele>13.1</ele>
    <time>2020-03-10T13:17:41.000Z</time>
   </trkpt>
   <trkpt lat="-8.055213" lon="-34.891817">
    <ele>13.1</ele>
    <time>2020-03-10T13:17:43.000Z</time>
   </trkpt>
   <trkpt lat="-8.055231" lon="-34.89184">
    <ele>13.2</ele>
    <time>2020-03-10T13:17:44.000Z</time>
   </trkpt>
   <trkpt lat="-8.055281" lon="-34.891877">
    <ele>13.2</ele>
    <time>2020-03-10T13:17:46.000Z</time>
   </trkpt>
   <trkpt lat="-8.055303" lon="-34.891903">
    <ele>13.3</ele>
    <time>2020-03-10T13:17:47.000Z</time>
   </trkpt>
   <trkpt lat="-8.055328" lon="-34.891927">
    <ele>13.3</ele>
    <time>2020-03-10T13:17:50.000Z</time>
   </trkpt>
   <trkpt lat="-8.055351" lon="-34.891958">
    <ele>13.3</ele>
    <time>2020-03-10T13:17:54.000Z</time>
   </trkpt>
   <trkpt lat="-8.05539" lon="-34.891977">
    <ele>13.4</ele>
    <time>2020-03-10T13:17:56.000Z</time>
   </trkpt>
   <trkpt lat="-8.055417" lon="-34.891985">
    <ele>13.4</ele>
    <time>2020-03-10T13:17:57.000Z</time>
   </trkpt>
   <trkpt lat="-8.055449" lon="-34.891993">
    <ele>13.5</ele>
    <time>2020-03-10T13:17:58.000Z</time>
   </trkpt>
   <trkpt lat="-8.055488" lon="-34.891991">
    <ele>13.5</ele>
    <time>2020-03-10T13:17:59.000Z</time>
   </trkpt>
   <trkpt lat="-8.055518" lon="-34.892003">
    <ele>13.6</ele>
    <time>2020-03-10T13:18:00.000Z</time>
   </trkpt>
   <trkpt lat="-8.055549" lon="-34.892014">
    <ele>13.6</ele>
    <time>2020-03-10T13:18:01.000Z</time>
   </trkpt>
   <trkpt lat="-8.05558" lon="-34.892024">
    <ele>13.7</ele>
    <time>2020-03-10T13:18:02.000Z</time>
   </trkpt>
   <trkpt lat="-8.055621" lon="-34.892028">
    <ele>13.7</ele>
    <time>2020-03-10T13:18:03.000Z</time>
   </trkpt>
   <trkpt lat="-8.055654" lon="-34.892037">
    <ele>13.8</ele>
    <time>2020-03-10T13:18:04.000Z</time>
   </trkpt>
   <trkpt lat="-8.055678" lon="-34.892055">
    <ele>13.8</ele>
    <time>2020-03-10T13:18:05.000Z</time>
   </trkpt>
   <trkpt lat="-8.055696" lon="-34.892091">
    <ele>13.8</ele>
    <time>2020-03-10T13:18:06.000Z</time>
   </trkpt>
   <trkpt lat="-8.05574" lon="-34.892105">
    <ele>13.8</ele>
    <time>2020-03-10T13:18:08.000Z</time>
   </trkpt>
   <trkpt lat="-8.055773" lon="-34.892124">
    <ele>13.9</ele>
    <time>2020-03-10T13:18:09.000Z</time>
   </trkpt>
   <trkpt lat="-8.055796" lon="-34.892145">
    <ele>13.3</ele>
    <time>2020-03-10T13:18:10.000Z</time>
   </trkpt>
   <trkpt lat="-8.055819" lon="-34.892167">
    <ele>13.1</ele>
    <time>2020-03-10T13:18:11.000Z</time>
   </trkpt>
   <trkpt lat="-8.055861" lon="-34.892199">
    <ele>12.8</ele>
    <time>2020-03-10T13:18:13.000Z</time>
   </trkpt>
   <trkpt lat="-8.055888" lon="-34.892218">
    <ele>12.6</ele>
    <time>2020-03-10T13:18:15.000Z</time>
   </trkpt>
   <trkpt lat="-8.055929" lon="-34.892257">
    <ele>12.3</ele>
    <time>2020-03-10T13:18:17.000Z</time>
   </trkpt>
   <trkpt lat="-8.055954" lon="-34.892273">
    <ele>12.1</ele>
    <time>2020-03-10T13:18:18.000Z</time>
   </trkpt>
   <trkpt lat="-8.055985" lon="-34.892291">
    <ele>11.9</ele>
    <time>2020-03-10T13:18:19.000Z</time>
   </trkpt>
   <trkpt lat="-8.056011" lon="-34.892309">
    <ele>11.8</ele>
    <time>2020-03-10T13:18:20.000Z</time>
   </trkpt>
   <trkpt lat="-8.056055" lon="-34.892336">
    <ele>11.5</ele>
    <time>2020-03-10T13:18:22.000Z</time>
   </trkpt>
   <trkpt lat="-8.056084" lon="-34.892347">
    <ele>11.4</ele>
    <time>2020-03-10T13:18:24.000Z</time>
   </trkpt>
   <trkpt lat="-8.056123" lon="-34.892345">
    <ele>11.2</ele>
    <time>2020-03-10T13:18:26.000Z</time>
   </trkpt>
   <trkpt lat="-8.056149" lon="-34.892357">
    <ele>11</ele>
    <time>2020-03-10T13:18:28.000Z</time>
   </trkpt>
   <trkpt lat="-8.056188" lon="-34.892385">
    <ele>10.8</ele>
    <time>2020-03-10T13:18:30.000Z</time>
   </trkpt>
   <trkpt lat="-8.056225" lon="-34.892396">
    <ele>10.6</ele>
    <time>2020-03-10T13:18:32.000Z</time>
   </trkpt>
   <trkpt lat="-8.056242" lon="-34.892423">
    <ele>10.5</ele>
    <time>2020-03-10T13:18:34.000Z</time>
   </trkpt>
   <trkpt lat="-8.056266" lon="-34.892447">
    <ele>10.3</ele>
    <time>2020-03-10T13:18:36.000Z</time>
   </trkpt>
   <trkpt lat="-8.056315" lon="-34.892472">
    <ele>10.1</ele>
    <time>2020-03-10T13:18:38.000Z</time>
   </trkpt>
   <trkpt lat="-8.056345" lon="-34.892487">
    <ele>9.9</ele>
    <time>2020-03-10T13:18:39.000Z</time>
   </trkpt>
   <trkpt lat="-8.056383" lon="-34.892516">
    <ele>9.7</ele>
    <time>2020-03-10T13:18:41.000Z</time>
   </trkpt>
   <trkpt lat="-8.05642" lon="-34.892525">
    <ele>9.6</ele>
    <time>2020-03-10T13:18:44.000Z</time>
   </trkpt>
   <trkpt lat="-8.05645" lon="-34.892553">
    <ele>9.5</ele>
    <time>2020-03-10T13:18:46.000Z</time>
   </trkpt>
   <trkpt lat="-8.056474" lon="-34.89258">
    <ele>9.4</ele>
    <time>2020-03-10T13:18:48.000Z</time>
   </trkpt>
   <trkpt lat="-8.056488" lon="-34.892603">
    <ele>9.3</ele>
    <time>2020-03-10T13:18:50.000Z</time>
   </trkpt>
   <trkpt lat="-8.05652" lon="-34.892608">
    <ele>9.2</ele>
    <time>2020-03-10T13:18:53.000Z</time>
   </trkpt>
   <trkpt lat="-8.056552" lon="-34.892603">
    <ele>9.1</ele>
    <time>2020-03-10T13:18:55.000Z</time>
   </trkpt>
   <trkpt lat="-8.056578" lon="-34.892622">
    <ele>9.1</ele>
    <time>2020-03-10T13:18:59.000Z</time>
   </trkpt>
   <trkpt lat="-8.056562" lon="-34.892655">
    <ele>9.1</ele>
    <time>2020-03-10T13:19:03.000Z</time>
   </trkpt>
   <trkpt lat="-8.056572" lon="-34.892664">
    <ele>9.1</ele>
    <time>2020-03-10T13:19:07.000Z</time>
   </trkpt>
   <trkpt lat="-8.05665" lon="-34.89266">
    <ele>8.9</ele>
    <time>2020-03-10T13:19:16.000Z</time>
   </trkpt>
   <trkpt lat="-8.056671" lon="-34.892681">
    <ele>8.7</ele>
    <time>2020-03-10T13:19:18.000Z</time>
   </trkpt>
   <trkpt lat="-8.056695" lon="-34.892679">
    <ele>8.6</ele>
    <time>2020-03-10T13:19:21.000Z</time>
   </trkpt>
   <trkpt lat="-8.056744" lon="-34.892694">
    <ele>8.6</ele>
    <time>2020-03-10T13:19:24.000Z</time>
   </trkpt>
   <trkpt lat="-8.056771" lon="-34.8927">
    <ele>8.5</ele>
    <time>2020-03-10T13:19:25.000Z</time>
   </trkpt>
   <trkpt lat="-8.056803" lon="-34.892707">
    <ele>8.5</ele>
    <time>2020-03-10T13:19:26.000Z</time>
   </trkpt>
   <trkpt lat="-8.056844" lon="-34.892716">
    <ele>8.4</ele>
    <time>2020-03-10T13:19:27.000Z</time>
   </trkpt>
   <trkpt lat="-8.05689" lon="-34.892726">
    <ele>8.3</ele>
    <time>2020-03-10T13:19:28.000Z</time>
   </trkpt>
   <trkpt lat="-8.056947" lon="-34.892729">
    <ele>8.2</ele>
    <time>2020-03-10T13:19:29.000Z</time>
   </trkpt>
   <trkpt lat="-8.056996" lon="-34.892738">
    <ele>8.1</ele>
    <time>2020-03-10T13:19:30.000Z</time>
   </trkpt>
   <trkpt lat="-8.05705" lon="-34.892759">
    <ele>7.9</ele>
    <time>2020-03-10T13:19:31.000Z</time>
   </trkpt>
   <trkpt lat="-8.057107" lon="-34.89277">
    <ele>7.8</ele>
    <time>2020-03-10T13:19:32.000Z</time>
   </trkpt>
   <trkpt lat="-8.057172" lon="-34.892778">
    <ele>7.8</ele>
    <time>2020-03-10T13:19:33.000Z</time>
   </trkpt>
   <trkpt lat="-8.057235" lon="-34.892789">
    <ele>7.7</ele>
    <time>2020-03-10T13:19:34.000Z</time>
   </trkpt>
   <trkpt lat="-8.057291" lon="-34.892801">
    <ele>7.7</ele>
    <time>2020-03-10T13:19:35.000Z</time>
   </trkpt>
   <trkpt lat="-8.057356" lon="-34.89281">
    <ele>7.7</ele>
    <time>2020-03-10T13:19:36.000Z</time>
   </trkpt>
   <trkpt lat="-8.057423" lon="-34.892823">
    <ele>7.7</ele>
    <time>2020-03-10T13:19:37.000Z</time>
   </trkpt>
   <trkpt lat="-8.057486" lon="-34.892822">
    <ele>7.7</ele>
    <time>2020-03-10T13:19:38.000Z</time>
   </trkpt>
   <trkpt lat="-8.057549" lon="-34.892824">
    <ele>7.7</ele>
    <time>2020-03-10T13:19:39.000Z</time>
   </trkpt>
   <trkpt lat="-8.057607" lon="-34.892832">
    <ele>7.7</ele>
    <time>2020-03-10T13:19:40.000Z</time>
   </trkpt>
   <trkpt lat="-8.057667" lon="-34.892839">
    <ele>7.7</ele>
    <time>2020-03-10T13:19:41.000Z</time>
   </trkpt>
   <trkpt lat="-8.057726" lon="-34.892848">
    <ele>7.7</ele>
    <time>2020-03-10T13:19:42.000Z</time>
   </trkpt>
   <trkpt lat="-8.057782" lon="-34.89286">
    <ele>7.7</ele>
    <time>2020-03-10T13:19:43.000Z</time>
   </trkpt>
   <trkpt lat="-8.05784" lon="-34.892878">
    <ele>7.7</ele>
    <time>2020-03-10T13:19:44.000Z</time>
   </trkpt>
   <trkpt lat="-8.057902" lon="-34.892893">
    <ele>7.7</ele>
    <time>2020-03-10T13:19:45.000Z</time>
   </trkpt>
   <trkpt lat="-8.057962" lon="-34.892902">
    <ele>7.7</ele>
    <time>2020-03-10T13:19:46.000Z</time>
   </trkpt>
   <trkpt lat="-8.058025" lon="-34.892917">
    <ele>7.7</ele>
    <time>2020-03-10T13:19:47.000Z</time>
   </trkpt>
   <trkpt lat="-8.058082" lon="-34.892935">
    <ele>7.7</ele>
    <time>2020-03-10T13:19:48.000Z</time>
   </trkpt>
   <trkpt lat="-8.058133" lon="-34.892943">
    <ele>7.7</ele>
    <time>2020-03-10T13:19:49.000Z</time>
   </trkpt>
   <trkpt lat="-8.058184" lon="-34.892949">
    <ele>7.9</ele>
    <time>2020-03-10T13:19:50.000Z</time>
   </trkpt>
   <trkpt lat="-8.058232" lon="-34.892953">
    <ele>8</ele>
    <time>2020-03-10T13:19:51.000Z</time>
   </trkpt>
   <trkpt lat="-8.058287" lon="-34.892945">
    <ele>8.2</ele>
    <time>2020-03-10T13:19:52.000Z</time>
   </trkpt>
   <trkpt lat="-8.058342" lon="-34.892945">
    <ele>8.4</ele>
    <time>2020-03-10T13:19:53.000Z</time>
   </trkpt>
   <trkpt lat="-8.058389" lon="-34.892936">
    <ele>8.5</ele>
    <time>2020-03-10T13:19:54.000Z</time>
   </trkpt>
   <trkpt lat="-8.058444" lon="-34.892936">
    <ele>8.6</ele>
    <time>2020-03-10T13:19:55.000Z</time>
   </trkpt>
   <trkpt lat="-8.058508" lon="-34.892947">
    <ele>8.6</ele>
    <time>2020-03-10T13:19:56.000Z</time>
   </trkpt>
   <trkpt lat="-8.058569" lon="-34.892956">
    <ele>8.7</ele>
    <time>2020-03-10T13:19:57.000Z</time>
   </trkpt>
   <trkpt lat="-8.058623" lon="-34.892949">
    <ele>8.7</ele>
    <time>2020-03-10T13:19:58.000Z</time>
   </trkpt>
   <trkpt lat="-8.058672" lon="-34.892948">
    <ele>8.8</ele>
    <time>2020-03-10T13:19:59.000Z</time>
   </trkpt>
   <trkpt lat="-8.058727" lon="-34.892956">
    <ele>8.8</ele>
    <time>2020-03-10T13:20:00.000Z</time>
   </trkpt>
   <trkpt lat="-8.058777" lon="-34.892967">
    <ele>8.9</ele>
    <time>2020-03-10T13:20:01.000Z</time>
   </trkpt>
   <trkpt lat="-8.058824" lon="-34.892972">
    <ele>8.9</ele>
    <time>2020-03-10T13:20:02.000Z</time>
   </trkpt>
   <trkpt lat="-8.058863" lon="-34.892972">
    <ele>8.9</ele>
    <time>2020-03-10T13:20:03.000Z</time>
   </trkpt>
   <trkpt lat="-8.058895" lon="-34.892987">
    <ele>8.9</ele>
    <time>2020-03-10T13:20:04.000Z</time>
   </trkpt>
   <trkpt lat="-8.058936" lon="-34.893016">
    <ele>9</ele>
    <time>2020-03-10T13:20:05.000Z</time>
   </trkpt>
   <trkpt lat="-8.058963" lon="-34.893048">
    <ele>9.1</ele>
    <time>2020-03-10T13:20:06.000Z</time>
   </trkpt>
   <trkpt lat="-8.058984" lon="-34.893099">
    <ele>9.3</ele>
    <time>2020-03-10T13:20:07.000Z</time>
   </trkpt>
   <trkpt lat="-8.059011" lon="-34.893147">
    <ele>9.4</ele>
    <time>2020-03-10T13:20:08.000Z</time>
   </trkpt>
   <trkpt lat="-8.059033" lon="-34.893183">
    <ele>9.5</ele>
    <time>2020-03-10T13:20:09.000Z</time>
   </trkpt>
   <trkpt lat="-8.059052" lon="-34.893233">
    <ele>9.6</ele>
    <time>2020-03-10T13:20:10.000Z</time>
   </trkpt>
   <trkpt lat="-8.059075" lon="-34.893276">
    <ele>9.7</ele>
    <time>2020-03-10T13:20:11.000Z</time>
   </trkpt>
   <trkpt lat="-8.059099" lon="-34.893328">
    <ele>9.8</ele>
    <time>2020-03-10T13:20:12.000Z</time>
   </trkpt>
   <trkpt lat="-8.059119" lon="-34.893381">
    <ele>9.9</ele>
    <time>2020-03-10T13:20:13.000Z</time>
   </trkpt>
   <trkpt lat="-8.059147" lon="-34.893427">
    <ele>10</ele>
    <time>2020-03-10T13:20:14.000Z</time>
   </trkpt>
   <trkpt lat="-8.05919" lon="-34.893483">
    <ele>10</ele>
    <time>2020-03-10T13:20:15.000Z</time>
   </trkpt>
   <trkpt lat="-8.059207" lon="-34.893547">
    <ele>10</ele>
    <time>2020-03-10T13:20:16.000Z</time>
   </trkpt>
   <trkpt lat="-8.059238" lon="-34.893603">
    <ele>10</ele>
    <time>2020-03-10T13:20:17.000Z</time>
   </trkpt>
   <trkpt lat="-8.05927" lon="-34.893669">
    <ele>10</ele>
    <time>2020-03-10T13:20:18.000Z</time>
   </trkpt>
   <trkpt lat="-8.059291" lon="-34.893729">
    <ele>9.9</ele>
    <time>2020-03-10T13:20:19.000Z</time>
   </trkpt>
   <trkpt lat="-8.059346" lon="-34.8938">
    <ele>9.8</ele>
    <time>2020-03-10T13:20:20.000Z</time>
   </trkpt>
   <trkpt lat="-8.059382" lon="-34.893871">
    <ele>9.7</ele>
    <time>2020-03-10T13:20:21.000Z</time>
   </trkpt>
   <trkpt lat="-8.059365" lon="-34.893965">
    <ele>9.5</ele>
    <time>2020-03-10T13:20:22.000Z</time>
   </trkpt>
   <trkpt lat="-8.0594" lon="-34.894032">
    <ele>9.2</ele>
    <time>2020-03-10T13:20:23.000Z</time>
   </trkpt>
   <trkpt lat="-8.059438" lon="-34.89408">
    <ele>9.3</ele>
    <time>2020-03-10T13:20:24.000Z</time>
   </trkpt>
   <trkpt lat="-8.05948" lon="-34.894122">
    <ele>9.3</ele>
    <time>2020-03-10T13:20:25.000Z</time>
   </trkpt>
   <trkpt lat="-8.059524" lon="-34.894165">
    <ele>9.4</ele>
    <time>2020-03-10T13:20:26.000Z</time>
   </trkpt>
   <trkpt lat="-8.059573" lon="-34.894214">
    <ele>9.4</ele>
    <time>2020-03-10T13:20:27.000Z</time>
   </trkpt>
   <trkpt lat="-8.059621" lon="-34.89425">
    <ele>9.5</ele>
    <time>2020-03-10T13:20:28.000Z</time>
   </trkpt>
   <trkpt lat="-8.05967" lon="-34.894288">
    <ele>9.5</ele>
    <time>2020-03-10T13:20:29.000Z</time>
   </trkpt>
   <trkpt lat="-8.059722" lon="-34.894331">
    <ele>9.6</ele>
    <time>2020-03-10T13:20:30.000Z</time>
   </trkpt>
   <trkpt lat="-8.059771" lon="-34.894367">
    <ele>9.7</ele>
    <time>2020-03-10T13:20:31.000Z</time>
   </trkpt>
   <trkpt lat="-8.059819" lon="-34.894401">
    <ele>9.8</ele>
    <time>2020-03-10T13:20:32.000Z</time>
   </trkpt>
   <trkpt lat="-8.059878" lon="-34.894441">
    <ele>9.8</ele>
    <time>2020-03-10T13:20:33.000Z</time>
   </trkpt>
   <trkpt lat="-8.05996" lon="-34.894454">
    <ele>9.5</ele>
    <time>2020-03-10T13:20:34.000Z</time>
   </trkpt>
   <trkpt lat="-8.060008" lon="-34.894506">
    <ele>9.2</ele>
    <time>2020-03-10T13:20:35.000Z</time>
   </trkpt>
   <trkpt lat="-8.060063" lon="-34.894548">
    <ele>8.8</ele>
    <time>2020-03-10T13:20:36.000Z</time>
   </trkpt>
   <trkpt lat="-8.060124" lon="-34.894573">
    <ele>8.5</ele>
    <time>2020-03-10T13:20:37.000Z</time>
   </trkpt>
   <trkpt lat="-8.060177" lon="-34.894613">
    <ele>8.2</ele>
    <time>2020-03-10T13:20:38.000Z</time>
   </trkpt>
   <trkpt lat="-8.060225" lon="-34.894656">
    <ele>8</ele>
    <time>2020-03-10T13:20:39.000Z</time>
   </trkpt>
   <trkpt lat="-8.060266" lon="-34.894693">
    <ele>7.7</ele>
    <time>2020-03-10T13:20:40.000Z</time>
   </trkpt>
   <trkpt lat="-8.060295" lon="-34.894735">
    <ele>7.5</ele>
    <time>2020-03-10T13:20:41.000Z</time>
   </trkpt>
   <trkpt lat="-8.060329" lon="-34.894763">
    <ele>7.3</ele>
    <time>2020-03-10T13:20:42.000Z</time>
   </trkpt>
   <trkpt lat="-8.060366" lon="-34.894792">
    <ele>7.1</ele>
    <time>2020-03-10T13:20:43.000Z</time>
   </trkpt>
   <trkpt lat="-8.060411" lon="-34.894821">
    <ele>6.9</ele>
    <time>2020-03-10T13:20:44.000Z</time>
   </trkpt>
   <trkpt lat="-8.060462" lon="-34.894836">
    <ele>6.6</ele>
    <time>2020-03-10T13:20:45.000Z</time>
   </trkpt>
   <trkpt lat="-8.06052" lon="-34.894846">
    <ele>6.3</ele>
    <time>2020-03-10T13:20:46.000Z</time>
   </trkpt>
   <trkpt lat="-8.060586" lon="-34.894857">
    <ele>6</ele>
    <time>2020-03-10T13:20:47.000Z</time>
   </trkpt>
   <trkpt lat="-8.060645" lon="-34.894871">
    <ele>6.2</ele>
    <time>2020-03-10T13:20:48.000Z</time>
   </trkpt>
   <trkpt lat="-8.060686" lon="-34.894873">
    <ele>6.3</ele>
    <time>2020-03-10T13:20:49.000Z</time>
   </trkpt>
   <trkpt lat="-8.060734" lon="-34.894876">
    <ele>6.5</ele>
    <time>2020-03-10T13:20:50.000Z</time>
   </trkpt>
   <trkpt lat="-8.060776" lon="-34.894873">
    <ele>6.6</ele>
    <time>2020-03-10T13:20:51.000Z</time>
   </trkpt>
   <trkpt lat="-8.060828" lon="-34.894873">
    <ele>6.8</ele>
    <time>2020-03-10T13:20:52.000Z</time>
   </trkpt>
   <trkpt lat="-8.060885" lon="-34.89489">
    <ele>7</ele>
    <time>2020-03-10T13:20:53.000Z</time>
   </trkpt>
   <trkpt lat="-8.060955" lon="-34.894887">
    <ele>7.2</ele>
    <time>2020-03-10T13:20:54.000Z</time>
   </trkpt>
   <trkpt lat="-8.061044" lon="-34.894849">
    <ele>7.9</ele>
    <time>2020-03-10T13:20:55.000Z</time>
   </trkpt>
   <trkpt lat="-8.061103" lon="-34.894857">
    <ele>8</ele>
    <time>2020-03-10T13:20:56.000Z</time>
   </trkpt>
   <trkpt lat="-8.061167" lon="-34.894877">
    <ele>8</ele>
    <time>2020-03-10T13:20:57.000Z</time>
   </trkpt>
   <trkpt lat="-8.061217" lon="-34.894891">
    <ele>8</ele>
    <time>2020-03-10T13:20:58.000Z</time>
   </trkpt>
   <trkpt lat="-8.061265" lon="-34.894925">
    <ele>7.8</ele>
    <time>2020-03-10T13:20:59.000Z</time>
   </trkpt>
   <trkpt lat="-8.061313" lon="-34.894948">
    <ele>7.7</ele>
    <time>2020-03-10T13:21:00.000Z</time>
   </trkpt>
   <trkpt lat="-8.061363" lon="-34.894975">
    <ele>7.4</ele>
    <time>2020-03-10T13:21:01.000Z</time>
   </trkpt>
   <trkpt lat="-8.061411" lon="-34.894997">
    <ele>7.2</ele>
    <time>2020-03-10T13:21:02.000Z</time>
   </trkpt>
   <trkpt lat="-8.061456" lon="-34.895011">
    <ele>6.9</ele>
    <time>2020-03-10T13:21:03.000Z</time>
   </trkpt>
   <trkpt lat="-8.061492" lon="-34.895014">
    <ele>6.6</ele>
    <time>2020-03-10T13:21:04.000Z</time>
   </trkpt>
   <trkpt lat="-8.061552" lon="-34.895007">
    <ele>6.4</ele>
    <time>2020-03-10T13:21:05.000Z</time>
   </trkpt>
   <trkpt lat="-8.061608" lon="-34.89503">
    <ele>6.4</ele>
    <time>2020-03-10T13:21:06.000Z</time>
   </trkpt>
   <trkpt lat="-8.061657" lon="-34.895046">
    <ele>6.7</ele>
    <time>2020-03-10T13:21:07.000Z</time>
   </trkpt>
   <trkpt lat="-8.061697" lon="-34.89507">
    <ele>6.9</ele>
    <time>2020-03-10T13:21:08.000Z</time>
   </trkpt>
   <trkpt lat="-8.061731" lon="-34.895091">
    <ele>7</ele>
    <time>2020-03-10T13:21:09.000Z</time>
   </trkpt>
   <trkpt lat="-8.061789" lon="-34.895086">
    <ele>7.1</ele>
    <time>2020-03-10T13:21:10.000Z</time>
   </trkpt>
   <trkpt lat="-8.061844" lon="-34.895097">
    <ele>7.1</ele>
    <time>2020-03-10T13:21:11.000Z</time>
   </trkpt>
   <trkpt lat="-8.061893" lon="-34.895101">
    <ele>7.1</ele>
    <time>2020-03-10T13:21:12.000Z</time>
   </trkpt>
   <trkpt lat="-8.061948" lon="-34.895114">
    <ele>7.1</ele>
    <time>2020-03-10T13:21:13.000Z</time>
   </trkpt>
   <trkpt lat="-8.062007" lon="-34.895108">
    <ele>7.1</ele>
    <time>2020-03-10T13:21:14.000Z</time>
   </trkpt>
   <trkpt lat="-8.062059" lon="-34.895097">
    <ele>7.1</ele>
    <time>2020-03-10T13:21:15.000Z</time>
   </trkpt>
   <trkpt lat="-8.062119" lon="-34.89511">
    <ele>7.1</ele>
    <time>2020-03-10T13:21:16.000Z</time>
   </trkpt>
   <trkpt lat="-8.062176" lon="-34.895121">
    <ele>7.1</ele>
    <time>2020-03-10T13:21:17.000Z</time>
   </trkpt>
   <trkpt lat="-8.062221" lon="-34.895132">
    <ele>7.1</ele>
    <time>2020-03-10T13:21:18.000Z</time>
   </trkpt>
   <trkpt lat="-8.062275" lon="-34.89515">
    <ele>7.1</ele>
    <time>2020-03-10T13:21:19.000Z</time>
   </trkpt>
   <trkpt lat="-8.06232" lon="-34.895149">
    <ele>7</ele>
    <time>2020-03-10T13:21:20.000Z</time>
   </trkpt>
   <trkpt lat="-8.062349" lon="-34.895151">
    <ele>7</ele>
    <time>2020-03-10T13:21:21.000Z</time>
   </trkpt>
   <trkpt lat="-8.062385" lon="-34.895156">
    <ele>6.9</ele>
    <time>2020-03-10T13:21:22.000Z</time>
   </trkpt>
   <trkpt lat="-8.062417" lon="-34.895155">
    <ele>6.8</ele>
    <time>2020-03-10T13:21:24.000Z</time>
   </trkpt>
   <trkpt lat="-8.062449" lon="-34.895158">
    <ele>6.8</ele>
    <time>2020-03-10T13:21:26.000Z</time>
   </trkpt>
   <trkpt lat="-8.062507" lon="-34.895152">
    <ele>6.7</ele>
    <time>2020-03-10T13:21:28.000Z</time>
   </trkpt>
   <trkpt lat="-8.062543" lon="-34.895146">
    <ele>6.6</ele>
    <time>2020-03-10T13:21:29.000Z</time>
   </trkpt>
   <trkpt lat="-8.062584" lon="-34.895143">
    <ele>6.6</ele>
    <time>2020-03-10T13:21:30.000Z</time>
   </trkpt>
   <trkpt lat="-8.062623" lon="-34.895142">
    <ele>6.5</ele>
    <time>2020-03-10T13:21:31.000Z</time>
   </trkpt>
   <trkpt lat="-8.062657" lon="-34.895149">
    <ele>6.5</ele>
    <time>2020-03-10T13:21:32.000Z</time>
   </trkpt>
   <trkpt lat="-8.062691" lon="-34.895155">
    <ele>6.4</ele>
    <time>2020-03-10T13:21:33.000Z</time>
   </trkpt>
   <trkpt lat="-8.062735" lon="-34.895187">
    <ele>6.4</ele>
    <time>2020-03-10T13:21:34.000Z</time>
   </trkpt>
   <trkpt lat="-8.062792" lon="-34.895249">
    <ele>6.4</ele>
    <time>2020-03-10T13:21:35.000Z</time>
   </trkpt>
   <trkpt lat="-8.062824" lon="-34.895295">
    <ele>6.3</ele>
    <time>2020-03-10T13:21:36.000Z</time>
   </trkpt>
   <trkpt lat="-8.062849" lon="-34.895355">
    <ele>6.6</ele>
    <time>2020-03-10T13:21:37.000Z</time>
   </trkpt>
   <trkpt lat="-8.062871" lon="-34.895406">
    <ele>6.6</ele>
    <time>2020-03-10T13:21:38.000Z</time>
   </trkpt>
   <trkpt lat="-8.062865" lon="-34.895458">
    <ele>6.7</ele>
    <time>2020-03-10T13:21:39.000Z</time>
   </trkpt>
   <trkpt lat="-8.062855" lon="-34.895514">
    <ele>6.8</ele>
    <time>2020-03-10T13:21:40.000Z</time>
   </trkpt>
   <trkpt lat="-8.062841" lon="-34.895583">
    <ele>7.1</ele>
    <time>2020-03-10T13:21:41.000Z</time>
   </trkpt>
   <trkpt lat="-8.062828" lon="-34.895653">
    <ele>7.7</ele>
    <time>2020-03-10T13:21:42.000Z</time>
   </trkpt>
   <trkpt lat="-8.062812" lon="-34.895724">
    <ele>8.4</ele>
    <time>2020-03-10T13:21:43.000Z</time>
   </trkpt>
   <trkpt lat="-8.062809" lon="-34.895783">
    <ele>8.5</ele>
    <time>2020-03-10T13:21:44.000Z</time>
   </trkpt>
   <trkpt lat="-8.062822" lon="-34.895846">
    <ele>8.5</ele>
    <time>2020-03-10T13:21:45.000Z</time>
   </trkpt>
   <trkpt lat="-8.062829" lon="-34.895897">
    <ele>8.5</ele>
    <time>2020-03-10T13:21:46.000Z</time>
   </trkpt>
   <trkpt lat="-8.062826" lon="-34.895946">
    <ele>8.4</ele>
    <time>2020-03-10T13:21:47.000Z</time>
   </trkpt>
   <trkpt lat="-8.062805" lon="-34.895982">
    <ele>8.2</ele>
    <time>2020-03-10T13:21:48.000Z</time>
   </trkpt>
   <trkpt lat="-8.062784" lon="-34.89602">
    <ele>7.9</ele>
    <time>2020-03-10T13:21:49.000Z</time>
   </trkpt>
   <trkpt lat="-8.062761" lon="-34.89604">
    <ele>7.8</ele>
    <time>2020-03-10T13:21:50.000Z</time>
   </trkpt>
   <trkpt lat="-8.062746" lon="-34.896067">
    <ele>7.6</ele>
    <time>2020-03-10T13:21:51.000Z</time>
   </trkpt>
   <trkpt lat="-8.062732" lon="-34.89612">
    <ele>7.4</ele>
    <time>2020-03-10T13:21:52.000Z</time>
   </trkpt>
   <trkpt lat="-8.062717" lon="-34.896162">
    <ele>7.4</ele>
    <time>2020-03-10T13:21:53.000Z</time>
   </trkpt>
   <trkpt lat="-8.062699" lon="-34.896204">
    <ele>7.3</ele>
    <time>2020-03-10T13:21:54.000Z</time>
   </trkpt>
   <trkpt lat="-8.062671" lon="-34.89624">
    <ele>7.3</ele>
    <time>2020-03-10T13:21:55.000Z</time>
   </trkpt>
   <trkpt lat="-8.062665" lon="-34.896273">
    <ele>7.2</ele>
    <time>2020-03-10T13:21:56.000Z</time>
   </trkpt>
   <trkpt lat="-8.062642" lon="-34.896323">
    <ele>6.9</ele>
    <time>2020-03-10T13:21:58.000Z</time>
   </trkpt>
   <trkpt lat="-8.062636" lon="-34.896371">
    <ele>6.7</ele>
    <time>2020-03-10T13:22:00.000Z</time>
   </trkpt>
   <trkpt lat="-8.062637" lon="-34.896405">
    <ele>6.5</ele>
    <time>2020-03-10T13:22:02.000Z</time>
   </trkpt>
   <trkpt lat="-8.062635" lon="-34.896457">
    <ele>6.3</ele>
    <time>2020-03-10T13:22:04.000Z</time>
   </trkpt>
   <trkpt lat="-8.062659" lon="-34.896458">
    <ele>6.3</ele>
    <time>2020-03-10T13:22:06.000Z</time>
   </trkpt>
   <trkpt lat="-8.06267" lon="-34.896437">
    <ele>6.4</ele>
    <time>2020-03-10T13:22:10.000Z</time>
   </trkpt>
   <trkpt lat="-8.062704" lon="-34.896432">
    <ele>6.4</ele>
    <time>2020-03-10T13:22:12.000Z</time>
   </trkpt>
   <trkpt lat="-8.062736" lon="-34.896421">
    <ele>6.4</ele>
    <time>2020-03-10T13:22:15.000Z</time>
   </trkpt>
   <trkpt lat="-8.062771" lon="-34.896406">
    <ele>6.5</ele>
    <time>2020-03-10T13:22:17.000Z</time>
   </trkpt>
   <trkpt lat="-8.062816" lon="-34.896393">
    <ele>6.5</ele>
    <time>2020-03-10T13:22:19.000Z</time>
   </trkpt>
   <trkpt lat="-8.062851" lon="-34.896388">
    <ele>6.5</ele>
    <time>2020-03-10T13:22:20.000Z</time>
   </trkpt>
   <trkpt lat="-8.062889" lon="-34.89639">
    <ele>6.6</ele>
    <time>2020-03-10T13:22:21.000Z</time>
   </trkpt>
   <trkpt lat="-8.062923" lon="-34.896384">
    <ele>6.6</ele>
    <time>2020-03-10T13:22:22.000Z</time>
   </trkpt>
   <trkpt lat="-8.062961" lon="-34.89639">
    <ele>6.6</ele>
    <time>2020-03-10T13:22:23.000Z</time>
   </trkpt>
   <trkpt lat="-8.063006" lon="-34.896394">
    <ele>6.7</ele>
    <time>2020-03-10T13:22:24.000Z</time>
   </trkpt>
   <trkpt lat="-8.063074" lon="-34.896393">
    <ele>6.7</ele>
    <time>2020-03-10T13:22:25.000Z</time>
   </trkpt>
   <trkpt lat="-8.06313" lon="-34.896401">
    <ele>6.8</ele>
    <time>2020-03-10T13:22:26.000Z</time>
   </trkpt>
   <trkpt lat="-8.063173" lon="-34.896372">
    <ele>6.8</ele>
    <time>2020-03-10T13:22:27.000Z</time>
   </trkpt>
   <trkpt lat="-8.063207" lon="-34.896335">
    <ele>6.9</ele>
    <time>2020-03-10T13:22:28.000Z</time>
   </trkpt>
   <trkpt lat="-8.063233" lon="-34.89631">
    <ele>6.9</ele>
    <time>2020-03-10T13:22:29.000Z</time>
   </trkpt>
   <trkpt lat="-8.063269" lon="-34.896287">
    <ele>6.9</ele>
    <time>2020-03-10T13:22:31.000Z</time>
   </trkpt>
   <trkpt lat="-8.063313" lon="-34.896276">
    <ele>7</ele>
    <time>2020-03-10T13:22:33.000Z</time>
   </trkpt>
   <trkpt lat="-8.063366" lon="-34.896275">
    <ele>7</ele>
    <time>2020-03-10T13:22:35.000Z</time>
   </trkpt>
   <trkpt lat="-8.063427" lon="-34.8963">
    <ele>7.1</ele>
    <time>2020-03-10T13:22:37.000Z</time>
   </trkpt>
   <trkpt lat="-8.063459" lon="-34.896326">
    <ele>7.1</ele>
    <time>2020-03-10T13:22:38.000Z</time>
   </trkpt>
   <trkpt lat="-8.063473" lon="-34.896281">
    <ele>7.1</ele>
    <time>2020-03-10T13:22:40.000Z</time>
   </trkpt>
   <trkpt lat="-8.063493" lon="-34.896248">
    <ele>7.2</ele>
    <time>2020-03-10T13:22:42.000Z</time>
   </trkpt>
   <trkpt lat="-8.063525" lon="-34.896234">
    <ele>7.2</ele>
    <time>2020-03-10T13:22:45.000Z</time>
   </trkpt>
   <trkpt lat="-8.063537" lon="-34.8962">
    <ele>7.2</ele>
    <time>2020-03-10T13:22:47.000Z</time>
   </trkpt>
   <trkpt lat="-8.063584" lon="-34.896175">
    <ele>7.3</ele>
    <time>2020-03-10T13:22:49.000Z</time>
   </trkpt>
   <trkpt lat="-8.063626" lon="-34.896169">
    <ele>7.2</ele>
    <time>2020-03-10T13:22:50.000Z</time>
   </trkpt>
   <trkpt lat="-8.063663" lon="-34.896178">
    <ele>7.2</ele>
    <time>2020-03-10T13:22:51.000Z</time>
   </trkpt>
   <trkpt lat="-8.063705" lon="-34.896179">
    <ele>7.1</ele>
    <time>2020-03-10T13:22:52.000Z</time>
   </trkpt>
   <trkpt lat="-8.063751" lon="-34.896171">
    <ele>7</ele>
    <time>2020-03-10T13:22:53.000Z</time>
   </trkpt>
   <trkpt lat="-8.0638" lon="-34.896168">
    <ele>7</ele>
    <time>2020-03-10T13:22:54.000Z</time>
   </trkpt>
   <trkpt lat="-8.063853" lon="-34.896142">
    <ele>6.9</ele>
    <time>2020-03-10T13:22:55.000Z</time>
   </trkpt>
   <trkpt lat="-8.063911" lon="-34.896129">
    <ele>6.8</ele>
    <time>2020-03-10T13:22:56.000Z</time>
   </trkpt>
   <trkpt lat="-8.063961" lon="-34.896089">
    <ele>6.7</ele>
    <time>2020-03-10T13:22:57.000Z</time>
   </trkpt>
   <trkpt lat="-8.064006" lon="-34.896076">
    <ele>6.6</ele>
    <time>2020-03-10T13:22:58.000Z</time>
   </trkpt>
   <trkpt lat="-8.064053" lon="-34.896054">
    <ele>6.4</ele>
    <time>2020-03-10T13:22:59.000Z</time>
   </trkpt>
   <trkpt lat="-8.064113" lon="-34.896051">
    <ele>6.2</ele>
    <time>2020-03-10T13:23:00.000Z</time>
   </trkpt>
   <trkpt lat="-8.064175" lon="-34.896041">
    <ele>6</ele>
    <time>2020-03-10T13:23:01.000Z</time>
   </trkpt>
   <trkpt lat="-8.064242" lon="-34.896029">
    <ele>5.7</ele>
    <time>2020-03-10T13:23:02.000Z</time>
   </trkpt>
   <trkpt lat="-8.064292" lon="-34.896021">
    <ele>5.4</ele>
    <time>2020-03-10T13:23:03.000Z</time>
   </trkpt>
   <trkpt lat="-8.06434" lon="-34.896014">
    <ele>5.1</ele>
    <time>2020-03-10T13:23:04.000Z</time>
   </trkpt>
   <trkpt lat="-8.064378" lon="-34.895991">
    <ele>5</ele>
    <time>2020-03-10T13:23:05.000Z</time>
   </trkpt>
   <trkpt lat="-8.0644" lon="-34.895971">
    <ele>4.9</ele>
    <time>2020-03-10T13:23:06.000Z</time>
   </trkpt>
   <trkpt lat="-8.06443" lon="-34.895939">
    <ele>4.8</ele>
    <time>2020-03-10T13:23:07.000Z</time>
   </trkpt>
   <trkpt lat="-8.064478" lon="-34.895932">
    <ele>4.6</ele>
    <time>2020-03-10T13:23:08.000Z</time>
   </trkpt>
   <trkpt lat="-8.064515" lon="-34.895908">
    <ele>4.5</ele>
    <time>2020-03-10T13:23:09.000Z</time>
   </trkpt>
   <trkpt lat="-8.064543" lon="-34.89589">
    <ele>4.4</ele>
    <time>2020-03-10T13:23:10.000Z</time>
   </trkpt>
   <trkpt lat="-8.064573" lon="-34.895885">
    <ele>4.3</ele>
    <time>2020-03-10T13:23:11.000Z</time>
   </trkpt>
   <trkpt lat="-8.064611" lon="-34.895874">
    <ele>4.2</ele>
    <time>2020-03-10T13:23:12.000Z</time>
   </trkpt>
   <trkpt lat="-8.06465" lon="-34.895862">
    <ele>4.1</ele>
    <time>2020-03-10T13:23:13.000Z</time>
   </trkpt>
   <trkpt lat="-8.06469" lon="-34.895868">
    <ele>4</ele>
    <time>2020-03-10T13:23:14.000Z</time>
   </trkpt>
   <trkpt lat="-8.064721" lon="-34.895856">
    <ele>3.9</ele>
    <time>2020-03-10T13:23:15.000Z</time>
   </trkpt>
   <trkpt lat="-8.064757" lon="-34.895861">
    <ele>3.8</ele>
    <time>2020-03-10T13:23:16.000Z</time>
   </trkpt>
   <trkpt lat="-8.064783" lon="-34.89583">
    <ele>3.7</ele>
    <time>2020-03-10T13:23:17.000Z</time>
   </trkpt>
   <trkpt lat="-8.064819" lon="-34.895814">
    <ele>3.6</ele>
    <time>2020-03-10T13:23:19.000Z</time>
   </trkpt>
   <trkpt lat="-8.064871" lon="-34.895804">
    <ele>3.5</ele>
    <time>2020-03-10T13:23:21.000Z</time>
   </trkpt>
   <trkpt lat="-8.064912" lon="-34.895823">
    <ele>3.3</ele>
    <time>2020-03-10T13:23:22.000Z</time>
   </trkpt>
   <trkpt lat="-8.064953" lon="-34.89581">
    <ele>3.2</ele>
    <time>2020-03-10T13:23:23.000Z</time>
   </trkpt>
   <trkpt lat="-8.064981" lon="-34.895809">
    <ele>3.2</ele>
    <time>2020-03-10T13:23:24.000Z</time>
   </trkpt>
   <trkpt lat="-8.065006" lon="-34.895822">
    <ele>3.1</ele>
    <time>2020-03-10T13:23:25.000Z</time>
   </trkpt>
   <trkpt lat="-8.065036" lon="-34.895835">
    <ele>3</ele>
    <time>2020-03-10T13:23:27.000Z</time>
   </trkpt>
   <trkpt lat="-8.065071" lon="-34.895884">
    <ele>2.9</ele>
    <time>2020-03-10T13:23:29.000Z</time>
   </trkpt>
   <trkpt lat="-8.065081" lon="-34.895914">
    <ele>2.8</ele>
    <time>2020-03-10T13:23:30.000Z</time>
   </trkpt>
   <trkpt lat="-8.0651" lon="-34.895939">
    <ele>2.7</ele>
    <time>2020-03-10T13:23:32.000Z</time>
   </trkpt>
   <trkpt lat="-8.065112" lon="-34.895963">
    <ele>2.7</ele>
    <time>2020-03-10T13:23:33.000Z</time>
   </trkpt>
   <trkpt lat="-8.065111" lon="-34.896">
    <ele>2.6</ele>
    <time>2020-03-10T13:23:34.000Z</time>
   </trkpt>
   <trkpt lat="-8.065125" lon="-34.896033">
    <ele>2.5</ele>
    <time>2020-03-10T13:23:35.000Z</time>
   </trkpt>
   <trkpt lat="-8.065141" lon="-34.89607">
    <ele>2.4</ele>
    <time>2020-03-10T13:23:36.000Z</time>
   </trkpt>
   <trkpt lat="-8.065149" lon="-34.896095">
    <ele>2.4</ele>
    <time>2020-03-10T13:23:37.000Z</time>
   </trkpt>
   <trkpt lat="-8.065164" lon="-34.896121">
    <ele>2.3</ele>
    <time>2020-03-10T13:23:39.000Z</time>
   </trkpt>
   <trkpt lat="-8.065172" lon="-34.896127">
    <ele>2.3</ele>
    <time>2020-03-10T13:23:42.000Z</time>
   </trkpt>
   <trkpt lat="-8.06516" lon="-34.896153">
    <ele>2.2</ele>
    <time>2020-03-10T13:23:45.000Z</time>
   </trkpt>
   <trkpt lat="-8.065122" lon="-34.896175">
    <ele>2.1</ele>
    <time>2020-03-10T13:23:48.000Z</time>
   </trkpt>
   <trkpt lat="-8.06507" lon="-34.896183">
    <ele>2</ele>
    <time>2020-03-10T13:23:54.000Z</time>
   </trkpt>
   <trkpt lat="-8.065039" lon="-34.896193">
    <ele>2</ele>
    <time>2020-03-10T13:24:00.000Z</time>
   </trkpt>
  </trkseg>
 </trk>
</gpx>
