<?xml version="1.0" encoding="UTF-8"?>
<gpx creator="StravaGPX" version="1.1" xmlns="http://www.topografix.com/GPX/1/1">
 <metadata>
  <time>2024-07-24T18:56:13Z</time>
 </metadata>
 <trk>
  <name>Post-training</name>
  <type>1</type>
  <trkseg>
   <trkpt lat="52.503735" lon="13.408614">
    <ele>38.8</ele>
    <time>2024-07-24T18:56:13.000Z</time>
   </trkpt>
   <trkpt lat="52.503724" lon="13.408592">
    <ele>43</ele>
    <time>2024-07-24T18:56:14.000Z</time>
   </trkpt>
   <trkpt lat="52.50371" lon="13.408576">
    <ele>44.2</ele>
    <time>2024-07-24T18:56:15.000Z</time>
   </trkpt>
   <trkpt lat="52.503693" lon="13.408559">
    <ele>45.4</ele>
    <time>2024-07-24T18:56:16.000Z</time>
   </trkpt>
   <trkpt lat="52.503655" lon="13.40852">
    <ele>45.6</ele>
    <time>2024-07-24T18:56:18.000Z</time>
   </trkpt>
   <trkpt lat="52.503609" lon="13.408453">
    <ele>45.6</ele>
    <time>2024-07-24T18:56:20.000Z</time>
   </trkpt>
   <trkpt lat="52.503578" lon="13.408411">
    <ele>45.6</ele>
    <time>2024-07-24T18:56:22.000Z</time>
   </trkpt>
   <trkpt lat="52.503569" lon="13.408412">
    <ele>45.4</ele>
    <time>2024-07-24T18:56:23.000Z</time>
   </trkpt>
   <trkpt lat="52.503519" lon="13.408433">
    <ele>45.6</ele>
    <time>2024-07-24T18:56:25.000Z</time>
   </trkpt>
   <trkpt lat="52.503521" lon="13.408455">
    <ele>45.6</ele>
    <time>2024-07-24T18:56:26.000Z</time>
   </trkpt>
   <trkpt lat="52.503523" lon="13.408459">
    <ele>45.6</ele>
    <time>2024-07-24T18:56:27.000Z</time>
   </trkpt>
   <trkpt lat="52.503516" lon="13.40843">
    <ele>45.6</ele>
    <time>2024-07-24T18:56:29.000Z</time>
   </trkpt>
   <trkpt lat="52.503511" lon="13.408405">
    <ele>45.4</ele>
    <time>2024-07-24T18:56:30.000Z</time>
   </trkpt>
   <trkpt lat="52.503512" lon="13.408379">
    <ele>45.4</ele>
    <time>2024-07-24T18:56:32.000Z</time>
   </trkpt>
   <trkpt lat="52.503514" lon="13.408393">
    <ele>45.4</ele>
    <time>2024-07-24T18:56:34.000Z</time>
   </trkpt>
   <trkpt lat="52.503514" lon="13.408393">
    <ele>45</ele>
    <time>2024-07-24T18:56:40.000Z</time>
   </trkpt>
   <trkpt lat="52.503481" lon="13.40721">
    <ele>44.8</ele>
    <time>2024-07-24T18:56:51.000Z</time>
   </trkpt>
   <trkpt lat="52.503561" lon="13.407318">
    <ele>44.8</ele>
    <time>2024-07-24T18:56:54.000Z</time>
   </trkpt>
   <trkpt lat="52.503764" lon="13.407487">
    <ele>44.8</ele>
    <time>2024-07-24T18:57:00.000Z</time>
   </trkpt>
   <trkpt lat="52.503801" lon="13.407519">
    <ele>44.6</ele>
    <time>2024-07-24T18:57:01.000Z</time>
   </trkpt>
   <trkpt lat="52.503941" lon="13.407665">
    <ele>44.8</ele>
    <time>2024-07-24T18:57:05.000Z</time>
   </trkpt>
   <trkpt lat="52.504136" lon="13.407875">
    <ele>44.6</ele>
    <time>2024-07-24T18:57:11.000Z</time>
   </trkpt>
   <trkpt lat="52.504234" lon="13.407978">
    <ele>44.6</ele>
    <time>2024-07-24T18:57:14.000Z</time>
   </trkpt>
   <trkpt lat="52.504287" lon="13.408058">
    <ele>44.6</ele>
    <time>2024-07-24T18:57:16.000Z</time>
   </trkpt>
   <trkpt lat="52.50427" lon="13.408192">
    <ele>44.6</ele>
    <time>2024-07-24T18:57:19.000Z</time>
   </trkpt>
   <trkpt lat="52.504145" lon="13.408646">
    <ele>44.8</ele>
    <time>2024-07-24T18:57:27.000Z</time>
   </trkpt>
   <trkpt lat="52.504143" lon="13.408693">
    <ele>44.8</ele>
    <time>2024-07-24T18:57:28.000Z</time>
   </trkpt>
   <trkpt lat="52.504141" lon="13.408748">
    <ele>44.8</ele>
    <time>2024-07-24T18:57:29.000Z</time>
   </trkpt>
   <trkpt lat="52.504123" lon="13.408916">
    <ele>45</ele>
    <time>2024-07-24T18:57:32.000Z</time>
   </trkpt>
   <trkpt lat="52.504116" lon="13.408994">
    <ele>45</ele>
    <time>2024-07-24T18:57:33.000Z</time>
   </trkpt>
   <trkpt lat="52.50409" lon="13.409187">
    <ele>45</ele>
    <time>2024-07-24T18:57:36.000Z</time>
   </trkpt>
   <trkpt lat="52.504083" lon="13.409249">
    <ele>45</ele>
    <time>2024-07-24T18:57:37.000Z</time>
   </trkpt>
   <trkpt lat="52.504066" lon="13.409381">
    <ele>44.8</ele>
    <time>2024-07-24T18:57:39.000Z</time>
   </trkpt>
   <trkpt lat="52.504032" lon="13.409591">
    <ele>44.8</ele>
    <time>2024-07-24T18:57:42.000Z</time>
   </trkpt>
   <trkpt lat="52.503942" lon="13.410001">
    <ele>44.6</ele>
    <time>2024-07-24T18:57:48.000Z</time>
   </trkpt>
   <trkpt lat="52.503631" lon="13.410215">
    <ele>44.6</ele>
    <time>2024-07-24T18:57:53.000Z</time>
   </trkpt>
   <trkpt lat="52.503473" lon="13.410312">
    <ele>44.8</ele>
    <time>2024-07-24T18:57:57.000Z</time>
   </trkpt>
   <trkpt lat="52.503405" lon="13.410384">
    <ele>44.8</ele>
    <time>2024-07-24T18:57:59.000Z</time>
   </trkpt>
   <trkpt lat="52.503366" lon="13.410463">
    <ele>44.8</ele>
    <time>2024-07-24T18:58:01.000Z</time>
   </trkpt>
   <trkpt lat="52.503377" lon="13.410559">
    <ele>44.8</ele>
    <time>2024-07-24T18:58:02.000Z</time>
   </trkpt>
   <trkpt lat="52.503394" lon="13.410667">
    <ele>44.8</ele>
    <time>2024-07-24T18:58:03.000Z</time>
   </trkpt>
   <trkpt lat="52.503449" lon="13.410973">
    <ele>44.8</ele>
    <time>2024-07-24T18:58:07.000Z</time>
   </trkpt>
   <trkpt lat="52.50346" lon="13.411054">
    <ele>44.8</ele>
    <time>2024-07-24T18:58:08.000Z</time>
   </trkpt>
   <trkpt lat="52.50345" lon="13.411209">
    <ele>44.6</ele>
    <time>2024-07-24T18:58:10.000Z</time>
   </trkpt>
   <trkpt lat="52.50344" lon="13.411283">
    <ele>44.4</ele>
    <time>2024-07-24T18:58:11.000Z</time>
   </trkpt>
   <trkpt lat="52.503425" lon="13.411357">
    <ele>44.6</ele>
    <time>2024-07-24T18:58:12.000Z</time>
   </trkpt>
   <trkpt lat="52.503389" lon="13.411486">
    <ele>44.6</ele>
    <time>2024-07-24T18:58:14.000Z</time>
   </trkpt>
   <trkpt lat="52.503359" lon="13.411641">
    <ele>44.6</ele>
    <time>2024-07-24T18:58:16.000Z</time>
   </trkpt>
   <trkpt lat="52.503336" lon="13.411781">
    <ele>44.4</ele>
    <time>2024-07-24T18:58:18.000Z</time>
   </trkpt>
   <trkpt lat="52.503326" lon="13.41185">
    <ele>44.4</ele>
    <time>2024-07-24T18:58:19.000Z</time>
   </trkpt>
   <trkpt lat="52.503307" lon="13.411921">
    <ele>44.4</ele>
    <time>2024-07-24T18:58:20.000Z</time>
   </trkpt>
   <trkpt lat="52.503283" lon="13.412005">
    <ele>44.4</ele>
    <time>2024-07-24T18:58:21.000Z</time>
   </trkpt>
   <trkpt lat="52.503242" lon="13.412096">
    <ele>44.4</ele>
    <time>2024-07-24T18:58:22.000Z</time>
   </trkpt>
   <trkpt lat="52.503159" lon="13.412281">
    <ele>44.4</ele>
    <time>2024-07-24T18:58:24.000Z</time>
   </trkpt>
   <trkpt lat="52.503101" lon="13.412465">
    <ele>44.4</ele>
    <time>2024-07-24T18:58:26.000Z</time>
   </trkpt>
   <trkpt lat="52.503022" lon="13.412745">
    <ele>44.4</ele>
    <time>2024-07-24T18:58:29.000Z</time>
   </trkpt>
   <trkpt lat="52.502999" lon="13.412846">
    <ele>44.4</ele>
    <time>2024-07-24T18:58:30.000Z</time>
   </trkpt>
   <trkpt lat="52.502907" lon="13.41322">
    <ele>44.4</ele>
    <time>2024-07-24T18:58:34.000Z</time>
   </trkpt>
   <trkpt lat="52.502825" lon="13.413495">
    <ele>44.4</ele>
    <time>2024-07-24T18:58:37.000Z</time>
   </trkpt>
   <trkpt lat="52.502758" lon="13.41367">
    <ele>44.4</ele>
    <time>2024-07-24T18:58:39.000Z</time>
   </trkpt>
   <trkpt lat="52.502649" lon="13.414036">
    <ele>44.2</ele>
    <time>2024-07-24T18:58:43.000Z</time>
   </trkpt>
   <trkpt lat="52.502624" lon="13.414207">
    <ele>44</ele>
    <time>2024-07-24T18:58:45.000Z</time>
   </trkpt>
   <trkpt lat="52.50256" lon="13.414593">
    <ele>44</ele>
    <time>2024-07-24T18:58:50.000Z</time>
   </trkpt>
   <trkpt lat="52.502433" lon="13.414773">
    <ele>44.4</ele>
    <time>2024-07-24T18:58:53.000Z</time>
   </trkpt>
   <trkpt lat="52.502376" lon="13.414859">
    <ele>44.4</ele>
    <time>2024-07-24T18:58:55.000Z</time>
   </trkpt>
   <trkpt lat="52.50226" lon="13.415101">
    <ele>44.4</ele>
    <time>2024-07-24T18:58:59.000Z</time>
   </trkpt>
   <trkpt lat="52.502206" lon="13.415273">
    <ele>44.4</ele>
    <time>2024-07-24T18:59:01.000Z</time>
   </trkpt>
   <trkpt lat="52.502038" lon="13.415849">
    <ele>44.4</ele>
    <time>2024-07-24T18:59:07.000Z</time>
   </trkpt>
   <trkpt lat="52.501987" lon="13.416143">
    <ele>44.2</ele>
    <time>2024-07-24T18:59:10.000Z</time>
   </trkpt>
   <trkpt lat="52.501955" lon="13.416442">
    <ele>44.2</ele>
    <time>2024-07-24T18:59:13.000Z</time>
   </trkpt>
   <trkpt lat="52.501924" lon="13.416636">
    <ele>44.2</ele>
    <time>2024-07-24T18:59:15.000Z</time>
   </trkpt>
   <trkpt lat="52.50187" lon="13.41682">
    <ele>44.2</ele>
    <time>2024-07-24T18:59:17.000Z</time>
   </trkpt>
   <trkpt lat="52.501702" lon="13.417532">
    <ele>43.8</ele>
    <time>2024-07-24T18:59:24.000Z</time>
   </trkpt>
   <trkpt lat="52.501677" lon="13.417632">
    <ele>43.8</ele>
    <time>2024-07-24T18:59:25.000Z</time>
   </trkpt>
   <trkpt lat="52.501633" lon="13.417842">
    <ele>43.8</ele>
    <time>2024-07-24T18:59:27.000Z</time>
   </trkpt>
   <trkpt lat="52.501606" lon="13.417937">
    <ele>43.8</ele>
    <time>2024-07-24T18:59:28.000Z</time>
   </trkpt>
   <trkpt lat="52.501579" lon="13.418027">
    <ele>43.8</ele>
    <time>2024-07-24T18:59:29.000Z</time>
   </trkpt>
   <trkpt lat="52.50146" lon="13.418475">
    <ele>43.8</ele>
    <time>2024-07-24T18:59:34.000Z</time>
   </trkpt>
   <trkpt lat="52.501447" lon="13.418679">
    <ele>43.8</ele>
    <time>2024-07-24T18:59:36.000Z</time>
   </trkpt>
   <trkpt lat="52.501397" lon="13.418822">
    <ele>43.8</ele>
    <time>2024-07-24T18:59:38.000Z</time>
   </trkpt>
   <trkpt lat="52.501369" lon="13.418947">
    <ele>44</ele>
    <time>2024-07-24T18:59:40.000Z</time>
   </trkpt>
   <trkpt lat="52.501352" lon="13.419006">
    <ele>44</ele>
    <time>2024-07-24T18:59:41.000Z</time>
   </trkpt>
   <trkpt lat="52.501338" lon="13.419084">
    <ele>44</ele>
    <time>2024-07-24T18:59:44.000Z</time>
   </trkpt>
   <trkpt lat="52.501337" lon="13.4191">
    <ele>44</ele>
    <time>2024-07-24T18:59:53.000Z</time>
   </trkpt>
   <trkpt lat="52.501274" lon="13.419258">
    <ele>44</ele>
    <time>2024-07-24T18:59:57.000Z</time>
   </trkpt>
   <trkpt lat="52.501229" lon="13.41939">
    <ele>44</ele>
    <time>2024-07-24T18:59:59.000Z</time>
   </trkpt>
   <trkpt lat="52.50119" lon="13.419545">
    <ele>44</ele>
    <time>2024-07-24T19:00:01.000Z</time>
   </trkpt>
   <trkpt lat="52.50106" lon="13.41997">
    <ele>44</ele>
    <time>2024-07-24T19:00:06.000Z</time>
   </trkpt>
   <trkpt lat="52.501025" lon="13.420052">
    <ele>43.8</ele>
    <time>2024-07-24T19:00:07.000Z</time>
   </trkpt>
   <trkpt lat="52.500998" lon="13.42014">
    <ele>43.8</ele>
    <time>2024-07-24T19:00:08.000Z</time>
   </trkpt>
   <trkpt lat="52.500898" lon="13.420507">
    <ele>43.8</ele>
    <time>2024-07-24T19:00:12.000Z</time>
   </trkpt>
   <trkpt lat="52.500805" lon="13.420883">
    <ele>44</ele>
    <time>2024-07-24T19:00:16.000Z</time>
   </trkpt>
   <trkpt lat="52.500776" lon="13.420973">
    <ele>44</ele>
    <time>2024-07-24T19:00:17.000Z</time>
   </trkpt>
   <trkpt lat="52.500754" lon="13.421074">
    <ele>44</ele>
    <time>2024-07-24T19:00:18.000Z</time>
   </trkpt>
   <trkpt lat="52.50067" lon="13.421366">
    <ele>44</ele>
    <time>2024-07-24T19:00:21.000Z</time>
   </trkpt>
   <trkpt lat="52.500525" lon="13.421943">
    <ele>44</ele>
    <time>2024-07-24T19:00:27.000Z</time>
   </trkpt>
   <trkpt lat="52.500496" lon="13.422229">
    <ele>44</ele>
    <time>2024-07-24T19:00:30.000Z</time>
   </trkpt>
   <trkpt lat="52.500466" lon="13.422416">
    <ele>44.2</ele>
    <time>2024-07-24T19:00:32.000Z</time>
   </trkpt>
   <trkpt lat="52.500302" lon="13.422786">
    <ele>44.2</ele>
    <time>2024-07-24T19:00:36.000Z</time>
   </trkpt>
   <trkpt lat="52.500264" lon="13.42287">
    <ele>44.2</ele>
    <time>2024-07-24T19:00:37.000Z</time>
   </trkpt>
   <trkpt lat="52.500152" lon="13.423241">
    <ele>44.2</ele>
    <time>2024-07-24T19:00:41.000Z</time>
   </trkpt>
   <trkpt lat="52.500126" lon="13.42333">
    <ele>44.2</ele>
    <time>2024-07-24T19:00:42.000Z</time>
   </trkpt>
   <trkpt lat="52.499899" lon="13.424063">
    <ele>44.4</ele>
    <time>2024-07-24T19:00:50.000Z</time>
   </trkpt>
   <trkpt lat="52.499823" lon="13.424324">
    <ele>44.4</ele>
    <time>2024-07-24T19:00:53.000Z</time>
   </trkpt>
   <trkpt lat="52.499712" lon="13.424681">
    <ele>44.6</ele>
    <time>2024-07-24T19:00:57.000Z</time>
   </trkpt>
   <trkpt lat="52.499671" lon="13.424876">
    <ele>44.6</ele>
    <time>2024-07-24T19:00:59.000Z</time>
   </trkpt>
   <trkpt lat="52.499598" lon="13.425224">
    <ele>44.6</ele>
    <time>2024-07-24T19:01:03.000Z</time>
   </trkpt>
   <trkpt lat="52.499558" lon="13.425386">
    <ele>44.4</ele>
    <time>2024-07-24T19:01:05.000Z</time>
   </trkpt>
   <trkpt lat="52.499532" lon="13.425469">
    <ele>44.4</ele>
    <time>2024-07-24T19:01:06.000Z</time>
   </trkpt>
   <trkpt lat="52.499476" lon="13.425697">
    <ele>44.4</ele>
    <time>2024-07-24T19:01:10.000Z</time>
   </trkpt>
   <trkpt lat="52.499475" lon="13.425799">
    <ele>44.4</ele>
    <time>2024-07-24T19:01:14.000Z</time>
   </trkpt>
   <trkpt lat="52.499468" lon="13.425811">
    <ele>44.4</ele>
    <time>2024-07-24T19:01:16.000Z</time>
   </trkpt>
   <trkpt lat="52.499454" lon="13.425827">
    <ele>44.6</ele>
    <time>2024-07-24T19:01:18.000Z</time>
   </trkpt>
   <trkpt lat="52.499422" lon="13.425949">
    <ele>44.8</ele>
    <time>2024-07-24T19:01:26.000Z</time>
   </trkpt>
   <trkpt lat="52.499423" lon="13.425959">
    <ele>44.8</ele>
    <time>2024-07-24T19:01:27.000Z</time>
   </trkpt>
   <trkpt lat="52.499421" lon="13.425967">
    <ele>44.8</ele>
    <time>2024-07-24T19:01:29.000Z</time>
   </trkpt>
   <trkpt lat="52.499415" lon="13.42598">
    <ele>44.8</ele>
    <time>2024-07-24T19:01:30.000Z</time>
   </trkpt>
   <trkpt lat="52.499408" lon="13.425993">
    <ele>44.8</ele>
    <time>2024-07-24T19:01:31.000Z</time>
   </trkpt>
   <trkpt lat="52.499406" lon="13.426005">
    <ele>44.8</ele>
    <time>2024-07-24T19:01:33.000Z</time>
   </trkpt>
   <trkpt lat="52.499368" lon="13.426166">
    <ele>44.6</ele>
    <time>2024-07-24T19:01:40.000Z</time>
   </trkpt>
   <trkpt lat="52.499275" lon="13.426363">
    <ele>44.6</ele>
    <time>2024-07-24T19:01:44.000Z</time>
   </trkpt>
   <trkpt lat="52.49926" lon="13.426406">
    <ele>44.6</ele>
    <time>2024-07-24T19:01:45.000Z</time>
   </trkpt>
   <trkpt lat="52.499244" lon="13.426447">
    <ele>44.6</ele>
    <time>2024-07-24T19:01:46.000Z</time>
   </trkpt>
   <trkpt lat="52.499215" lon="13.426493">
    <ele>44.8</ele>
    <time>2024-07-24T19:01:48.000Z</time>
   </trkpt>
   <trkpt lat="52.499207" lon="13.426519">
    <ele>44.8</ele>
    <time>2024-07-24T19:01:49.000Z</time>
   </trkpt>
   <trkpt lat="52.499174" lon="13.426665">
    <ele>44.8</ele>
    <time>2024-07-24T19:01:51.000Z</time>
   </trkpt>
   <trkpt lat="52.499149" lon="13.426758">
    <ele>45</ele>
    <time>2024-07-24T19:01:52.000Z</time>
   </trkpt>
   <trkpt lat="52.498967" lon="13.427383">
    <ele>45</ele>
    <time>2024-07-24T19:01:59.000Z</time>
   </trkpt>
   <trkpt lat="52.498812" lon="13.427886">
    <ele>44.8</ele>
    <time>2024-07-24T19:02:04.000Z</time>
   </trkpt>
   <trkpt lat="52.498731" lon="13.428117">
    <ele>44.8</ele>
    <time>2024-07-24T19:02:06.000Z</time>
   </trkpt>
   <trkpt lat="52.49847" lon="13.42884">
    <ele>44.8</ele>
    <time>2024-07-24T19:02:13.000Z</time>
   </trkpt>
   <trkpt lat="52.498263" lon="13.429411">
    <ele>44.6</ele>
    <time>2024-07-24T19:02:19.000Z</time>
   </trkpt>
   <trkpt lat="52.497992" lon="13.430199">
    <ele>44.8</ele>
    <time>2024-07-24T19:02:27.000Z</time>
   </trkpt>
   <trkpt lat="52.497849" lon="13.43064">
    <ele>44.8</ele>
    <time>2024-07-24T19:02:32.000Z</time>
   </trkpt>
   <trkpt lat="52.497612" lon="13.431246">
    <ele>44.8</ele>
    <time>2024-07-24T19:02:40.000Z</time>
   </trkpt>
   <trkpt lat="52.497516" lon="13.431514">
    <ele>44.8</ele>
    <time>2024-07-24T19:02:45.000Z</time>
   </trkpt>
   <trkpt lat="52.497442" lon="13.431673">
    <ele>45</ele>
    <time>2024-07-24T19:02:50.000Z</time>
   </trkpt>
   <trkpt lat="52.497412" lon="13.431765">
    <ele>45.2</ele>
    <time>2024-07-24T19:02:55.000Z</time>
   </trkpt>
   <trkpt lat="52.497403" lon="13.431787">
    <ele>45.2</ele>
    <time>2024-07-24T19:03:00.000Z</time>
   </trkpt>
   <trkpt lat="52.497395" lon="13.431799">
    <ele>45.2</ele>
    <time>2024-07-24T19:03:01.000Z</time>
   </trkpt>
   <trkpt lat="52.497384" lon="13.431827">
    <ele>45.2</ele>
    <time>2024-07-24T19:03:02.000Z</time>
   </trkpt>
   <trkpt lat="52.497304" lon="13.432054">
    <ele>45.2</ele>
    <time>2024-07-24T19:03:06.000Z</time>
   </trkpt>
   <trkpt lat="52.497194" lon="13.432482">
    <ele>45</ele>
    <time>2024-07-24T19:03:11.000Z</time>
   </trkpt>
   <trkpt lat="52.497034" lon="13.432934">
    <ele>44.8</ele>
    <time>2024-07-24T19:03:16.000Z</time>
   </trkpt>
   <trkpt lat="52.496842" lon="13.433532">
    <ele>44.6</ele>
    <time>2024-07-24T19:03:22.000Z</time>
   </trkpt>
   <trkpt lat="52.496687" lon="13.434015">
    <ele>44.4</ele>
    <time>2024-07-24T19:03:27.000Z</time>
   </trkpt>
   <trkpt lat="52.4964" lon="13.434832">
    <ele>44.4</ele>
    <time>2024-07-24T19:03:35.000Z</time>
   </trkpt>
   <trkpt lat="52.496127" lon="13.435658">
    <ele>44.4</ele>
    <time>2024-07-24T19:03:43.000Z</time>
   </trkpt>
   <trkpt lat="52.496096" lon="13.43576">
    <ele>44.4</ele>
    <time>2024-07-24T19:03:44.000Z</time>
   </trkpt>
   <trkpt lat="52.495819" lon="13.436591">
    <ele>44.6</ele>
    <time>2024-07-24T19:03:52.000Z</time>
   </trkpt>
   <trkpt lat="52.49571" lon="13.436897">
    <ele>44.8</ele>
    <time>2024-07-24T19:03:55.000Z</time>
   </trkpt>
   <trkpt lat="52.495671" lon="13.436995">
    <ele>44.8</ele>
    <time>2024-07-24T19:03:56.000Z</time>
   </trkpt>
   <trkpt lat="52.49557" lon="13.437265">
    <ele>45</ele>
    <time>2024-07-24T19:03:59.000Z</time>
   </trkpt>
   <trkpt lat="52.4954" lon="13.437784">
    <ele>45</ele>
    <time>2024-07-24T19:04:05.000Z</time>
   </trkpt>
   <trkpt lat="52.495307" lon="13.438037">
    <ele>45</ele>
    <time>2024-07-24T19:04:09.000Z</time>
   </trkpt>
   <trkpt lat="52.495237" lon="13.438237">
    <ele>45</ele>
    <time>2024-07-24T19:04:13.000Z</time>
   </trkpt>
   <trkpt lat="52.495135" lon="13.438497">
    <ele>45</ele>
    <time>2024-07-24T19:04:17.000Z</time>
   </trkpt>
   <trkpt lat="52.495095" lon="13.438621">
    <ele>45</ele>
    <time>2024-07-24T19:04:19.000Z</time>
   </trkpt>
   <trkpt lat="52.495069" lon="13.438681">
    <ele>45</ele>
    <time>2024-07-24T19:04:20.000Z</time>
   </trkpt>
   <trkpt lat="52.494955" lon="13.438979">
    <ele>45</ele>
    <time>2024-07-24T19:04:24.000Z</time>
   </trkpt>
   <trkpt lat="52.494779" lon="13.439578">
    <ele>44.8</ele>
    <time>2024-07-24T19:04:31.000Z</time>
   </trkpt>
   <trkpt lat="52.494709" lon="13.439866">
    <ele>44.8</ele>
    <time>2024-07-24T19:04:34.000Z</time>
   </trkpt>
   <trkpt lat="52.494654" lon="13.44006">
    <ele>44.6</ele>
    <time>2024-07-24T19:04:36.000Z</time>
   </trkpt>
   <trkpt lat="52.494401" lon="13.440808">
    <ele>44.8</ele>
    <time>2024-07-24T19:04:44.000Z</time>
   </trkpt>
   <trkpt lat="52.49421" lon="13.441441">
    <ele>44.6</ele>
    <time>2024-07-24T19:04:51.000Z</time>
   </trkpt>
   <trkpt lat="52.494179" lon="13.441533">
    <ele>44.6</ele>
    <time>2024-07-24T19:04:52.000Z</time>
   </trkpt>
   <trkpt lat="52.49402" lon="13.442016">
    <ele>44.4</ele>
    <time>2024-07-24T19:04:57.000Z</time>
   </trkpt>
   <trkpt lat="52.493833" lon="13.442585">
    <ele>44.2</ele>
    <time>2024-07-24T19:05:03.000Z</time>
   </trkpt>
   <trkpt lat="52.493805" lon="13.442692">
    <ele>44.2</ele>
    <time>2024-07-24T19:05:04.000Z</time>
   </trkpt>
   <trkpt lat="52.49379" lon="13.442924">
    <ele>44.2</ele>
    <time>2024-07-24T19:05:06.000Z</time>
   </trkpt>
   <trkpt lat="52.493837" lon="13.443154">
    <ele>44.2</ele>
    <time>2024-07-24T19:05:08.000Z</time>
   </trkpt>
   <trkpt lat="52.493881" lon="13.443254">
    <ele>44</ele>
    <time>2024-07-24T19:05:09.000Z</time>
   </trkpt>
   <trkpt lat="52.493927" lon="13.443335">
    <ele>44</ele>
    <time>2024-07-24T19:05:10.000Z</time>
   </trkpt>
   <trkpt lat="52.494136" lon="13.443631">
    <ele>43.8</ele>
    <time>2024-07-24T19:05:14.000Z</time>
   </trkpt>
   <trkpt lat="52.494244" lon="13.443786">
    <ele>43.6</ele>
    <time>2024-07-24T19:05:16.000Z</time>
   </trkpt>
   <trkpt lat="52.494294" lon="13.443877">
    <ele>43.6</ele>
    <time>2024-07-24T19:05:17.000Z</time>
   </trkpt>
   <trkpt lat="52.494393" lon="13.444059">
    <ele>43.6</ele>
    <time>2024-07-24T19:05:19.000Z</time>
   </trkpt>
   <trkpt lat="52.49472" lon="13.444524">
    <ele>42.8</ele>
    <time>2024-07-24T19:05:25.000Z</time>
   </trkpt>
   <trkpt lat="52.495043" lon="13.444942">
    <ele>43.2</ele>
    <time>2024-07-24T19:05:32.000Z</time>
   </trkpt>
   <trkpt lat="52.495163" lon="13.445089">
    <ele>43.6</ele>
    <time>2024-07-24T19:05:35.000Z</time>
   </trkpt>
   <trkpt lat="52.495264" lon="13.445221">
    <ele>44.2</ele>
    <time>2024-07-24T19:05:38.000Z</time>
   </trkpt>
   <trkpt lat="52.495575" lon="13.44562">
    <ele>44.2</ele>
    <time>2024-07-24T19:05:46.000Z</time>
   </trkpt>
   <trkpt lat="52.495647" lon="13.445715">
    <ele>44.2</ele>
    <time>2024-07-24T19:05:48.000Z</time>
   </trkpt>
   <trkpt lat="52.495719" lon="13.445835">
    <ele>44</ele>
    <time>2024-07-24T19:05:50.000Z</time>
   </trkpt>
   <trkpt lat="52.495787" lon="13.445968">
    <ele>44</ele>
    <time>2024-07-24T19:05:52.000Z</time>
   </trkpt>
   <trkpt lat="52.495813" lon="13.446035">
    <ele>44.2</ele>
    <time>2024-07-24T19:05:53.000Z</time>
   </trkpt>
   <trkpt lat="52.495873" lon="13.44619">
    <ele>44.2</ele>
    <time>2024-07-24T19:05:55.000Z</time>
   </trkpt>
   <trkpt lat="52.495938" lon="13.446284">
    <ele>44.4</ele>
    <time>2024-07-24T19:05:57.000Z</time>
   </trkpt>
   <trkpt lat="52.496153" lon="13.446543">
    <ele>44.6</ele>
    <time>2024-07-24T19:06:02.000Z</time>
   </trkpt>
   <trkpt lat="52.496201" lon="13.446595">
    <ele>44.8</ele>
    <time>2024-07-24T19:06:03.000Z</time>
   </trkpt>
   <trkpt lat="52.496451" lon="13.446938">
    <ele>44.8</ele>
    <time>2024-07-24T19:06:08.000Z</time>
   </trkpt>
   <trkpt lat="52.496496" lon="13.446993">
    <ele>44.8</ele>
    <time>2024-07-24T19:06:09.000Z</time>
   </trkpt>
   <trkpt lat="52.496727" lon="13.447283">
    <ele>44.8</ele>
    <time>2024-07-24T19:06:14.000Z</time>
   </trkpt>
   <trkpt lat="52.496891" lon="13.447514">
    <ele>45</ele>
    <time>2024-07-24T19:06:18.000Z</time>
   </trkpt>
   <trkpt lat="52.496933" lon="13.447563">
    <ele>44.8</ele>
    <time>2024-07-24T19:06:19.000Z</time>
   </trkpt>
   <trkpt lat="52.497144" lon="13.447839">
    <ele>45</ele>
    <time>2024-07-24T19:06:24.000Z</time>
   </trkpt>
   <trkpt lat="52.497192" lon="13.447911">
    <ele>45</ele>
    <time>2024-07-24T19:06:25.000Z</time>
   </trkpt>
   <trkpt lat="52.497308" lon="13.448057">
    <ele>45</ele>
    <time>2024-07-24T19:06:28.000Z</time>
   </trkpt>
   <trkpt lat="52.497451" lon="13.448306">
    <ele>45.4</ele>
    <time>2024-07-24T19:06:34.000Z</time>
   </trkpt>
   <trkpt lat="52.497398" lon="13.448461">
    <ele>45.6</ele>
    <time>2024-07-24T19:06:38.000Z</time>
   </trkpt>
   <trkpt lat="52.497374" lon="13.448508">
    <ele>45.6</ele>
    <time>2024-07-24T19:06:39.000Z</time>
   </trkpt>
   <trkpt lat="52.497228" lon="13.448769">
    <ele>45.8</ele>
    <time>2024-07-24T19:06:44.000Z</time>
   </trkpt>
   <trkpt lat="52.49702" lon="13.449117">
    <ele>45.6</ele>
    <time>2024-07-24T19:06:49.000Z</time>
   </trkpt>
   <trkpt lat="52.49686" lon="13.449407">
    <ele>45</ele>
    <time>2024-07-24T19:06:53.000Z</time>
   </trkpt>
   <trkpt lat="52.496744" lon="13.449591">
    <ele>44.8</ele>
    <time>2024-07-24T19:06:56.000Z</time>
   </trkpt>
   <trkpt lat="52.496429" lon="13.450103">
    <ele>44.8</ele>
    <time>2024-07-24T19:07:05.000Z</time>
   </trkpt>
   <trkpt lat="52.496228" lon="13.450437">
    <ele>44.8</ele>
    <time>2024-07-24T19:07:10.000Z</time>
   </trkpt>
   <trkpt lat="52.495904" lon="13.451004">
    <ele>44.8</ele>
    <time>2024-07-24T19:07:18.000Z</time>
   </trkpt>
   <trkpt lat="52.495778" lon="13.451212">
    <ele>44.6</ele>
    <time>2024-07-24T19:07:21.000Z</time>
   </trkpt>
   <trkpt lat="52.495486" lon="13.451699">
    <ele>44.2</ele>
    <time>2024-07-24T19:07:28.000Z</time>
   </trkpt>
   <trkpt lat="52.495278" lon="13.452056">
    <ele>44</ele>
    <time>2024-07-24T19:07:33.000Z</time>
   </trkpt>
   <trkpt lat="52.495028" lon="13.45247">
    <ele>44</ele>
    <time>2024-07-24T19:07:39.000Z</time>
   </trkpt>
   <trkpt lat="52.49479" lon="13.452859">
    <ele>44</ele>
    <time>2024-07-24T19:07:45.000Z</time>
   </trkpt>
   <trkpt lat="52.494701" lon="13.452966">
    <ele>43.8</ele>
    <time>2024-07-24T19:07:47.000Z</time>
   </trkpt>
   <trkpt lat="52.494524" lon="13.453218">
    <ele>43.6</ele>
    <time>2024-07-24T19:07:52.000Z</time>
   </trkpt>
   <trkpt lat="52.494495" lon="13.453275">
    <ele>43.6</ele>
    <time>2024-07-24T19:07:53.000Z</time>
   </trkpt>
   <trkpt lat="52.494234" lon="13.453684">
    <ele>43.4</ele>
    <time>2024-07-24T19:07:59.000Z</time>
   </trkpt>
   <trkpt lat="52.494203" lon="13.453723">
    <ele>43.4</ele>
    <time>2024-07-24T19:08:00.000Z</time>
   </trkpt>
   <trkpt lat="52.494177" lon="13.453765">
    <ele>43.6</ele>
    <time>2024-07-24T19:08:01.000Z</time>
   </trkpt>
   <trkpt lat="52.494106" lon="13.453908">
    <ele>43.8</ele>
    <time>2024-07-24T19:08:04.000Z</time>
   </trkpt>
   <trkpt lat="52.494011" lon="13.454054">
    <ele>44</ele>
    <time>2024-07-24T19:08:09.000Z</time>
   </trkpt>
   <trkpt lat="52.494004" lon="13.454074">
    <ele>44</ele>
    <time>2024-07-24T19:08:11.000Z</time>
   </trkpt>
   <trkpt lat="52.493998" lon="13.454084">
    <ele>44</ele>
    <time>2024-07-24T19:08:12.000Z</time>
   </trkpt>
   <trkpt lat="52.49398" lon="13.454108">
    <ele>44</ele>
    <time>2024-07-24T19:08:14.000Z</time>
   </trkpt>
   <trkpt lat="52.493963" lon="13.454131">
    <ele>44</ele>
    <time>2024-07-24T19:08:15.000Z</time>
   </trkpt>
   <trkpt lat="52.49392" lon="13.45423">
    <ele>44</ele>
    <time>2024-07-24T19:08:18.000Z</time>
   </trkpt>
   <trkpt lat="52.49388" lon="13.454347">
    <ele>44</ele>
    <time>2024-07-24T19:08:20.000Z</time>
   </trkpt>
   <trkpt lat="52.493825" lon="13.454448">
    <ele>43.8</ele>
    <time>2024-07-24T19:08:22.000Z</time>
   </trkpt>
   <trkpt lat="52.49379" lon="13.454497">
    <ele>43.8</ele>
    <time>2024-07-24T19:08:23.000Z</time>
   </trkpt>
   <trkpt lat="52.493524" lon="13.45488">
    <ele>43.6</ele>
    <time>2024-07-24T19:08:29.000Z</time>
   </trkpt>
   <trkpt lat="52.493219" lon="13.45533">
    <ele>43.6</ele>
    <time>2024-07-24T19:08:35.000Z</time>
   </trkpt>
   <trkpt lat="52.492803" lon="13.455941">
    <ele>43.4</ele>
    <time>2024-07-24T19:08:43.000Z</time>
   </trkpt>
   <trkpt lat="52.492474" lon="13.456461">
    <ele>43.4</ele>
    <time>2024-07-24T19:08:50.000Z</time>
   </trkpt>
   <trkpt lat="52.492236" lon="13.456793">
    <ele>43.6</ele>
    <time>2024-07-24T19:08:56.000Z</time>
   </trkpt>
   <trkpt lat="52.492214" lon="13.456819">
    <ele>43.8</ele>
    <time>2024-07-24T19:08:57.000Z</time>
   </trkpt>
   <trkpt lat="52.492133" lon="13.456823">
    <ele>44</ele>
    <time>2024-07-24T19:08:59.000Z</time>
   </trkpt>
   <trkpt lat="52.492025" lon="13.456915">
    <ele>44.2</ele>
    <time>2024-07-24T19:09:04.000Z</time>
   </trkpt>
   <trkpt lat="52.491906" lon="13.457132">
    <ele>44.4</ele>
    <time>2024-07-24T19:09:10.000Z</time>
   </trkpt>
   <trkpt lat="52.491716" lon="13.457366">
    <ele>44.2</ele>
    <time>2024-07-24T19:09:17.000Z</time>
   </trkpt>
   <trkpt lat="52.491662" lon="13.457425">
    <ele>44.2</ele>
    <time>2024-07-24T19:09:20.000Z</time>
   </trkpt>
   <trkpt lat="52.491632" lon="13.457469">
    <ele>44.2</ele>
    <time>2024-07-24T19:09:35.000Z</time>
   </trkpt>
   <trkpt lat="52.49162" lon="13.4575">
    <ele>44.2</ele>
    <time>2024-07-24T19:09:37.000Z</time>
   </trkpt>
   <trkpt lat="52.491572" lon="13.457657">
    <ele>44.2</ele>
    <time>2024-07-24T19:09:41.000Z</time>
   </trkpt>
   <trkpt lat="52.491534" lon="13.457707">
    <ele>44.4</ele>
    <time>2024-07-24T19:09:43.000Z</time>
   </trkpt>
   <trkpt lat="52.491481" lon="13.45778">
    <ele>44.4</ele>
    <time>2024-07-24T19:09:45.000Z</time>
   </trkpt>
   <trkpt lat="52.491458" lon="13.457825">
    <ele>44.4</ele>
    <time>2024-07-24T19:09:46.000Z</time>
   </trkpt>
   <trkpt lat="52.491391" lon="13.457934">
    <ele>44.4</ele>
    <time>2024-07-24T19:09:48.000Z</time>
   </trkpt>
   <trkpt lat="52.491362" lon="13.457988">
    <ele>44.4</ele>
    <time>2024-07-24T19:09:49.000Z</time>
   </trkpt>
   <trkpt lat="52.491333" lon="13.45805">
    <ele>44.4</ele>
    <time>2024-07-24T19:09:50.000Z</time>
   </trkpt>
   <trkpt lat="52.491201" lon="13.45825">
    <ele>44.2</ele>
    <time>2024-07-24T19:09:53.000Z</time>
   </trkpt>
   <trkpt lat="52.491161" lon="13.45831">
    <ele>44.2</ele>
    <time>2024-07-24T19:09:54.000Z</time>
   </trkpt>
   <trkpt lat="52.490974" lon="13.458609">
    <ele>44.2</ele>
    <time>2024-07-24T19:09:58.000Z</time>
   </trkpt>
   <trkpt lat="52.490735" lon="13.458989">
    <ele>43.8</ele>
    <time>2024-07-24T19:10:03.000Z</time>
   </trkpt>
   <trkpt lat="52.490662" lon="13.459156">
    <ele>43.6</ele>
    <time>2024-07-24T19:10:05.000Z</time>
   </trkpt>
   <trkpt lat="52.490432" lon="13.459476">
    <ele>43.2</ele>
    <time>2024-07-24T19:10:09.000Z</time>
   </trkpt>
   <trkpt lat="52.490233" lon="13.459804">
    <ele>42.4</ele>
    <time>2024-07-24T19:10:13.000Z</time>
   </trkpt>
   <trkpt lat="52.490069" lon="13.460088">
    <ele>42.4</ele>
    <time>2024-07-24T19:10:16.000Z</time>
   </trkpt>
   <trkpt lat="52.489739" lon="13.460563">
    <ele>42.4</ele>
    <time>2024-07-24T19:10:22.000Z</time>
   </trkpt>
   <trkpt lat="52.489335" lon="13.461138">
    <ele>42.6</ele>
    <time>2024-07-24T19:10:29.000Z</time>
   </trkpt>
   <trkpt lat="52.48901" lon="13.461597">
    <ele>42.6</ele>
    <time>2024-07-24T19:10:35.000Z</time>
   </trkpt>
   <trkpt lat="52.488841" lon="13.461825">
    <ele>42.6</ele>
    <time>2024-07-24T19:10:38.000Z</time>
   </trkpt>
   <trkpt lat="52.488396" lon="13.462468">
    <ele>42.8</ele>
    <time>2024-07-24T19:10:46.000Z</time>
   </trkpt>
   <trkpt lat="52.488338" lon="13.462552">
    <ele>42.8</ele>
    <time>2024-07-24T19:10:47.000Z</time>
   </trkpt>
   <trkpt lat="52.487885" lon="13.463217">
    <ele>42.6</ele>
    <time>2024-07-24T19:10:55.000Z</time>
   </trkpt>
   <trkpt lat="52.487831" lon="13.4633">
    <ele>42.6</ele>
    <time>2024-07-24T19:10:56.000Z</time>
   </trkpt>
   <trkpt lat="52.487387" lon="13.463941">
    <ele>42.8</ele>
    <time>2024-07-24T19:11:04.000Z</time>
   </trkpt>
   <trkpt lat="52.486958" lon="13.464576">
    <ele>42.8</ele>
    <time>2024-07-24T19:11:12.000Z</time>
   </trkpt>
   <trkpt lat="52.486862" lon="13.464719">
    <ele>43</ele>
    <time>2024-07-24T19:11:14.000Z</time>
   </trkpt>
   <trkpt lat="52.486531" lon="13.465155">
    <ele>43</ele>
    <time>2024-07-24T19:11:20.000Z</time>
   </trkpt>
   <trkpt lat="52.486178" lon="13.4657">
    <ele>42.8</ele>
    <time>2024-07-24T19:11:27.000Z</time>
   </trkpt>
   <trkpt lat="52.486077" lon="13.465864">
    <ele>43</ele>
    <time>2024-07-24T19:11:29.000Z</time>
   </trkpt>
   <trkpt lat="52.485915" lon="13.466106">
    <ele>43</ele>
    <time>2024-07-24T19:11:32.000Z</time>
   </trkpt>
   <trkpt lat="52.485628" lon="13.466534">
    <ele>43</ele>
    <time>2024-07-24T19:11:37.000Z</time>
   </trkpt>
   <trkpt lat="52.485525" lon="13.466678">
    <ele>43</ele>
    <time>2024-07-24T19:11:39.000Z</time>
   </trkpt>
   <trkpt lat="52.485112" lon="13.467315">
    <ele>43</ele>
    <time>2024-07-24T19:11:47.000Z</time>
   </trkpt>
   <trkpt lat="52.484681" lon="13.467936">
    <ele>43</ele>
    <time>2024-07-24T19:11:55.000Z</time>
   </trkpt>
   <trkpt lat="52.484294" lon="13.468543">
    <ele>42.6</ele>
    <time>2024-07-24T19:12:02.000Z</time>
   </trkpt>
   <trkpt lat="52.48385" lon="13.469218">
    <ele>42.6</ele>
    <time>2024-07-24T19:12:10.000Z</time>
   </trkpt>
   <trkpt lat="52.483469" lon="13.4698">
    <ele>42.8</ele>
    <time>2024-07-24T19:12:17.000Z</time>
   </trkpt>
   <trkpt lat="52.483041" lon="13.470447">
    <ele>43</ele>
    <time>2024-07-24T19:12:25.000Z</time>
   </trkpt>
   <trkpt lat="52.482633" lon="13.471042">
    <ele>43.2</ele>
    <time>2024-07-24T19:12:32.000Z</time>
   </trkpt>
   <trkpt lat="52.482587" lon="13.471106">
    <ele>43.2</ele>
    <time>2024-07-24T19:12:33.000Z</time>
   </trkpt>
   <trkpt lat="52.482138" lon="13.471768">
    <ele>43.2</ele>
    <time>2024-07-24T19:12:41.000Z</time>
   </trkpt>
   <trkpt lat="52.482027" lon="13.471921">
    <ele>43.2</ele>
    <time>2024-07-24T19:12:43.000Z</time>
   </trkpt>
   <trkpt lat="52.481585" lon="13.472558">
    <ele>43.4</ele>
    <time>2024-07-24T19:12:51.000Z</time>
   </trkpt>
   <trkpt lat="52.48115" lon="13.473221">
    <ele>43.2</ele>
    <time>2024-07-24T19:12:59.000Z</time>
   </trkpt>
   <trkpt lat="52.481043" lon="13.473381">
    <ele>43</ele>
    <time>2024-07-24T19:13:01.000Z</time>
   </trkpt>
   <trkpt lat="52.48061" lon="13.474037">
    <ele>43.2</ele>
    <time>2024-07-24T19:13:09.000Z</time>
   </trkpt>
   <trkpt lat="52.480182" lon="13.474681">
    <ele>43.2</ele>
    <time>2024-07-24T19:13:17.000Z</time>
   </trkpt>
   <trkpt lat="52.479971" lon="13.474989">
    <ele>43.2</ele>
    <time>2024-07-24T19:13:21.000Z</time>
   </trkpt>
   <trkpt lat="52.479536" lon="13.475639">
    <ele>43.2</ele>
    <time>2024-07-24T19:13:29.000Z</time>
   </trkpt>
   <trkpt lat="52.479105" lon="13.476258">
    <ele>43.2</ele>
    <time>2024-07-24T19:13:37.000Z</time>
   </trkpt>
   <trkpt lat="52.478648" lon="13.476906">
    <ele>43.2</ele>
    <time>2024-07-24T19:13:45.000Z</time>
   </trkpt>
   <trkpt lat="52.478245" lon="13.477516">
    <ele>43.2</ele>
    <time>2024-07-24T19:13:52.000Z</time>
   </trkpt>
   <trkpt lat="52.47807" lon="13.477768">
    <ele>43.2</ele>
    <time>2024-07-24T19:13:55.000Z</time>
   </trkpt>
   <trkpt lat="52.477713" lon="13.478323">
    <ele>43.4</ele>
    <time>2024-07-24T19:14:02.000Z</time>
   </trkpt>
   <trkpt lat="52.477664" lon="13.478393">
    <ele>43.4</ele>
    <time>2024-07-24T19:14:03.000Z</time>
   </trkpt>
   <trkpt lat="52.477563" lon="13.478472">
    <ele>43.6</ele>
    <time>2024-07-24T19:14:05.000Z</time>
   </trkpt>
   <trkpt lat="52.477472" lon="13.478413">
    <ele>43.6</ele>
    <time>2024-07-24T19:14:07.000Z</time>
   </trkpt>
   <trkpt lat="52.47728" lon="13.478042">
    <ele>43.4</ele>
    <time>2024-07-24T19:14:11.000Z</time>
   </trkpt>
   <trkpt lat="52.476967" lon="13.47746">
    <ele>43</ele>
    <time>2024-07-24T19:14:17.000Z</time>
   </trkpt>
   <trkpt lat="52.476592" lon="13.476756">
    <ele>42.4</ele>
    <time>2024-07-24T19:14:24.000Z</time>
   </trkpt>
   <trkpt lat="52.476486" lon="13.476551">
    <ele>42.2</ele>
    <time>2024-07-24T19:14:26.000Z</time>
   </trkpt>
   <trkpt lat="52.476225" lon="13.476103">
    <ele>42.2</ele>
    <time>2024-07-24T19:14:31.000Z</time>
   </trkpt>
   <trkpt lat="52.476083" lon="13.475849">
    <ele>42.4</ele>
    <time>2024-07-24T19:14:35.000Z</time>
   </trkpt>
   <trkpt lat="52.475997" lon="13.475775">
    <ele>42.4</ele>
    <time>2024-07-24T19:14:37.000Z</time>
   </trkpt>
   <trkpt lat="52.475946" lon="13.475785">
    <ele>42.4</ele>
    <time>2024-07-24T19:14:38.000Z</time>
   </trkpt>
   <trkpt lat="52.475904" lon="13.475814">
    <ele>42.6</ele>
    <time>2024-07-24T19:14:39.000Z</time>
   </trkpt>
   <trkpt lat="52.475828" lon="13.475901">
    <ele>42.6</ele>
    <time>2024-07-24T19:14:41.000Z</time>
   </trkpt>
   <trkpt lat="52.475722" lon="13.476047">
    <ele>42.8</ele>
    <time>2024-07-24T19:14:44.000Z</time>
   </trkpt>
   <trkpt lat="52.475654" lon="13.47613">
    <ele>42.8</ele>
    <time>2024-07-24T19:14:46.000Z</time>
   </trkpt>
   <trkpt lat="52.475468" lon="13.476383">
    <ele>42.8</ele>
    <time>2024-07-24T19:14:52.000Z</time>
   </trkpt>
   <trkpt lat="52.475435" lon="13.476435">
    <ele>43</ele>
    <time>2024-07-24T19:14:54.000Z</time>
   </trkpt>
  </trkseg>
 </trk>
</gpx>
