<?xml version="1.0" encoding="UTF-8"?>
<gpx creator="StravaGPX" version="1.1" xmlns="http://www.topografix.com/GPX/1/1">
 <metadata>
  <time>2019-11-07T13:42:23Z</time>
 </metadata>
 <trk>
  <name>Morning Ride</name>
  <type>1</type>
  <trkseg>
   <trkpt lat="-8.036747" lon="-34.892629">
    <ele>7.3</ele>
    <time>2019-11-07T13:42:23.000Z</time>
   </trkpt>
   <trkpt lat="-8.03685" lon="-34.892787">
    <ele>7.8</ele>
    <time>2019-11-07T13:43:18.000Z</time>
   </trkpt>
   <trkpt lat="-8.036882" lon="-34.892786">
    <ele>7.9</ele>
    <time>2019-11-07T13:43:22.000Z</time>
   </trkpt>
   <trkpt lat="-8.036914" lon="-34.892781">
    <ele>8</ele>
    <time>2019-11-07T13:43:24.000Z</time>
   </trkpt>
   <trkpt lat="-8.036939" lon="-34.892793">
    <ele>8.1</ele>
    <time>2019-11-07T13:43:25.000Z</time>
   </trkpt>
   <trkpt lat="-8.036973" lon="-34.892789">
    <ele>8.2</ele>
    <time>2019-11-07T13:43:26.000Z</time>
   </trkpt>
   <trkpt lat="-8.037" lon="-34.892791">
    <ele>8.3</ele>
    <time>2019-11-07T13:43:27.000Z</time>
   </trkpt>
   <trkpt lat="-8.037033" lon="-34.892793">
    <ele>8.4</ele>
    <time>2019-11-07T13:43:28.000Z</time>
   </trkpt>
   <trkpt lat="-8.037092" lon="-34.892815">
    <ele>8.7</ele>
    <time>2019-11-07T13:43:29.000Z</time>
   </trkpt>
   <trkpt lat="-8.037143" lon="-34.892817">
    <ele>8.9</ele>
    <time>2019-11-07T13:43:30.000Z</time>
   </trkpt>
   <trkpt lat="-8.037185" lon="-34.892818">
    <ele>9.1</ele>
    <time>2019-11-07T13:43:31.000Z</time>
   </trkpt>
   <trkpt lat="-8.037226" lon="-34.89282">
    <ele>9.3</ele>
    <time>2019-11-07T13:43:32.000Z</time>
   </trkpt>
   <trkpt lat="-8.037262" lon="-34.892836">
    <ele>9.4</ele>
    <time>2019-11-07T13:43:33.000Z</time>
   </trkpt>
   <trkpt lat="-8.037289" lon="-34.892839">
    <ele>9.5</ele>
    <time>2019-11-07T13:43:34.000Z</time>
   </trkpt>
   <trkpt lat="-8.037334" lon="-34.892818">
    <ele>9.8</ele>
    <time>2019-11-07T13:43:36.000Z</time>
   </trkpt>
   <trkpt lat="-8.037359" lon="-34.892789">
    <ele>9.8</ele>
    <time>2019-11-07T13:43:37.000Z</time>
   </trkpt>
   <trkpt lat="-8.037373" lon="-34.892748">
    <ele>9.7</ele>
    <time>2019-11-07T13:43:38.000Z</time>
   </trkpt>
   <trkpt lat="-8.037381" lon="-34.892705">
    <ele>9.6</ele>
    <time>2019-11-07T13:43:39.000Z</time>
   </trkpt>
   <trkpt lat="-8.037385" lon="-34.892658">
    <ele>9.6</ele>
    <time>2019-11-07T13:43:40.000Z</time>
   </trkpt>
   <trkpt lat="-8.037389" lon="-34.892616">
    <ele>9.5</ele>
    <time>2019-11-07T13:43:41.000Z</time>
   </trkpt>
   <trkpt lat="-8.037399" lon="-34.892574">
    <ele>9.4</ele>
    <time>2019-11-07T13:43:42.000Z</time>
   </trkpt>
   <trkpt lat="-8.037401" lon="-34.89253">
    <ele>9.3</ele>
    <time>2019-11-07T13:43:43.000Z</time>
   </trkpt>
   <trkpt lat="-8.037397" lon="-34.892487">
    <ele>9.2</ele>
    <time>2019-11-07T13:43:44.000Z</time>
   </trkpt>
   <trkpt lat="-8.037398" lon="-34.892446">
    <ele>9.1</ele>
    <time>2019-11-07T13:43:45.000Z</time>
   </trkpt>
   <trkpt lat="-8.037405" lon="-34.892404">
    <ele>9.1</ele>
    <time>2019-11-07T13:43:46.000Z</time>
   </trkpt>
   <trkpt lat="-8.037408" lon="-34.892359">
    <ele>9</ele>
    <time>2019-11-07T13:43:47.000Z</time>
   </trkpt>
   <trkpt lat="-8.037404" lon="-34.892313">
    <ele>8.9</ele>
    <time>2019-11-07T13:43:48.000Z</time>
   </trkpt>
   <trkpt lat="-8.037405" lon="-34.89227">
    <ele>8.8</ele>
    <time>2019-11-07T13:43:49.000Z</time>
   </trkpt>
   <trkpt lat="-8.037408" lon="-34.892225">
    <ele>8.7</ele>
    <time>2019-11-07T13:43:50.000Z</time>
   </trkpt>
   <trkpt lat="-8.037405" lon="-34.892175">
    <ele>8.6</ele>
    <time>2019-11-07T13:43:51.000Z</time>
   </trkpt>
   <trkpt lat="-8.037411" lon="-34.89213">
    <ele>8.5</ele>
    <time>2019-11-07T13:43:52.000Z</time>
   </trkpt>
   <trkpt lat="-8.037434" lon="-34.892085">
    <ele>8.7</ele>
    <time>2019-11-07T13:43:53.000Z</time>
   </trkpt>
   <trkpt lat="-8.037449" lon="-34.892046">
    <ele>8.9</ele>
    <time>2019-11-07T13:43:54.000Z</time>
   </trkpt>
   <trkpt lat="-8.037466" lon="-34.892008">
    <ele>9.2</ele>
    <time>2019-11-07T13:43:55.000Z</time>
   </trkpt>
   <trkpt lat="-8.037487" lon="-34.891968">
    <ele>9.4</ele>
    <time>2019-11-07T13:43:56.000Z</time>
   </trkpt>
   <trkpt lat="-8.037503" lon="-34.891929">
    <ele>9.7</ele>
    <time>2019-11-07T13:43:57.000Z</time>
   </trkpt>
   <trkpt lat="-8.037524" lon="-34.891896">
    <ele>10</ele>
    <time>2019-11-07T13:43:58.000Z</time>
   </trkpt>
   <trkpt lat="-8.037547" lon="-34.891863">
    <ele>10.1</ele>
    <time>2019-11-07T13:43:59.000Z</time>
   </trkpt>
   <trkpt lat="-8.037567" lon="-34.891832">
    <ele>10.3</ele>
    <time>2019-11-07T13:44:00.000Z</time>
   </trkpt>
   <trkpt lat="-8.03759" lon="-34.8918">
    <ele>10.4</ele>
    <time>2019-11-07T13:44:01.000Z</time>
   </trkpt>
   <trkpt lat="-8.037609" lon="-34.891772">
    <ele>10.5</ele>
    <time>2019-11-07T13:44:02.000Z</time>
   </trkpt>
   <trkpt lat="-8.037633" lon="-34.891741">
    <ele>10.7</ele>
    <time>2019-11-07T13:44:03.000Z</time>
   </trkpt>
   <trkpt lat="-8.037642" lon="-34.891714">
    <ele>10.8</ele>
    <time>2019-11-07T13:44:04.000Z</time>
   </trkpt>
   <trkpt lat="-8.037677" lon="-34.891678">
    <ele>11</ele>
    <time>2019-11-07T13:44:06.000Z</time>
   </trkpt>
   <trkpt lat="-8.037703" lon="-34.89166">
    <ele>11.2</ele>
    <time>2019-11-07T13:44:07.000Z</time>
   </trkpt>
   <trkpt lat="-8.037727" lon="-34.891639">
    <ele>11.4</ele>
    <time>2019-11-07T13:44:08.000Z</time>
   </trkpt>
   <trkpt lat="-8.037763" lon="-34.891622">
    <ele>11.6</ele>
    <time>2019-11-07T13:44:09.000Z</time>
   </trkpt>
   <trkpt lat="-8.037799" lon="-34.891609">
    <ele>11.7</ele>
    <time>2019-11-07T13:44:10.000Z</time>
   </trkpt>
   <trkpt lat="-8.037839" lon="-34.891613">
    <ele>12.3</ele>
    <time>2019-11-07T13:44:11.000Z</time>
   </trkpt>
   <trkpt lat="-8.037885" lon="-34.891623">
    <ele>12.4</ele>
    <time>2019-11-07T13:44:12.000Z</time>
   </trkpt>
   <trkpt lat="-8.037926" lon="-34.89164">
    <ele>12.4</ele>
    <time>2019-11-07T13:44:13.000Z</time>
   </trkpt>
   <trkpt lat="-8.037961" lon="-34.891673">
    <ele>12.5</ele>
    <time>2019-11-07T13:44:14.000Z</time>
   </trkpt>
   <trkpt lat="-8.038" lon="-34.891697">
    <ele>12.6</ele>
    <time>2019-11-07T13:44:15.000Z</time>
   </trkpt>
   <trkpt lat="-8.038039" lon="-34.891725">
    <ele>12.8</ele>
    <time>2019-11-07T13:44:16.000Z</time>
   </trkpt>
   <trkpt lat="-8.038074" lon="-34.891753">
    <ele>12.9</ele>
    <time>2019-11-07T13:44:17.000Z</time>
   </trkpt>
   <trkpt lat="-8.038105" lon="-34.891777">
    <ele>13</ele>
    <time>2019-11-07T13:44:18.000Z</time>
   </trkpt>
   <trkpt lat="-8.038138" lon="-34.891804">
    <ele>13.1</ele>
    <time>2019-11-07T13:44:19.000Z</time>
   </trkpt>
   <trkpt lat="-8.038167" lon="-34.891829">
    <ele>13.1</ele>
    <time>2019-11-07T13:44:20.000Z</time>
   </trkpt>
   <trkpt lat="-8.038195" lon="-34.891852">
    <ele>13.1</ele>
    <time>2019-11-07T13:44:21.000Z</time>
   </trkpt>
   <trkpt lat="-8.03822" lon="-34.891879">
    <ele>13</ele>
    <time>2019-11-07T13:44:22.000Z</time>
   </trkpt>
   <trkpt lat="-8.038247" lon="-34.891894">
    <ele>12.9</ele>
    <time>2019-11-07T13:44:23.000Z</time>
   </trkpt>
   <trkpt lat="-8.038271" lon="-34.89191">
    <ele>12.8</ele>
    <time>2019-11-07T13:44:24.000Z</time>
   </trkpt>
   <trkpt lat="-8.038301" lon="-34.891942">
    <ele>12.6</ele>
    <time>2019-11-07T13:44:26.000Z</time>
   </trkpt>
   <trkpt lat="-8.038322" lon="-34.891959">
    <ele>12.6</ele>
    <time>2019-11-07T13:44:27.000Z</time>
   </trkpt>
   <trkpt lat="-8.038364" lon="-34.891984">
    <ele>12.6</ele>
    <time>2019-11-07T13:44:29.000Z</time>
   </trkpt>
   <trkpt lat="-8.03839" lon="-34.892001">
    <ele>12.6</ele>
    <time>2019-11-07T13:44:31.000Z</time>
   </trkpt>
   <trkpt lat="-8.038416" lon="-34.892011">
    <ele>12.6</ele>
    <time>2019-11-07T13:44:33.000Z</time>
   </trkpt>
   <trkpt lat="-8.038456" lon="-34.892013">
    <ele>12.6</ele>
    <time>2019-11-07T13:44:36.000Z</time>
   </trkpt>
   <trkpt lat="-8.038498" lon="-34.892033">
    <ele>12.5</ele>
    <time>2019-11-07T13:44:38.000Z</time>
   </trkpt>
   <trkpt lat="-8.038525" lon="-34.892045">
    <ele>12.5</ele>
    <time>2019-11-07T13:44:39.000Z</time>
   </trkpt>
   <trkpt lat="-8.038552" lon="-34.89206">
    <ele>12.5</ele>
    <time>2019-11-07T13:44:40.000Z</time>
   </trkpt>
   <trkpt lat="-8.038586" lon="-34.892069">
    <ele>12.5</ele>
    <time>2019-11-07T13:44:41.000Z</time>
   </trkpt>
   <trkpt lat="-8.038623" lon="-34.892088">
    <ele>12.4</ele>
    <time>2019-11-07T13:44:42.000Z</time>
   </trkpt>
   <trkpt lat="-8.038656" lon="-34.892109">
    <ele>12.4</ele>
    <time>2019-11-07T13:44:43.000Z</time>
   </trkpt>
   <trkpt lat="-8.038686" lon="-34.892125">
    <ele>12.4</ele>
    <time>2019-11-07T13:44:44.000Z</time>
   </trkpt>
   <trkpt lat="-8.038726" lon="-34.892138">
    <ele>12.6</ele>
    <time>2019-11-07T13:44:45.000Z</time>
   </trkpt>
   <trkpt lat="-8.038763" lon="-34.892157">
    <ele>12.8</ele>
    <time>2019-11-07T13:44:46.000Z</time>
   </trkpt>
   <trkpt lat="-8.038806" lon="-34.892175">
    <ele>13</ele>
    <time>2019-11-07T13:44:47.000Z</time>
   </trkpt>
   <trkpt lat="-8.038855" lon="-34.89219">
    <ele>13.1</ele>
    <time>2019-11-07T13:44:48.000Z</time>
   </trkpt>
   <trkpt lat="-8.038908" lon="-34.892208">
    <ele>13.3</ele>
    <time>2019-11-07T13:44:49.000Z</time>
   </trkpt>
   <trkpt lat="-8.038966" lon="-34.892225">
    <ele>12.9</ele>
    <time>2019-11-07T13:44:50.000Z</time>
   </trkpt>
   <trkpt lat="-8.03902" lon="-34.892243">
    <ele>12.5</ele>
    <time>2019-11-07T13:44:51.000Z</time>
   </trkpt>
   <trkpt lat="-8.039069" lon="-34.892264">
    <ele>12.1</ele>
    <time>2019-11-07T13:44:52.000Z</time>
   </trkpt>
   <trkpt lat="-8.039122" lon="-34.892288">
    <ele>12</ele>
    <time>2019-11-07T13:44:53.000Z</time>
   </trkpt>
   <trkpt lat="-8.039179" lon="-34.892298">
    <ele>11.9</ele>
    <time>2019-11-07T13:44:54.000Z</time>
   </trkpt>
   <trkpt lat="-8.039239" lon="-34.892306">
    <ele>11.5</ele>
    <time>2019-11-07T13:44:55.000Z</time>
   </trkpt>
   <trkpt lat="-8.039303" lon="-34.892317">
    <ele>11.5</ele>
    <time>2019-11-07T13:44:56.000Z</time>
   </trkpt>
   <trkpt lat="-8.039368" lon="-34.892322">
    <ele>11.5</ele>
    <time>2019-11-07T13:44:57.000Z</time>
   </trkpt>
   <trkpt lat="-8.039431" lon="-34.892323">
    <ele>11.7</ele>
    <time>2019-11-07T13:44:58.000Z</time>
   </trkpt>
   <trkpt lat="-8.039491" lon="-34.892317">
    <ele>11.9</ele>
    <time>2019-11-07T13:44:59.000Z</time>
   </trkpt>
   <trkpt lat="-8.03955" lon="-34.892315">
    <ele>12.1</ele>
    <time>2019-11-07T13:45:00.000Z</time>
   </trkpt>
   <trkpt lat="-8.0396" lon="-34.892318">
    <ele>12.3</ele>
    <time>2019-11-07T13:45:01.000Z</time>
   </trkpt>
   <trkpt lat="-8.039654" lon="-34.89232">
    <ele>12.3</ele>
    <time>2019-11-07T13:45:02.000Z</time>
   </trkpt>
   <trkpt lat="-8.039724" lon="-34.89233">
    <ele>13</ele>
    <time>2019-11-07T13:45:03.000Z</time>
   </trkpt>
   <trkpt lat="-8.039769" lon="-34.892365">
    <ele>13.4</ele>
    <time>2019-11-07T13:45:04.000Z</time>
   </trkpt>
   <trkpt lat="-8.039822" lon="-34.892405">
    <ele>13.8</ele>
    <time>2019-11-07T13:45:05.000Z</time>
   </trkpt>
   <trkpt lat="-8.039867" lon="-34.892436">
    <ele>13.9</ele>
    <time>2019-11-07T13:45:06.000Z</time>
   </trkpt>
   <trkpt lat="-8.039908" lon="-34.892465">
    <ele>14.1</ele>
    <time>2019-11-07T13:45:07.000Z</time>
   </trkpt>
   <trkpt lat="-8.039951" lon="-34.892501">
    <ele>14.2</ele>
    <time>2019-11-07T13:45:08.000Z</time>
   </trkpt>
   <trkpt lat="-8.040002" lon="-34.892538">
    <ele>14.5</ele>
    <time>2019-11-07T13:45:09.000Z</time>
   </trkpt>
   <trkpt lat="-8.040055" lon="-34.892578">
    <ele>14.7</ele>
    <time>2019-11-07T13:45:10.000Z</time>
   </trkpt>
   <trkpt lat="-8.040104" lon="-34.892612">
    <ele>14.9</ele>
    <time>2019-11-07T13:45:11.000Z</time>
   </trkpt>
   <trkpt lat="-8.040148" lon="-34.892645">
    <ele>15</ele>
    <time>2019-11-07T13:45:12.000Z</time>
   </trkpt>
   <trkpt lat="-8.040189" lon="-34.892686">
    <ele>15.1</ele>
    <time>2019-11-07T13:45:13.000Z</time>
   </trkpt>
   <trkpt lat="-8.040229" lon="-34.892722">
    <ele>15.1</ele>
    <time>2019-11-07T13:45:14.000Z</time>
   </trkpt>
   <trkpt lat="-8.040272" lon="-34.892758">
    <ele>15.2</ele>
    <time>2019-11-07T13:45:15.000Z</time>
   </trkpt>
   <trkpt lat="-8.040307" lon="-34.892789">
    <ele>15.2</ele>
    <time>2019-11-07T13:45:16.000Z</time>
   </trkpt>
   <trkpt lat="-8.040349" lon="-34.892825">
    <ele>15.3</ele>
    <time>2019-11-07T13:45:17.000Z</time>
   </trkpt>
   <trkpt lat="-8.040385" lon="-34.892854">
    <ele>15.3</ele>
    <time>2019-11-07T13:45:18.000Z</time>
   </trkpt>
   <trkpt lat="-8.040422" lon="-34.892881">
    <ele>15.4</ele>
    <time>2019-11-07T13:45:19.000Z</time>
   </trkpt>
   <trkpt lat="-8.040462" lon="-34.89291">
    <ele>15.5</ele>
    <time>2019-11-07T13:45:20.000Z</time>
   </trkpt>
   <trkpt lat="-8.040501" lon="-34.892939">
    <ele>15.6</ele>
    <time>2019-11-07T13:45:21.000Z</time>
   </trkpt>
   <trkpt lat="-8.040542" lon="-34.892971">
    <ele>15.7</ele>
    <time>2019-11-07T13:45:22.000Z</time>
   </trkpt>
   <trkpt lat="-8.040592" lon="-34.893005">
    <ele>15.8</ele>
    <time>2019-11-07T13:45:23.000Z</time>
   </trkpt>
   <trkpt lat="-8.040635" lon="-34.893039">
    <ele>15.9</ele>
    <time>2019-11-07T13:45:24.000Z</time>
   </trkpt>
   <trkpt lat="-8.040686" lon="-34.893077">
    <ele>16</ele>
    <time>2019-11-07T13:45:25.000Z</time>
   </trkpt>
   <trkpt lat="-8.040731" lon="-34.893112">
    <ele>16.1</ele>
    <time>2019-11-07T13:45:26.000Z</time>
   </trkpt>
   <trkpt lat="-8.04076" lon="-34.893154">
    <ele>16.2</ele>
    <time>2019-11-07T13:45:27.000Z</time>
   </trkpt>
   <trkpt lat="-8.040793" lon="-34.893183">
    <ele>16.2</ele>
    <time>2019-11-07T13:45:28.000Z</time>
   </trkpt>
   <trkpt lat="-8.04083" lon="-34.893213">
    <ele>16.3</ele>
    <time>2019-11-07T13:45:29.000Z</time>
   </trkpt>
   <trkpt lat="-8.040881" lon="-34.893242">
    <ele>16.4</ele>
    <time>2019-11-07T13:45:30.000Z</time>
   </trkpt>
   <trkpt lat="-8.040922" lon="-34.893273">
    <ele>16.6</ele>
    <time>2019-11-07T13:45:31.000Z</time>
   </trkpt>
   <trkpt lat="-8.040957" lon="-34.893298">
    <ele>16.7</ele>
    <time>2019-11-07T13:45:32.000Z</time>
   </trkpt>
   <trkpt lat="-8.040996" lon="-34.893335">
    <ele>16.8</ele>
    <time>2019-11-07T13:45:33.000Z</time>
   </trkpt>
   <trkpt lat="-8.041034" lon="-34.893375">
    <ele>16.9</ele>
    <time>2019-11-07T13:45:34.000Z</time>
   </trkpt>
   <trkpt lat="-8.041083" lon="-34.89342">
    <ele>17.1</ele>
    <time>2019-11-07T13:45:35.000Z</time>
   </trkpt>
   <trkpt lat="-8.041119" lon="-34.893459">
    <ele>17.3</ele>
    <time>2019-11-07T13:45:36.000Z</time>
   </trkpt>
   <trkpt lat="-8.041154" lon="-34.893498">
    <ele>17.4</ele>
    <time>2019-11-07T13:45:37.000Z</time>
   </trkpt>
   <trkpt lat="-8.041187" lon="-34.893537">
    <ele>17.6</ele>
    <time>2019-11-07T13:45:38.000Z</time>
   </trkpt>
   <trkpt lat="-8.04122" lon="-34.893562">
    <ele>17.7</ele>
    <time>2019-11-07T13:45:39.000Z</time>
   </trkpt>
   <trkpt lat="-8.041257" lon="-34.893586">
    <ele>17.8</ele>
    <time>2019-11-07T13:45:40.000Z</time>
   </trkpt>
   <trkpt lat="-8.041287" lon="-34.893634">
    <ele>18</ele>
    <time>2019-11-07T13:45:41.000Z</time>
   </trkpt>
   <trkpt lat="-8.041322" lon="-34.893665">
    <ele>18</ele>
    <time>2019-11-07T13:45:42.000Z</time>
   </trkpt>
   <trkpt lat="-8.041359" lon="-34.893707">
    <ele>18.1</ele>
    <time>2019-11-07T13:45:43.000Z</time>
   </trkpt>
   <trkpt lat="-8.041395" lon="-34.893735">
    <ele>18.1</ele>
    <time>2019-11-07T13:45:44.000Z</time>
   </trkpt>
   <trkpt lat="-8.041424" lon="-34.893748">
    <ele>18.1</ele>
    <time>2019-11-07T13:45:45.000Z</time>
   </trkpt>
   <trkpt lat="-8.041468" lon="-34.893753">
    <ele>18.2</ele>
    <time>2019-11-07T13:45:46.000Z</time>
   </trkpt>
   <trkpt lat="-8.041512" lon="-34.893753">
    <ele>17.9</ele>
    <time>2019-11-07T13:45:47.000Z</time>
   </trkpt>
   <trkpt lat="-8.041556" lon="-34.893738">
    <ele>17.8</ele>
    <time>2019-11-07T13:45:48.000Z</time>
   </trkpt>
   <trkpt lat="-8.0416" lon="-34.893725">
    <ele>17.7</ele>
    <time>2019-11-07T13:45:49.000Z</time>
   </trkpt>
   <trkpt lat="-8.041639" lon="-34.893695">
    <ele>17.6</ele>
    <time>2019-11-07T13:45:50.000Z</time>
   </trkpt>
   <trkpt lat="-8.041671" lon="-34.89365">
    <ele>17.5</ele>
    <time>2019-11-07T13:45:51.000Z</time>
   </trkpt>
   <trkpt lat="-8.041715" lon="-34.893593">
    <ele>17.4</ele>
    <time>2019-11-07T13:45:52.000Z</time>
   </trkpt>
   <trkpt lat="-8.041765" lon="-34.893535">
    <ele>17.3</ele>
    <time>2019-11-07T13:45:53.000Z</time>
   </trkpt>
   <trkpt lat="-8.041801" lon="-34.893463">
    <ele>17.2</ele>
    <time>2019-11-07T13:45:54.000Z</time>
   </trkpt>
   <trkpt lat="-8.04183" lon="-34.893399">
    <ele>17.1</ele>
    <time>2019-11-07T13:45:55.000Z</time>
   </trkpt>
   <trkpt lat="-8.041866" lon="-34.893347">
    <ele>17.1</ele>
    <time>2019-11-07T13:45:56.000Z</time>
   </trkpt>
   <trkpt lat="-8.041901" lon="-34.893297">
    <ele>17.1</ele>
    <time>2019-11-07T13:45:57.000Z</time>
   </trkpt>
   <trkpt lat="-8.041941" lon="-34.893242">
    <ele>17.1</ele>
    <time>2019-11-07T13:45:58.000Z</time>
   </trkpt>
   <trkpt lat="-8.041981" lon="-34.893183">
    <ele>17.1</ele>
    <time>2019-11-07T13:45:59.000Z</time>
   </trkpt>
   <trkpt lat="-8.042022" lon="-34.893126">
    <ele>17.1</ele>
    <time>2019-11-07T13:46:00.000Z</time>
   </trkpt>
   <trkpt lat="-8.042057" lon="-34.893072">
    <ele>17.1</ele>
    <time>2019-11-07T13:46:01.000Z</time>
   </trkpt>
   <trkpt lat="-8.042091" lon="-34.893034">
    <ele>17</ele>
    <time>2019-11-07T13:46:02.000Z</time>
   </trkpt>
   <trkpt lat="-8.042116" lon="-34.892982">
    <ele>17</ele>
    <time>2019-11-07T13:46:03.000Z</time>
   </trkpt>
   <trkpt lat="-8.042129" lon="-34.892926">
    <ele>17</ele>
    <time>2019-11-07T13:46:04.000Z</time>
   </trkpt>
   <trkpt lat="-8.042157" lon="-34.892873">
    <ele>17</ele>
    <time>2019-11-07T13:46:05.000Z</time>
   </trkpt>
   <trkpt lat="-8.04218" lon="-34.892828">
    <ele>17</ele>
    <time>2019-11-07T13:46:06.000Z</time>
   </trkpt>
   <trkpt lat="-8.042203" lon="-34.892781">
    <ele>17</ele>
    <time>2019-11-07T13:46:07.000Z</time>
   </trkpt>
   <trkpt lat="-8.042222" lon="-34.892736">
    <ele>17</ele>
    <time>2019-11-07T13:46:08.000Z</time>
   </trkpt>
   <trkpt lat="-8.04224" lon="-34.89268">
    <ele>17</ele>
    <time>2019-11-07T13:46:09.000Z</time>
   </trkpt>
   <trkpt lat="-8.042255" lon="-34.892626">
    <ele>17</ele>
    <time>2019-11-07T13:46:10.000Z</time>
   </trkpt>
   <trkpt lat="-8.042275" lon="-34.892574">
    <ele>17</ele>
    <time>2019-11-07T13:46:11.000Z</time>
   </trkpt>
   <trkpt lat="-8.042311" lon="-34.892538">
    <ele>16.9</ele>
    <time>2019-11-07T13:46:12.000Z</time>
   </trkpt>
   <trkpt lat="-8.04235" lon="-34.892509">
    <ele>16.8</ele>
    <time>2019-11-07T13:46:13.000Z</time>
   </trkpt>
   <trkpt lat="-8.042398" lon="-34.892474">
    <ele>16.6</ele>
    <time>2019-11-07T13:46:14.000Z</time>
   </trkpt>
   <trkpt lat="-8.042435" lon="-34.892431">
    <ele>16.5</ele>
    <time>2019-11-07T13:46:15.000Z</time>
   </trkpt>
   <trkpt lat="-8.042478" lon="-34.89239">
    <ele>16.3</ele>
    <time>2019-11-07T13:46:16.000Z</time>
   </trkpt>
   <trkpt lat="-8.042556" lon="-34.892342">
    <ele>15.9</ele>
    <time>2019-11-07T13:46:17.000Z</time>
   </trkpt>
   <trkpt lat="-8.042594" lon="-34.892285">
    <ele>15.6</ele>
    <time>2019-11-07T13:46:18.000Z</time>
   </trkpt>
   <trkpt lat="-8.042629" lon="-34.892237">
    <ele>15.4</ele>
    <time>2019-11-07T13:46:19.000Z</time>
   </trkpt>
   <trkpt lat="-8.042657" lon="-34.892197">
    <ele>15.3</ele>
    <time>2019-11-07T13:46:20.000Z</time>
   </trkpt>
   <trkpt lat="-8.042688" lon="-34.89216">
    <ele>15.2</ele>
    <time>2019-11-07T13:46:21.000Z</time>
   </trkpt>
   <trkpt lat="-8.042715" lon="-34.892124">
    <ele>15</ele>
    <time>2019-11-07T13:46:22.000Z</time>
   </trkpt>
   <trkpt lat="-8.042745" lon="-34.892093">
    <ele>15</ele>
    <time>2019-11-07T13:46:23.000Z</time>
   </trkpt>
   <trkpt lat="-8.042776" lon="-34.892061">
    <ele>14.9</ele>
    <time>2019-11-07T13:46:24.000Z</time>
   </trkpt>
   <trkpt lat="-8.042797" lon="-34.892002">
    <ele>14.8</ele>
    <time>2019-11-07T13:46:25.000Z</time>
   </trkpt>
   <trkpt lat="-8.042815" lon="-34.891942">
    <ele>14.8</ele>
    <time>2019-11-07T13:46:26.000Z</time>
   </trkpt>
   <trkpt lat="-8.042845" lon="-34.891893">
    <ele>14.7</ele>
    <time>2019-11-07T13:46:27.000Z</time>
   </trkpt>
   <trkpt lat="-8.042869" lon="-34.891854">
    <ele>14.7</ele>
    <time>2019-11-07T13:46:28.000Z</time>
   </trkpt>
   <trkpt lat="-8.042906" lon="-34.891813">
    <ele>14.7</ele>
    <time>2019-11-07T13:46:29.000Z</time>
   </trkpt>
   <trkpt lat="-8.04294" lon="-34.891758">
    <ele>14.6</ele>
    <time>2019-11-07T13:46:30.000Z</time>
   </trkpt>
   <trkpt lat="-8.042979" lon="-34.891714">
    <ele>14.6</ele>
    <time>2019-11-07T13:46:31.000Z</time>
   </trkpt>
   <trkpt lat="-8.043011" lon="-34.89168">
    <ele>14.6</ele>
    <time>2019-11-07T13:46:32.000Z</time>
   </trkpt>
   <trkpt lat="-8.043052" lon="-34.891624">
    <ele>14.5</ele>
    <time>2019-11-07T13:46:33.000Z</time>
   </trkpt>
   <trkpt lat="-8.043089" lon="-34.891582">
    <ele>14.4</ele>
    <time>2019-11-07T13:46:34.000Z</time>
   </trkpt>
   <trkpt lat="-8.043127" lon="-34.891541">
    <ele>14.3</ele>
    <time>2019-11-07T13:46:35.000Z</time>
   </trkpt>
   <trkpt lat="-8.043167" lon="-34.891504">
    <ele>14.3</ele>
    <time>2019-11-07T13:46:36.000Z</time>
   </trkpt>
   <trkpt lat="-8.043233" lon="-34.891489">
    <ele>14.2</ele>
    <time>2019-11-07T13:46:37.000Z</time>
   </trkpt>
   <trkpt lat="-8.043277" lon="-34.891457">
    <ele>14.1</ele>
    <time>2019-11-07T13:46:38.000Z</time>
   </trkpt>
   <trkpt lat="-8.043321" lon="-34.891426">
    <ele>13.9</ele>
    <time>2019-11-07T13:46:39.000Z</time>
   </trkpt>
   <trkpt lat="-8.043365" lon="-34.891393">
    <ele>13.8</ele>
    <time>2019-11-07T13:46:40.000Z</time>
   </trkpt>
   <trkpt lat="-8.043407" lon="-34.891361">
    <ele>13.8</ele>
    <time>2019-11-07T13:46:41.000Z</time>
   </trkpt>
   <trkpt lat="-8.043443" lon="-34.891324">
    <ele>13.7</ele>
    <time>2019-11-07T13:46:42.000Z</time>
   </trkpt>
   <trkpt lat="-8.043479" lon="-34.891279">
    <ele>13.7</ele>
    <time>2019-11-07T13:46:43.000Z</time>
   </trkpt>
   <trkpt lat="-8.043522" lon="-34.89124">
    <ele>13.6</ele>
    <time>2019-11-07T13:46:44.000Z</time>
   </trkpt>
   <trkpt lat="-8.04357" lon="-34.891205">
    <ele>13.6</ele>
    <time>2019-11-07T13:46:45.000Z</time>
   </trkpt>
   <trkpt lat="-8.043604" lon="-34.89115">
    <ele>13.6</ele>
    <time>2019-11-07T13:46:46.000Z</time>
   </trkpt>
   <trkpt lat="-8.04364" lon="-34.891092">
    <ele>13.5</ele>
    <time>2019-11-07T13:46:47.000Z</time>
   </trkpt>
   <trkpt lat="-8.043682" lon="-34.891043">
    <ele>13.5</ele>
    <time>2019-11-07T13:46:48.000Z</time>
   </trkpt>
   <trkpt lat="-8.043725" lon="-34.891002">
    <ele>13.5</ele>
    <time>2019-11-07T13:46:49.000Z</time>
   </trkpt>
   <trkpt lat="-8.04377" lon="-34.890965">
    <ele>13.4</ele>
    <time>2019-11-07T13:46:50.000Z</time>
   </trkpt>
   <trkpt lat="-8.043811" lon="-34.890922">
    <ele>13.4</ele>
    <time>2019-11-07T13:46:51.000Z</time>
   </trkpt>
   <trkpt lat="-8.043856" lon="-34.890876">
    <ele>13.3</ele>
    <time>2019-11-07T13:46:52.000Z</time>
   </trkpt>
   <trkpt lat="-8.04391" lon="-34.890829">
    <ele>13.1</ele>
    <time>2019-11-07T13:46:53.000Z</time>
   </trkpt>
   <trkpt lat="-8.043966" lon="-34.890781">
    <ele>12.9</ele>
    <time>2019-11-07T13:46:54.000Z</time>
   </trkpt>
   <trkpt lat="-8.044021" lon="-34.890738">
    <ele>12.7</ele>
    <time>2019-11-07T13:46:55.000Z</time>
   </trkpt>
   <trkpt lat="-8.044064" lon="-34.890708">
    <ele>12.6</ele>
    <time>2019-11-07T13:46:56.000Z</time>
   </trkpt>
   <trkpt lat="-8.0441" lon="-34.890668">
    <ele>12.5</ele>
    <time>2019-11-07T13:46:57.000Z</time>
   </trkpt>
   <trkpt lat="-8.044146" lon="-34.890627">
    <ele>12.2</ele>
    <time>2019-11-07T13:46:58.000Z</time>
   </trkpt>
   <trkpt lat="-8.044193" lon="-34.890595">
    <ele>12</ele>
    <time>2019-11-07T13:46:59.000Z</time>
   </trkpt>
   <trkpt lat="-8.044237" lon="-34.890553">
    <ele>11.7</ele>
    <time>2019-11-07T13:47:00.000Z</time>
   </trkpt>
   <trkpt lat="-8.044275" lon="-34.890499">
    <ele>11.4</ele>
    <time>2019-11-07T13:47:01.000Z</time>
   </trkpt>
   <trkpt lat="-8.044302" lon="-34.890449">
    <ele>11</ele>
    <time>2019-11-07T13:47:02.000Z</time>
   </trkpt>
   <trkpt lat="-8.044328" lon="-34.8904">
    <ele>10.7</ele>
    <time>2019-11-07T13:47:03.000Z</time>
   </trkpt>
   <trkpt lat="-8.044354" lon="-34.890359">
    <ele>10.4</ele>
    <time>2019-11-07T13:47:04.000Z</time>
   </trkpt>
   <trkpt lat="-8.044383" lon="-34.890322">
    <ele>10.1</ele>
    <time>2019-11-07T13:47:05.000Z</time>
   </trkpt>
   <trkpt lat="-8.044407" lon="-34.890278">
    <ele>9.8</ele>
    <time>2019-11-07T13:47:06.000Z</time>
   </trkpt>
   <trkpt lat="-8.044436" lon="-34.890244">
    <ele>9.6</ele>
    <time>2019-11-07T13:47:07.000Z</time>
   </trkpt>
   <trkpt lat="-8.044474" lon="-34.890205">
    <ele>9.2</ele>
    <time>2019-11-07T13:47:08.000Z</time>
   </trkpt>
   <trkpt lat="-8.044525" lon="-34.890162">
    <ele>8.6</ele>
    <time>2019-11-07T13:47:09.000Z</time>
   </trkpt>
   <trkpt lat="-8.044578" lon="-34.890133">
    <ele>8.6</ele>
    <time>2019-11-07T13:47:10.000Z</time>
   </trkpt>
   <trkpt lat="-8.044647" lon="-34.890109">
    <ele>7.9</ele>
    <time>2019-11-07T13:47:11.000Z</time>
   </trkpt>
   <trkpt lat="-8.044713" lon="-34.890086">
    <ele>7.6</ele>
    <time>2019-11-07T13:47:12.000Z</time>
   </trkpt>
   <trkpt lat="-8.04478" lon="-34.890076">
    <ele>7.3</ele>
    <time>2019-11-07T13:47:13.000Z</time>
   </trkpt>
   <trkpt lat="-8.044843" lon="-34.890065">
    <ele>7.1</ele>
    <time>2019-11-07T13:47:14.000Z</time>
   </trkpt>
   <trkpt lat="-8.044899" lon="-34.890058">
    <ele>6.9</ele>
    <time>2019-11-07T13:47:15.000Z</time>
   </trkpt>
   <trkpt lat="-8.044957" lon="-34.890051">
    <ele>6.6</ele>
    <time>2019-11-07T13:47:16.000Z</time>
   </trkpt>
   <trkpt lat="-8.045017" lon="-34.890041">
    <ele>6.4</ele>
    <time>2019-11-07T13:47:17.000Z</time>
   </trkpt>
   <trkpt lat="-8.045082" lon="-34.890046">
    <ele>6.2</ele>
    <time>2019-11-07T13:47:18.000Z</time>
   </trkpt>
   <trkpt lat="-8.045141" lon="-34.890043">
    <ele>6.2</ele>
    <time>2019-11-07T13:47:19.000Z</time>
   </trkpt>
   <trkpt lat="-8.0452" lon="-34.890044">
    <ele>6.1</ele>
    <time>2019-11-07T13:47:20.000Z</time>
   </trkpt>
   <trkpt lat="-8.045251" lon="-34.89004">
    <ele>6</ele>
    <time>2019-11-07T13:47:21.000Z</time>
   </trkpt>
   <trkpt lat="-8.045303" lon="-34.890042">
    <ele>6.4</ele>
    <time>2019-11-07T13:47:22.000Z</time>
   </trkpt>
   <trkpt lat="-8.045356" lon="-34.890044">
    <ele>6.7</ele>
    <time>2019-11-07T13:47:23.000Z</time>
   </trkpt>
   <trkpt lat="-8.045414" lon="-34.890044">
    <ele>6.9</ele>
    <time>2019-11-07T13:47:24.000Z</time>
   </trkpt>
   <trkpt lat="-8.045463" lon="-34.890021">
    <ele>7.2</ele>
    <time>2019-11-07T13:47:25.000Z</time>
   </trkpt>
   <trkpt lat="-8.045534" lon="-34.890025">
    <ele>7.5</ele>
    <time>2019-11-07T13:47:26.000Z</time>
   </trkpt>
   <trkpt lat="-8.045606" lon="-34.890019">
    <ele>7.9</ele>
    <time>2019-11-07T13:47:27.000Z</time>
   </trkpt>
   <trkpt lat="-8.04568" lon="-34.890014">
    <ele>8.3</ele>
    <time>2019-11-07T13:47:28.000Z</time>
   </trkpt>
   <trkpt lat="-8.045756" lon="-34.890015">
    <ele>8.8</ele>
    <time>2019-11-07T13:47:29.000Z</time>
   </trkpt>
   <trkpt lat="-8.04581" lon="-34.890026">
    <ele>9.2</ele>
    <time>2019-11-07T13:47:30.000Z</time>
   </trkpt>
   <trkpt lat="-8.045875" lon="-34.890022">
    <ele>9.5</ele>
    <time>2019-11-07T13:47:31.000Z</time>
   </trkpt>
   <trkpt lat="-8.045934" lon="-34.890018">
    <ele>9.5</ele>
    <time>2019-11-07T13:47:32.000Z</time>
   </trkpt>
   <trkpt lat="-8.045999" lon="-34.890025">
    <ele>9.5</ele>
    <time>2019-11-07T13:47:33.000Z</time>
   </trkpt>
   <trkpt lat="-8.046062" lon="-34.890029">
    <ele>9.5</ele>
    <time>2019-11-07T13:47:34.000Z</time>
   </trkpt>
   <trkpt lat="-8.046118" lon="-34.890018">
    <ele>9.5</ele>
    <time>2019-11-07T13:47:35.000Z</time>
   </trkpt>
   <trkpt lat="-8.046171" lon="-34.890015">
    <ele>9.6</ele>
    <time>2019-11-07T13:47:36.000Z</time>
   </trkpt>
   <trkpt lat="-8.046216" lon="-34.890013">
    <ele>9.6</ele>
    <time>2019-11-07T13:47:37.000Z</time>
   </trkpt>
   <trkpt lat="-8.046256" lon="-34.890003">
    <ele>9.6</ele>
    <time>2019-11-07T13:47:38.000Z</time>
   </trkpt>
   <trkpt lat="-8.046299" lon="-34.889991">
    <ele>9.6</ele>
    <time>2019-11-07T13:47:39.000Z</time>
   </trkpt>
   <trkpt lat="-8.046349" lon="-34.889987">
    <ele>9.7</ele>
    <time>2019-11-07T13:47:40.000Z</time>
   </trkpt>
   <trkpt lat="-8.046405" lon="-34.889987">
    <ele>9.7</ele>
    <time>2019-11-07T13:47:41.000Z</time>
   </trkpt>
   <trkpt lat="-8.046464" lon="-34.889985">
    <ele>9.8</ele>
    <time>2019-11-07T13:47:42.000Z</time>
   </trkpt>
   <trkpt lat="-8.046527" lon="-34.889981">
    <ele>9.8</ele>
    <time>2019-11-07T13:47:43.000Z</time>
   </trkpt>
   <trkpt lat="-8.046587" lon="-34.889973">
    <ele>9.9</ele>
    <time>2019-11-07T13:47:44.000Z</time>
   </trkpt>
   <trkpt lat="-8.046643" lon="-34.88995">
    <ele>9.9</ele>
    <time>2019-11-07T13:47:45.000Z</time>
   </trkpt>
   <trkpt lat="-8.046701" lon="-34.889943">
    <ele>10.1</ele>
    <time>2019-11-07T13:47:46.000Z</time>
   </trkpt>
   <trkpt lat="-8.046761" lon="-34.889937">
    <ele>10.2</ele>
    <time>2019-11-07T13:47:47.000Z</time>
   </trkpt>
   <trkpt lat="-8.046826" lon="-34.889937">
    <ele>10.3</ele>
    <time>2019-11-07T13:47:48.000Z</time>
   </trkpt>
   <trkpt lat="-8.046876" lon="-34.889943">
    <ele>10.4</ele>
    <time>2019-11-07T13:47:49.000Z</time>
   </trkpt>
   <trkpt lat="-8.04694" lon="-34.889956">
    <ele>10.5</ele>
    <time>2019-11-07T13:47:50.000Z</time>
   </trkpt>
   <trkpt lat="-8.047007" lon="-34.889954">
    <ele>10.6</ele>
    <time>2019-11-07T13:47:51.000Z</time>
   </trkpt>
   <trkpt lat="-8.047045" lon="-34.889968">
    <ele>10.7</ele>
    <time>2019-11-07T13:47:52.000Z</time>
   </trkpt>
   <trkpt lat="-8.047093" lon="-34.889975">
    <ele>10.7</ele>
    <time>2019-11-07T13:47:53.000Z</time>
   </trkpt>
   <trkpt lat="-8.04714" lon="-34.889962">
    <ele>10.8</ele>
    <time>2019-11-07T13:47:54.000Z</time>
   </trkpt>
   <trkpt lat="-8.047199" lon="-34.889947">
    <ele>10.9</ele>
    <time>2019-11-07T13:47:55.000Z</time>
   </trkpt>
   <trkpt lat="-8.047257" lon="-34.889928">
    <ele>10.9</ele>
    <time>2019-11-07T13:47:56.000Z</time>
   </trkpt>
   <trkpt lat="-8.047314" lon="-34.889914">
    <ele>11</ele>
    <time>2019-11-07T13:47:57.000Z</time>
   </trkpt>
   <trkpt lat="-8.047368" lon="-34.889907">
    <ele>11</ele>
    <time>2019-11-07T13:47:58.000Z</time>
   </trkpt>
   <trkpt lat="-8.047425" lon="-34.889911">
    <ele>11</ele>
    <time>2019-11-07T13:47:59.000Z</time>
   </trkpt>
   <trkpt lat="-8.047479" lon="-34.88991">
    <ele>11.1</ele>
    <time>2019-11-07T13:48:00.000Z</time>
   </trkpt>
   <trkpt lat="-8.047529" lon="-34.889902">
    <ele>11.1</ele>
    <time>2019-11-07T13:48:01.000Z</time>
   </trkpt>
   <trkpt lat="-8.047583" lon="-34.889897">
    <ele>11.1</ele>
    <time>2019-11-07T13:48:02.000Z</time>
   </trkpt>
   <trkpt lat="-8.047633" lon="-34.889888">
    <ele>11.2</ele>
    <time>2019-11-07T13:48:03.000Z</time>
   </trkpt>
   <trkpt lat="-8.047683" lon="-34.88988">
    <ele>11.2</ele>
    <time>2019-11-07T13:48:04.000Z</time>
   </trkpt>
   <trkpt lat="-8.047734" lon="-34.889887">
    <ele>11.2</ele>
    <time>2019-11-07T13:48:05.000Z</time>
   </trkpt>
   <trkpt lat="-8.047778" lon="-34.889879">
    <ele>11.2</ele>
    <time>2019-11-07T13:48:06.000Z</time>
   </trkpt>
   <trkpt lat="-8.047825" lon="-34.889875">
    <ele>11.2</ele>
    <time>2019-11-07T13:48:07.000Z</time>
   </trkpt>
   <trkpt lat="-8.04787" lon="-34.889866">
    <ele>11.1</ele>
    <time>2019-11-07T13:48:08.000Z</time>
   </trkpt>
   <trkpt lat="-8.047917" lon="-34.889841">
    <ele>10.9</ele>
    <time>2019-11-07T13:48:09.000Z</time>
   </trkpt>
   <trkpt lat="-8.047959" lon="-34.889825">
    <ele>10.8</ele>
    <time>2019-11-07T13:48:10.000Z</time>
   </trkpt>
   <trkpt lat="-8.048" lon="-34.889814">
    <ele>10.6</ele>
    <time>2019-11-07T13:48:11.000Z</time>
   </trkpt>
   <trkpt lat="-8.048038" lon="-34.889806">
    <ele>10.5</ele>
    <time>2019-11-07T13:48:12.000Z</time>
   </trkpt>
   <trkpt lat="-8.048075" lon="-34.889801">
    <ele>10.4</ele>
    <time>2019-11-07T13:48:13.000Z</time>
   </trkpt>
   <trkpt lat="-8.048105" lon="-34.889796">
    <ele>10.3</ele>
    <time>2019-11-07T13:48:14.000Z</time>
   </trkpt>
   <trkpt lat="-8.048152" lon="-34.889799">
    <ele>10</ele>
    <time>2019-11-07T13:48:15.000Z</time>
   </trkpt>
   <trkpt lat="-8.048205" lon="-34.889806">
    <ele>10.2</ele>
    <time>2019-11-07T13:48:16.000Z</time>
   </trkpt>
   <trkpt lat="-8.048264" lon="-34.889816">
    <ele>10.4</ele>
    <time>2019-11-07T13:48:17.000Z</time>
   </trkpt>
   <trkpt lat="-8.048318" lon="-34.889821">
    <ele>10.6</ele>
    <time>2019-11-07T13:48:18.000Z</time>
   </trkpt>
   <trkpt lat="-8.048365" lon="-34.889829">
    <ele>10.9</ele>
    <time>2019-11-07T13:48:19.000Z</time>
   </trkpt>
   <trkpt lat="-8.048406" lon="-34.88984">
    <ele>11</ele>
    <time>2019-11-07T13:48:20.000Z</time>
   </trkpt>
   <trkpt lat="-8.048446" lon="-34.889856">
    <ele>11.3</ele>
    <time>2019-11-07T13:48:21.000Z</time>
   </trkpt>
   <trkpt lat="-8.048494" lon="-34.889878">
    <ele>11.6</ele>
    <time>2019-11-07T13:48:22.000Z</time>
   </trkpt>
   <trkpt lat="-8.048546" lon="-34.889879">
    <ele>11.9</ele>
    <time>2019-11-07T13:48:23.000Z</time>
   </trkpt>
   <trkpt lat="-8.048603" lon="-34.889889">
    <ele>12.1</ele>
    <time>2019-11-07T13:48:24.000Z</time>
   </trkpt>
   <trkpt lat="-8.048635" lon="-34.889901">
    <ele>12.4</ele>
    <time>2019-11-07T13:48:25.000Z</time>
   </trkpt>
   <trkpt lat="-8.048675" lon="-34.889915">
    <ele>12.8</ele>
    <time>2019-11-07T13:48:26.000Z</time>
   </trkpt>
   <trkpt lat="-8.048731" lon="-34.889925">
    <ele>13.2</ele>
    <time>2019-11-07T13:48:27.000Z</time>
   </trkpt>
   <trkpt lat="-8.048792" lon="-34.889937">
    <ele>13.8</ele>
    <time>2019-11-07T13:48:28.000Z</time>
   </trkpt>
   <trkpt lat="-8.048851" lon="-34.889942">
    <ele>14.3</ele>
    <time>2019-11-07T13:48:29.000Z</time>
   </trkpt>
   <trkpt lat="-8.048895" lon="-34.889957">
    <ele>14.7</ele>
    <time>2019-11-07T13:48:30.000Z</time>
   </trkpt>
   <trkpt lat="-8.048945" lon="-34.889968">
    <ele>14.9</ele>
    <time>2019-11-07T13:48:31.000Z</time>
   </trkpt>
   <trkpt lat="-8.048996" lon="-34.889993">
    <ele>14.7</ele>
    <time>2019-11-07T13:48:32.000Z</time>
   </trkpt>
   <trkpt lat="-8.049045" lon="-34.890012">
    <ele>14.6</ele>
    <time>2019-11-07T13:48:33.000Z</time>
   </trkpt>
   <trkpt lat="-8.049106" lon="-34.890033">
    <ele>14.4</ele>
    <time>2019-11-07T13:48:34.000Z</time>
   </trkpt>
   <trkpt lat="-8.049167" lon="-34.890053">
    <ele>14.1</ele>
    <time>2019-11-07T13:48:35.000Z</time>
   </trkpt>
   <trkpt lat="-8.049214" lon="-34.890056">
    <ele>14</ele>
    <time>2019-11-07T13:48:36.000Z</time>
   </trkpt>
   <trkpt lat="-8.049248" lon="-34.890052">
    <ele>13.8</ele>
    <time>2019-11-07T13:48:37.000Z</time>
   </trkpt>
   <trkpt lat="-8.049305" lon="-34.890051">
    <ele>13.6</ele>
    <time>2019-11-07T13:48:38.000Z</time>
   </trkpt>
   <trkpt lat="-8.049349" lon="-34.890057">
    <ele>13.4</ele>
    <time>2019-11-07T13:48:39.000Z</time>
   </trkpt>
   <trkpt lat="-8.049396" lon="-34.890055">
    <ele>13.1</ele>
    <time>2019-11-07T13:48:40.000Z</time>
   </trkpt>
   <trkpt lat="-8.049449" lon="-34.89006">
    <ele>12.9</ele>
    <time>2019-11-07T13:48:41.000Z</time>
   </trkpt>
   <trkpt lat="-8.049506" lon="-34.89005">
    <ele>12.6</ele>
    <time>2019-11-07T13:48:42.000Z</time>
   </trkpt>
   <trkpt lat="-8.049557" lon="-34.890046">
    <ele>12.3</ele>
    <time>2019-11-07T13:48:43.000Z</time>
   </trkpt>
   <trkpt lat="-8.049603" lon="-34.890045">
    <ele>12.1</ele>
    <time>2019-11-07T13:48:44.000Z</time>
   </trkpt>
   <trkpt lat="-8.049646" lon="-34.890049">
    <ele>11.8</ele>
    <time>2019-11-07T13:48:45.000Z</time>
   </trkpt>
   <trkpt lat="-8.049687" lon="-34.890051">
    <ele>11.3</ele>
    <time>2019-11-07T13:48:46.000Z</time>
   </trkpt>
   <trkpt lat="-8.049724" lon="-34.890051">
    <ele>11.2</ele>
    <time>2019-11-07T13:48:47.000Z</time>
   </trkpt>
   <trkpt lat="-8.049778" lon="-34.890035">
    <ele>11.1</ele>
    <time>2019-11-07T13:48:49.000Z</time>
   </trkpt>
   <trkpt lat="-8.049817" lon="-34.890017">
    <ele>11</ele>
    <time>2019-11-07T13:48:50.000Z</time>
   </trkpt>
   <trkpt lat="-8.049862" lon="-34.890016">
    <ele>10.9</ele>
    <time>2019-11-07T13:48:51.000Z</time>
   </trkpt>
   <trkpt lat="-8.049909" lon="-34.890016">
    <ele>10.9</ele>
    <time>2019-11-07T13:48:52.000Z</time>
   </trkpt>
   <trkpt lat="-8.049952" lon="-34.890021">
    <ele>10.8</ele>
    <time>2019-11-07T13:48:53.000Z</time>
   </trkpt>
   <trkpt lat="-8.04999" lon="-34.890023">
    <ele>10.7</ele>
    <time>2019-11-07T13:48:54.000Z</time>
   </trkpt>
   <trkpt lat="-8.050033" lon="-34.890032">
    <ele>10.6</ele>
    <time>2019-11-07T13:48:55.000Z</time>
   </trkpt>
   <trkpt lat="-8.050077" lon="-34.890041">
    <ele>10.6</ele>
    <time>2019-11-07T13:48:56.000Z</time>
   </trkpt>
   <trkpt lat="-8.050123" lon="-34.890049">
    <ele>10.5</ele>
    <time>2019-11-07T13:48:57.000Z</time>
   </trkpt>
   <trkpt lat="-8.050157" lon="-34.890052">
    <ele>10.5</ele>
    <time>2019-11-07T13:48:58.000Z</time>
   </trkpt>
   <trkpt lat="-8.050192" lon="-34.890064">
    <ele>10.5</ele>
    <time>2019-11-07T13:49:00.000Z</time>
   </trkpt>
   <trkpt lat="-8.050192" lon="-34.890102">
    <ele>10.5</ele>
    <time>2019-11-07T13:49:02.000Z</time>
   </trkpt>
   <trkpt lat="-8.050195" lon="-34.890138">
    <ele>10.5</ele>
    <time>2019-11-07T13:49:03.000Z</time>
   </trkpt>
   <trkpt lat="-8.050186" lon="-34.890177">
    <ele>10.5</ele>
    <time>2019-11-07T13:49:04.000Z</time>
   </trkpt>
   <trkpt lat="-8.050178" lon="-34.890227">
    <ele>10.5</ele>
    <time>2019-11-07T13:49:05.000Z</time>
   </trkpt>
   <trkpt lat="-8.050167" lon="-34.890273">
    <ele>10.5</ele>
    <time>2019-11-07T13:49:06.000Z</time>
   </trkpt>
   <trkpt lat="-8.050147" lon="-34.89032">
    <ele>10.5</ele>
    <time>2019-11-07T13:49:07.000Z</time>
   </trkpt>
   <trkpt lat="-8.050158" lon="-34.890352">
    <ele>10.5</ele>
    <time>2019-11-07T13:49:08.000Z</time>
   </trkpt>
   <trkpt lat="-8.050153" lon="-34.890397">
    <ele>10.5</ele>
    <time>2019-11-07T13:49:09.000Z</time>
   </trkpt>
   <trkpt lat="-8.050147" lon="-34.890448">
    <ele>10.5</ele>
    <time>2019-11-07T13:49:10.000Z</time>
   </trkpt>
   <trkpt lat="-8.050141" lon="-34.890509">
    <ele>10.5</ele>
    <time>2019-11-07T13:49:11.000Z</time>
   </trkpt>
   <trkpt lat="-8.050135" lon="-34.890563">
    <ele>10.5</ele>
    <time>2019-11-07T13:49:12.000Z</time>
   </trkpt>
   <trkpt lat="-8.050125" lon="-34.890616">
    <ele>10.5</ele>
    <time>2019-11-07T13:49:13.000Z</time>
   </trkpt>
   <trkpt lat="-8.050115" lon="-34.890672">
    <ele>10.5</ele>
    <time>2019-11-07T13:49:14.000Z</time>
   </trkpt>
   <trkpt lat="-8.050107" lon="-34.890726">
    <ele>10.5</ele>
    <time>2019-11-07T13:49:15.000Z</time>
   </trkpt>
   <trkpt lat="-8.050117" lon="-34.890768">
    <ele>10.6</ele>
    <time>2019-11-07T13:49:16.000Z</time>
   </trkpt>
   <trkpt lat="-8.050118" lon="-34.890814">
    <ele>10.6</ele>
    <time>2019-11-07T13:49:17.000Z</time>
   </trkpt>
   <trkpt lat="-8.050109" lon="-34.890864">
    <ele>10.6</ele>
    <time>2019-11-07T13:49:18.000Z</time>
   </trkpt>
   <trkpt lat="-8.050111" lon="-34.890911">
    <ele>10.6</ele>
    <time>2019-11-07T13:49:19.000Z</time>
   </trkpt>
   <trkpt lat="-8.050108" lon="-34.890957">
    <ele>10.6</ele>
    <time>2019-11-07T13:49:20.000Z</time>
   </trkpt>
   <trkpt lat="-8.0501" lon="-34.891002">
    <ele>10.6</ele>
    <time>2019-11-07T13:49:21.000Z</time>
   </trkpt>
   <trkpt lat="-8.050098" lon="-34.891047">
    <ele>10.6</ele>
    <time>2019-11-07T13:49:22.000Z</time>
   </trkpt>
   <trkpt lat="-8.050092" lon="-34.891098">
    <ele>10.6</ele>
    <time>2019-11-07T13:49:23.000Z</time>
   </trkpt>
   <trkpt lat="-8.050079" lon="-34.891149">
    <ele>10.6</ele>
    <time>2019-11-07T13:49:24.000Z</time>
   </trkpt>
   <trkpt lat="-8.050065" lon="-34.891199">
    <ele>10.6</ele>
    <time>2019-11-07T13:49:25.000Z</time>
   </trkpt>
   <trkpt lat="-8.050058" lon="-34.891252">
    <ele>10.6</ele>
    <time>2019-11-07T13:49:26.000Z</time>
   </trkpt>
   <trkpt lat="-8.050062" lon="-34.891314">
    <ele>10.6</ele>
    <time>2019-11-07T13:49:27.000Z</time>
   </trkpt>
   <trkpt lat="-8.050051" lon="-34.891372">
    <ele>10.6</ele>
    <time>2019-11-07T13:49:28.000Z</time>
   </trkpt>
   <trkpt lat="-8.050042" lon="-34.89143">
    <ele>10.6</ele>
    <time>2019-11-07T13:49:29.000Z</time>
   </trkpt>
   <trkpt lat="-8.050031" lon="-34.891476">
    <ele>10.6</ele>
    <time>2019-11-07T13:49:30.000Z</time>
   </trkpt>
   <trkpt lat="-8.050019" lon="-34.891521">
    <ele>10.6</ele>
    <time>2019-11-07T13:49:31.000Z</time>
   </trkpt>
   <trkpt lat="-8.050021" lon="-34.891574">
    <ele>10.6</ele>
    <time>2019-11-07T13:49:32.000Z</time>
   </trkpt>
   <trkpt lat="-8.050017" lon="-34.891619">
    <ele>10.6</ele>
    <time>2019-11-07T13:49:33.000Z</time>
   </trkpt>
   <trkpt lat="-8.050015" lon="-34.891662">
    <ele>10.7</ele>
    <time>2019-11-07T13:49:34.000Z</time>
   </trkpt>
   <trkpt lat="-8.050006" lon="-34.891711">
    <ele>10.7</ele>
    <time>2019-11-07T13:49:35.000Z</time>
   </trkpt>
   <trkpt lat="-8.050005" lon="-34.891762">
    <ele>10.8</ele>
    <time>2019-11-07T13:49:36.000Z</time>
   </trkpt>
   <trkpt lat="-8.050006" lon="-34.891837">
    <ele>11</ele>
    <time>2019-11-07T13:49:37.000Z</time>
   </trkpt>
   <trkpt lat="-8.049992" lon="-34.891897">
    <ele>11.2</ele>
    <time>2019-11-07T13:49:38.000Z</time>
   </trkpt>
   <trkpt lat="-8.049991" lon="-34.891943">
    <ele>11.4</ele>
    <time>2019-11-07T13:49:39.000Z</time>
   </trkpt>
   <trkpt lat="-8.049982" lon="-34.891989">
    <ele>11.7</ele>
    <time>2019-11-07T13:49:40.000Z</time>
   </trkpt>
   <trkpt lat="-8.04996" lon="-34.892027">
    <ele>12</ele>
    <time>2019-11-07T13:49:41.000Z</time>
   </trkpt>
   <trkpt lat="-8.049939" lon="-34.892073">
    <ele>12.2</ele>
    <time>2019-11-07T13:49:42.000Z</time>
   </trkpt>
   <trkpt lat="-8.049912" lon="-34.892106">
    <ele>12.3</ele>
    <time>2019-11-07T13:49:43.000Z</time>
   </trkpt>
   <trkpt lat="-8.049877" lon="-34.892129">
    <ele>12.4</ele>
    <time>2019-11-07T13:49:44.000Z</time>
   </trkpt>
   <trkpt lat="-8.049853" lon="-34.892159">
    <ele>12.5</ele>
    <time>2019-11-07T13:49:45.000Z</time>
   </trkpt>
   <trkpt lat="-8.049829" lon="-34.892178">
    <ele>12.6</ele>
    <time>2019-11-07T13:49:46.000Z</time>
   </trkpt>
   <trkpt lat="-8.049803" lon="-34.892208">
    <ele>12.6</ele>
    <time>2019-11-07T13:49:47.000Z</time>
   </trkpt>
   <trkpt lat="-8.049783" lon="-34.892231">
    <ele>12.6</ele>
    <time>2019-11-07T13:49:48.000Z</time>
   </trkpt>
   <trkpt lat="-8.049745" lon="-34.892254">
    <ele>12.7</ele>
    <time>2019-11-07T13:49:49.000Z</time>
   </trkpt>
   <trkpt lat="-8.049718" lon="-34.892281">
    <ele>12.7</ele>
    <time>2019-11-07T13:49:50.000Z</time>
   </trkpt>
   <trkpt lat="-8.049686" lon="-34.892306">
    <ele>12.7</ele>
    <time>2019-11-07T13:49:51.000Z</time>
   </trkpt>
   <trkpt lat="-8.049652" lon="-34.892349">
    <ele>12.7</ele>
    <time>2019-11-07T13:49:52.000Z</time>
   </trkpt>
   <trkpt lat="-8.049617" lon="-34.892388">
    <ele>12.7</ele>
    <time>2019-11-07T13:49:53.000Z</time>
   </trkpt>
   <trkpt lat="-8.049582" lon="-34.89243">
    <ele>12.7</ele>
    <time>2019-11-07T13:49:54.000Z</time>
   </trkpt>
   <trkpt lat="-8.049548" lon="-34.892479">
    <ele>12.7</ele>
    <time>2019-11-07T13:49:55.000Z</time>
   </trkpt>
   <trkpt lat="-8.04952" lon="-34.892509">
    <ele>12.7</ele>
    <time>2019-11-07T13:49:56.000Z</time>
   </trkpt>
   <trkpt lat="-8.049495" lon="-34.892544">
    <ele>12.7</ele>
    <time>2019-11-07T13:49:57.000Z</time>
   </trkpt>
   <trkpt lat="-8.049462" lon="-34.892584">
    <ele>12.7</ele>
    <time>2019-11-07T13:49:58.000Z</time>
   </trkpt>
   <trkpt lat="-8.049433" lon="-34.89262">
    <ele>12.7</ele>
    <time>2019-11-07T13:49:59.000Z</time>
   </trkpt>
   <trkpt lat="-8.049406" lon="-34.892651">
    <ele>12.7</ele>
    <time>2019-11-07T13:50:00.000Z</time>
   </trkpt>
   <trkpt lat="-8.049374" lon="-34.892678">
    <ele>12.7</ele>
    <time>2019-11-07T13:50:01.000Z</time>
   </trkpt>
   <trkpt lat="-8.049352" lon="-34.892707">
    <ele>12.7</ele>
    <time>2019-11-07T13:50:02.000Z</time>
   </trkpt>
   <trkpt lat="-8.049333" lon="-34.892739">
    <ele>12.7</ele>
    <time>2019-11-07T13:50:03.000Z</time>
   </trkpt>
   <trkpt lat="-8.049309" lon="-34.892776">
    <ele>12.3</ele>
    <time>2019-11-07T13:50:04.000Z</time>
   </trkpt>
   <trkpt lat="-8.04931" lon="-34.892832">
    <ele>11.6</ele>
    <time>2019-11-07T13:50:05.000Z</time>
   </trkpt>
   <trkpt lat="-8.049333" lon="-34.892878">
    <ele>11.1</ele>
    <time>2019-11-07T13:50:06.000Z</time>
   </trkpt>
   <trkpt lat="-8.049383" lon="-34.892905">
    <ele>10.9</ele>
    <time>2019-11-07T13:50:07.000Z</time>
   </trkpt>
   <trkpt lat="-8.049438" lon="-34.89293">
    <ele>11</ele>
    <time>2019-11-07T13:50:08.000Z</time>
   </trkpt>
   <trkpt lat="-8.049487" lon="-34.892964">
    <ele>11.1</ele>
    <time>2019-11-07T13:50:09.000Z</time>
   </trkpt>
   <trkpt lat="-8.049538" lon="-34.892988">
    <ele>11.3</ele>
    <time>2019-11-07T13:50:10.000Z</time>
   </trkpt>
   <trkpt lat="-8.049594" lon="-34.893008">
    <ele>11.6</ele>
    <time>2019-11-07T13:50:11.000Z</time>
   </trkpt>
   <trkpt lat="-8.049651" lon="-34.89303">
    <ele>11.9</ele>
    <time>2019-11-07T13:50:12.000Z</time>
   </trkpt>
   <trkpt lat="-8.049705" lon="-34.893058">
    <ele>12.2</ele>
    <time>2019-11-07T13:50:13.000Z</time>
   </trkpt>
   <trkpt lat="-8.049762" lon="-34.893077">
    <ele>12.3</ele>
    <time>2019-11-07T13:50:14.000Z</time>
   </trkpt>
   <trkpt lat="-8.049811" lon="-34.893115">
    <ele>12.5</ele>
    <time>2019-11-07T13:50:15.000Z</time>
   </trkpt>
   <trkpt lat="-8.049869" lon="-34.89314">
    <ele>12.2</ele>
    <time>2019-11-07T13:50:16.000Z</time>
   </trkpt>
   <trkpt lat="-8.04992" lon="-34.893168">
    <ele>11.6</ele>
    <time>2019-11-07T13:50:17.000Z</time>
   </trkpt>
   <trkpt lat="-8.049969" lon="-34.893182">
    <ele>11</ele>
    <time>2019-11-07T13:50:18.000Z</time>
   </trkpt>
   <trkpt lat="-8.050016" lon="-34.893204">
    <ele>10.4</ele>
    <time>2019-11-07T13:50:19.000Z</time>
   </trkpt>
   <trkpt lat="-8.050073" lon="-34.893207">
    <ele>9.8</ele>
    <time>2019-11-07T13:50:20.000Z</time>
   </trkpt>
   <trkpt lat="-8.050119" lon="-34.893233">
    <ele>9.3</ele>
    <time>2019-11-07T13:50:21.000Z</time>
   </trkpt>
   <trkpt lat="-8.050169" lon="-34.893258">
    <ele>9.1</ele>
    <time>2019-11-07T13:50:22.000Z</time>
   </trkpt>
   <trkpt lat="-8.050214" lon="-34.893277">
    <ele>8.9</ele>
    <time>2019-11-07T13:50:23.000Z</time>
   </trkpt>
   <trkpt lat="-8.050266" lon="-34.89329">
    <ele>8.8</ele>
    <time>2019-11-07T13:50:24.000Z</time>
   </trkpt>
   <trkpt lat="-8.05031" lon="-34.893302">
    <ele>8.6</ele>
    <time>2019-11-07T13:50:25.000Z</time>
   </trkpt>
   <trkpt lat="-8.050357" lon="-34.893328">
    <ele>8.4</ele>
    <time>2019-11-07T13:50:26.000Z</time>
   </trkpt>
   <trkpt lat="-8.050407" lon="-34.893363">
    <ele>8.1</ele>
    <time>2019-11-07T13:50:27.000Z</time>
   </trkpt>
   <trkpt lat="-8.050462" lon="-34.89338">
    <ele>7.9</ele>
    <time>2019-11-07T13:50:28.000Z</time>
   </trkpt>
   <trkpt lat="-8.050522" lon="-34.893407">
    <ele>7.7</ele>
    <time>2019-11-07T13:50:29.000Z</time>
   </trkpt>
   <trkpt lat="-8.050577" lon="-34.893442">
    <ele>7.6</ele>
    <time>2019-11-07T13:50:30.000Z</time>
   </trkpt>
   <trkpt lat="-8.050633" lon="-34.893465">
    <ele>7.5</ele>
    <time>2019-11-07T13:50:31.000Z</time>
   </trkpt>
   <trkpt lat="-8.050717" lon="-34.893489">
    <ele>7.5</ele>
    <time>2019-11-07T13:50:32.000Z</time>
   </trkpt>
   <trkpt lat="-8.050792" lon="-34.893507">
    <ele>7.5</ele>
    <time>2019-11-07T13:50:33.000Z</time>
   </trkpt>
   <trkpt lat="-8.05084" lon="-34.893532">
    <ele>7.5</ele>
    <time>2019-11-07T13:50:34.000Z</time>
   </trkpt>
   <trkpt lat="-8.050891" lon="-34.893554">
    <ele>7.5</ele>
    <time>2019-11-07T13:50:35.000Z</time>
   </trkpt>
   <trkpt lat="-8.050943" lon="-34.893571">
    <ele>7.5</ele>
    <time>2019-11-07T13:50:36.000Z</time>
   </trkpt>
   <trkpt lat="-8.050982" lon="-34.893587">
    <ele>7.5</ele>
    <time>2019-11-07T13:50:37.000Z</time>
   </trkpt>
   <trkpt lat="-8.05103" lon="-34.893603">
    <ele>7.5</ele>
    <time>2019-11-07T13:50:38.000Z</time>
   </trkpt>
   <trkpt lat="-8.051075" lon="-34.893617">
    <ele>7.6</ele>
    <time>2019-11-07T13:50:39.000Z</time>
   </trkpt>
   <trkpt lat="-8.051114" lon="-34.893638">
    <ele>7.6</ele>
    <time>2019-11-07T13:50:40.000Z</time>
   </trkpt>
   <trkpt lat="-8.05116" lon="-34.89366">
    <ele>7.6</ele>
    <time>2019-11-07T13:50:41.000Z</time>
   </trkpt>
   <trkpt lat="-8.051212" lon="-34.893688">
    <ele>7.6</ele>
    <time>2019-11-07T13:50:42.000Z</time>
   </trkpt>
   <trkpt lat="-8.051251" lon="-34.893701">
    <ele>7.6</ele>
    <time>2019-11-07T13:50:43.000Z</time>
   </trkpt>
   <trkpt lat="-8.051293" lon="-34.893722">
    <ele>7.6</ele>
    <time>2019-11-07T13:50:44.000Z</time>
   </trkpt>
   <trkpt lat="-8.051335" lon="-34.89374">
    <ele>7.6</ele>
    <time>2019-11-07T13:50:45.000Z</time>
   </trkpt>
   <trkpt lat="-8.05137" lon="-34.893759">
    <ele>7.6</ele>
    <time>2019-11-07T13:50:46.000Z</time>
   </trkpt>
   <trkpt lat="-8.051407" lon="-34.893777">
    <ele>7.7</ele>
    <time>2019-11-07T13:50:47.000Z</time>
   </trkpt>
   <trkpt lat="-8.051445" lon="-34.893804">
    <ele>7.7</ele>
    <time>2019-11-07T13:50:48.000Z</time>
   </trkpt>
   <trkpt lat="-8.051473" lon="-34.893834">
    <ele>7.7</ele>
    <time>2019-11-07T13:50:49.000Z</time>
   </trkpt>
   <trkpt lat="-8.051524" lon="-34.89385">
    <ele>7.7</ele>
    <time>2019-11-07T13:50:50.000Z</time>
   </trkpt>
   <trkpt lat="-8.051566" lon="-34.893864">
    <ele>7.7</ele>
    <time>2019-11-07T13:50:51.000Z</time>
   </trkpt>
   <trkpt lat="-8.051611" lon="-34.893876">
    <ele>8.8</ele>
    <time>2019-11-07T13:50:52.000Z</time>
   </trkpt>
   <trkpt lat="-8.051657" lon="-34.893893">
    <ele>9.4</ele>
    <time>2019-11-07T13:50:53.000Z</time>
   </trkpt>
   <trkpt lat="-8.051706" lon="-34.893904">
    <ele>10</ele>
    <time>2019-11-07T13:50:54.000Z</time>
   </trkpt>
   <trkpt lat="-8.051735" lon="-34.893918">
    <ele>10.4</ele>
    <time>2019-11-07T13:50:55.000Z</time>
   </trkpt>
   <trkpt lat="-8.051769" lon="-34.893909">
    <ele>10.8</ele>
    <time>2019-11-07T13:50:56.000Z</time>
   </trkpt>
   <trkpt lat="-8.051799" lon="-34.893891">
    <ele>11.2</ele>
    <time>2019-11-07T13:50:57.000Z</time>
   </trkpt>
   <trkpt lat="-8.051816" lon="-34.893846">
    <ele>11.7</ele>
    <time>2019-11-07T13:50:58.000Z</time>
   </trkpt>
   <trkpt lat="-8.051832" lon="-34.893803">
    <ele>12.3</ele>
    <time>2019-11-07T13:50:59.000Z</time>
   </trkpt>
   <trkpt lat="-8.051855" lon="-34.893768">
    <ele>12.7</ele>
    <time>2019-11-07T13:51:00.000Z</time>
   </trkpt>
   <trkpt lat="-8.051873" lon="-34.893736">
    <ele>12.7</ele>
    <time>2019-11-07T13:51:01.000Z</time>
   </trkpt>
   <trkpt lat="-8.051895" lon="-34.893692">
    <ele>12.7</ele>
    <time>2019-11-07T13:51:02.000Z</time>
   </trkpt>
   <trkpt lat="-8.051909" lon="-34.893647">
    <ele>12.7</ele>
    <time>2019-11-07T13:51:03.000Z</time>
   </trkpt>
   <trkpt lat="-8.051924" lon="-34.8936">
    <ele>12.6</ele>
    <time>2019-11-07T13:51:04.000Z</time>
   </trkpt>
   <trkpt lat="-8.051945" lon="-34.893564">
    <ele>12.6</ele>
    <time>2019-11-07T13:51:05.000Z</time>
   </trkpt>
   <trkpt lat="-8.051961" lon="-34.893529">
    <ele>12.6</ele>
    <time>2019-11-07T13:51:06.000Z</time>
   </trkpt>
   <trkpt lat="-8.051978" lon="-34.893476">
    <ele>12.6</ele>
    <time>2019-11-07T13:51:07.000Z</time>
   </trkpt>
   <trkpt lat="-8.051991" lon="-34.893434">
    <ele>12.6</ele>
    <time>2019-11-07T13:51:08.000Z</time>
   </trkpt>
   <trkpt lat="-8.051999" lon="-34.893397">
    <ele>12.5</ele>
    <time>2019-11-07T13:51:09.000Z</time>
   </trkpt>
   <trkpt lat="-8.052006" lon="-34.893353">
    <ele>12.3</ele>
    <time>2019-11-07T13:51:10.000Z</time>
   </trkpt>
   <trkpt lat="-8.052022" lon="-34.893299">
    <ele>11.9</ele>
    <time>2019-11-07T13:51:11.000Z</time>
   </trkpt>
   <trkpt lat="-8.052029" lon="-34.893257">
    <ele>11.7</ele>
    <time>2019-11-07T13:51:12.000Z</time>
   </trkpt>
   <trkpt lat="-8.052038" lon="-34.893221">
    <ele>11.4</ele>
    <time>2019-11-07T13:51:13.000Z</time>
   </trkpt>
   <trkpt lat="-8.052056" lon="-34.893185">
    <ele>11.1</ele>
    <time>2019-11-07T13:51:14.000Z</time>
   </trkpt>
   <trkpt lat="-8.05207" lon="-34.893144">
    <ele>10.9</ele>
    <time>2019-11-07T13:51:15.000Z</time>
   </trkpt>
   <trkpt lat="-8.052084" lon="-34.893107">
    <ele>10.7</ele>
    <time>2019-11-07T13:51:16.000Z</time>
   </trkpt>
   <trkpt lat="-8.052098" lon="-34.893071">
    <ele>10.5</ele>
    <time>2019-11-07T13:51:17.000Z</time>
   </trkpt>
   <trkpt lat="-8.052116" lon="-34.893036">
    <ele>10.3</ele>
    <time>2019-11-07T13:51:18.000Z</time>
   </trkpt>
   <trkpt lat="-8.052139" lon="-34.892999">
    <ele>10.2</ele>
    <time>2019-11-07T13:51:19.000Z</time>
   </trkpt>
   <trkpt lat="-8.052146" lon="-34.892952">
    <ele>10.1</ele>
    <time>2019-11-07T13:51:20.000Z</time>
   </trkpt>
   <trkpt lat="-8.052164" lon="-34.892898">
    <ele>9.9</ele>
    <time>2019-11-07T13:51:21.000Z</time>
   </trkpt>
   <trkpt lat="-8.052166" lon="-34.892844">
    <ele>9.7</ele>
    <time>2019-11-07T13:51:22.000Z</time>
   </trkpt>
   <trkpt lat="-8.052166" lon="-34.892786">
    <ele>9.5</ele>
    <time>2019-11-07T13:51:23.000Z</time>
   </trkpt>
   <trkpt lat="-8.052178" lon="-34.892737">
    <ele>9.3</ele>
    <time>2019-11-07T13:51:24.000Z</time>
   </trkpt>
   <trkpt lat="-8.052195" lon="-34.892698">
    <ele>9</ele>
    <time>2019-11-07T13:51:25.000Z</time>
   </trkpt>
   <trkpt lat="-8.052222" lon="-34.892657">
    <ele>8.6</ele>
    <time>2019-11-07T13:51:26.000Z</time>
   </trkpt>
   <trkpt lat="-8.052245" lon="-34.892616">
    <ele>8.8</ele>
    <time>2019-11-07T13:51:27.000Z</time>
   </trkpt>
   <trkpt lat="-8.052267" lon="-34.89258">
    <ele>9</ele>
    <time>2019-11-07T13:51:28.000Z</time>
   </trkpt>
   <trkpt lat="-8.0523" lon="-34.892549">
    <ele>9.2</ele>
    <time>2019-11-07T13:51:29.000Z</time>
   </trkpt>
   <trkpt lat="-8.052322" lon="-34.892512">
    <ele>9.4</ele>
    <time>2019-11-07T13:51:30.000Z</time>
   </trkpt>
   <trkpt lat="-8.052349" lon="-34.892487">
    <ele>9.6</ele>
    <time>2019-11-07T13:51:31.000Z</time>
   </trkpt>
   <trkpt lat="-8.052376" lon="-34.892457">
    <ele>9.8</ele>
    <time>2019-11-07T13:51:32.000Z</time>
   </trkpt>
   <trkpt lat="-8.052406" lon="-34.892433">
    <ele>10</ele>
    <time>2019-11-07T13:51:33.000Z</time>
   </trkpt>
   <trkpt lat="-8.052436" lon="-34.89241">
    <ele>10.3</ele>
    <time>2019-11-07T13:51:34.000Z</time>
   </trkpt>
   <trkpt lat="-8.052478" lon="-34.892386">
    <ele>10.5</ele>
    <time>2019-11-07T13:51:35.000Z</time>
   </trkpt>
   <trkpt lat="-8.052517" lon="-34.892364">
    <ele>10.8</ele>
    <time>2019-11-07T13:51:36.000Z</time>
   </trkpt>
   <trkpt lat="-8.052556" lon="-34.892342">
    <ele>11.1</ele>
    <time>2019-11-07T13:51:37.000Z</time>
   </trkpt>
   <trkpt lat="-8.052596" lon="-34.892323">
    <ele>11.5</ele>
    <time>2019-11-07T13:51:38.000Z</time>
   </trkpt>
   <trkpt lat="-8.052626" lon="-34.892303">
    <ele>11.4</ele>
    <time>2019-11-07T13:51:39.000Z</time>
   </trkpt>
   <trkpt lat="-8.052658" lon="-34.892285">
    <ele>11.3</ele>
    <time>2019-11-07T13:51:40.000Z</time>
   </trkpt>
   <trkpt lat="-8.052683" lon="-34.892269">
    <ele>11.2</ele>
    <time>2019-11-07T13:51:41.000Z</time>
   </trkpt>
   <trkpt lat="-8.052706" lon="-34.892253">
    <ele>11.1</ele>
    <time>2019-11-07T13:51:42.000Z</time>
   </trkpt>
   <trkpt lat="-8.052735" lon="-34.892239">
    <ele>10.9</ele>
    <time>2019-11-07T13:51:43.000Z</time>
   </trkpt>
   <trkpt lat="-8.052763" lon="-34.892216">
    <ele>10.8</ele>
    <time>2019-11-07T13:51:44.000Z</time>
   </trkpt>
   <trkpt lat="-8.052793" lon="-34.892201">
    <ele>10.7</ele>
    <time>2019-11-07T13:51:45.000Z</time>
   </trkpt>
   <trkpt lat="-8.052821" lon="-34.892173">
    <ele>10.4</ele>
    <time>2019-11-07T13:51:46.000Z</time>
   </trkpt>
   <trkpt lat="-8.052849" lon="-34.892158">
    <ele>10.2</ele>
    <time>2019-11-07T13:51:47.000Z</time>
   </trkpt>
   <trkpt lat="-8.052885" lon="-34.892147">
    <ele>10</ele>
    <time>2019-11-07T13:51:49.000Z</time>
   </trkpt>
   <trkpt lat="-8.052916" lon="-34.892141">
    <ele>9.8</ele>
    <time>2019-11-07T13:51:51.000Z</time>
   </trkpt>
   <trkpt lat="-8.052941" lon="-34.892128">
    <ele>9.6</ele>
    <time>2019-11-07T13:51:52.000Z</time>
   </trkpt>
   <trkpt lat="-8.052973" lon="-34.892125">
    <ele>9.4</ele>
    <time>2019-11-07T13:51:53.000Z</time>
   </trkpt>
   <trkpt lat="-8.053006" lon="-34.892111">
    <ele>9.2</ele>
    <time>2019-11-07T13:51:54.000Z</time>
   </trkpt>
   <trkpt lat="-8.053038" lon="-34.89209">
    <ele>8.9</ele>
    <time>2019-11-07T13:51:55.000Z</time>
   </trkpt>
   <trkpt lat="-8.053072" lon="-34.892066">
    <ele>8.9</ele>
    <time>2019-11-07T13:51:56.000Z</time>
   </trkpt>
   <trkpt lat="-8.053114" lon="-34.892051">
    <ele>9</ele>
    <time>2019-11-07T13:51:57.000Z</time>
   </trkpt>
   <trkpt lat="-8.053152" lon="-34.892041">
    <ele>9</ele>
    <time>2019-11-07T13:51:58.000Z</time>
   </trkpt>
   <trkpt lat="-8.05319" lon="-34.892027">
    <ele>9</ele>
    <time>2019-11-07T13:51:59.000Z</time>
   </trkpt>
   <trkpt lat="-8.053222" lon="-34.892008">
    <ele>9</ele>
    <time>2019-11-07T13:52:00.000Z</time>
   </trkpt>
   <trkpt lat="-8.05327" lon="-34.891988">
    <ele>9.1</ele>
    <time>2019-11-07T13:52:01.000Z</time>
   </trkpt>
   <trkpt lat="-8.053314" lon="-34.891976">
    <ele>9.1</ele>
    <time>2019-11-07T13:52:02.000Z</time>
   </trkpt>
   <trkpt lat="-8.053357" lon="-34.891965">
    <ele>9.1</ele>
    <time>2019-11-07T13:52:03.000Z</time>
   </trkpt>
   <trkpt lat="-8.053396" lon="-34.891954">
    <ele>9.1</ele>
    <time>2019-11-07T13:52:04.000Z</time>
   </trkpt>
   <trkpt lat="-8.053428" lon="-34.891941">
    <ele>9.1</ele>
    <time>2019-11-07T13:52:05.000Z</time>
   </trkpt>
   <trkpt lat="-8.053455" lon="-34.89192">
    <ele>9.2</ele>
    <time>2019-11-07T13:52:06.000Z</time>
   </trkpt>
   <trkpt lat="-8.053498" lon="-34.891901">
    <ele>9.4</ele>
    <time>2019-11-07T13:52:07.000Z</time>
   </trkpt>
   <trkpt lat="-8.053545" lon="-34.891891">
    <ele>9.7</ele>
    <time>2019-11-07T13:52:08.000Z</time>
   </trkpt>
   <trkpt lat="-8.053588" lon="-34.891871">
    <ele>10</ele>
    <time>2019-11-07T13:52:09.000Z</time>
   </trkpt>
   <trkpt lat="-8.053631" lon="-34.891847">
    <ele>10.3</ele>
    <time>2019-11-07T13:52:10.000Z</time>
   </trkpt>
   <trkpt lat="-8.053671" lon="-34.891828">
    <ele>10.5</ele>
    <time>2019-11-07T13:52:11.000Z</time>
   </trkpt>
   <trkpt lat="-8.053708" lon="-34.891794">
    <ele>10.7</ele>
    <time>2019-11-07T13:52:12.000Z</time>
   </trkpt>
   <trkpt lat="-8.053748" lon="-34.891755">
    <ele>11</ele>
    <time>2019-11-07T13:52:13.000Z</time>
   </trkpt>
   <trkpt lat="-8.053795" lon="-34.891721">
    <ele>11.2</ele>
    <time>2019-11-07T13:52:14.000Z</time>
   </trkpt>
   <trkpt lat="-8.053844" lon="-34.891688">
    <ele>11.3</ele>
    <time>2019-11-07T13:52:15.000Z</time>
   </trkpt>
   <trkpt lat="-8.053893" lon="-34.891662">
    <ele>11.4</ele>
    <time>2019-11-07T13:52:16.000Z</time>
   </trkpt>
   <trkpt lat="-8.053955" lon="-34.891634">
    <ele>11.5</ele>
    <time>2019-11-07T13:52:17.000Z</time>
   </trkpt>
   <trkpt lat="-8.054012" lon="-34.891605">
    <ele>11.6</ele>
    <time>2019-11-07T13:52:18.000Z</time>
   </trkpt>
   <trkpt lat="-8.054062" lon="-34.891572">
    <ele>11.6</ele>
    <time>2019-11-07T13:52:19.000Z</time>
   </trkpt>
   <trkpt lat="-8.054098" lon="-34.891538">
    <ele>11.7</ele>
    <time>2019-11-07T13:52:20.000Z</time>
   </trkpt>
   <trkpt lat="-8.054138" lon="-34.891513">
    <ele>11.7</ele>
    <time>2019-11-07T13:52:21.000Z</time>
   </trkpt>
   <trkpt lat="-8.054183" lon="-34.891476">
    <ele>11.8</ele>
    <time>2019-11-07T13:52:22.000Z</time>
   </trkpt>
   <trkpt lat="-8.054225" lon="-34.891448">
    <ele>11.9</ele>
    <time>2019-11-07T13:52:23.000Z</time>
   </trkpt>
   <trkpt lat="-8.054261" lon="-34.89143">
    <ele>11.9</ele>
    <time>2019-11-07T13:52:24.000Z</time>
   </trkpt>
   <trkpt lat="-8.054293" lon="-34.891414">
    <ele>12</ele>
    <time>2019-11-07T13:52:25.000Z</time>
   </trkpt>
   <trkpt lat="-8.054317" lon="-34.891396">
    <ele>12</ele>
    <time>2019-11-07T13:52:26.000Z</time>
   </trkpt>
   <trkpt lat="-8.054338" lon="-34.891359">
    <ele>12</ele>
    <time>2019-11-07T13:52:28.000Z</time>
   </trkpt>
   <trkpt lat="-8.054372" lon="-34.891351">
    <ele>12.1</ele>
    <time>2019-11-07T13:52:30.000Z</time>
   </trkpt>
   <trkpt lat="-8.054401" lon="-34.891342">
    <ele>12.2</ele>
    <time>2019-11-07T13:52:34.000Z</time>
   </trkpt>
   <trkpt lat="-8.054434" lon="-34.891363">
    <ele>12.2</ele>
    <time>2019-11-07T13:52:36.000Z</time>
   </trkpt>
   <trkpt lat="-8.054452" lon="-34.891386">
    <ele>12.2</ele>
    <time>2019-11-07T13:52:37.000Z</time>
   </trkpt>
   <trkpt lat="-8.054497" lon="-34.891414">
    <ele>12.3</ele>
    <time>2019-11-07T13:52:39.000Z</time>
   </trkpt>
   <trkpt lat="-8.05453" lon="-34.891423">
    <ele>12.3</ele>
    <time>2019-11-07T13:52:40.000Z</time>
   </trkpt>
   <trkpt lat="-8.054563" lon="-34.891439">
    <ele>12.3</ele>
    <time>2019-11-07T13:52:41.000Z</time>
   </trkpt>
   <trkpt lat="-8.054591" lon="-34.891454">
    <ele>12.4</ele>
    <time>2019-11-07T13:52:42.000Z</time>
   </trkpt>
   <trkpt lat="-8.054622" lon="-34.891473">
    <ele>12.5</ele>
    <time>2019-11-07T13:52:43.000Z</time>
   </trkpt>
   <trkpt lat="-8.054669" lon="-34.89149">
    <ele>12.5</ele>
    <time>2019-11-07T13:52:44.000Z</time>
   </trkpt>
   <trkpt lat="-8.05471" lon="-34.891517">
    <ele>12.6</ele>
    <time>2019-11-07T13:52:45.000Z</time>
   </trkpt>
   <trkpt lat="-8.054757" lon="-34.891536">
    <ele>12.7</ele>
    <time>2019-11-07T13:52:46.000Z</time>
   </trkpt>
   <trkpt lat="-8.054809" lon="-34.891571">
    <ele>12.7</ele>
    <time>2019-11-07T13:52:47.000Z</time>
   </trkpt>
   <trkpt lat="-8.054864" lon="-34.891599">
    <ele>12.8</ele>
    <time>2019-11-07T13:52:48.000Z</time>
   </trkpt>
   <trkpt lat="-8.054912" lon="-34.891623">
    <ele>12.9</ele>
    <time>2019-11-07T13:52:49.000Z</time>
   </trkpt>
   <trkpt lat="-8.054957" lon="-34.891653">
    <ele>12.9</ele>
    <time>2019-11-07T13:52:50.000Z</time>
   </trkpt>
   <trkpt lat="-8.054996" lon="-34.891689">
    <ele>12.9</ele>
    <time>2019-11-07T13:52:51.000Z</time>
   </trkpt>
   <trkpt lat="-8.055042" lon="-34.891707">
    <ele>13</ele>
    <time>2019-11-07T13:52:52.000Z</time>
   </trkpt>
   <trkpt lat="-8.055082" lon="-34.891734">
    <ele>13</ele>
    <time>2019-11-07T13:52:53.000Z</time>
   </trkpt>
   <trkpt lat="-8.055138" lon="-34.891759">
    <ele>13.1</ele>
    <time>2019-11-07T13:52:54.000Z</time>
   </trkpt>
   <trkpt lat="-8.055186" lon="-34.891795">
    <ele>13.1</ele>
    <time>2019-11-07T13:52:55.000Z</time>
   </trkpt>
   <trkpt lat="-8.055233" lon="-34.891824">
    <ele>13.2</ele>
    <time>2019-11-07T13:52:56.000Z</time>
   </trkpt>
   <trkpt lat="-8.055273" lon="-34.891853">
    <ele>13.2</ele>
    <time>2019-11-07T13:52:57.000Z</time>
   </trkpt>
   <trkpt lat="-8.055319" lon="-34.891884">
    <ele>13.3</ele>
    <time>2019-11-07T13:52:58.000Z</time>
   </trkpt>
   <trkpt lat="-8.055371" lon="-34.891916">
    <ele>13.3</ele>
    <time>2019-11-07T13:52:59.000Z</time>
   </trkpt>
   <trkpt lat="-8.055411" lon="-34.891939">
    <ele>13.4</ele>
    <time>2019-11-07T13:53:00.000Z</time>
   </trkpt>
   <trkpt lat="-8.055452" lon="-34.89196">
    <ele>13.5</ele>
    <time>2019-11-07T13:53:01.000Z</time>
   </trkpt>
   <trkpt lat="-8.055491" lon="-34.891975">
    <ele>13.5</ele>
    <time>2019-11-07T13:53:02.000Z</time>
   </trkpt>
   <trkpt lat="-8.055526" lon="-34.892">
    <ele>13.6</ele>
    <time>2019-11-07T13:53:03.000Z</time>
   </trkpt>
   <trkpt lat="-8.055567" lon="-34.892024">
    <ele>13.6</ele>
    <time>2019-11-07T13:53:04.000Z</time>
   </trkpt>
   <trkpt lat="-8.055603" lon="-34.892055">
    <ele>13.7</ele>
    <time>2019-11-07T13:53:05.000Z</time>
   </trkpt>
   <trkpt lat="-8.05564" lon="-34.892068">
    <ele>13.8</ele>
    <time>2019-11-07T13:53:06.000Z</time>
   </trkpt>
   <trkpt lat="-8.055679" lon="-34.892105">
    <ele>13.8</ele>
    <time>2019-11-07T13:53:07.000Z</time>
   </trkpt>
   <trkpt lat="-8.055718" lon="-34.89214">
    <ele>13.9</ele>
    <time>2019-11-07T13:53:08.000Z</time>
   </trkpt>
   <trkpt lat="-8.055757" lon="-34.89218">
    <ele>13.5</ele>
    <time>2019-11-07T13:53:09.000Z</time>
   </trkpt>
   <trkpt lat="-8.055802" lon="-34.892206">
    <ele>13.1</ele>
    <time>2019-11-07T13:53:10.000Z</time>
   </trkpt>
   <trkpt lat="-8.055853" lon="-34.892229">
    <ele>12.7</ele>
    <time>2019-11-07T13:53:11.000Z</time>
   </trkpt>
   <trkpt lat="-8.055918" lon="-34.892244">
    <ele>12.3</ele>
    <time>2019-11-07T13:53:12.000Z</time>
   </trkpt>
   <trkpt lat="-8.055971" lon="-34.892261">
    <ele>12.1</ele>
    <time>2019-11-07T13:53:13.000Z</time>
   </trkpt>
   <trkpt lat="-8.056013" lon="-34.892282">
    <ele>11.8</ele>
    <time>2019-11-07T13:53:14.000Z</time>
   </trkpt>
   <trkpt lat="-8.056039" lon="-34.892297">
    <ele>11.7</ele>
    <time>2019-11-07T13:53:15.000Z</time>
   </trkpt>
   <trkpt lat="-8.056066" lon="-34.892319">
    <ele>11.5</ele>
    <time>2019-11-07T13:53:16.000Z</time>
   </trkpt>
   <trkpt lat="-8.056091" lon="-34.892342">
    <ele>11.3</ele>
    <time>2019-11-07T13:53:17.000Z</time>
   </trkpt>
   <trkpt lat="-8.056119" lon="-34.892369">
    <ele>11.1</ele>
    <time>2019-11-07T13:53:18.000Z</time>
   </trkpt>
   <trkpt lat="-8.056146" lon="-34.892382">
    <ele>11</ele>
    <time>2019-11-07T13:53:19.000Z</time>
   </trkpt>
   <trkpt lat="-8.056183" lon="-34.892404">
    <ele>10.8</ele>
    <time>2019-11-07T13:53:21.000Z</time>
   </trkpt>
   <trkpt lat="-8.056211" lon="-34.892423">
    <ele>10.6</ele>
    <time>2019-11-07T13:53:22.000Z</time>
   </trkpt>
   <trkpt lat="-8.056243" lon="-34.892446">
    <ele>10.4</ele>
    <time>2019-11-07T13:53:23.000Z</time>
   </trkpt>
   <trkpt lat="-8.05627" lon="-34.892472">
    <ele>10.3</ele>
    <time>2019-11-07T13:53:24.000Z</time>
   </trkpt>
   <trkpt lat="-8.056283" lon="-34.892511">
    <ele>10.1</ele>
    <time>2019-11-07T13:53:25.000Z</time>
   </trkpt>
   <trkpt lat="-8.056306" lon="-34.892529">
    <ele>10</ele>
    <time>2019-11-07T13:53:26.000Z</time>
   </trkpt>
   <trkpt lat="-8.056342" lon="-34.892559">
    <ele>9.8</ele>
    <time>2019-11-07T13:53:28.000Z</time>
   </trkpt>
   <trkpt lat="-8.056373" lon="-34.89257">
    <ele>9.7</ele>
    <time>2019-11-07T13:53:29.000Z</time>
   </trkpt>
   <trkpt lat="-8.0564" lon="-34.892586">
    <ele>9.6</ele>
    <time>2019-11-07T13:53:30.000Z</time>
   </trkpt>
   <trkpt lat="-8.056419" lon="-34.892605">
    <ele>9.5</ele>
    <time>2019-11-07T13:53:31.000Z</time>
   </trkpt>
   <trkpt lat="-8.056466" lon="-34.892624">
    <ele>9.3</ele>
    <time>2019-11-07T13:53:33.000Z</time>
   </trkpt>
   <trkpt lat="-8.056491" lon="-34.892638">
    <ele>9.2</ele>
    <time>2019-11-07T13:53:34.000Z</time>
   </trkpt>
   <trkpt lat="-8.05652" lon="-34.89266">
    <ele>9.1</ele>
    <time>2019-11-07T13:53:36.000Z</time>
   </trkpt>
   <trkpt lat="-8.056549" lon="-34.892672">
    <ele>9.1</ele>
    <time>2019-11-07T13:53:45.000Z</time>
   </trkpt>
   <trkpt lat="-8.056571" lon="-34.892693">
    <ele>9.1</ele>
    <time>2019-11-07T13:53:50.000Z</time>
   </trkpt>
   <trkpt lat="-8.056588" lon="-34.892721">
    <ele>9.1</ele>
    <time>2019-11-07T13:54:20.000Z</time>
   </trkpt>
   <trkpt lat="-8.056619" lon="-34.892721">
    <ele>9</ele>
    <time>2019-11-07T13:54:21.000Z</time>
   </trkpt>
   <trkpt lat="-8.056656" lon="-34.892724">
    <ele>8.8</ele>
    <time>2019-11-07T13:54:22.000Z</time>
   </trkpt>
   <trkpt lat="-8.056699" lon="-34.892726">
    <ele>8.6</ele>
    <time>2019-11-07T13:54:23.000Z</time>
   </trkpt>
   <trkpt lat="-8.056743" lon="-34.892731">
    <ele>8.5</ele>
    <time>2019-11-07T13:54:24.000Z</time>
   </trkpt>
   <trkpt lat="-8.056787" lon="-34.892727">
    <ele>8.5</ele>
    <time>2019-11-07T13:54:25.000Z</time>
   </trkpt>
   <trkpt lat="-8.056838" lon="-34.89273">
    <ele>8.4</ele>
    <time>2019-11-07T13:54:26.000Z</time>
   </trkpt>
   <trkpt lat="-8.056893" lon="-34.89274">
    <ele>8.3</ele>
    <time>2019-11-07T13:54:27.000Z</time>
   </trkpt>
   <trkpt lat="-8.056955" lon="-34.892746">
    <ele>8.1</ele>
    <time>2019-11-07T13:54:28.000Z</time>
   </trkpt>
   <trkpt lat="-8.057014" lon="-34.89275">
    <ele>8</ele>
    <time>2019-11-07T13:54:29.000Z</time>
   </trkpt>
   <trkpt lat="-8.057066" lon="-34.892755">
    <ele>7.9</ele>
    <time>2019-11-07T13:54:30.000Z</time>
   </trkpt>
   <trkpt lat="-8.05712" lon="-34.892765">
    <ele>7.8</ele>
    <time>2019-11-07T13:54:31.000Z</time>
   </trkpt>
   <trkpt lat="-8.057176" lon="-34.892779">
    <ele>7.8</ele>
    <time>2019-11-07T13:54:32.000Z</time>
   </trkpt>
   <trkpt lat="-8.057226" lon="-34.892802">
    <ele>7.7</ele>
    <time>2019-11-07T13:54:33.000Z</time>
   </trkpt>
   <trkpt lat="-8.057275" lon="-34.892813">
    <ele>7.7</ele>
    <time>2019-11-07T13:54:34.000Z</time>
   </trkpt>
   <trkpt lat="-8.05732" lon="-34.89283">
    <ele>7.7</ele>
    <time>2019-11-07T13:54:35.000Z</time>
   </trkpt>
   <trkpt lat="-8.05736" lon="-34.892838">
    <ele>7.7</ele>
    <time>2019-11-07T13:54:36.000Z</time>
   </trkpt>
   <trkpt lat="-8.057392" lon="-34.892844">
    <ele>7.7</ele>
    <time>2019-11-07T13:54:37.000Z</time>
   </trkpt>
   <trkpt lat="-8.057429" lon="-34.892861">
    <ele>7.7</ele>
    <time>2019-11-07T13:54:38.000Z</time>
   </trkpt>
   <trkpt lat="-8.05746" lon="-34.892867">
    <ele>7.7</ele>
    <time>2019-11-07T13:54:39.000Z</time>
   </trkpt>
   <trkpt lat="-8.057511" lon="-34.892872">
    <ele>7.7</ele>
    <time>2019-11-07T13:54:41.000Z</time>
   </trkpt>
   <trkpt lat="-8.057559" lon="-34.892879">
    <ele>7.7</ele>
    <time>2019-11-07T13:54:43.000Z</time>
   </trkpt>
   <trkpt lat="-8.057591" lon="-34.892882">
    <ele>7.7</ele>
    <time>2019-11-07T13:54:44.000Z</time>
   </trkpt>
   <trkpt lat="-8.057632" lon="-34.892889">
    <ele>7.7</ele>
    <time>2019-11-07T13:54:45.000Z</time>
   </trkpt>
   <trkpt lat="-8.057669" lon="-34.892892">
    <ele>7.7</ele>
    <time>2019-11-07T13:54:46.000Z</time>
   </trkpt>
   <trkpt lat="-8.057708" lon="-34.892894">
    <ele>7.7</ele>
    <time>2019-11-07T13:54:47.000Z</time>
   </trkpt>
   <trkpt lat="-8.057753" lon="-34.892903">
    <ele>7.7</ele>
    <time>2019-11-07T13:54:48.000Z</time>
   </trkpt>
   <trkpt lat="-8.057799" lon="-34.89291">
    <ele>7.7</ele>
    <time>2019-11-07T13:54:49.000Z</time>
   </trkpt>
   <trkpt lat="-8.057849" lon="-34.892914">
    <ele>7.7</ele>
    <time>2019-11-07T13:54:50.000Z</time>
   </trkpt>
   <trkpt lat="-8.057892" lon="-34.892924">
    <ele>7.7</ele>
    <time>2019-11-07T13:54:51.000Z</time>
   </trkpt>
   <trkpt lat="-8.057934" lon="-34.89294">
    <ele>7.7</ele>
    <time>2019-11-07T13:54:52.000Z</time>
   </trkpt>
   <trkpt lat="-8.057978" lon="-34.892954">
    <ele>7.7</ele>
    <time>2019-11-07T13:54:53.000Z</time>
   </trkpt>
   <trkpt lat="-8.058024" lon="-34.892966">
    <ele>7.7</ele>
    <time>2019-11-07T13:54:54.000Z</time>
   </trkpt>
   <trkpt lat="-8.058067" lon="-34.892967">
    <ele>7.7</ele>
    <time>2019-11-07T13:54:55.000Z</time>
   </trkpt>
   <trkpt lat="-8.058102" lon="-34.892964">
    <ele>7.7</ele>
    <time>2019-11-07T13:54:56.000Z</time>
   </trkpt>
   <trkpt lat="-8.05814" lon="-34.892966">
    <ele>7.7</ele>
    <time>2019-11-07T13:54:57.000Z</time>
   </trkpt>
   <trkpt lat="-8.058188" lon="-34.892964">
    <ele>7.9</ele>
    <time>2019-11-07T13:54:58.000Z</time>
   </trkpt>
   <trkpt lat="-8.058235" lon="-34.892965">
    <ele>8</ele>
    <time>2019-11-07T13:54:59.000Z</time>
   </trkpt>
   <trkpt lat="-8.058276" lon="-34.892967">
    <ele>8.1</ele>
    <time>2019-11-07T13:55:00.000Z</time>
   </trkpt>
   <trkpt lat="-8.058323" lon="-34.892966">
    <ele>8.3</ele>
    <time>2019-11-07T13:55:01.000Z</time>
   </trkpt>
   <trkpt lat="-8.058368" lon="-34.892969">
    <ele>8.4</ele>
    <time>2019-11-07T13:55:02.000Z</time>
   </trkpt>
   <trkpt lat="-8.05841" lon="-34.892975">
    <ele>8.5</ele>
    <time>2019-11-07T13:55:03.000Z</time>
   </trkpt>
   <trkpt lat="-8.058447" lon="-34.892975">
    <ele>8.6</ele>
    <time>2019-11-07T13:55:04.000Z</time>
   </trkpt>
   <trkpt lat="-8.058481" lon="-34.892974">
    <ele>8.6</ele>
    <time>2019-11-07T13:55:05.000Z</time>
   </trkpt>
   <trkpt lat="-8.058528" lon="-34.892993">
    <ele>8.7</ele>
    <time>2019-11-07T13:55:06.000Z</time>
   </trkpt>
   <trkpt lat="-8.058572" lon="-34.893005">
    <ele>8.7</ele>
    <time>2019-11-07T13:55:07.000Z</time>
   </trkpt>
   <trkpt lat="-8.058614" lon="-34.893013">
    <ele>8.7</ele>
    <time>2019-11-07T13:55:08.000Z</time>
   </trkpt>
   <trkpt lat="-8.058657" lon="-34.893028">
    <ele>8.8</ele>
    <time>2019-11-07T13:55:09.000Z</time>
   </trkpt>
   <trkpt lat="-8.058699" lon="-34.893037">
    <ele>8.8</ele>
    <time>2019-11-07T13:55:10.000Z</time>
   </trkpt>
   <trkpt lat="-8.058751" lon="-34.893047">
    <ele>8.8</ele>
    <time>2019-11-07T13:55:11.000Z</time>
   </trkpt>
   <trkpt lat="-8.058794" lon="-34.893045">
    <ele>8.9</ele>
    <time>2019-11-07T13:55:12.000Z</time>
   </trkpt>
   <trkpt lat="-8.058838" lon="-34.893033">
    <ele>8.9</ele>
    <time>2019-11-07T13:55:13.000Z</time>
   </trkpt>
   <trkpt lat="-8.058877" lon="-34.893036">
    <ele>8.9</ele>
    <time>2019-11-07T13:55:14.000Z</time>
   </trkpt>
   <trkpt lat="-8.058908" lon="-34.893041">
    <ele>8.9</ele>
    <time>2019-11-07T13:55:15.000Z</time>
   </trkpt>
   <trkpt lat="-8.05894" lon="-34.893053">
    <ele>9</ele>
    <time>2019-11-07T13:55:16.000Z</time>
   </trkpt>
   <trkpt lat="-8.058965" lon="-34.89307">
    <ele>9.1</ele>
    <time>2019-11-07T13:55:17.000Z</time>
   </trkpt>
   <trkpt lat="-8.059001" lon="-34.893097">
    <ele>9.2</ele>
    <time>2019-11-07T13:55:18.000Z</time>
   </trkpt>
   <trkpt lat="-8.059016" lon="-34.893138">
    <ele>9.3</ele>
    <time>2019-11-07T13:55:19.000Z</time>
   </trkpt>
   <trkpt lat="-8.059036" lon="-34.893181">
    <ele>9.5</ele>
    <time>2019-11-07T13:55:20.000Z</time>
   </trkpt>
   <trkpt lat="-8.059057" lon="-34.893227">
    <ele>9.6</ele>
    <time>2019-11-07T13:55:21.000Z</time>
   </trkpt>
   <trkpt lat="-8.059093" lon="-34.893269">
    <ele>9.7</ele>
    <time>2019-11-07T13:55:22.000Z</time>
   </trkpt>
   <trkpt lat="-8.059117" lon="-34.893319">
    <ele>9.8</ele>
    <time>2019-11-07T13:55:23.000Z</time>
   </trkpt>
   <trkpt lat="-8.059141" lon="-34.89337">
    <ele>9.9</ele>
    <time>2019-11-07T13:55:24.000Z</time>
   </trkpt>
   <trkpt lat="-8.059147" lon="-34.893431">
    <ele>10</ele>
    <time>2019-11-07T13:55:25.000Z</time>
   </trkpt>
   <trkpt lat="-8.059156" lon="-34.893475">
    <ele>10</ele>
    <time>2019-11-07T13:55:26.000Z</time>
   </trkpt>
   <trkpt lat="-8.05918" lon="-34.89353">
    <ele>10</ele>
    <time>2019-11-07T13:55:28.000Z</time>
   </trkpt>
   <trkpt lat="-8.059213" lon="-34.89356">
    <ele>10</ele>
    <time>2019-11-07T13:55:29.000Z</time>
   </trkpt>
   <trkpt lat="-8.059229" lon="-34.8936">
    <ele>10</ele>
    <time>2019-11-07T13:55:30.000Z</time>
   </trkpt>
   <trkpt lat="-8.059239" lon="-34.893645">
    <ele>10</ele>
    <time>2019-11-07T13:55:31.000Z</time>
   </trkpt>
   <trkpt lat="-8.059247" lon="-34.893676">
    <ele>10</ele>
    <time>2019-11-07T13:55:32.000Z</time>
   </trkpt>
   <trkpt lat="-8.059247" lon="-34.893709">
    <ele>9.9</ele>
    <time>2019-11-07T13:55:33.000Z</time>
   </trkpt>
   <trkpt lat="-8.059246" lon="-34.893737">
    <ele>9.9</ele>
    <time>2019-11-07T13:55:34.000Z</time>
   </trkpt>
   <trkpt lat="-8.059255" lon="-34.893774">
    <ele>9.9</ele>
    <time>2019-11-07T13:55:35.000Z</time>
   </trkpt>
   <trkpt lat="-8.059263" lon="-34.893804">
    <ele>9.9</ele>
    <time>2019-11-07T13:55:36.000Z</time>
   </trkpt>
   <trkpt lat="-8.059287" lon="-34.893824">
    <ele>9.8</ele>
    <time>2019-11-07T13:55:37.000Z</time>
   </trkpt>
   <trkpt lat="-8.059311" lon="-34.893849">
    <ele>9.8</ele>
    <time>2019-11-07T13:55:39.000Z</time>
   </trkpt>
   <trkpt lat="-8.059338" lon="-34.893895">
    <ele>9.7</ele>
    <time>2019-11-07T13:55:41.000Z</time>
   </trkpt>
   <trkpt lat="-8.059348" lon="-34.893926">
    <ele>9.6</ele>
    <time>2019-11-07T13:55:42.000Z</time>
   </trkpt>
   <trkpt lat="-8.059362" lon="-34.893957">
    <ele>9.5</ele>
    <time>2019-11-07T13:55:43.000Z</time>
   </trkpt>
   <trkpt lat="-8.059387" lon="-34.893985">
    <ele>9.4</ele>
    <time>2019-11-07T13:55:44.000Z</time>
   </trkpt>
   <trkpt lat="-8.059436" lon="-34.894014">
    <ele>9.3</ele>
    <time>2019-11-07T13:55:45.000Z</time>
   </trkpt>
   <trkpt lat="-8.059479" lon="-34.894047">
    <ele>9.2</ele>
    <time>2019-11-07T13:55:46.000Z</time>
   </trkpt>
   <trkpt lat="-8.059517" lon="-34.894087">
    <ele>9.3</ele>
    <time>2019-11-07T13:55:47.000Z</time>
   </trkpt>
   <trkpt lat="-8.059555" lon="-34.894125">
    <ele>9.3</ele>
    <time>2019-11-07T13:55:48.000Z</time>
   </trkpt>
   <trkpt lat="-8.059584" lon="-34.894156">
    <ele>9.4</ele>
    <time>2019-11-07T13:55:49.000Z</time>
   </trkpt>
   <trkpt lat="-8.059598" lon="-34.894195">
    <ele>9.4</ele>
    <time>2019-11-07T13:55:50.000Z</time>
   </trkpt>
   <trkpt lat="-8.059629" lon="-34.894227">
    <ele>9.4</ele>
    <time>2019-11-07T13:55:51.000Z</time>
   </trkpt>
   <trkpt lat="-8.059661" lon="-34.894262">
    <ele>9.5</ele>
    <time>2019-11-07T13:55:52.000Z</time>
   </trkpt>
   <trkpt lat="-8.05969" lon="-34.894288">
    <ele>9.5</ele>
    <time>2019-11-07T13:55:53.000Z</time>
   </trkpt>
   <trkpt lat="-8.059717" lon="-34.894317">
    <ele>9.6</ele>
    <time>2019-11-07T13:55:54.000Z</time>
   </trkpt>
   <trkpt lat="-8.05975" lon="-34.894349">
    <ele>9.6</ele>
    <time>2019-11-07T13:55:55.000Z</time>
   </trkpt>
   <trkpt lat="-8.05978" lon="-34.894384">
    <ele>9.7</ele>
    <time>2019-11-07T13:55:56.000Z</time>
   </trkpt>
   <trkpt lat="-8.059821" lon="-34.894417">
    <ele>9.8</ele>
    <time>2019-11-07T13:55:57.000Z</time>
   </trkpt>
   <trkpt lat="-8.059863" lon="-34.894445">
    <ele>9.8</ele>
    <time>2019-11-07T13:55:58.000Z</time>
   </trkpt>
   <trkpt lat="-8.059918" lon="-34.894475">
    <ele>9.6</ele>
    <time>2019-11-07T13:55:59.000Z</time>
   </trkpt>
   <trkpt lat="-8.059974" lon="-34.894507">
    <ele>9.3</ele>
    <time>2019-11-07T13:56:00.000Z</time>
   </trkpt>
   <trkpt lat="-8.060032" lon="-34.894524">
    <ele>9</ele>
    <time>2019-11-07T13:56:01.000Z</time>
   </trkpt>
   <trkpt lat="-8.060086" lon="-34.894551">
    <ele>8.8</ele>
    <time>2019-11-07T13:56:02.000Z</time>
   </trkpt>
   <trkpt lat="-8.060136" lon="-34.894583">
    <ele>8.5</ele>
    <time>2019-11-07T13:56:03.000Z</time>
   </trkpt>
   <trkpt lat="-8.06018" lon="-34.894617">
    <ele>8.3</ele>
    <time>2019-11-07T13:56:04.000Z</time>
   </trkpt>
   <trkpt lat="-8.060216" lon="-34.894658">
    <ele>8</ele>
    <time>2019-11-07T13:56:05.000Z</time>
   </trkpt>
   <trkpt lat="-8.060264" lon="-34.894699">
    <ele>7.8</ele>
    <time>2019-11-07T13:56:06.000Z</time>
   </trkpt>
   <trkpt lat="-8.060316" lon="-34.894725">
    <ele>7.5</ele>
    <time>2019-11-07T13:56:07.000Z</time>
   </trkpt>
   <trkpt lat="-8.060351" lon="-34.894755">
    <ele>7.3</ele>
    <time>2019-11-07T13:56:08.000Z</time>
   </trkpt>
   <trkpt lat="-8.060385" lon="-34.894789">
    <ele>7.2</ele>
    <time>2019-11-07T13:56:09.000Z</time>
   </trkpt>
   <trkpt lat="-8.060422" lon="-34.894825">
    <ele>6.9</ele>
    <time>2019-11-07T13:56:10.000Z</time>
   </trkpt>
   <trkpt lat="-8.060465" lon="-34.894848">
    <ele>6.7</ele>
    <time>2019-11-07T13:56:11.000Z</time>
   </trkpt>
   <trkpt lat="-8.060507" lon="-34.894864">
    <ele>6.5</ele>
    <time>2019-11-07T13:56:12.000Z</time>
   </trkpt>
   <trkpt lat="-8.060556" lon="-34.894875">
    <ele>6.2</ele>
    <time>2019-11-07T13:56:13.000Z</time>
   </trkpt>
   <trkpt lat="-8.060605" lon="-34.894894">
    <ele>6</ele>
    <time>2019-11-07T13:56:14.000Z</time>
   </trkpt>
   <trkpt lat="-8.060657" lon="-34.894921">
    <ele>6.3</ele>
    <time>2019-11-07T13:56:15.000Z</time>
   </trkpt>
   <trkpt lat="-8.060698" lon="-34.894929">
    <ele>6.5</ele>
    <time>2019-11-07T13:56:16.000Z</time>
   </trkpt>
   <trkpt lat="-8.060735" lon="-34.89494">
    <ele>6.6</ele>
    <time>2019-11-07T13:56:17.000Z</time>
   </trkpt>
   <trkpt lat="-8.060773" lon="-34.894943">
    <ele>6.7</ele>
    <time>2019-11-07T13:56:18.000Z</time>
   </trkpt>
   <trkpt lat="-8.060818" lon="-34.894943">
    <ele>6.8</ele>
    <time>2019-11-07T13:56:19.000Z</time>
   </trkpt>
   <trkpt lat="-8.060877" lon="-34.894953">
    <ele>7</ele>
    <time>2019-11-07T13:56:20.000Z</time>
   </trkpt>
   <trkpt lat="-8.060936" lon="-34.894952">
    <ele>7.2</ele>
    <time>2019-11-07T13:56:21.000Z</time>
   </trkpt>
   <trkpt lat="-8.060994" lon="-34.894961">
    <ele>7.8</ele>
    <time>2019-11-07T13:56:22.000Z</time>
   </trkpt>
   <trkpt lat="-8.061048" lon="-34.894966">
    <ele>8</ele>
    <time>2019-11-07T13:56:23.000Z</time>
   </trkpt>
   <trkpt lat="-8.0611" lon="-34.894973">
    <ele>8</ele>
    <time>2019-11-07T13:56:24.000Z</time>
   </trkpt>
   <trkpt lat="-8.061147" lon="-34.894982">
    <ele>8</ele>
    <time>2019-11-07T13:56:25.000Z</time>
   </trkpt>
   <trkpt lat="-8.061199" lon="-34.894994">
    <ele>8</ele>
    <time>2019-11-07T13:56:26.000Z</time>
   </trkpt>
   <trkpt lat="-8.061256" lon="-34.895012">
    <ele>7.8</ele>
    <time>2019-11-07T13:56:27.000Z</time>
   </trkpt>
   <trkpt lat="-8.061303" lon="-34.895022">
    <ele>7.6</ele>
    <time>2019-11-07T13:56:28.000Z</time>
   </trkpt>
   <trkpt lat="-8.061356" lon="-34.895033">
    <ele>7.4</ele>
    <time>2019-11-07T13:56:29.000Z</time>
   </trkpt>
   <trkpt lat="-8.061405" lon="-34.89504">
    <ele>7.1</ele>
    <time>2019-11-07T13:56:30.000Z</time>
   </trkpt>
   <trkpt lat="-8.061455" lon="-34.895052">
    <ele>6.7</ele>
    <time>2019-11-07T13:56:31.000Z</time>
   </trkpt>
   <trkpt lat="-8.061504" lon="-34.895058">
    <ele>6.4</ele>
    <time>2019-11-07T13:56:32.000Z</time>
   </trkpt>
   <trkpt lat="-8.061551" lon="-34.895072">
    <ele>6.4</ele>
    <time>2019-11-07T13:56:33.000Z</time>
   </trkpt>
   <trkpt lat="-8.061598" lon="-34.895089">
    <ele>6.6</ele>
    <time>2019-11-07T13:56:34.000Z</time>
   </trkpt>
   <trkpt lat="-8.061644" lon="-34.895093">
    <ele>6.9</ele>
    <time>2019-11-07T13:56:35.000Z</time>
   </trkpt>
   <trkpt lat="-8.061684" lon="-34.895093">
    <ele>7</ele>
    <time>2019-11-07T13:56:36.000Z</time>
   </trkpt>
   <trkpt lat="-8.061731" lon="-34.8951">
    <ele>7.1</ele>
    <time>2019-11-07T13:56:37.000Z</time>
   </trkpt>
   <trkpt lat="-8.061771" lon="-34.895113">
    <ele>7.1</ele>
    <time>2019-11-07T13:56:38.000Z</time>
   </trkpt>
   <trkpt lat="-8.061823" lon="-34.895119">
    <ele>7.1</ele>
    <time>2019-11-07T13:56:39.000Z</time>
   </trkpt>
   <trkpt lat="-8.061853" lon="-34.89514">
    <ele>7.1</ele>
    <time>2019-11-07T13:56:40.000Z</time>
   </trkpt>
   <trkpt lat="-8.061901" lon="-34.895146">
    <ele>7.1</ele>
    <time>2019-11-07T13:56:41.000Z</time>
   </trkpt>
   <trkpt lat="-8.061942" lon="-34.895157">
    <ele>7.1</ele>
    <time>2019-11-07T13:56:42.000Z</time>
   </trkpt>
   <trkpt lat="-8.062002" lon="-34.895165">
    <ele>7.1</ele>
    <time>2019-11-07T13:56:43.000Z</time>
   </trkpt>
   <trkpt lat="-8.062052" lon="-34.895166">
    <ele>7.1</ele>
    <time>2019-11-07T13:56:44.000Z</time>
   </trkpt>
   <trkpt lat="-8.062107" lon="-34.895166">
    <ele>7.1</ele>
    <time>2019-11-07T13:56:45.000Z</time>
   </trkpt>
   <trkpt lat="-8.062148" lon="-34.895187">
    <ele>7.1</ele>
    <time>2019-11-07T13:56:46.000Z</time>
   </trkpt>
   <trkpt lat="-8.062198" lon="-34.895188">
    <ele>7.1</ele>
    <time>2019-11-07T13:56:47.000Z</time>
   </trkpt>
   <trkpt lat="-8.062237" lon="-34.895196">
    <ele>7.1</ele>
    <time>2019-11-07T13:56:48.000Z</time>
   </trkpt>
   <trkpt lat="-8.062276" lon="-34.895214">
    <ele>7</ele>
    <time>2019-11-07T13:56:49.000Z</time>
   </trkpt>
   <trkpt lat="-8.062324" lon="-34.89522">
    <ele>7</ele>
    <time>2019-11-07T13:56:50.000Z</time>
   </trkpt>
   <trkpt lat="-8.062363" lon="-34.895233">
    <ele>6.9</ele>
    <time>2019-11-07T13:56:51.000Z</time>
   </trkpt>
   <trkpt lat="-8.062399" lon="-34.89524">
    <ele>6.8</ele>
    <time>2019-11-07T13:56:52.000Z</time>
   </trkpt>
   <trkpt lat="-8.062431" lon="-34.895256">
    <ele>6.7</ele>
    <time>2019-11-07T13:56:53.000Z</time>
   </trkpt>
   <trkpt lat="-8.062462" lon="-34.895265">
    <ele>6.7</ele>
    <time>2019-11-07T13:56:54.000Z</time>
   </trkpt>
   <trkpt lat="-8.062515" lon="-34.895285">
    <ele>6.6</ele>
    <time>2019-11-07T13:56:56.000Z</time>
   </trkpt>
   <trkpt lat="-8.062555" lon="-34.89529">
    <ele>6.5</ele>
    <time>2019-11-07T13:56:58.000Z</time>
   </trkpt>
   <trkpt lat="-8.062599" lon="-34.895298">
    <ele>6.4</ele>
    <time>2019-11-07T13:57:00.000Z</time>
   </trkpt>
   <trkpt lat="-8.062633" lon="-34.895313">
    <ele>6.4</ele>
    <time>2019-11-07T13:57:02.000Z</time>
   </trkpt>
   <trkpt lat="-8.062675" lon="-34.895313">
    <ele>6.4</ele>
    <time>2019-11-07T13:57:04.000Z</time>
   </trkpt>
   <trkpt lat="-8.062709" lon="-34.895312">
    <ele>6.4</ele>
    <time>2019-11-07T13:57:07.000Z</time>
   </trkpt>
   <trkpt lat="-8.062737" lon="-34.895313">
    <ele>6.4</ele>
    <time>2019-11-07T13:57:11.000Z</time>
   </trkpt>
   <trkpt lat="-8.062754" lon="-34.895341">
    <ele>6.5</ele>
    <time>2019-11-07T13:57:13.000Z</time>
   </trkpt>
   <trkpt lat="-8.062772" lon="-34.895381">
    <ele>6.5</ele>
    <time>2019-11-07T13:57:15.000Z</time>
   </trkpt>
   <trkpt lat="-8.062792" lon="-34.895403">
    <ele>6.6</ele>
    <time>2019-11-07T13:57:17.000Z</time>
   </trkpt>
   <trkpt lat="-8.062798" lon="-34.895432">
    <ele>6.6</ele>
    <time>2019-11-07T13:57:19.000Z</time>
   </trkpt>
   <trkpt lat="-8.06279" lon="-34.895481">
    <ele>6.7</ele>
    <time>2019-11-07T13:57:21.000Z</time>
   </trkpt>
   <trkpt lat="-8.062783" lon="-34.895513">
    <ele>6.7</ele>
    <time>2019-11-07T13:57:23.000Z</time>
   </trkpt>
   <trkpt lat="-8.06278" lon="-34.895542">
    <ele>6.8</ele>
    <time>2019-11-07T13:57:25.000Z</time>
   </trkpt>
   <trkpt lat="-8.062778" lon="-34.895581">
    <ele>6.9</ele>
    <time>2019-11-07T13:57:27.000Z</time>
   </trkpt>
   <trkpt lat="-8.062766" lon="-34.895608">
    <ele>7.2</ele>
    <time>2019-11-07T13:57:30.000Z</time>
   </trkpt>
   <trkpt lat="-8.062761" lon="-34.895638">
    <ele>7.4</ele>
    <time>2019-11-07T13:57:32.000Z</time>
   </trkpt>
   <trkpt lat="-8.062755" lon="-34.895676">
    <ele>7.7</ele>
    <time>2019-11-07T13:57:34.000Z</time>
   </trkpt>
   <trkpt lat="-8.062746" lon="-34.895704">
    <ele>8</ele>
    <time>2019-11-07T13:57:35.000Z</time>
   </trkpt>
   <trkpt lat="-8.062747" lon="-34.895732">
    <ele>8.3</ele>
    <time>2019-11-07T13:57:36.000Z</time>
   </trkpt>
   <trkpt lat="-8.062748" lon="-34.895766">
    <ele>8.4</ele>
    <time>2019-11-07T13:57:37.000Z</time>
   </trkpt>
   <trkpt lat="-8.062745" lon="-34.895804">
    <ele>8.5</ele>
    <time>2019-11-07T13:57:38.000Z</time>
   </trkpt>
   <trkpt lat="-8.062746" lon="-34.895853">
    <ele>8.5</ele>
    <time>2019-11-07T13:57:39.000Z</time>
   </trkpt>
   <trkpt lat="-8.062742" lon="-34.895902">
    <ele>8.5</ele>
    <time>2019-11-07T13:57:40.000Z</time>
   </trkpt>
   <trkpt lat="-8.062737" lon="-34.895954">
    <ele>8.4</ele>
    <time>2019-11-07T13:57:41.000Z</time>
   </trkpt>
   <trkpt lat="-8.062714" lon="-34.89598">
    <ele>8.2</ele>
    <time>2019-11-07T13:57:42.000Z</time>
   </trkpt>
   <trkpt lat="-8.062698" lon="-34.896018">
    <ele>8</ele>
    <time>2019-11-07T13:57:43.000Z</time>
   </trkpt>
   <trkpt lat="-8.062703" lon="-34.89606">
    <ele>7.7</ele>
    <time>2019-11-07T13:57:44.000Z</time>
   </trkpt>
   <trkpt lat="-8.062708" lon="-34.8961">
    <ele>7.5</ele>
    <time>2019-11-07T13:57:45.000Z</time>
   </trkpt>
   <trkpt lat="-8.062709" lon="-34.896145">
    <ele>7.4</ele>
    <time>2019-11-07T13:57:46.000Z</time>
   </trkpt>
   <trkpt lat="-8.062703" lon="-34.896189">
    <ele>7.4</ele>
    <time>2019-11-07T13:57:47.000Z</time>
   </trkpt>
   <trkpt lat="-8.062711" lon="-34.89623">
    <ele>7.3</ele>
    <time>2019-11-07T13:57:48.000Z</time>
   </trkpt>
   <trkpt lat="-8.0627" lon="-34.896274">
    <ele>7.3</ele>
    <time>2019-11-07T13:57:49.000Z</time>
   </trkpt>
   <trkpt lat="-8.062684" lon="-34.896305">
    <ele>7.2</ele>
    <time>2019-11-07T13:57:50.000Z</time>
   </trkpt>
   <trkpt lat="-8.062664" lon="-34.896339">
    <ele>7</ele>
    <time>2019-11-07T13:57:52.000Z</time>
   </trkpt>
   <trkpt lat="-8.062637" lon="-34.896366">
    <ele>6.8</ele>
    <time>2019-11-07T13:57:54.000Z</time>
   </trkpt>
   <trkpt lat="-8.062651" lon="-34.896418">
    <ele>6.4</ele>
    <time>2019-11-07T13:57:56.000Z</time>
   </trkpt>
   <trkpt lat="-8.062671" lon="-34.89644">
    <ele>6.4</ele>
    <time>2019-11-07T13:57:58.000Z</time>
   </trkpt>
   <trkpt lat="-8.062715" lon="-34.896436">
    <ele>6.4</ele>
    <time>2019-11-07T13:58:00.000Z</time>
   </trkpt>
   <trkpt lat="-8.062746" lon="-34.896435">
    <ele>6.4</ele>
    <time>2019-11-07T13:58:01.000Z</time>
   </trkpt>
   <trkpt lat="-8.062778" lon="-34.896429">
    <ele>6.5</ele>
    <time>2019-11-07T13:58:02.000Z</time>
   </trkpt>
   <trkpt lat="-8.062817" lon="-34.896419">
    <ele>6.5</ele>
    <time>2019-11-07T13:58:03.000Z</time>
   </trkpt>
   <trkpt lat="-8.062856" lon="-34.89641">
    <ele>6.5</ele>
    <time>2019-11-07T13:58:04.000Z</time>
   </trkpt>
   <trkpt lat="-8.062902" lon="-34.896403">
    <ele>6.6</ele>
    <time>2019-11-07T13:58:05.000Z</time>
   </trkpt>
   <trkpt lat="-8.062948" lon="-34.896385">
    <ele>6.6</ele>
    <time>2019-11-07T13:58:06.000Z</time>
   </trkpt>
   <trkpt lat="-8.06299" lon="-34.896359">
    <ele>6.7</ele>
    <time>2019-11-07T13:58:07.000Z</time>
   </trkpt>
   <trkpt lat="-8.06304" lon="-34.89636">
    <ele>6.7</ele>
    <time>2019-11-07T13:58:08.000Z</time>
   </trkpt>
   <trkpt lat="-8.063085" lon="-34.89635">
    <ele>6.8</ele>
    <time>2019-11-07T13:58:09.000Z</time>
   </trkpt>
   <trkpt lat="-8.063123" lon="-34.89633">
    <ele>6.8</ele>
    <time>2019-11-07T13:58:10.000Z</time>
   </trkpt>
   <trkpt lat="-8.063179" lon="-34.896324">
    <ele>6.8</ele>
    <time>2019-11-07T13:58:11.000Z</time>
   </trkpt>
   <trkpt lat="-8.063242" lon="-34.896321">
    <ele>6.9</ele>
    <time>2019-11-07T13:58:12.000Z</time>
   </trkpt>
   <trkpt lat="-8.063296" lon="-34.896307">
    <ele>7</ele>
    <time>2019-11-07T13:58:13.000Z</time>
   </trkpt>
   <trkpt lat="-8.063341" lon="-34.896314">
    <ele>7</ele>
    <time>2019-11-07T13:58:14.000Z</time>
   </trkpt>
   <trkpt lat="-8.06338" lon="-34.896308">
    <ele>7</ele>
    <time>2019-11-07T13:58:15.000Z</time>
   </trkpt>
   <trkpt lat="-8.063413" lon="-34.8963">
    <ele>7.1</ele>
    <time>2019-11-07T13:58:16.000Z</time>
   </trkpt>
   <trkpt lat="-8.06344" lon="-34.896294">
    <ele>7.1</ele>
    <time>2019-11-07T13:58:17.000Z</time>
   </trkpt>
   <trkpt lat="-8.063467" lon="-34.896286">
    <ele>7.1</ele>
    <time>2019-11-07T13:58:18.000Z</time>
   </trkpt>
   <trkpt lat="-8.063497" lon="-34.896238">
    <ele>7.2</ele>
    <time>2019-11-07T13:58:20.000Z</time>
   </trkpt>
   <trkpt lat="-8.063522" lon="-34.896227">
    <ele>7.2</ele>
    <time>2019-11-07T13:58:21.000Z</time>
   </trkpt>
   <trkpt lat="-8.063552" lon="-34.896238">
    <ele>7.2</ele>
    <time>2019-11-07T13:58:23.000Z</time>
   </trkpt>
   <trkpt lat="-8.063586" lon="-34.896228">
    <ele>7.2</ele>
    <time>2019-11-07T13:58:28.000Z</time>
   </trkpt>
   <trkpt lat="-8.063611" lon="-34.896209">
    <ele>7.3</ele>
    <time>2019-11-07T13:58:33.000Z</time>
   </trkpt>
   <trkpt lat="-8.063652" lon="-34.896203">
    <ele>7.3</ele>
    <time>2019-11-07T13:58:35.000Z</time>
   </trkpt>
   <trkpt lat="-8.063682" lon="-34.896196">
    <ele>7.2</ele>
    <time>2019-11-07T13:58:36.000Z</time>
   </trkpt>
   <trkpt lat="-8.063718" lon="-34.896177">
    <ele>7.1</ele>
    <time>2019-11-07T13:58:37.000Z</time>
   </trkpt>
   <trkpt lat="-8.063755" lon="-34.896155">
    <ele>7</ele>
    <time>2019-11-07T13:58:38.000Z</time>
   </trkpt>
   <trkpt lat="-8.063797" lon="-34.896149">
    <ele>7</ele>
    <time>2019-11-07T13:58:39.000Z</time>
   </trkpt>
   <trkpt lat="-8.063838" lon="-34.896136">
    <ele>6.9</ele>
    <time>2019-11-07T13:58:40.000Z</time>
   </trkpt>
   <trkpt lat="-8.063884" lon="-34.896129">
    <ele>6.8</ele>
    <time>2019-11-07T13:58:41.000Z</time>
   </trkpt>
   <trkpt lat="-8.063934" lon="-34.896124">
    <ele>6.8</ele>
    <time>2019-11-07T13:58:42.000Z</time>
   </trkpt>
   <trkpt lat="-8.063976" lon="-34.896117">
    <ele>6.7</ele>
    <time>2019-11-07T13:58:43.000Z</time>
   </trkpt>
   <trkpt lat="-8.064025" lon="-34.896106">
    <ele>6.6</ele>
    <time>2019-11-07T13:58:44.000Z</time>
   </trkpt>
   <trkpt lat="-8.064076" lon="-34.896098">
    <ele>6.4</ele>
    <time>2019-11-07T13:58:45.000Z</time>
   </trkpt>
   <trkpt lat="-8.064129" lon="-34.896099">
    <ele>6.3</ele>
    <time>2019-11-07T13:58:46.000Z</time>
   </trkpt>
   <trkpt lat="-8.064175" lon="-34.896092">
    <ele>6.1</ele>
    <time>2019-11-07T13:58:47.000Z</time>
   </trkpt>
   <trkpt lat="-8.064221" lon="-34.896082">
    <ele>5.9</ele>
    <time>2019-11-07T13:58:48.000Z</time>
   </trkpt>
   <trkpt lat="-8.064254" lon="-34.896074">
    <ele>5.7</ele>
    <time>2019-11-07T13:58:49.000Z</time>
   </trkpt>
   <trkpt lat="-8.064286" lon="-34.896065">
    <ele>5.6</ele>
    <time>2019-11-07T13:58:50.000Z</time>
   </trkpt>
   <trkpt lat="-8.064321" lon="-34.896058">
    <ele>5.3</ele>
    <time>2019-11-07T13:58:51.000Z</time>
   </trkpt>
   <trkpt lat="-8.064358" lon="-34.896044">
    <ele>5.1</ele>
    <time>2019-11-07T13:58:52.000Z</time>
   </trkpt>
   <trkpt lat="-8.064393" lon="-34.896032">
    <ele>4.9</ele>
    <time>2019-11-07T13:58:53.000Z</time>
   </trkpt>
   <trkpt lat="-8.064424" lon="-34.89602">
    <ele>4.7</ele>
    <time>2019-11-07T13:58:54.000Z</time>
   </trkpt>
   <trkpt lat="-8.06447" lon="-34.896027">
    <ele>4.4</ele>
    <time>2019-11-07T13:58:55.000Z</time>
   </trkpt>
   <trkpt lat="-8.064497" lon="-34.896003">
    <ele>4.2</ele>
    <time>2019-11-07T13:58:56.000Z</time>
   </trkpt>
   <trkpt lat="-8.064537" lon="-34.896001">
    <ele>4</ele>
    <time>2019-11-07T13:58:57.000Z</time>
   </trkpt>
   <trkpt lat="-8.064574" lon="-34.895998">
    <ele>3.8</ele>
    <time>2019-11-07T13:58:58.000Z</time>
   </trkpt>
   <trkpt lat="-8.0646" lon="-34.895987">
    <ele>3.6</ele>
    <time>2019-11-07T13:58:59.000Z</time>
   </trkpt>
   <trkpt lat="-8.064633" lon="-34.895978">
    <ele>3.5</ele>
    <time>2019-11-07T13:59:00.000Z</time>
   </trkpt>
   <trkpt lat="-8.06466" lon="-34.895965">
    <ele>3.3</ele>
    <time>2019-11-07T13:59:01.000Z</time>
   </trkpt>
   <trkpt lat="-8.064708" lon="-34.895944">
    <ele>3</ele>
    <time>2019-11-07T13:59:03.000Z</time>
   </trkpt>
   <trkpt lat="-8.064745" lon="-34.895923">
    <ele>2.8</ele>
    <time>2019-11-07T13:59:05.000Z</time>
   </trkpt>
   <trkpt lat="-8.064775" lon="-34.895922">
    <ele>2.7</ele>
    <time>2019-11-07T13:59:06.000Z</time>
   </trkpt>
   <trkpt lat="-8.064815" lon="-34.895935">
    <ele>2.5</ele>
    <time>2019-11-07T13:59:07.000Z</time>
   </trkpt>
   <trkpt lat="-8.064846" lon="-34.895935">
    <ele>2.4</ele>
    <time>2019-11-07T13:59:08.000Z</time>
   </trkpt>
   <trkpt lat="-8.064876" lon="-34.895937">
    <ele>2.3</ele>
    <time>2019-11-07T13:59:09.000Z</time>
   </trkpt>
   <trkpt lat="-8.064909" lon="-34.895933">
    <ele>2.1</ele>
    <time>2019-11-07T13:59:10.000Z</time>
   </trkpt>
   <trkpt lat="-8.064957" lon="-34.895917">
    <ele>1.9</ele>
    <time>2019-11-07T13:59:11.000Z</time>
   </trkpt>
   <trkpt lat="-8.065004" lon="-34.895899">
    <ele>1.7</ele>
    <time>2019-11-07T13:59:12.000Z</time>
   </trkpt>
   <trkpt lat="-8.065071" lon="-34.895883">
    <ele>1.5</ele>
    <time>2019-11-07T13:59:13.000Z</time>
   </trkpt>
   <trkpt lat="-8.065124" lon="-34.895897">
    <ele>1.4</ele>
    <time>2019-11-07T13:59:14.000Z</time>
   </trkpt>
   <trkpt lat="-8.065159" lon="-34.895888">
    <ele>1.5</ele>
    <time>2019-11-07T13:59:15.000Z</time>
   </trkpt>
   <trkpt lat="-8.065184" lon="-34.895926">
    <ele>1.7</ele>
    <time>2019-11-07T13:59:17.000Z</time>
   </trkpt>
   <trkpt lat="-8.065178" lon="-34.895975">
    <ele>1.8</ele>
    <time>2019-11-07T13:59:19.000Z</time>
   </trkpt>
   <trkpt lat="-8.065174" lon="-34.896009">
    <ele>1.9</ele>
    <time>2019-11-07T13:59:20.000Z</time>
   </trkpt>
   <trkpt lat="-8.065166" lon="-34.896038">
    <ele>2.1</ele>
    <time>2019-11-07T13:59:21.000Z</time>
   </trkpt>
   <trkpt lat="-8.065179" lon="-34.896067">
    <ele>2.2</ele>
    <time>2019-11-07T13:59:23.000Z</time>
   </trkpt>
   <trkpt lat="-8.065177" lon="-34.896096">
    <ele>2.3</ele>
    <time>2019-11-07T13:59:29.000Z</time>
   </trkpt>
   <trkpt lat="-8.065176" lon="-34.896148">
    <ele>2.6</ele>
    <time>2019-11-07T13:59:32.000Z</time>
   </trkpt>
  </trkseg>
 </trk>
</gpx>
