<?xml version="1.0" encoding="UTF-8"?>
<gpx creator="StravaGPX" version="1.1" xmlns="http://www.topografix.com/GPX/1/1">
 <metadata>
  <time>2026-06-26T16:24:12Z</time>
 </metadata>
 <trk>
  <name>Evening Ride</name>
  <type>1</type>
  <trkseg>
   <trkpt lat="52.474987" lon="13.473824">
    <ele>38.8</ele>
    <time>2026-06-26T16:24:12.000Z</time>
   </trkpt>
   <trkpt lat="52.474987" lon="13.473824">
    <ele>37.8</ele>
    <time>2026-06-26T16:24:13.000Z</time>
   </trkpt>
   <trkpt lat="52.474987" lon="13.473824">
    <ele>36.8</ele>
    <time>2026-06-26T16:24:14.000Z</time>
   </trkpt>
   <trkpt lat="52.474987" lon="13.473824">
    <ele>35.6</ele>
    <time>2026-06-26T16:24:17.000Z</time>
   </trkpt>
   <trkpt lat="52.474987" lon="13.473824">
    <ele>33.8</ele>
    <time>2026-06-26T16:24:25.000Z</time>
   </trkpt>
   <trkpt lat="52.475008" lon="13.473896">
    <ele>33.8</ele>
    <time>2026-06-26T16:24:31.000Z</time>
   </trkpt>
   <trkpt lat="52.475047" lon="13.473713">
    <ele>44.6</ele>
    <time>2026-06-26T16:24:36.000Z</time>
   </trkpt>
   <trkpt lat="52.475174" lon="13.473545">
    <ele>44.2</ele>
    <time>2026-06-26T16:24:40.000Z</time>
   </trkpt>
   <trkpt lat="52.47521" lon="13.473501">
    <ele>43.4</ele>
    <time>2026-06-26T16:24:41.000Z</time>
   </trkpt>
   <trkpt lat="52.47524" lon="13.473454">
    <ele>42.4</ele>
    <time>2026-06-26T16:24:42.000Z</time>
   </trkpt>
   <trkpt lat="52.475277" lon="13.473412">
    <ele>41.2</ele>
    <time>2026-06-26T16:24:43.000Z</time>
   </trkpt>
   <trkpt lat="52.475312" lon="13.473362">
    <ele>40.2</ele>
    <time>2026-06-26T16:24:44.000Z</time>
   </trkpt>
   <trkpt lat="52.475383" lon="13.473269">
    <ele>38.4</ele>
    <time>2026-06-26T16:24:46.000Z</time>
   </trkpt>
   <trkpt lat="52.475459" lon="13.473174">
    <ele>37.4</ele>
    <time>2026-06-26T16:24:48.000Z</time>
   </trkpt>
   <trkpt lat="52.475643" lon="13.472924">
    <ele>36.8</ele>
    <time>2026-06-26T16:24:53.000Z</time>
   </trkpt>
   <trkpt lat="52.475896" lon="13.472562">
    <ele>38.2</ele>
    <time>2026-06-26T16:25:00.000Z</time>
   </trkpt>
   <trkpt lat="52.475991" lon="13.472386">
    <ele>38.2</ele>
    <time>2026-06-26T16:25:03.000Z</time>
   </trkpt>
   <trkpt lat="52.476102" lon="13.472237">
    <ele>39.8</ele>
    <time>2026-06-26T16:25:06.000Z</time>
   </trkpt>
   <trkpt lat="52.476145" lon="13.472188">
    <ele>41.2</ele>
    <time>2026-06-26T16:25:07.000Z</time>
   </trkpt>
   <trkpt lat="52.476186" lon="13.472141">
    <ele>45.2</ele>
    <time>2026-06-26T16:25:08.000Z</time>
   </trkpt>
   <trkpt lat="52.476227" lon="13.472084">
    <ele>49.2</ele>
    <time>2026-06-26T16:25:09.000Z</time>
   </trkpt>
   <trkpt lat="52.476305" lon="13.471971">
    <ele>47.6</ele>
    <time>2026-06-26T16:25:11.000Z</time>
   </trkpt>
   <trkpt lat="52.476344" lon="13.471912">
    <ele>46</ele>
    <time>2026-06-26T16:25:12.000Z</time>
   </trkpt>
   <trkpt lat="52.476379" lon="13.471857">
    <ele>44.2</ele>
    <time>2026-06-26T16:25:13.000Z</time>
   </trkpt>
   <trkpt lat="52.476418" lon="13.4718">
    <ele>41.8</ele>
    <time>2026-06-26T16:25:14.000Z</time>
   </trkpt>
   <trkpt lat="52.476494" lon="13.471694">
    <ele>40.2</ele>
    <time>2026-06-26T16:25:16.000Z</time>
   </trkpt>
   <trkpt lat="52.476569" lon="13.471588">
    <ele>38.4</ele>
    <time>2026-06-26T16:25:18.000Z</time>
   </trkpt>
   <trkpt lat="52.47668" lon="13.471442">
    <ele>37.8</ele>
    <time>2026-06-26T16:25:21.000Z</time>
   </trkpt>
   <trkpt lat="52.476712" lon="13.471388">
    <ele>37.6</ele>
    <time>2026-06-26T16:25:22.000Z</time>
   </trkpt>
   <trkpt lat="52.476824" lon="13.471235">
    <ele>42</ele>
    <time>2026-06-26T16:25:25.000Z</time>
   </trkpt>
   <trkpt lat="52.476861" lon="13.471189">
    <ele>43.2</ele>
    <time>2026-06-26T16:25:26.000Z</time>
   </trkpt>
   <trkpt lat="52.476895" lon="13.471141">
    <ele>51</ele>
    <time>2026-06-26T16:25:27.000Z</time>
   </trkpt>
   <trkpt lat="52.476965" lon="13.471044">
    <ele>49.6</ele>
    <time>2026-06-26T16:25:29.000Z</time>
   </trkpt>
   <trkpt lat="52.477" lon="13.470994">
    <ele>48.4</ele>
    <time>2026-06-26T16:25:30.000Z</time>
   </trkpt>
   <trkpt lat="52.477069" lon="13.470892">
    <ele>46</ele>
    <time>2026-06-26T16:25:32.000Z</time>
   </trkpt>
   <trkpt lat="52.477108" lon="13.470841">
    <ele>44.8</ele>
    <time>2026-06-26T16:25:33.000Z</time>
   </trkpt>
   <trkpt lat="52.477143" lon="13.470793">
    <ele>43.4</ele>
    <time>2026-06-26T16:25:34.000Z</time>
   </trkpt>
   <trkpt lat="52.477176" lon="13.470744">
    <ele>42.4</ele>
    <time>2026-06-26T16:25:35.000Z</time>
   </trkpt>
   <trkpt lat="52.477241" lon="13.470641">
    <ele>41</ele>
    <time>2026-06-26T16:25:37.000Z</time>
   </trkpt>
   <trkpt lat="52.47738" lon="13.47045">
    <ele>40</ele>
    <time>2026-06-26T16:25:41.000Z</time>
   </trkpt>
   <trkpt lat="52.477629" lon="13.470098">
    <ele>38.8</ele>
    <time>2026-06-26T16:25:48.000Z</time>
   </trkpt>
   <trkpt lat="52.47774" lon="13.469949">
    <ele>37.6</ele>
    <time>2026-06-26T16:25:51.000Z</time>
   </trkpt>
   <trkpt lat="52.477886" lon="13.469739">
    <ele>36.6</ele>
    <time>2026-06-26T16:25:55.000Z</time>
   </trkpt>
   <trkpt lat="52.478111" lon="13.469435">
    <ele>35</ele>
    <time>2026-06-26T16:26:01.000Z</time>
   </trkpt>
   <trkpt lat="52.478195" lon="13.469331">
    <ele>33.6</ele>
    <time>2026-06-26T16:26:03.000Z</time>
   </trkpt>
   <trkpt lat="52.478281" lon="13.469216">
    <ele>31.8</ele>
    <time>2026-06-26T16:26:05.000Z</time>
   </trkpt>
   <trkpt lat="52.478367" lon="13.469113">
    <ele>30.4</ele>
    <time>2026-06-26T16:26:07.000Z</time>
   </trkpt>
   <trkpt lat="52.478495" lon="13.468962">
    <ele>29</ele>
    <time>2026-06-26T16:26:10.000Z</time>
   </trkpt>
   <trkpt lat="52.478617" lon="13.468809">
    <ele>28</ele>
    <time>2026-06-26T16:26:13.000Z</time>
   </trkpt>
   <trkpt lat="52.478697" lon="13.468692">
    <ele>28</ele>
    <time>2026-06-26T16:26:15.000Z</time>
   </trkpt>
   <trkpt lat="52.478825" lon="13.468517">
    <ele>28.6</ele>
    <time>2026-06-26T16:26:18.000Z</time>
   </trkpt>
   <trkpt lat="52.478912" lon="13.468395">
    <ele>29</ele>
    <time>2026-06-26T16:26:20.000Z</time>
   </trkpt>
   <trkpt lat="52.479126" lon="13.468078">
    <ele>28.6</ele>
    <time>2026-06-26T16:26:25.000Z</time>
   </trkpt>
   <trkpt lat="52.479437" lon="13.467623">
    <ele>28.8</ele>
    <time>2026-06-26T16:26:32.000Z</time>
   </trkpt>
   <trkpt lat="52.47981" lon="13.467085">
    <ele>28</ele>
    <time>2026-06-26T16:26:40.000Z</time>
   </trkpt>
   <trkpt lat="52.479858" lon="13.467018">
    <ele>27.8</ele>
    <time>2026-06-26T16:26:41.000Z</time>
   </trkpt>
   <trkpt lat="52.480118" lon="13.466633">
    <ele>27</ele>
    <time>2026-06-26T16:26:47.000Z</time>
   </trkpt>
   <trkpt lat="52.480207" lon="13.466517">
    <ele>28.4</ele>
    <time>2026-06-26T16:26:49.000Z</time>
   </trkpt>
   <trkpt lat="52.480247" lon="13.466452">
    <ele>29.2</ele>
    <time>2026-06-26T16:26:50.000Z</time>
   </trkpt>
   <trkpt lat="52.48029" lon="13.466389">
    <ele>42.6</ele>
    <time>2026-06-26T16:26:51.000Z</time>
   </trkpt>
   <trkpt lat="52.480333" lon="13.46633">
    <ele>46.4</ele>
    <time>2026-06-26T16:26:52.000Z</time>
   </trkpt>
   <trkpt lat="52.480411" lon="13.466212">
    <ele>45.2</ele>
    <time>2026-06-26T16:26:54.000Z</time>
   </trkpt>
   <trkpt lat="52.480492" lon="13.466095">
    <ele>43.2</ele>
    <time>2026-06-26T16:26:56.000Z</time>
   </trkpt>
   <trkpt lat="52.480533" lon="13.466038">
    <ele>41.4</ele>
    <time>2026-06-26T16:26:57.000Z</time>
   </trkpt>
   <trkpt lat="52.480577" lon="13.465984">
    <ele>39.4</ele>
    <time>2026-06-26T16:26:58.000Z</time>
   </trkpt>
   <trkpt lat="52.480618" lon="13.465929">
    <ele>37.6</ele>
    <time>2026-06-26T16:26:59.000Z</time>
   </trkpt>
   <trkpt lat="52.48066" lon="13.465876">
    <ele>35.8</ele>
    <time>2026-06-26T16:27:00.000Z</time>
   </trkpt>
   <trkpt lat="52.480701" lon="13.46582">
    <ele>34</ele>
    <time>2026-06-26T16:27:01.000Z</time>
   </trkpt>
   <trkpt lat="52.480741" lon="13.465763">
    <ele>32.6</ele>
    <time>2026-06-26T16:27:02.000Z</time>
   </trkpt>
   <trkpt lat="52.480782" lon="13.465706">
    <ele>31.6</ele>
    <time>2026-06-26T16:27:03.000Z</time>
   </trkpt>
   <trkpt lat="52.480866" lon="13.465603">
    <ele>30</ele>
    <time>2026-06-26T16:27:05.000Z</time>
   </trkpt>
   <trkpt lat="52.480993" lon="13.465433">
    <ele>28.8</ele>
    <time>2026-06-26T16:27:08.000Z</time>
   </trkpt>
   <trkpt lat="52.481159" lon="13.465222">
    <ele>27.6</ele>
    <time>2026-06-26T16:27:12.000Z</time>
   </trkpt>
   <trkpt lat="52.481292" lon="13.465042">
    <ele>27.6</ele>
    <time>2026-06-26T16:27:15.000Z</time>
   </trkpt>
   <trkpt lat="52.481574" lon="13.464637">
    <ele>28.8</ele>
    <time>2026-06-26T16:27:22.000Z</time>
   </trkpt>
   <trkpt lat="52.481614" lon="13.464583">
    <ele>28.8</ele>
    <time>2026-06-26T16:27:23.000Z</time>
   </trkpt>
   <trkpt lat="52.48178" lon="13.464365">
    <ele>27.4</ele>
    <time>2026-06-26T16:27:27.000Z</time>
   </trkpt>
   <trkpt lat="52.481907" lon="13.464185">
    <ele>26.4</ele>
    <time>2026-06-26T16:27:30.000Z</time>
   </trkpt>
   <trkpt lat="52.481949" lon="13.464123">
    <ele>26.2</ele>
    <time>2026-06-26T16:27:31.000Z</time>
   </trkpt>
   <trkpt lat="52.482171" lon="13.463788">
    <ele>26</ele>
    <time>2026-06-26T16:27:36.000Z</time>
   </trkpt>
   <trkpt lat="52.482354" lon="13.463511">
    <ele>25.2</ele>
    <time>2026-06-26T16:27:40.000Z</time>
   </trkpt>
   <trkpt lat="52.482399" lon="13.463443">
    <ele>25</ele>
    <time>2026-06-26T16:27:41.000Z</time>
   </trkpt>
   <trkpt lat="52.482528" lon="13.463248">
    <ele>24</ele>
    <time>2026-06-26T16:27:44.000Z</time>
   </trkpt>
   <trkpt lat="52.482754" lon="13.46294">
    <ele>23.4</ele>
    <time>2026-06-26T16:27:49.000Z</time>
   </trkpt>
   <trkpt lat="52.482976" lon="13.462603">
    <ele>23.4</ele>
    <time>2026-06-26T16:27:54.000Z</time>
   </trkpt>
   <trkpt lat="52.483065" lon="13.462479">
    <ele>24</ele>
    <time>2026-06-26T16:27:56.000Z</time>
   </trkpt>
   <trkpt lat="52.483109" lon="13.462418">
    <ele>24.4</ele>
    <time>2026-06-26T16:27:57.000Z</time>
   </trkpt>
   <trkpt lat="52.483329" lon="13.462104">
    <ele>25</ele>
    <time>2026-06-26T16:28:02.000Z</time>
   </trkpt>
   <trkpt lat="52.483505" lon="13.461857">
    <ele>25.8</ele>
    <time>2026-06-26T16:28:06.000Z</time>
   </trkpt>
   <trkpt lat="52.483893" lon="13.461296">
    <ele>25.4</ele>
    <time>2026-06-26T16:28:15.000Z</time>
   </trkpt>
   <trkpt lat="52.484301" lon="13.460721">
    <ele>25.4</ele>
    <time>2026-06-26T16:28:24.000Z</time>
   </trkpt>
   <trkpt lat="52.484352" lon="13.460646">
    <ele>24.8</ele>
    <time>2026-06-26T16:28:25.000Z</time>
   </trkpt>
   <trkpt lat="52.484451" lon="13.460507">
    <ele>23.4</ele>
    <time>2026-06-26T16:28:27.000Z</time>
   </trkpt>
   <trkpt lat="52.484738" lon="13.460098">
    <ele>24.8</ele>
    <time>2026-06-26T16:28:33.000Z</time>
   </trkpt>
   <trkpt lat="52.484831" lon="13.459951">
    <ele>26.2</ele>
    <time>2026-06-26T16:28:35.000Z</time>
   </trkpt>
   <trkpt lat="52.484878" lon="13.459874">
    <ele>26.6</ele>
    <time>2026-06-26T16:28:36.000Z</time>
   </trkpt>
   <trkpt lat="52.484968" lon="13.459721">
    <ele>27.2</ele>
    <time>2026-06-26T16:28:38.000Z</time>
   </trkpt>
   <trkpt lat="52.485151" lon="13.459411">
    <ele>28.2</ele>
    <time>2026-06-26T16:28:42.000Z</time>
   </trkpt>
   <trkpt lat="52.485305" lon="13.45919">
    <ele>27.8</ele>
    <time>2026-06-26T16:28:45.000Z</time>
   </trkpt>
   <trkpt lat="52.485414" lon="13.459045">
    <ele>27</ele>
    <time>2026-06-26T16:28:47.000Z</time>
   </trkpt>
   <trkpt lat="52.485523" lon="13.458898">
    <ele>25.6</ele>
    <time>2026-06-26T16:28:49.000Z</time>
   </trkpt>
   <trkpt lat="52.485629" lon="13.458754">
    <ele>24.2</ele>
    <time>2026-06-26T16:28:51.000Z</time>
   </trkpt>
   <trkpt lat="52.48574" lon="13.45862">
    <ele>23.2</ele>
    <time>2026-06-26T16:28:53.000Z</time>
   </trkpt>
   <trkpt lat="52.485798" lon="13.458553">
    <ele>22.8</ele>
    <time>2026-06-26T16:28:54.000Z</time>
   </trkpt>
   <trkpt lat="52.486057" lon="13.458201">
    <ele>23.4</ele>
    <time>2026-06-26T16:28:59.000Z</time>
   </trkpt>
   <trkpt lat="52.486158" lon="13.458054">
    <ele>24</ele>
    <time>2026-06-26T16:29:01.000Z</time>
   </trkpt>
   <trkpt lat="52.486439" lon="13.457615">
    <ele>24.6</ele>
    <time>2026-06-26T16:29:07.000Z</time>
   </trkpt>
   <trkpt lat="52.486527" lon="13.457467">
    <ele>26.2</ele>
    <time>2026-06-26T16:29:09.000Z</time>
   </trkpt>
   <trkpt lat="52.486569" lon="13.457395">
    <ele>33.6</ele>
    <time>2026-06-26T16:29:10.000Z</time>
   </trkpt>
   <trkpt lat="52.486617" lon="13.457319">
    <ele>41.2</ele>
    <time>2026-06-26T16:29:11.000Z</time>
   </trkpt>
   <trkpt lat="52.486665" lon="13.457252">
    <ele>43.4</ele>
    <time>2026-06-26T16:29:12.000Z</time>
   </trkpt>
   <trkpt lat="52.486799" lon="13.457053">
    <ele>40.6</ele>
    <time>2026-06-26T16:29:15.000Z</time>
   </trkpt>
   <trkpt lat="52.486847" lon="13.456985">
    <ele>37.8</ele>
    <time>2026-06-26T16:29:16.000Z</time>
   </trkpt>
   <trkpt lat="52.486898" lon="13.456921">
    <ele>34.4</ele>
    <time>2026-06-26T16:29:17.000Z</time>
   </trkpt>
   <trkpt lat="52.486949" lon="13.456853">
    <ele>32</ele>
    <time>2026-06-26T16:29:18.000Z</time>
   </trkpt>
   <trkpt lat="52.487" lon="13.456785">
    <ele>29.4</ele>
    <time>2026-06-26T16:29:19.000Z</time>
   </trkpt>
   <trkpt lat="52.487052" lon="13.456722">
    <ele>27.4</ele>
    <time>2026-06-26T16:29:20.000Z</time>
   </trkpt>
   <trkpt lat="52.487104" lon="13.456659">
    <ele>26.2</ele>
    <time>2026-06-26T16:29:21.000Z</time>
   </trkpt>
   <trkpt lat="52.487153" lon="13.456595">
    <ele>25.6</ele>
    <time>2026-06-26T16:29:22.000Z</time>
   </trkpt>
   <trkpt lat="52.487204" lon="13.45653">
    <ele>25.2</ele>
    <time>2026-06-26T16:29:23.000Z</time>
   </trkpt>
   <trkpt lat="52.487352" lon="13.456343">
    <ele>24</ele>
    <time>2026-06-26T16:29:26.000Z</time>
   </trkpt>
   <trkpt lat="52.487447" lon="13.456205">
    <ele>22.8</ele>
    <time>2026-06-26T16:29:28.000Z</time>
   </trkpt>
   <trkpt lat="52.487635" lon="13.455943">
    <ele>21.8</ele>
    <time>2026-06-26T16:29:32.000Z</time>
   </trkpt>
   <trkpt lat="52.48782" lon="13.455698">
    <ele>21.4</ele>
    <time>2026-06-26T16:29:36.000Z</time>
   </trkpt>
   <trkpt lat="52.488115" lon="13.455248">
    <ele>24.4</ele>
    <time>2026-06-26T16:29:43.000Z</time>
   </trkpt>
   <trkpt lat="52.488155" lon="13.455181">
    <ele>24.8</ele>
    <time>2026-06-26T16:29:44.000Z</time>
   </trkpt>
   <trkpt lat="52.488195" lon="13.455117">
    <ele>29.8</ele>
    <time>2026-06-26T16:29:45.000Z</time>
   </trkpt>
   <trkpt lat="52.488277" lon="13.45498">
    <ele>42.6</ele>
    <time>2026-06-26T16:29:47.000Z</time>
   </trkpt>
   <trkpt lat="52.488383" lon="13.454806">
    <ele>44.4</ele>
    <time>2026-06-26T16:29:50.000Z</time>
   </trkpt>
   <trkpt lat="52.488463" lon="13.454709">
    <ele>46.4</ele>
    <time>2026-06-26T16:29:52.000Z</time>
   </trkpt>
   <trkpt lat="52.488542" lon="13.454618">
    <ele>47.4</ele>
    <time>2026-06-26T16:29:54.000Z</time>
   </trkpt>
   <trkpt lat="52.488603" lon="13.454512">
    <ele>48.6</ele>
    <time>2026-06-26T16:29:56.000Z</time>
   </trkpt>
   <trkpt lat="52.488644" lon="13.454455">
    <ele>48.8</ele>
    <time>2026-06-26T16:29:57.000Z</time>
   </trkpt>
   <trkpt lat="52.488667" lon="13.454432">
    <ele>49</ele>
    <time>2026-06-26T16:29:58.000Z</time>
   </trkpt>
   <trkpt lat="52.488755" lon="13.454298">
    <ele>49.6</ele>
    <time>2026-06-26T16:30:01.000Z</time>
   </trkpt>
   <trkpt lat="52.488774" lon="13.454262">
    <ele>49</ele>
    <time>2026-06-26T16:30:02.000Z</time>
   </trkpt>
   <trkpt lat="52.488789" lon="13.454234">
    <ele>46.8</ele>
    <time>2026-06-26T16:30:03.000Z</time>
   </trkpt>
   <trkpt lat="52.4888" lon="13.454208">
    <ele>45.8</ele>
    <time>2026-06-26T16:30:04.000Z</time>
   </trkpt>
   <trkpt lat="52.488822" lon="13.454165">
    <ele>44.8</ele>
    <time>2026-06-26T16:30:06.000Z</time>
   </trkpt>
   <trkpt lat="52.488828" lon="13.454133">
    <ele>43.6</ele>
    <time>2026-06-26T16:30:08.000Z</time>
   </trkpt>
   <trkpt lat="52.488824" lon="13.454126">
    <ele>43</ele>
    <time>2026-06-26T16:30:09.000Z</time>
   </trkpt>
   <trkpt lat="52.488822" lon="13.454122">
    <ele>41</ele>
    <time>2026-06-26T16:30:10.000Z</time>
   </trkpt>
   <trkpt lat="52.488826" lon="13.454118">
    <ele>38.2</ele>
    <time>2026-06-26T16:30:11.000Z</time>
   </trkpt>
   <trkpt lat="52.48883" lon="13.454098">
    <ele>36.4</ele>
    <time>2026-06-26T16:30:13.000Z</time>
   </trkpt>
   <trkpt lat="52.48883" lon="13.454087">
    <ele>35.4</ele>
    <time>2026-06-26T16:30:14.000Z</time>
   </trkpt>
   <trkpt lat="52.48883" lon="13.45408">
    <ele>34.2</ele>
    <time>2026-06-26T16:30:15.000Z</time>
   </trkpt>
   <trkpt lat="52.488834" lon="13.454055">
    <ele>32.8</ele>
    <time>2026-06-26T16:30:17.000Z</time>
   </trkpt>
   <trkpt lat="52.488842" lon="13.454052">
    <ele>31.6</ele>
    <time>2026-06-26T16:30:19.000Z</time>
   </trkpt>
   <trkpt lat="52.488839" lon="13.454045">
    <ele>31</ele>
    <time>2026-06-26T16:30:20.000Z</time>
   </trkpt>
   <trkpt lat="52.48884" lon="13.454038">
    <ele>30.4</ele>
    <time>2026-06-26T16:30:21.000Z</time>
   </trkpt>
   <trkpt lat="52.488844" lon="13.454035">
    <ele>29.2</ele>
    <time>2026-06-26T16:30:23.000Z</time>
   </trkpt>
   <trkpt lat="52.488849" lon="13.454013">
    <ele>27.6</ele>
    <time>2026-06-26T16:30:25.000Z</time>
   </trkpt>
   <trkpt lat="52.488856" lon="13.454004">
    <ele>26</ele>
    <time>2026-06-26T16:30:27.000Z</time>
   </trkpt>
   <trkpt lat="52.488858" lon="13.453994">
    <ele>24.8</ele>
    <time>2026-06-26T16:30:29.000Z</time>
   </trkpt>
   <trkpt lat="52.488854" lon="13.453984">
    <ele>23.8</ele>
    <time>2026-06-26T16:30:31.000Z</time>
   </trkpt>
   <trkpt lat="52.488844" lon="13.453979">
    <ele>22.6</ele>
    <time>2026-06-26T16:30:35.000Z</time>
   </trkpt>
   <trkpt lat="52.48884" lon="13.45399">
    <ele>22.6</ele>
    <time>2026-06-26T16:30:37.000Z</time>
   </trkpt>
   <trkpt lat="52.488828" lon="13.454022">
    <ele>21.8</ele>
    <time>2026-06-26T16:30:43.000Z</time>
   </trkpt>
   <trkpt lat="52.488826" lon="13.454024">
    <ele>21.6</ele>
    <time>2026-06-26T16:30:44.000Z</time>
   </trkpt>
   <trkpt lat="52.488819" lon="13.454043">
    <ele>20.4</ele>
    <time>2026-06-26T16:30:50.000Z</time>
   </trkpt>
   <trkpt lat="52.488815" lon="13.454049">
    <ele>20.2</ele>
    <time>2026-06-26T16:30:51.000Z</time>
   </trkpt>
   <trkpt lat="52.488806" lon="13.454058">
    <ele>19.4</ele>
    <time>2026-06-26T16:30:55.000Z</time>
   </trkpt>
   <trkpt lat="52.488804" lon="13.454062">
    <ele>19</ele>
    <time>2026-06-26T16:30:57.000Z</time>
   </trkpt>
   <trkpt lat="52.488793" lon="13.454078">
    <ele>18.2</ele>
    <time>2026-06-26T16:31:01.000Z</time>
   </trkpt>
   <trkpt lat="52.488793" lon="13.454079">
    <ele>17.6</ele>
    <time>2026-06-26T16:31:04.000Z</time>
   </trkpt>
   <trkpt lat="52.488792" lon="13.454069">
    <ele>17.4</ele>
    <time>2026-06-26T16:31:05.000Z</time>
   </trkpt>
   <trkpt lat="52.488806" lon="13.454053">
    <ele>17.4</ele>
    <time>2026-06-26T16:31:06.000Z</time>
   </trkpt>
   <trkpt lat="52.488832" lon="13.454026">
    <ele>17.2</ele>
    <time>2026-06-26T16:31:07.000Z</time>
   </trkpt>
   <trkpt lat="52.488903" lon="13.453979">
    <ele>17.8</ele>
    <time>2026-06-26T16:31:09.000Z</time>
   </trkpt>
   <trkpt lat="52.488937" lon="13.453938">
    <ele>18.8</ele>
    <time>2026-06-26T16:31:10.000Z</time>
   </trkpt>
   <trkpt lat="52.488975" lon="13.45389">
    <ele>19.8</ele>
    <time>2026-06-26T16:31:11.000Z</time>
   </trkpt>
   <trkpt lat="52.489011" lon="13.453833">
    <ele>21.2</ele>
    <time>2026-06-26T16:31:12.000Z</time>
   </trkpt>
   <trkpt lat="52.489047" lon="13.453778">
    <ele>22.4</ele>
    <time>2026-06-26T16:31:13.000Z</time>
   </trkpt>
   <trkpt lat="52.489283" lon="13.453429">
    <ele>20.6</ele>
    <time>2026-06-26T16:31:19.000Z</time>
   </trkpt>
   <trkpt lat="52.489322" lon="13.45338">
    <ele>19.8</ele>
    <time>2026-06-26T16:31:20.000Z</time>
   </trkpt>
   <trkpt lat="52.489365" lon="13.453322">
    <ele>19.2</ele>
    <time>2026-06-26T16:31:21.000Z</time>
   </trkpt>
   <trkpt lat="52.489457" lon="13.4532">
    <ele>17.8</ele>
    <time>2026-06-26T16:31:23.000Z</time>
   </trkpt>
   <trkpt lat="52.489555" lon="13.453081">
    <ele>17</ele>
    <time>2026-06-26T16:31:25.000Z</time>
   </trkpt>
   <trkpt lat="52.489606" lon="13.453023">
    <ele>16.8</ele>
    <time>2026-06-26T16:31:26.000Z</time>
   </trkpt>
   <trkpt lat="52.489823" lon="13.452669">
    <ele>18</ele>
    <time>2026-06-26T16:31:31.000Z</time>
   </trkpt>
   <trkpt lat="52.489873" lon="13.452593">
    <ele>19.4</ele>
    <time>2026-06-26T16:31:32.000Z</time>
   </trkpt>
   <trkpt lat="52.489916" lon="13.452512">
    <ele>20.6</ele>
    <time>2026-06-26T16:31:33.000Z</time>
   </trkpt>
   <trkpt lat="52.489962" lon="13.452433">
    <ele>22</ele>
    <time>2026-06-26T16:31:34.000Z</time>
   </trkpt>
   <trkpt lat="52.490147" lon="13.452128">
    <ele>21.2</ele>
    <time>2026-06-26T16:31:38.000Z</time>
   </trkpt>
   <trkpt lat="52.490293" lon="13.451905">
    <ele>23.8</ele>
    <time>2026-06-26T16:31:41.000Z</time>
   </trkpt>
   <trkpt lat="52.49034" lon="13.451835">
    <ele>25.6</ele>
    <time>2026-06-26T16:31:42.000Z</time>
   </trkpt>
   <trkpt lat="52.490393" lon="13.451758">
    <ele>27.4</ele>
    <time>2026-06-26T16:31:43.000Z</time>
   </trkpt>
   <trkpt lat="52.490444" lon="13.451685">
    <ele>29.4</ele>
    <time>2026-06-26T16:31:44.000Z</time>
   </trkpt>
   <trkpt lat="52.4905" lon="13.451606">
    <ele>31.4</ele>
    <time>2026-06-26T16:31:45.000Z</time>
   </trkpt>
   <trkpt lat="52.490551" lon="13.451534">
    <ele>33</ele>
    <time>2026-06-26T16:31:46.000Z</time>
   </trkpt>
   <trkpt lat="52.490689" lon="13.451311">
    <ele>34.2</ele>
    <time>2026-06-26T16:31:49.000Z</time>
   </trkpt>
   <trkpt lat="52.490827" lon="13.451084">
    <ele>34.2</ele>
    <time>2026-06-26T16:31:52.000Z</time>
   </trkpt>
   <trkpt lat="52.490945" lon="13.450885">
    <ele>35.4</ele>
    <time>2026-06-26T16:31:55.000Z</time>
   </trkpt>
   <trkpt lat="52.491025" lon="13.450754">
    <ele>35.6</ele>
    <time>2026-06-26T16:31:57.000Z</time>
   </trkpt>
   <trkpt lat="52.491108" lon="13.450617">
    <ele>36.4</ele>
    <time>2026-06-26T16:31:59.000Z</time>
   </trkpt>
   <trkpt lat="52.491189" lon="13.450495">
    <ele>38.4</ele>
    <time>2026-06-26T16:32:01.000Z</time>
   </trkpt>
   <trkpt lat="52.491255" lon="13.45046">
    <ele>39.2</ele>
    <time>2026-06-26T16:32:02.000Z</time>
   </trkpt>
   <trkpt lat="52.491334" lon="13.450438">
    <ele>40</ele>
    <time>2026-06-26T16:32:03.000Z</time>
   </trkpt>
   <trkpt lat="52.491443" lon="13.450473">
    <ele>41.4</ele>
    <time>2026-06-26T16:32:05.000Z</time>
   </trkpt>
   <trkpt lat="52.491495" lon="13.450532">
    <ele>42.2</ele>
    <time>2026-06-26T16:32:06.000Z</time>
   </trkpt>
   <trkpt lat="52.491542" lon="13.4506">
    <ele>42.8</ele>
    <time>2026-06-26T16:32:07.000Z</time>
   </trkpt>
   <trkpt lat="52.49162" lon="13.450772">
    <ele>44.2</ele>
    <time>2026-06-26T16:32:09.000Z</time>
   </trkpt>
   <trkpt lat="52.491661" lon="13.450839">
    <ele>45.2</ele>
    <time>2026-06-26T16:32:10.000Z</time>
   </trkpt>
   <trkpt lat="52.491698" lon="13.4509">
    <ele>47.8</ele>
    <time>2026-06-26T16:32:11.000Z</time>
   </trkpt>
   <trkpt lat="52.491746" lon="13.450936">
    <ele>50.2</ele>
    <time>2026-06-26T16:32:12.000Z</time>
   </trkpt>
   <trkpt lat="52.491816" lon="13.450944">
    <ele>51</ele>
    <time>2026-06-26T16:32:13.000Z</time>
   </trkpt>
   <trkpt lat="52.491872" lon="13.450926">
    <ele>53.4</ele>
    <time>2026-06-26T16:32:14.000Z</time>
   </trkpt>
   <trkpt lat="52.491948" lon="13.450831">
    <ele>52</ele>
    <time>2026-06-26T16:32:16.000Z</time>
   </trkpt>
   <trkpt lat="52.491985" lon="13.450772">
    <ele>50</ele>
    <time>2026-06-26T16:32:17.000Z</time>
   </trkpt>
   <trkpt lat="52.492018" lon="13.45071">
    <ele>48.8</ele>
    <time>2026-06-26T16:32:18.000Z</time>
   </trkpt>
   <trkpt lat="52.492051" lon="13.450647">
    <ele>46.8</ele>
    <time>2026-06-26T16:32:19.000Z</time>
   </trkpt>
   <trkpt lat="52.49209" lon="13.450577">
    <ele>45.2</ele>
    <time>2026-06-26T16:32:20.000Z</time>
   </trkpt>
   <trkpt lat="52.492121" lon="13.45051">
    <ele>43.8</ele>
    <time>2026-06-26T16:32:21.000Z</time>
   </trkpt>
   <trkpt lat="52.492155" lon="13.450439">
    <ele>42.2</ele>
    <time>2026-06-26T16:32:22.000Z</time>
   </trkpt>
   <trkpt lat="52.492189" lon="13.450368">
    <ele>40.8</ele>
    <time>2026-06-26T16:32:23.000Z</time>
   </trkpt>
   <trkpt lat="52.492229" lon="13.450304">
    <ele>39.4</ele>
    <time>2026-06-26T16:32:24.000Z</time>
   </trkpt>
   <trkpt lat="52.492262" lon="13.450232">
    <ele>38.2</ele>
    <time>2026-06-26T16:32:25.000Z</time>
   </trkpt>
   <trkpt lat="52.492293" lon="13.450157">
    <ele>37.2</ele>
    <time>2026-06-26T16:32:26.000Z</time>
   </trkpt>
   <trkpt lat="52.492363" lon="13.450012">
    <ele>36.2</ele>
    <time>2026-06-26T16:32:28.000Z</time>
   </trkpt>
   <trkpt lat="52.492575" lon="13.449549">
    <ele>37.2</ele>
    <time>2026-06-26T16:32:34.000Z</time>
   </trkpt>
   <trkpt lat="52.492616" lon="13.449468">
    <ele>37.6</ele>
    <time>2026-06-26T16:32:35.000Z</time>
   </trkpt>
   <trkpt lat="52.492694" lon="13.449285">
    <ele>38.4</ele>
    <time>2026-06-26T16:32:37.000Z</time>
   </trkpt>
   <trkpt lat="52.492803" lon="13.449018">
    <ele>39.6</ele>
    <time>2026-06-26T16:32:40.000Z</time>
   </trkpt>
   <trkpt lat="52.492833" lon="13.44893">
    <ele>40</ele>
    <time>2026-06-26T16:32:41.000Z</time>
   </trkpt>
   <trkpt lat="52.493035" lon="13.448401">
    <ele>40</ele>
    <time>2026-06-26T16:32:47.000Z</time>
   </trkpt>
   <trkpt lat="52.49325" lon="13.447923">
    <ele>39.8</ele>
    <time>2026-06-26T16:32:53.000Z</time>
   </trkpt>
   <trkpt lat="52.493292" lon="13.447857">
    <ele>40.8</ele>
    <time>2026-06-26T16:32:54.000Z</time>
   </trkpt>
   <trkpt lat="52.493335" lon="13.447788">
    <ele>42</ele>
    <time>2026-06-26T16:32:55.000Z</time>
   </trkpt>
   <trkpt lat="52.493528" lon="13.447527">
    <ele>42.2</ele>
    <time>2026-06-26T16:32:59.000Z</time>
   </trkpt>
   <trkpt lat="52.493659" lon="13.447322">
    <ele>44.8</ele>
    <time>2026-06-26T16:33:02.000Z</time>
   </trkpt>
   <trkpt lat="52.493688" lon="13.447254">
    <ele>47.2</ele>
    <time>2026-06-26T16:33:03.000Z</time>
   </trkpt>
   <trkpt lat="52.493726" lon="13.447185">
    <ele>49.6</ele>
    <time>2026-06-26T16:33:04.000Z</time>
   </trkpt>
   <trkpt lat="52.493759" lon="13.447121">
    <ele>50.6</ele>
    <time>2026-06-26T16:33:05.000Z</time>
   </trkpt>
   <trkpt lat="52.493868" lon="13.446948">
    <ele>50.2</ele>
    <time>2026-06-26T16:33:08.000Z</time>
   </trkpt>
   <trkpt lat="52.493995" lon="13.446798">
    <ele>49.4</ele>
    <time>2026-06-26T16:33:11.000Z</time>
   </trkpt>
   <trkpt lat="52.494021" lon="13.44674">
    <ele>49</ele>
    <time>2026-06-26T16:33:12.000Z</time>
   </trkpt>
   <trkpt lat="52.49405" lon="13.446687">
    <ele>40.8</ele>
    <time>2026-06-26T16:33:13.000Z</time>
   </trkpt>
   <trkpt lat="52.494183" lon="13.446502">
    <ele>43.8</ele>
    <time>2026-06-26T16:33:17.000Z</time>
   </trkpt>
   <trkpt lat="52.494212" lon="13.446457">
    <ele>46.6</ele>
    <time>2026-06-26T16:33:18.000Z</time>
   </trkpt>
   <trkpt lat="52.494236" lon="13.446412">
    <ele>49.2</ele>
    <time>2026-06-26T16:33:19.000Z</time>
   </trkpt>
   <trkpt lat="52.494261" lon="13.446365">
    <ele>50.4</ele>
    <time>2026-06-26T16:33:20.000Z</time>
   </trkpt>
   <trkpt lat="52.494331" lon="13.446302">
    <ele>51.6</ele>
    <time>2026-06-26T16:33:22.000Z</time>
   </trkpt>
   <trkpt lat="52.494377" lon="13.446232">
    <ele>51.6</ele>
    <time>2026-06-26T16:33:24.000Z</time>
   </trkpt>
   <trkpt lat="52.494366" lon="13.446164">
    <ele>50.2</ele>
    <time>2026-06-26T16:33:26.000Z</time>
   </trkpt>
   <trkpt lat="52.494345" lon="13.446142">
    <ele>49</ele>
    <time>2026-06-26T16:33:27.000Z</time>
   </trkpt>
   <trkpt lat="52.494322" lon="13.446115">
    <ele>47.8</ele>
    <time>2026-06-26T16:33:28.000Z</time>
   </trkpt>
   <trkpt lat="52.494223" lon="13.445953">
    <ele>46.8</ele>
    <time>2026-06-26T16:33:32.000Z</time>
   </trkpt>
   <trkpt lat="52.494192" lon="13.445909">
    <ele>46.6</ele>
    <time>2026-06-26T16:33:33.000Z</time>
   </trkpt>
   <trkpt lat="52.49417" lon="13.445853">
    <ele>43.8</ele>
    <time>2026-06-26T16:33:34.000Z</time>
   </trkpt>
   <trkpt lat="52.494151" lon="13.445798">
    <ele>40.2</ele>
    <time>2026-06-26T16:33:35.000Z</time>
   </trkpt>
   <trkpt lat="52.494134" lon="13.445742">
    <ele>37.6</ele>
    <time>2026-06-26T16:33:36.000Z</time>
   </trkpt>
   <trkpt lat="52.494121" lon="13.445685">
    <ele>37.4</ele>
    <time>2026-06-26T16:33:37.000Z</time>
   </trkpt>
   <trkpt lat="52.494088" lon="13.445582">
    <ele>36.4</ele>
    <time>2026-06-26T16:33:39.000Z</time>
   </trkpt>
   <trkpt lat="52.494069" lon="13.445398">
    <ele>36.6</ele>
    <time>2026-06-26T16:33:43.000Z</time>
   </trkpt>
   <trkpt lat="52.494069" lon="13.445173">
    <ele>35.4</ele>
    <time>2026-06-26T16:33:48.000Z</time>
   </trkpt>
   <trkpt lat="52.494085" lon="13.445025">
    <ele>34.8</ele>
    <time>2026-06-26T16:33:51.000Z</time>
   </trkpt>
   <trkpt lat="52.494095" lon="13.44498">
    <ele>34.4</ele>
    <time>2026-06-26T16:33:52.000Z</time>
   </trkpt>
   <trkpt lat="52.494123" lon="13.44484">
    <ele>33.2</ele>
    <time>2026-06-26T16:33:55.000Z</time>
   </trkpt>
   <trkpt lat="52.494114" lon="13.444747">
    <ele>32.6</ele>
    <time>2026-06-26T16:33:57.000Z</time>
   </trkpt>
   <trkpt lat="52.494128" lon="13.444661">
    <ele>32</ele>
    <time>2026-06-26T16:33:59.000Z</time>
   </trkpt>
   <trkpt lat="52.494154" lon="13.444567">
    <ele>31.2</ele>
    <time>2026-06-26T16:34:01.000Z</time>
   </trkpt>
   <trkpt lat="52.49417" lon="13.444521">
    <ele>30.8</ele>
    <time>2026-06-26T16:34:02.000Z</time>
   </trkpt>
   <trkpt lat="52.494223" lon="13.444363">
    <ele>29.8</ele>
    <time>2026-06-26T16:34:05.000Z</time>
   </trkpt>
   <trkpt lat="52.494286" lon="13.444164">
    <ele>28.6</ele>
    <time>2026-06-26T16:34:09.000Z</time>
   </trkpt>
   <trkpt lat="52.494299" lon="13.444121">
    <ele>28.4</ele>
    <time>2026-06-26T16:34:10.000Z</time>
   </trkpt>
   <trkpt lat="52.49436" lon="13.443972">
    <ele>27.2</ele>
    <time>2026-06-26T16:34:14.000Z</time>
   </trkpt>
   <trkpt lat="52.49439" lon="13.443895">
    <ele>26.8</ele>
    <time>2026-06-26T16:34:16.000Z</time>
   </trkpt>
   <trkpt lat="52.494441" lon="13.443832">
    <ele>28.4</ele>
    <time>2026-06-26T16:34:19.000Z</time>
   </trkpt>
   <trkpt lat="52.494461" lon="13.443827">
    <ele>29.4</ele>
    <time>2026-06-26T16:34:20.000Z</time>
   </trkpt>
   <trkpt lat="52.494506" lon="13.443788">
    <ele>31.4</ele>
    <time>2026-06-26T16:34:22.000Z</time>
   </trkpt>
   <trkpt lat="52.494545" lon="13.443698">
    <ele>32.8</ele>
    <time>2026-06-26T16:34:24.000Z</time>
   </trkpt>
   <trkpt lat="52.49456" lon="13.443643">
    <ele>33.2</ele>
    <time>2026-06-26T16:34:25.000Z</time>
   </trkpt>
   <trkpt lat="52.494622" lon="13.443462">
    <ele>31.6</ele>
    <time>2026-06-26T16:34:28.000Z</time>
   </trkpt>
   <trkpt lat="52.494661" lon="13.443343">
    <ele>31</ele>
    <time>2026-06-26T16:34:30.000Z</time>
   </trkpt>
   <trkpt lat="52.494707" lon="13.443228">
    <ele>32.8</ele>
    <time>2026-06-26T16:34:32.000Z</time>
   </trkpt>
   <trkpt lat="52.494749" lon="13.443091">
    <ele>34.4</ele>
    <time>2026-06-26T16:34:34.000Z</time>
   </trkpt>
   <trkpt lat="52.494769" lon="13.443025">
    <ele>36.8</ele>
    <time>2026-06-26T16:34:35.000Z</time>
   </trkpt>
   <trkpt lat="52.494794" lon="13.442964">
    <ele>35.6</ele>
    <time>2026-06-26T16:34:36.000Z</time>
   </trkpt>
   <trkpt lat="52.494843" lon="13.442845">
    <ele>34</ele>
    <time>2026-06-26T16:34:38.000Z</time>
   </trkpt>
   <trkpt lat="52.494865" lon="13.442788">
    <ele>32.8</ele>
    <time>2026-06-26T16:34:39.000Z</time>
   </trkpt>
   <trkpt lat="52.494886" lon="13.442739">
    <ele>31.6</ele>
    <time>2026-06-26T16:34:40.000Z</time>
   </trkpt>
   <trkpt lat="52.494927" lon="13.442622">
    <ele>30.4</ele>
    <time>2026-06-26T16:34:42.000Z</time>
   </trkpt>
   <trkpt lat="52.494967" lon="13.442501">
    <ele>29.6</ele>
    <time>2026-06-26T16:34:44.000Z</time>
   </trkpt>
   <trkpt lat="52.49503" lon="13.442305">
    <ele>31.6</ele>
    <time>2026-06-26T16:34:47.000Z</time>
   </trkpt>
   <trkpt lat="52.495056" lon="13.442236">
    <ele>32.8</ele>
    <time>2026-06-26T16:34:48.000Z</time>
   </trkpt>
   <trkpt lat="52.495193" lon="13.44184">
    <ele>31.8</ele>
    <time>2026-06-26T16:34:54.000Z</time>
   </trkpt>
   <trkpt lat="52.495217" lon="13.441778">
    <ele>31.6</ele>
    <time>2026-06-26T16:34:55.000Z</time>
   </trkpt>
   <trkpt lat="52.495292" lon="13.441582">
    <ele>30.6</ele>
    <time>2026-06-26T16:34:58.000Z</time>
   </trkpt>
   <trkpt lat="52.495346" lon="13.441448">
    <ele>28.8</ele>
    <time>2026-06-26T16:35:00.000Z</time>
   </trkpt>
   <trkpt lat="52.495397" lon="13.441311">
    <ele>27.2</ele>
    <time>2026-06-26T16:35:02.000Z</time>
   </trkpt>
   <trkpt lat="52.495452" lon="13.441171">
    <ele>26.4</ele>
    <time>2026-06-26T16:35:04.000Z</time>
   </trkpt>
   <trkpt lat="52.495473" lon="13.441097">
    <ele>26</ele>
    <time>2026-06-26T16:35:05.000Z</time>
   </trkpt>
   <trkpt lat="52.495551" lon="13.440836">
    <ele>29.4</ele>
    <time>2026-06-26T16:35:09.000Z</time>
   </trkpt>
   <trkpt lat="52.495569" lon="13.440764">
    <ele>33.8</ele>
    <time>2026-06-26T16:35:10.000Z</time>
   </trkpt>
   <trkpt lat="52.49559" lon="13.440689">
    <ele>38.8</ele>
    <time>2026-06-26T16:35:11.000Z</time>
   </trkpt>
   <trkpt lat="52.495621" lon="13.440629">
    <ele>43</ele>
    <time>2026-06-26T16:35:12.000Z</time>
   </trkpt>
   <trkpt lat="52.495653" lon="13.440577">
    <ele>44.2</ele>
    <time>2026-06-26T16:35:13.000Z</time>
   </trkpt>
   <trkpt lat="52.495677" lon="13.440514">
    <ele>46.4</ele>
    <time>2026-06-26T16:35:14.000Z</time>
   </trkpt>
   <trkpt lat="52.495694" lon="13.440452">
    <ele>48.2</ele>
    <time>2026-06-26T16:35:15.000Z</time>
   </trkpt>
   <trkpt lat="52.49571" lon="13.440393">
    <ele>49.2</ele>
    <time>2026-06-26T16:35:16.000Z</time>
   </trkpt>
   <trkpt lat="52.495749" lon="13.440287">
    <ele>50.6</ele>
    <time>2026-06-26T16:35:18.000Z</time>
   </trkpt>
   <trkpt lat="52.495809" lon="13.440138">
    <ele>52.4</ele>
    <time>2026-06-26T16:35:21.000Z</time>
   </trkpt>
   <trkpt lat="52.495848" lon="13.439916">
    <ele>50.4</ele>
    <time>2026-06-26T16:35:25.000Z</time>
   </trkpt>
   <trkpt lat="52.495837" lon="13.439856">
    <ele>49.6</ele>
    <time>2026-06-26T16:35:26.000Z</time>
   </trkpt>
   <trkpt lat="52.495796" lon="13.439759">
    <ele>43.4</ele>
    <time>2026-06-26T16:35:28.000Z</time>
   </trkpt>
   <trkpt lat="52.495742" lon="13.439698">
    <ele>41</ele>
    <time>2026-06-26T16:35:30.000Z</time>
   </trkpt>
   <trkpt lat="52.495712" lon="13.439673">
    <ele>40</ele>
    <time>2026-06-26T16:35:31.000Z</time>
   </trkpt>
   <trkpt lat="52.495649" lon="13.439595">
    <ele>38</ele>
    <time>2026-06-26T16:35:33.000Z</time>
   </trkpt>
   <trkpt lat="52.495617" lon="13.439552">
    <ele>36.4</ele>
    <time>2026-06-26T16:35:34.000Z</time>
   </trkpt>
   <trkpt lat="52.495582" lon="13.439512">
    <ele>35</ele>
    <time>2026-06-26T16:35:35.000Z</time>
   </trkpt>
   <trkpt lat="52.495545" lon="13.439476">
    <ele>33.8</ele>
    <time>2026-06-26T16:35:36.000Z</time>
   </trkpt>
   <trkpt lat="52.49551" lon="13.439443">
    <ele>32.6</ele>
    <time>2026-06-26T16:35:37.000Z</time>
   </trkpt>
   <trkpt lat="52.495473" lon="13.439405">
    <ele>31.6</ele>
    <time>2026-06-26T16:35:38.000Z</time>
   </trkpt>
   <trkpt lat="52.495405" lon="13.439344">
    <ele>30.2</ele>
    <time>2026-06-26T16:35:40.000Z</time>
   </trkpt>
   <trkpt lat="52.495269" lon="13.439188">
    <ele>31.4</ele>
    <time>2026-06-26T16:35:45.000Z</time>
   </trkpt>
   <trkpt lat="52.495178" lon="13.439129">
    <ele>30.2</ele>
    <time>2026-06-26T16:35:48.000Z</time>
   </trkpt>
   <trkpt lat="52.495159" lon="13.439097">
    <ele>29.4</ele>
    <time>2026-06-26T16:35:49.000Z</time>
   </trkpt>
   <trkpt lat="52.495143" lon="13.43907">
    <ele>28.6</ele>
    <time>2026-06-26T16:35:50.000Z</time>
   </trkpt>
   <trkpt lat="52.495143" lon="13.439006">
    <ele>27.8</ele>
    <time>2026-06-26T16:35:52.000Z</time>
   </trkpt>
   <trkpt lat="52.495162" lon="13.43897">
    <ele>27.6</ele>
    <time>2026-06-26T16:35:53.000Z</time>
   </trkpt>
   <trkpt lat="52.495225" lon="13.43879">
    <ele>28.8</ele>
    <time>2026-06-26T16:35:57.000Z</time>
   </trkpt>
   <trkpt lat="52.495266" lon="13.438668">
    <ele>28.6</ele>
    <time>2026-06-26T16:35:59.000Z</time>
   </trkpt>
   <trkpt lat="52.495304" lon="13.438548">
    <ele>27</ele>
    <time>2026-06-26T16:36:01.000Z</time>
   </trkpt>
   <trkpt lat="52.495346" lon="13.438419">
    <ele>25.6</ele>
    <time>2026-06-26T16:36:03.000Z</time>
   </trkpt>
   <trkpt lat="52.49543" lon="13.438156">
    <ele>25.2</ele>
    <time>2026-06-26T16:36:07.000Z</time>
   </trkpt>
   <trkpt lat="52.495493" lon="13.437968">
    <ele>31</ele>
    <time>2026-06-26T16:36:10.000Z</time>
   </trkpt>
   <trkpt lat="52.495507" lon="13.437906">
    <ele>34.6</ele>
    <time>2026-06-26T16:36:11.000Z</time>
   </trkpt>
   <trkpt lat="52.495543" lon="13.437805">
    <ele>39.8</ele>
    <time>2026-06-26T16:36:13.000Z</time>
   </trkpt>
   <trkpt lat="52.495622" lon="13.437524">
    <ele>38.8</ele>
    <time>2026-06-26T16:36:18.000Z</time>
   </trkpt>
   <trkpt lat="52.495638" lon="13.437475">
    <ele>37.4</ele>
    <time>2026-06-26T16:36:19.000Z</time>
   </trkpt>
   <trkpt lat="52.495659" lon="13.437418">
    <ele>36</ele>
    <time>2026-06-26T16:36:20.000Z</time>
   </trkpt>
   <trkpt lat="52.495701" lon="13.437298">
    <ele>34.4</ele>
    <time>2026-06-26T16:36:22.000Z</time>
   </trkpt>
   <trkpt lat="52.495757" lon="13.437198">
    <ele>32.6</ele>
    <time>2026-06-26T16:36:24.000Z</time>
   </trkpt>
   <trkpt lat="52.495791" lon="13.437156">
    <ele>31.2</ele>
    <time>2026-06-26T16:36:25.000Z</time>
   </trkpt>
   <trkpt lat="52.495819" lon="13.437115">
    <ele>30.2</ele>
    <time>2026-06-26T16:36:26.000Z</time>
   </trkpt>
   <trkpt lat="52.495858" lon="13.43701">
    <ele>28.6</ele>
    <time>2026-06-26T16:36:28.000Z</time>
   </trkpt>
   <trkpt lat="52.495881" lon="13.436903">
    <ele>27.4</ele>
    <time>2026-06-26T16:36:30.000Z</time>
   </trkpt>
   <trkpt lat="52.495907" lon="13.436776">
    <ele>26.2</ele>
    <time>2026-06-26T16:36:32.000Z</time>
   </trkpt>
   <trkpt lat="52.495946" lon="13.436652">
    <ele>25.2</ele>
    <time>2026-06-26T16:36:34.000Z</time>
   </trkpt>
   <trkpt lat="52.495969" lon="13.436595">
    <ele>24.6</ele>
    <time>2026-06-26T16:36:35.000Z</time>
   </trkpt>
   <trkpt lat="52.496012" lon="13.436467">
    <ele>23.8</ele>
    <time>2026-06-26T16:36:37.000Z</time>
   </trkpt>
   <trkpt lat="52.496098" lon="13.436227">
    <ele>23</ele>
    <time>2026-06-26T16:36:41.000Z</time>
   </trkpt>
   <trkpt lat="52.496218" lon="13.435844">
    <ele>23</ele>
    <time>2026-06-26T16:36:47.000Z</time>
   </trkpt>
   <trkpt lat="52.496349" lon="13.435492">
    <ele>23.4</ele>
    <time>2026-06-26T16:36:53.000Z</time>
   </trkpt>
   <trkpt lat="52.496388" lon="13.435383">
    <ele>24.2</ele>
    <time>2026-06-26T16:36:55.000Z</time>
   </trkpt>
   <trkpt lat="52.496401" lon="13.435319">
    <ele>24.4</ele>
    <time>2026-06-26T16:36:56.000Z</time>
   </trkpt>
   <trkpt lat="52.496418" lon="13.435257">
    <ele>24.6</ele>
    <time>2026-06-26T16:36:57.000Z</time>
   </trkpt>
   <trkpt lat="52.496438" lon="13.435197">
    <ele>24.6</ele>
    <time>2026-06-26T16:36:58.000Z</time>
   </trkpt>
   <trkpt lat="52.496464" lon="13.43514">
    <ele>24.8</ele>
    <time>2026-06-26T16:36:59.000Z</time>
   </trkpt>
   <trkpt lat="52.496569" lon="13.434914">
    <ele>24.2</ele>
    <time>2026-06-26T16:37:03.000Z</time>
   </trkpt>
   <trkpt lat="52.496625" lon="13.434799">
    <ele>23.2</ele>
    <time>2026-06-26T16:37:05.000Z</time>
   </trkpt>
   <trkpt lat="52.496644" lon="13.434733">
    <ele>22.6</ele>
    <time>2026-06-26T16:37:06.000Z</time>
   </trkpt>
   <trkpt lat="52.496695" lon="13.434611">
    <ele>22</ele>
    <time>2026-06-26T16:37:08.000Z</time>
   </trkpt>
   <trkpt lat="52.496743" lon="13.434492">
    <ele>21.4</ele>
    <time>2026-06-26T16:37:10.000Z</time>
   </trkpt>
   <trkpt lat="52.496812" lon="13.434315">
    <ele>21</ele>
    <time>2026-06-26T16:37:13.000Z</time>
   </trkpt>
   <trkpt lat="52.496854" lon="13.434192">
    <ele>20.8</ele>
    <time>2026-06-26T16:37:15.000Z</time>
   </trkpt>
   <trkpt lat="52.496934" lon="13.433948">
    <ele>22.6</ele>
    <time>2026-06-26T16:37:19.000Z</time>
   </trkpt>
   <trkpt lat="52.496977" lon="13.433817">
    <ele>23.6</ele>
    <time>2026-06-26T16:37:21.000Z</time>
   </trkpt>
   <trkpt lat="52.497073" lon="13.433496">
    <ele>22.4</ele>
    <time>2026-06-26T16:37:26.000Z</time>
   </trkpt>
   <trkpt lat="52.497088" lon="13.433428">
    <ele>21.8</ele>
    <time>2026-06-26T16:37:27.000Z</time>
   </trkpt>
   <trkpt lat="52.497099" lon="13.433359">
    <ele>21.2</ele>
    <time>2026-06-26T16:37:28.000Z</time>
   </trkpt>
   <trkpt lat="52.497119" lon="13.433296">
    <ele>21.2</ele>
    <time>2026-06-26T16:37:29.000Z</time>
   </trkpt>
   <trkpt lat="52.497154" lon="13.433179">
    <ele>20.8</ele>
    <time>2026-06-26T16:37:31.000Z</time>
   </trkpt>
   <trkpt lat="52.497225" lon="13.432963">
    <ele>20.2</ele>
    <time>2026-06-26T16:37:35.000Z</time>
   </trkpt>
   <trkpt lat="52.49728" lon="13.432805">
    <ele>20</ele>
    <time>2026-06-26T16:37:38.000Z</time>
   </trkpt>
   <trkpt lat="52.49733" lon="13.432642">
    <ele>19</ele>
    <time>2026-06-26T16:37:41.000Z</time>
   </trkpt>
   <trkpt lat="52.497395" lon="13.432422">
    <ele>19</ele>
    <time>2026-06-26T16:37:45.000Z</time>
   </trkpt>
   <trkpt lat="52.497396" lon="13.43231">
    <ele>20.4</ele>
    <time>2026-06-26T16:37:47.000Z</time>
   </trkpt>
   <trkpt lat="52.497385" lon="13.432194">
    <ele>22.2</ele>
    <time>2026-06-26T16:37:49.000Z</time>
   </trkpt>
   <trkpt lat="52.497397" lon="13.432139">
    <ele>22.8</ele>
    <time>2026-06-26T16:37:50.000Z</time>
   </trkpt>
   <trkpt lat="52.497439" lon="13.432046">
    <ele>22.8</ele>
    <time>2026-06-26T16:37:52.000Z</time>
   </trkpt>
   <trkpt lat="52.497552" lon="13.43177">
    <ele>21</ele>
    <time>2026-06-26T16:37:57.000Z</time>
   </trkpt>
   <trkpt lat="52.497625" lon="13.431594">
    <ele>19.6</ele>
    <time>2026-06-26T16:38:00.000Z</time>
   </trkpt>
   <trkpt lat="52.497699" lon="13.431411">
    <ele>18.4</ele>
    <time>2026-06-26T16:38:03.000Z</time>
   </trkpt>
   <trkpt lat="52.497805" lon="13.43116">
    <ele>18.4</ele>
    <time>2026-06-26T16:38:07.000Z</time>
   </trkpt>
   <trkpt lat="52.497889" lon="13.430982">
    <ele>21.2</ele>
    <time>2026-06-26T16:38:10.000Z</time>
   </trkpt>
   <trkpt lat="52.497914" lon="13.430929">
    <ele>23.4</ele>
    <time>2026-06-26T16:38:11.000Z</time>
   </trkpt>
   <trkpt lat="52.497936" lon="13.430872">
    <ele>26.6</ele>
    <time>2026-06-26T16:38:12.000Z</time>
   </trkpt>
   <trkpt lat="52.497959" lon="13.430813">
    <ele>28.4</ele>
    <time>2026-06-26T16:38:13.000Z</time>
   </trkpt>
   <trkpt lat="52.497987" lon="13.430753">
    <ele>29.8</ele>
    <time>2026-06-26T16:38:14.000Z</time>
   </trkpt>
   <trkpt lat="52.498013" lon="13.430693">
    <ele>31.8</ele>
    <time>2026-06-26T16:38:15.000Z</time>
   </trkpt>
   <trkpt lat="52.498034" lon="13.430639">
    <ele>33.6</ele>
    <time>2026-06-26T16:38:16.000Z</time>
   </trkpt>
   <trkpt lat="52.49806" lon="13.430583">
    <ele>34.6</ele>
    <time>2026-06-26T16:38:17.000Z</time>
   </trkpt>
   <trkpt lat="52.498079" lon="13.430525">
    <ele>34.2</ele>
    <time>2026-06-26T16:38:18.000Z</time>
   </trkpt>
   <trkpt lat="52.498119" lon="13.430415">
    <ele>31.8</ele>
    <time>2026-06-26T16:38:20.000Z</time>
   </trkpt>
   <trkpt lat="52.498143" lon="13.430361">
    <ele>30</ele>
    <time>2026-06-26T16:38:21.000Z</time>
   </trkpt>
   <trkpt lat="52.498166" lon="13.430304">
    <ele>28.4</ele>
    <time>2026-06-26T16:38:22.000Z</time>
   </trkpt>
   <trkpt lat="52.498191" lon="13.430246">
    <ele>27.2</ele>
    <time>2026-06-26T16:38:23.000Z</time>
   </trkpt>
   <trkpt lat="52.498213" lon="13.430185">
    <ele>26.8</ele>
    <time>2026-06-26T16:38:24.000Z</time>
   </trkpt>
   <trkpt lat="52.498259" lon="13.430066">
    <ele>26.4</ele>
    <time>2026-06-26T16:38:26.000Z</time>
   </trkpt>
   <trkpt lat="52.498344" lon="13.429824">
    <ele>25.8</ele>
    <time>2026-06-26T16:38:30.000Z</time>
   </trkpt>
   <trkpt lat="52.498363" lon="13.429764">
    <ele>25</ele>
    <time>2026-06-26T16:38:31.000Z</time>
   </trkpt>
   <trkpt lat="52.498386" lon="13.429705">
    <ele>24</ele>
    <time>2026-06-26T16:38:32.000Z</time>
   </trkpt>
   <trkpt lat="52.498428" lon="13.42959">
    <ele>22.6</ele>
    <time>2026-06-26T16:38:34.000Z</time>
   </trkpt>
   <trkpt lat="52.498473" lon="13.429465">
    <ele>21.6</ele>
    <time>2026-06-26T16:38:36.000Z</time>
   </trkpt>
   <trkpt lat="52.498515" lon="13.429333">
    <ele>20.8</ele>
    <time>2026-06-26T16:38:38.000Z</time>
   </trkpt>
   <trkpt lat="52.498537" lon="13.429264">
    <ele>20.4</ele>
    <time>2026-06-26T16:38:39.000Z</time>
   </trkpt>
   <trkpt lat="52.498584" lon="13.42914">
    <ele>19.8</ele>
    <time>2026-06-26T16:38:41.000Z</time>
   </trkpt>
   <trkpt lat="52.498629" lon="13.429012">
    <ele>19.2</ele>
    <time>2026-06-26T16:38:43.000Z</time>
   </trkpt>
   <trkpt lat="52.498675" lon="13.428886">
    <ele>18.8</ele>
    <time>2026-06-26T16:38:45.000Z</time>
   </trkpt>
   <trkpt lat="52.498764" lon="13.428617">
    <ele>18.2</ele>
    <time>2026-06-26T16:38:49.000Z</time>
   </trkpt>
   <trkpt lat="52.498802" lon="13.428491">
    <ele>18.2</ele>
    <time>2026-06-26T16:38:51.000Z</time>
   </trkpt>
   <trkpt lat="52.498836" lon="13.428387">
    <ele>19.6</ele>
    <time>2026-06-26T16:38:53.000Z</time>
   </trkpt>
   <trkpt lat="52.498865" lon="13.428286">
    <ele>21.4</ele>
    <time>2026-06-26T16:38:55.000Z</time>
   </trkpt>
   <trkpt lat="52.498902" lon="13.428199">
    <ele>22.6</ele>
    <time>2026-06-26T16:38:57.000Z</time>
   </trkpt>
   <trkpt lat="52.498914" lon="13.428159">
    <ele>22.4</ele>
    <time>2026-06-26T16:38:58.000Z</time>
   </trkpt>
   <trkpt lat="52.498968" lon="13.427939">
    <ele>21.8</ele>
    <time>2026-06-26T16:39:03.000Z</time>
   </trkpt>
   <trkpt lat="52.499024" lon="13.42774">
    <ele>25.2</ele>
    <time>2026-06-26T16:39:08.000Z</time>
   </trkpt>
   <trkpt lat="52.499035" lon="13.427708">
    <ele>27.4</ele>
    <time>2026-06-26T16:39:09.000Z</time>
   </trkpt>
   <trkpt lat="52.499041" lon="13.427693">
    <ele>29</ele>
    <time>2026-06-26T16:39:10.000Z</time>
   </trkpt>
   <trkpt lat="52.499035" lon="13.427689">
    <ele>30.2</ele>
    <time>2026-06-26T16:39:11.000Z</time>
   </trkpt>
   <trkpt lat="52.499034" lon="13.427686">
    <ele>28.6</ele>
    <time>2026-06-26T16:39:14.000Z</time>
   </trkpt>
   <trkpt lat="52.499033" lon="13.427682">
    <ele>27.2</ele>
    <time>2026-06-26T16:39:15.000Z</time>
   </trkpt>
   <trkpt lat="52.499034" lon="13.427686">
    <ele>26</ele>
    <time>2026-06-26T16:39:16.000Z</time>
   </trkpt>
   <trkpt lat="52.499034" lon="13.427686">
    <ele>25</ele>
    <time>2026-06-26T16:39:17.000Z</time>
   </trkpt>
   <trkpt lat="52.499034" lon="13.427686">
    <ele>23.4</ele>
    <time>2026-06-26T16:39:19.000Z</time>
   </trkpt>
   <trkpt lat="52.499034" lon="13.427686">
    <ele>22.8</ele>
    <time>2026-06-26T16:39:20.000Z</time>
   </trkpt>
   <trkpt lat="52.499034" lon="13.427678">
    <ele>22.4</ele>
    <time>2026-06-26T16:39:21.000Z</time>
   </trkpt>
   <trkpt lat="52.499076" lon="13.427573">
    <ele>21.8</ele>
    <time>2026-06-26T16:39:24.000Z</time>
   </trkpt>
   <trkpt lat="52.499133" lon="13.427326">
    <ele>21.4</ele>
    <time>2026-06-26T16:39:28.000Z</time>
   </trkpt>
   <trkpt lat="52.499146" lon="13.427265">
    <ele>20.6</ele>
    <time>2026-06-26T16:39:29.000Z</time>
   </trkpt>
   <trkpt lat="52.499157" lon="13.4272">
    <ele>19.8</ele>
    <time>2026-06-26T16:39:30.000Z</time>
   </trkpt>
   <trkpt lat="52.499166" lon="13.42708">
    <ele>18.8</ele>
    <time>2026-06-26T16:39:32.000Z</time>
   </trkpt>
   <trkpt lat="52.49921" lon="13.42696">
    <ele>18</ele>
    <time>2026-06-26T16:39:34.000Z</time>
   </trkpt>
   <trkpt lat="52.499271" lon="13.426837">
    <ele>20.2</ele>
    <time>2026-06-26T16:39:37.000Z</time>
   </trkpt>
   <trkpt lat="52.499282" lon="13.426804">
    <ele>22.8</ele>
    <time>2026-06-26T16:39:38.000Z</time>
   </trkpt>
   <trkpt lat="52.49929" lon="13.426782">
    <ele>27.2</ele>
    <time>2026-06-26T16:39:39.000Z</time>
   </trkpt>
   <trkpt lat="52.499289" lon="13.426766">
    <ele>31.4</ele>
    <time>2026-06-26T16:39:40.000Z</time>
   </trkpt>
   <trkpt lat="52.499286" lon="13.426752">
    <ele>29.4</ele>
    <time>2026-06-26T16:39:42.000Z</time>
   </trkpt>
   <trkpt lat="52.499284" lon="13.426752">
    <ele>28</ele>
    <time>2026-06-26T16:39:43.000Z</time>
   </trkpt>
   <trkpt lat="52.499287" lon="13.426748">
    <ele>27.2</ele>
    <time>2026-06-26T16:39:44.000Z</time>
   </trkpt>
   <trkpt lat="52.499292" lon="13.426745">
    <ele>26.2</ele>
    <time>2026-06-26T16:39:45.000Z</time>
   </trkpt>
   <trkpt lat="52.499299" lon="13.426744">
    <ele>25</ele>
    <time>2026-06-26T16:39:46.000Z</time>
   </trkpt>
   <trkpt lat="52.499302" lon="13.426746">
    <ele>23.8</ele>
    <time>2026-06-26T16:39:47.000Z</time>
   </trkpt>
   <trkpt lat="52.499304" lon="13.426747">
    <ele>22</ele>
    <time>2026-06-26T16:39:49.000Z</time>
   </trkpt>
   <trkpt lat="52.499304" lon="13.426683">
    <ele>20.8</ele>
    <time>2026-06-26T16:39:51.000Z</time>
   </trkpt>
   <trkpt lat="52.499302" lon="13.426453">
    <ele>21</ele>
    <time>2026-06-26T16:39:55.000Z</time>
   </trkpt>
   <trkpt lat="52.499293" lon="13.426299">
    <ele>22.6</ele>
    <time>2026-06-26T16:39:57.000Z</time>
   </trkpt>
   <trkpt lat="52.499273" lon="13.42604">
    <ele>24</ele>
    <time>2026-06-26T16:40:00.000Z</time>
   </trkpt>
   <trkpt lat="52.499256" lon="13.425767">
    <ele>25.2</ele>
    <time>2026-06-26T16:40:03.000Z</time>
   </trkpt>
   <trkpt lat="52.499259" lon="13.425672">
    <ele>26</ele>
    <time>2026-06-26T16:40:04.000Z</time>
   </trkpt>
   <trkpt lat="52.499262" lon="13.425575">
    <ele>26.4</ele>
    <time>2026-06-26T16:40:05.000Z</time>
   </trkpt>
   <trkpt lat="52.499258" lon="13.425484">
    <ele>26.4</ele>
    <time>2026-06-26T16:40:06.000Z</time>
   </trkpt>
   <trkpt lat="52.499256" lon="13.425297">
    <ele>29</ele>
    <time>2026-06-26T16:40:08.000Z</time>
   </trkpt>
   <trkpt lat="52.499252" lon="13.425203">
    <ele>31.2</ele>
    <time>2026-06-26T16:40:09.000Z</time>
   </trkpt>
   <trkpt lat="52.499243" lon="13.425001">
    <ele>33.6</ele>
    <time>2026-06-26T16:40:11.000Z</time>
   </trkpt>
   <trkpt lat="52.499245" lon="13.424902">
    <ele>34.8</ele>
    <time>2026-06-26T16:40:12.000Z</time>
   </trkpt>
   <trkpt lat="52.49924" lon="13.4248">
    <ele>35.6</ele>
    <time>2026-06-26T16:40:13.000Z</time>
   </trkpt>
   <trkpt lat="52.499238" lon="13.424705">
    <ele>36.6</ele>
    <time>2026-06-26T16:40:14.000Z</time>
   </trkpt>
   <trkpt lat="52.499235" lon="13.424605">
    <ele>39</ele>
    <time>2026-06-26T16:40:15.000Z</time>
   </trkpt>
   <trkpt lat="52.499233" lon="13.424516">
    <ele>40.8</ele>
    <time>2026-06-26T16:40:16.000Z</time>
   </trkpt>
   <trkpt lat="52.499228" lon="13.424409">
    <ele>43.2</ele>
    <time>2026-06-26T16:40:17.000Z</time>
   </trkpt>
   <trkpt lat="52.499227" lon="13.424318">
    <ele>46</ele>
    <time>2026-06-26T16:40:18.000Z</time>
   </trkpt>
   <trkpt lat="52.499222" lon="13.424223">
    <ele>47.4</ele>
    <time>2026-06-26T16:40:19.000Z</time>
   </trkpt>
   <trkpt lat="52.499222" lon="13.424132">
    <ele>49</ele>
    <time>2026-06-26T16:40:20.000Z</time>
   </trkpt>
   <trkpt lat="52.499225" lon="13.424037">
    <ele>50.8</ele>
    <time>2026-06-26T16:40:21.000Z</time>
   </trkpt>
   <trkpt lat="52.499222" lon="13.423843">
    <ele>52</ele>
    <time>2026-06-26T16:40:23.000Z</time>
   </trkpt>
   <trkpt lat="52.499224" lon="13.423743">
    <ele>52</ele>
    <time>2026-06-26T16:40:24.000Z</time>
   </trkpt>
   <trkpt lat="52.499224" lon="13.423473">
    <ele>52.6</ele>
    <time>2026-06-26T16:40:27.000Z</time>
   </trkpt>
   <trkpt lat="52.499223" lon="13.423306">
    <ele>53.6</ele>
    <time>2026-06-26T16:40:29.000Z</time>
   </trkpt>
   <trkpt lat="52.499224" lon="13.423226">
    <ele>54.2</ele>
    <time>2026-06-26T16:40:30.000Z</time>
   </trkpt>
   <trkpt lat="52.499226" lon="13.423062">
    <ele>55</ele>
    <time>2026-06-26T16:40:32.000Z</time>
   </trkpt>
   <trkpt lat="52.499223" lon="13.422914">
    <ele>55.2</ele>
    <time>2026-06-26T16:40:34.000Z</time>
   </trkpt>
   <trkpt lat="52.499216" lon="13.422836">
    <ele>55.2</ele>
    <time>2026-06-26T16:40:35.000Z</time>
   </trkpt>
   <trkpt lat="52.499211" lon="13.422701">
    <ele>53.8</ele>
    <time>2026-06-26T16:40:38.000Z</time>
   </trkpt>
   <trkpt lat="52.499208" lon="13.422691">
    <ele>53.2</ele>
    <time>2026-06-26T16:40:39.000Z</time>
   </trkpt>
   <trkpt lat="52.499206" lon="13.422649">
    <ele>52.2</ele>
    <time>2026-06-26T16:40:41.000Z</time>
   </trkpt>
   <trkpt lat="52.499205" lon="13.422648">
    <ele>50.8</ele>
    <time>2026-06-26T16:40:42.000Z</time>
   </trkpt>
   <trkpt lat="52.499207" lon="13.422644">
    <ele>47.2</ele>
    <time>2026-06-26T16:40:43.000Z</time>
   </trkpt>
   <trkpt lat="52.499204" lon="13.422642">
    <ele>44.4</ele>
    <time>2026-06-26T16:40:44.000Z</time>
   </trkpt>
   <trkpt lat="52.499206" lon="13.422638">
    <ele>43.4</ele>
    <time>2026-06-26T16:40:45.000Z</time>
   </trkpt>
   <trkpt lat="52.499208" lon="13.422626">
    <ele>42</ele>
    <time>2026-06-26T16:40:46.000Z</time>
   </trkpt>
   <trkpt lat="52.499207" lon="13.422618">
    <ele>41</ele>
    <time>2026-06-26T16:40:47.000Z</time>
   </trkpt>
   <trkpt lat="52.499208" lon="13.422617">
    <ele>39</ele>
    <time>2026-06-26T16:40:48.000Z</time>
   </trkpt>
   <trkpt lat="52.499208" lon="13.422617">
    <ele>37.2</ele>
    <time>2026-06-26T16:40:49.000Z</time>
   </trkpt>
   <trkpt lat="52.499208" lon="13.422617">
    <ele>35.6</ele>
    <time>2026-06-26T16:40:50.000Z</time>
   </trkpt>
   <trkpt lat="52.499208" lon="13.422617">
    <ele>34.2</ele>
    <time>2026-06-26T16:40:51.000Z</time>
   </trkpt>
   <trkpt lat="52.499208" lon="13.422617">
    <ele>33.2</ele>
    <time>2026-06-26T16:40:52.000Z</time>
   </trkpt>
   <trkpt lat="52.499208" lon="13.422617">
    <ele>33.8</ele>
    <time>2026-06-26T16:40:53.000Z</time>
   </trkpt>
   <trkpt lat="52.499208" lon="13.422617">
    <ele>36.6</ele>
    <time>2026-06-26T16:40:57.000Z</time>
   </trkpt>
   <trkpt lat="52.499208" lon="13.422617">
    <ele>35.6</ele>
    <time>2026-06-26T16:41:00.000Z</time>
   </trkpt>
   <trkpt lat="52.499208" lon="13.422617">
    <ele>35</ele>
    <time>2026-06-26T16:41:01.000Z</time>
   </trkpt>
   <trkpt lat="52.499208" lon="13.422617">
    <ele>34</ele>
    <time>2026-06-26T16:41:02.000Z</time>
   </trkpt>
   <trkpt lat="52.499208" lon="13.422617">
    <ele>32.6</ele>
    <time>2026-06-26T16:41:04.000Z</time>
   </trkpt>
   <trkpt lat="52.499208" lon="13.422617">
    <ele>31.2</ele>
    <time>2026-06-26T16:41:06.000Z</time>
   </trkpt>
   <trkpt lat="52.499206" lon="13.422614">
    <ele>30.6</ele>
    <time>2026-06-26T16:41:07.000Z</time>
   </trkpt>
   <trkpt lat="52.499204" lon="13.422581">
    <ele>30.2</ele>
    <time>2026-06-26T16:41:08.000Z</time>
   </trkpt>
   <trkpt lat="52.499201" lon="13.422544">
    <ele>29.6</ele>
    <time>2026-06-26T16:41:09.000Z</time>
   </trkpt>
   <trkpt lat="52.499203" lon="13.422452">
    <ele>29.4</ele>
    <time>2026-06-26T16:41:11.000Z</time>
   </trkpt>
   <trkpt lat="52.499204" lon="13.422261">
    <ele>34</ele>
    <time>2026-06-26T16:41:14.000Z</time>
   </trkpt>
   <trkpt lat="52.49921" lon="13.42219">
    <ele>36.4</ele>
    <time>2026-06-26T16:41:15.000Z</time>
   </trkpt>
   <trkpt lat="52.499212" lon="13.42212">
    <ele>37.4</ele>
    <time>2026-06-26T16:41:16.000Z</time>
   </trkpt>
   <trkpt lat="52.499219" lon="13.422049">
    <ele>37.2</ele>
    <time>2026-06-26T16:41:17.000Z</time>
   </trkpt>
   <trkpt lat="52.499221" lon="13.421979">
    <ele>36.4</ele>
    <time>2026-06-26T16:41:18.000Z</time>
   </trkpt>
   <trkpt lat="52.499225" lon="13.421912">
    <ele>35</ele>
    <time>2026-06-26T16:41:19.000Z</time>
   </trkpt>
   <trkpt lat="52.499222" lon="13.421832">
    <ele>34.6</ele>
    <time>2026-06-26T16:41:20.000Z</time>
   </trkpt>
   <trkpt lat="52.499219" lon="13.421751">
    <ele>33</ele>
    <time>2026-06-26T16:41:21.000Z</time>
   </trkpt>
   <trkpt lat="52.499214" lon="13.421583">
    <ele>35.2</ele>
    <time>2026-06-26T16:41:23.000Z</time>
   </trkpt>
   <trkpt lat="52.499217" lon="13.421503">
    <ele>37.8</ele>
    <time>2026-06-26T16:41:24.000Z</time>
   </trkpt>
   <trkpt lat="52.499214" lon="13.421412">
    <ele>39.2</ele>
    <time>2026-06-26T16:41:25.000Z</time>
   </trkpt>
   <trkpt lat="52.499209" lon="13.421321">
    <ele>40.6</ele>
    <time>2026-06-26T16:41:26.000Z</time>
   </trkpt>
   <trkpt lat="52.499205" lon="13.421234">
    <ele>42</ele>
    <time>2026-06-26T16:41:27.000Z</time>
   </trkpt>
   <trkpt lat="52.499206" lon="13.421136">
    <ele>43.6</ele>
    <time>2026-06-26T16:41:28.000Z</time>
   </trkpt>
   <trkpt lat="52.499203" lon="13.421045">
    <ele>45</ele>
    <time>2026-06-26T16:41:29.000Z</time>
   </trkpt>
   <trkpt lat="52.4992" lon="13.42095">
    <ele>46.4</ele>
    <time>2026-06-26T16:41:30.000Z</time>
   </trkpt>
   <trkpt lat="52.499199" lon="13.420851">
    <ele>47.4</ele>
    <time>2026-06-26T16:41:31.000Z</time>
   </trkpt>
   <trkpt lat="52.499194" lon="13.42066">
    <ele>49.4</ele>
    <time>2026-06-26T16:41:33.000Z</time>
   </trkpt>
   <trkpt lat="52.499192" lon="13.420567">
    <ele>50.8</ele>
    <time>2026-06-26T16:41:34.000Z</time>
   </trkpt>
   <trkpt lat="52.49919" lon="13.420285">
    <ele>49.2</ele>
    <time>2026-06-26T16:41:37.000Z</time>
   </trkpt>
   <trkpt lat="52.499188" lon="13.420183">
    <ele>45.8</ele>
    <time>2026-06-26T16:41:38.000Z</time>
   </trkpt>
   <trkpt lat="52.499184" lon="13.420086">
    <ele>41.6</ele>
    <time>2026-06-26T16:41:39.000Z</time>
   </trkpt>
   <trkpt lat="52.49919" lon="13.419902">
    <ele>39.4</ele>
    <time>2026-06-26T16:41:41.000Z</time>
   </trkpt>
   <trkpt lat="52.499191" lon="13.419819">
    <ele>38.4</ele>
    <time>2026-06-26T16:41:42.000Z</time>
   </trkpt>
   <trkpt lat="52.499196" lon="13.41974">
    <ele>39.4</ele>
    <time>2026-06-26T16:41:43.000Z</time>
   </trkpt>
   <trkpt lat="52.499196" lon="13.419682">
    <ele>40.6</ele>
    <time>2026-06-26T16:41:44.000Z</time>
   </trkpt>
   <trkpt lat="52.499191" lon="13.41961">
    <ele>40.6</ele>
    <time>2026-06-26T16:41:46.000Z</time>
   </trkpt>
   <trkpt lat="52.49919" lon="13.41956">
    <ele>38.2</ele>
    <time>2026-06-26T16:41:48.000Z</time>
   </trkpt>
   <trkpt lat="52.49919" lon="13.419536">
    <ele>36.6</ele>
    <time>2026-06-26T16:41:49.000Z</time>
   </trkpt>
   <trkpt lat="52.499189" lon="13.419517">
    <ele>35.2</ele>
    <time>2026-06-26T16:41:50.000Z</time>
   </trkpt>
   <trkpt lat="52.499189" lon="13.419503">
    <ele>33.8</ele>
    <time>2026-06-26T16:41:51.000Z</time>
   </trkpt>
   <trkpt lat="52.499187" lon="13.419485">
    <ele>32.4</ele>
    <time>2026-06-26T16:41:52.000Z</time>
   </trkpt>
   <trkpt lat="52.499191" lon="13.41946">
    <ele>31.4</ele>
    <time>2026-06-26T16:41:53.000Z</time>
   </trkpt>
   <trkpt lat="52.499188" lon="13.419433">
    <ele>30.2</ele>
    <time>2026-06-26T16:41:54.000Z</time>
   </trkpt>
   <trkpt lat="52.499189" lon="13.419389">
    <ele>29.2</ele>
    <time>2026-06-26T16:41:55.000Z</time>
   </trkpt>
   <trkpt lat="52.49919" lon="13.419337">
    <ele>28.2</ele>
    <time>2026-06-26T16:41:56.000Z</time>
   </trkpt>
   <trkpt lat="52.499186" lon="13.419294">
    <ele>27.6</ele>
    <time>2026-06-26T16:41:57.000Z</time>
   </trkpt>
   <trkpt lat="52.499183" lon="13.41926">
    <ele>27.4</ele>
    <time>2026-06-26T16:41:58.000Z</time>
   </trkpt>
   <trkpt lat="52.49917" lon="13.419187">
    <ele>27.4</ele>
    <time>2026-06-26T16:42:01.000Z</time>
   </trkpt>
   <trkpt lat="52.49916" lon="13.419105">
    <ele>26.6</ele>
    <time>2026-06-26T16:42:05.000Z</time>
   </trkpt>
   <trkpt lat="52.49916" lon="13.419067">
    <ele>26</ele>
    <time>2026-06-26T16:42:06.000Z</time>
   </trkpt>
   <trkpt lat="52.499161" lon="13.419034">
    <ele>25.4</ele>
    <time>2026-06-26T16:42:07.000Z</time>
   </trkpt>
   <trkpt lat="52.499161" lon="13.419002">
    <ele>24.8</ele>
    <time>2026-06-26T16:42:08.000Z</time>
   </trkpt>
   <trkpt lat="52.499158" lon="13.418976">
    <ele>24.4</ele>
    <time>2026-06-26T16:42:09.000Z</time>
   </trkpt>
   <trkpt lat="52.49916" lon="13.418902">
    <ele>23.2</ele>
    <time>2026-06-26T16:42:11.000Z</time>
   </trkpt>
   <trkpt lat="52.499189" lon="13.418804">
    <ele>22.4</ele>
    <time>2026-06-26T16:42:13.000Z</time>
   </trkpt>
   <trkpt lat="52.49922" lon="13.418756">
    <ele>22</ele>
    <time>2026-06-26T16:42:14.000Z</time>
   </trkpt>
   <trkpt lat="52.499341" lon="13.418544">
    <ele>22.4</ele>
    <time>2026-06-26T16:42:18.000Z</time>
   </trkpt>
   <trkpt lat="52.499359" lon="13.418496">
    <ele>24.2</ele>
    <time>2026-06-26T16:42:19.000Z</time>
   </trkpt>
   <trkpt lat="52.499372" lon="13.41846">
    <ele>26.4</ele>
    <time>2026-06-26T16:42:20.000Z</time>
   </trkpt>
   <trkpt lat="52.499379" lon="13.418435">
    <ele>28.4</ele>
    <time>2026-06-26T16:42:21.000Z</time>
   </trkpt>
   <trkpt lat="52.499393" lon="13.418396">
    <ele>27.8</ele>
    <time>2026-06-26T16:42:23.000Z</time>
   </trkpt>
   <trkpt lat="52.499402" lon="13.418366">
    <ele>27.2</ele>
    <time>2026-06-26T16:42:24.000Z</time>
   </trkpt>
   <trkpt lat="52.49941" lon="13.418332">
    <ele>25.4</ele>
    <time>2026-06-26T16:42:26.000Z</time>
   </trkpt>
   <trkpt lat="52.49941" lon="13.418335">
    <ele>23.6</ele>
    <time>2026-06-26T16:42:28.000Z</time>
   </trkpt>
   <trkpt lat="52.499415" lon="13.41833">
    <ele>22</ele>
    <time>2026-06-26T16:42:30.000Z</time>
   </trkpt>
   <trkpt lat="52.49942" lon="13.418318">
    <ele>20.8</ele>
    <time>2026-06-26T16:42:32.000Z</time>
   </trkpt>
   <trkpt lat="52.49942" lon="13.418256">
    <ele>19.8</ele>
    <time>2026-06-26T16:42:34.000Z</time>
   </trkpt>
   <trkpt lat="52.499398" lon="13.418076">
    <ele>21.4</ele>
    <time>2026-06-26T16:42:37.000Z</time>
   </trkpt>
   <trkpt lat="52.499378" lon="13.418011">
    <ele>25.2</ele>
    <time>2026-06-26T16:42:38.000Z</time>
   </trkpt>
   <trkpt lat="52.499355" lon="13.417956">
    <ele>28.2</ele>
    <time>2026-06-26T16:42:39.000Z</time>
   </trkpt>
   <trkpt lat="52.499296" lon="13.417847">
    <ele>29.2</ele>
    <time>2026-06-26T16:42:42.000Z</time>
   </trkpt>
   <trkpt lat="52.499273" lon="13.417763">
    <ele>28.8</ele>
    <time>2026-06-26T16:42:45.000Z</time>
   </trkpt>
   <trkpt lat="52.499278" lon="13.417681">
    <ele>29.8</ele>
    <time>2026-06-26T16:42:47.000Z</time>
   </trkpt>
   <trkpt lat="52.49931" lon="13.417524">
    <ele>31.6</ele>
    <time>2026-06-26T16:42:50.000Z</time>
   </trkpt>
   <trkpt lat="52.499322" lon="13.417456">
    <ele>29.8</ele>
    <time>2026-06-26T16:42:51.000Z</time>
   </trkpt>
   <trkpt lat="52.49934" lon="13.417398">
    <ele>27.2</ele>
    <time>2026-06-26T16:42:52.000Z</time>
   </trkpt>
   <trkpt lat="52.499381" lon="13.417283">
    <ele>26</ele>
    <time>2026-06-26T16:42:54.000Z</time>
   </trkpt>
   <trkpt lat="52.499435" lon="13.41714">
    <ele>24.8</ele>
    <time>2026-06-26T16:42:57.000Z</time>
   </trkpt>
   <trkpt lat="52.49948" lon="13.417038">
    <ele>24</ele>
    <time>2026-06-26T16:42:59.000Z</time>
   </trkpt>
   <trkpt lat="52.499501" lon="13.416983">
    <ele>23.4</ele>
    <time>2026-06-26T16:43:00.000Z</time>
   </trkpt>
   <trkpt lat="52.499518" lon="13.416917">
    <ele>23</ele>
    <time>2026-06-26T16:43:01.000Z</time>
   </trkpt>
   <trkpt lat="52.499532" lon="13.41685">
    <ele>22.6</ele>
    <time>2026-06-26T16:43:02.000Z</time>
   </trkpt>
   <trkpt lat="52.499554" lon="13.416718">
    <ele>22.4</ele>
    <time>2026-06-26T16:43:04.000Z</time>
   </trkpt>
   <trkpt lat="52.499566" lon="13.41665">
    <ele>22.2</ele>
    <time>2026-06-26T16:43:05.000Z</time>
   </trkpt>
   <trkpt lat="52.499638" lon="13.416414">
    <ele>21.8</ele>
    <time>2026-06-26T16:43:09.000Z</time>
   </trkpt>
   <trkpt lat="52.499671" lon="13.416291">
    <ele>22</ele>
    <time>2026-06-26T16:43:11.000Z</time>
   </trkpt>
   <trkpt lat="52.499735" lon="13.416115">
    <ele>23.4</ele>
    <time>2026-06-26T16:43:14.000Z</time>
   </trkpt>
   <trkpt lat="52.499778" lon="13.415989">
    <ele>25</ele>
    <time>2026-06-26T16:43:16.000Z</time>
   </trkpt>
   <trkpt lat="52.499819" lon="13.415855">
    <ele>25.4</ele>
    <time>2026-06-26T16:43:18.000Z</time>
   </trkpt>
   <trkpt lat="52.499883" lon="13.415649">
    <ele>23.8</ele>
    <time>2026-06-26T16:43:21.000Z</time>
   </trkpt>
   <trkpt lat="52.499925" lon="13.415507">
    <ele>22.8</ele>
    <time>2026-06-26T16:43:23.000Z</time>
   </trkpt>
   <trkpt lat="52.500002" lon="13.415234">
    <ele>21.4</ele>
    <time>2026-06-26T16:43:27.000Z</time>
   </trkpt>
   <trkpt lat="52.500111" lon="13.414841">
    <ele>28.8</ele>
    <time>2026-06-26T16:43:33.000Z</time>
   </trkpt>
   <trkpt lat="52.500138" lon="13.414782">
    <ele>41.2</ele>
    <time>2026-06-26T16:43:34.000Z</time>
   </trkpt>
   <trkpt lat="52.50018" lon="13.414674">
    <ele>42.4</ele>
    <time>2026-06-26T16:43:36.000Z</time>
   </trkpt>
   <trkpt lat="52.500217" lon="13.414597">
    <ele>44.2</ele>
    <time>2026-06-26T16:43:38.000Z</time>
   </trkpt>
   <trkpt lat="52.50024" lon="13.414546">
    <ele>45</ele>
    <time>2026-06-26T16:43:39.000Z</time>
   </trkpt>
   <trkpt lat="52.50026" lon="13.414498">
    <ele>45.4</ele>
    <time>2026-06-26T16:43:40.000Z</time>
   </trkpt>
   <trkpt lat="52.500311" lon="13.414254">
    <ele>46.8</ele>
    <time>2026-06-26T16:43:44.000Z</time>
   </trkpt>
   <trkpt lat="52.500336" lon="13.414187">
    <ele>47.6</ele>
    <time>2026-06-26T16:43:45.000Z</time>
   </trkpt>
   <trkpt lat="52.500352" lon="13.414131">
    <ele>48.2</ele>
    <time>2026-06-26T16:43:46.000Z</time>
   </trkpt>
   <trkpt lat="52.500383" lon="13.414023">
    <ele>47</ele>
    <time>2026-06-26T16:43:48.000Z</time>
   </trkpt>
   <trkpt lat="52.500388" lon="13.413959">
    <ele>45.2</ele>
    <time>2026-06-26T16:43:49.000Z</time>
   </trkpt>
   <trkpt lat="52.500398" lon="13.413901">
    <ele>43</ele>
    <time>2026-06-26T16:43:50.000Z</time>
   </trkpt>
   <trkpt lat="52.500407" lon="13.413842">
    <ele>39.4</ele>
    <time>2026-06-26T16:43:51.000Z</time>
   </trkpt>
   <trkpt lat="52.500422" lon="13.413785">
    <ele>36.6</ele>
    <time>2026-06-26T16:43:52.000Z</time>
   </trkpt>
   <trkpt lat="52.500443" lon="13.41374">
    <ele>35</ele>
    <time>2026-06-26T16:43:53.000Z</time>
   </trkpt>
   <trkpt lat="52.500478" lon="13.413603">
    <ele>34.6</ele>
    <time>2026-06-26T16:43:55.000Z</time>
   </trkpt>
   <trkpt lat="52.5005" lon="13.413541">
    <ele>37.8</ele>
    <time>2026-06-26T16:43:56.000Z</time>
   </trkpt>
   <trkpt lat="52.50054" lon="13.413433">
    <ele>44.4</ele>
    <time>2026-06-26T16:43:58.000Z</time>
   </trkpt>
   <trkpt lat="52.500584" lon="13.413295">
    <ele>50.8</ele>
    <time>2026-06-26T16:44:00.000Z</time>
   </trkpt>
   <trkpt lat="52.50064" lon="13.413092">
    <ele>52.2</ele>
    <time>2026-06-26T16:44:03.000Z</time>
   </trkpt>
   <trkpt lat="52.500683" lon="13.412939">
    <ele>52.6</ele>
    <time>2026-06-26T16:44:05.000Z</time>
   </trkpt>
   <trkpt lat="52.500709" lon="13.412874">
    <ele>50.8</ele>
    <time>2026-06-26T16:44:06.000Z</time>
   </trkpt>
   <trkpt lat="52.500729" lon="13.412804">
    <ele>47.8</ele>
    <time>2026-06-26T16:44:07.000Z</time>
   </trkpt>
   <trkpt lat="52.500756" lon="13.412738">
    <ele>47</ele>
    <time>2026-06-26T16:44:08.000Z</time>
   </trkpt>
   <trkpt lat="52.500825" lon="13.412545">
    <ele>44.8</ele>
    <time>2026-06-26T16:44:11.000Z</time>
   </trkpt>
   <trkpt lat="52.500848" lon="13.412476">
    <ele>55.8</ele>
    <time>2026-06-26T16:44:12.000Z</time>
   </trkpt>
   <trkpt lat="52.500899" lon="13.412324">
    <ele>56.4</ele>
    <time>2026-06-26T16:44:14.000Z</time>
   </trkpt>
   <trkpt lat="52.500918" lon="13.412248">
    <ele>56.8</ele>
    <time>2026-06-26T16:44:15.000Z</time>
   </trkpt>
   <trkpt lat="52.500966" lon="13.412092">
    <ele>57.8</ele>
    <time>2026-06-26T16:44:17.000Z</time>
   </trkpt>
   <trkpt lat="52.500983" lon="13.412">
    <ele>58</ele>
    <time>2026-06-26T16:44:18.000Z</time>
   </trkpt>
   <trkpt lat="52.501127" lon="13.411496">
    <ele>58.8</ele>
    <time>2026-06-26T16:44:25.000Z</time>
   </trkpt>
   <trkpt lat="52.501269" lon="13.411124">
    <ele>58.2</ele>
    <time>2026-06-26T16:44:31.000Z</time>
   </trkpt>
   <trkpt lat="52.501291" lon="13.411064">
    <ele>57.4</ele>
    <time>2026-06-26T16:44:32.000Z</time>
   </trkpt>
   <trkpt lat="52.501355" lon="13.410877">
    <ele>58</ele>
    <time>2026-06-26T16:44:35.000Z</time>
   </trkpt>
   <trkpt lat="52.501379" lon="13.410803">
    <ele>58.4</ele>
    <time>2026-06-26T16:44:36.000Z</time>
   </trkpt>
   <trkpt lat="52.501399" lon="13.410738">
    <ele>58.6</ele>
    <time>2026-06-26T16:44:37.000Z</time>
   </trkpt>
   <trkpt lat="52.501457" lon="13.410562">
    <ele>57.6</ele>
    <time>2026-06-26T16:44:40.000Z</time>
   </trkpt>
   <trkpt lat="52.501471" lon="13.410503">
    <ele>57.4</ele>
    <time>2026-06-26T16:44:41.000Z</time>
   </trkpt>
   <trkpt lat="52.501561" lon="13.410242">
    <ele>56.2</ele>
    <time>2026-06-26T16:44:46.000Z</time>
   </trkpt>
   <trkpt lat="52.501569" lon="13.41019">
    <ele>56</ele>
    <time>2026-06-26T16:44:47.000Z</time>
   </trkpt>
   <trkpt lat="52.501588" lon="13.410094">
    <ele>54.8</ele>
    <time>2026-06-26T16:44:49.000Z</time>
   </trkpt>
   <trkpt lat="52.501619" lon="13.409999">
    <ele>53.4</ele>
    <time>2026-06-26T16:44:51.000Z</time>
   </trkpt>
   <trkpt lat="52.501635" lon="13.409951">
    <ele>51.8</ele>
    <time>2026-06-26T16:44:52.000Z</time>
   </trkpt>
   <trkpt lat="52.50166" lon="13.409835">
    <ele>47</ele>
    <time>2026-06-26T16:44:55.000Z</time>
   </trkpt>
   <trkpt lat="52.501675" lon="13.40979">
    <ele>43</ele>
    <time>2026-06-26T16:44:56.000Z</time>
   </trkpt>
   <trkpt lat="52.501685" lon="13.409747">
    <ele>41.8</ele>
    <time>2026-06-26T16:44:57.000Z</time>
   </trkpt>
   <trkpt lat="52.501709" lon="13.40967">
    <ele>40</ele>
    <time>2026-06-26T16:44:59.000Z</time>
   </trkpt>
   <trkpt lat="52.501717" lon="13.409633">
    <ele>38.8</ele>
    <time>2026-06-26T16:45:00.000Z</time>
   </trkpt>
   <trkpt lat="52.501724" lon="13.409589">
    <ele>37.2</ele>
    <time>2026-06-26T16:45:01.000Z</time>
   </trkpt>
   <trkpt lat="52.501733" lon="13.409542">
    <ele>36.8</ele>
    <time>2026-06-26T16:45:02.000Z</time>
   </trkpt>
   <trkpt lat="52.501735" lon="13.40944">
    <ele>35.4</ele>
    <time>2026-06-26T16:45:06.000Z</time>
   </trkpt>
   <trkpt lat="52.501714" lon="13.409439">
    <ele>33.4</ele>
    <time>2026-06-26T16:45:12.000Z</time>
   </trkpt>
   <trkpt lat="52.501716" lon="13.409442">
    <ele>32.6</ele>
    <time>2026-06-26T16:45:13.000Z</time>
   </trkpt>
   <trkpt lat="52.501717" lon="13.409442">
    <ele>32</ele>
    <time>2026-06-26T16:45:14.000Z</time>
   </trkpt>
   <trkpt lat="52.501715" lon="13.409444">
    <ele>30.8</ele>
    <time>2026-06-26T16:45:16.000Z</time>
   </trkpt>
   <trkpt lat="52.501717" lon="13.409445">
    <ele>29.8</ele>
    <time>2026-06-26T16:45:17.000Z</time>
   </trkpt>
   <trkpt lat="52.501716" lon="13.409446">
    <ele>28.8</ele>
    <time>2026-06-26T16:45:18.000Z</time>
   </trkpt>
   <trkpt lat="52.501716" lon="13.409446">
    <ele>27</ele>
    <time>2026-06-26T16:45:20.000Z</time>
   </trkpt>
   <trkpt lat="52.501716" lon="13.409446">
    <ele>25.4</ele>
    <time>2026-06-26T16:45:22.000Z</time>
   </trkpt>
   <trkpt lat="52.501716" lon="13.409446">
    <ele>24</ele>
    <time>2026-06-26T16:45:24.000Z</time>
   </trkpt>
   <trkpt lat="52.501716" lon="13.409446">
    <ele>23</ele>
    <time>2026-06-26T16:45:26.000Z</time>
   </trkpt>
   <trkpt lat="52.501716" lon="13.409446">
    <ele>21.6</ele>
    <time>2026-06-26T16:45:29.000Z</time>
   </trkpt>
   <trkpt lat="52.501716" lon="13.409446">
    <ele>20.6</ele>
    <time>2026-06-26T16:45:31.000Z</time>
   </trkpt>
   <trkpt lat="52.501716" lon="13.409446">
    <ele>20.2</ele>
    <time>2026-06-26T16:45:32.000Z</time>
   </trkpt>
   <trkpt lat="52.501726" lon="13.409439">
    <ele>19</ele>
    <time>2026-06-26T16:45:34.000Z</time>
   </trkpt>
   <trkpt lat="52.501754" lon="13.409386">
    <ele>20.8</ele>
    <time>2026-06-26T16:45:36.000Z</time>
   </trkpt>
   <trkpt lat="52.501788" lon="13.409334">
    <ele>22.4</ele>
    <time>2026-06-26T16:45:38.000Z</time>
   </trkpt>
   <trkpt lat="52.501808" lon="13.409307">
    <ele>25.4</ele>
    <time>2026-06-26T16:45:39.000Z</time>
   </trkpt>
   <trkpt lat="52.501827" lon="13.409269">
    <ele>25.6</ele>
    <time>2026-06-26T16:45:40.000Z</time>
   </trkpt>
   <trkpt lat="52.501843" lon="13.409222">
    <ele>25.6</ele>
    <time>2026-06-26T16:45:41.000Z</time>
   </trkpt>
   <trkpt lat="52.501848" lon="13.409166">
    <ele>25.8</ele>
    <time>2026-06-26T16:45:42.000Z</time>
   </trkpt>
   <trkpt lat="52.501896" lon="13.408879">
    <ele>24</ele>
    <time>2026-06-26T16:45:47.000Z</time>
   </trkpt>
   <trkpt lat="52.501914" lon="13.408827">
    <ele>23.4</ele>
    <time>2026-06-26T16:45:48.000Z</time>
   </trkpt>
   <trkpt lat="52.501934" lon="13.408771">
    <ele>22.6</ele>
    <time>2026-06-26T16:45:49.000Z</time>
   </trkpt>
   <trkpt lat="52.501974" lon="13.408663">
    <ele>21.4</ele>
    <time>2026-06-26T16:45:51.000Z</time>
   </trkpt>
   <trkpt lat="52.502016" lon="13.408549">
    <ele>20.2</ele>
    <time>2026-06-26T16:45:53.000Z</time>
   </trkpt>
   <trkpt lat="52.502057" lon="13.408428">
    <ele>19.2</ele>
    <time>2026-06-26T16:45:55.000Z</time>
   </trkpt>
   <trkpt lat="52.502075" lon="13.408367">
    <ele>18.8</ele>
    <time>2026-06-26T16:45:56.000Z</time>
   </trkpt>
   <trkpt lat="52.502151" lon="13.408115">
    <ele>17.8</ele>
    <time>2026-06-26T16:46:00.000Z</time>
   </trkpt>
   <trkpt lat="52.502189" lon="13.407987">
    <ele>17.6</ele>
    <time>2026-06-26T16:46:02.000Z</time>
   </trkpt>
   <trkpt lat="52.5023" lon="13.40752">
    <ele>18</ele>
    <time>2026-06-26T16:46:09.000Z</time>
   </trkpt>
   <trkpt lat="52.502363" lon="13.407254">
    <ele>18</ele>
    <time>2026-06-26T16:46:13.000Z</time>
   </trkpt>
   <trkpt lat="52.502394" lon="13.407129">
    <ele>18.2</ele>
    <time>2026-06-26T16:46:15.000Z</time>
   </trkpt>
   <trkpt lat="52.502479" lon="13.406805">
    <ele>18.4</ele>
    <time>2026-06-26T16:46:20.000Z</time>
   </trkpt>
   <trkpt lat="52.502524" lon="13.406694">
    <ele>18.2</ele>
    <time>2026-06-26T16:46:22.000Z</time>
   </trkpt>
   <trkpt lat="52.502627" lon="13.406617">
    <ele>18</ele>
    <time>2026-06-26T16:46:25.000Z</time>
   </trkpt>
   <trkpt lat="52.502762" lon="13.406693">
    <ele>17.6</ele>
    <time>2026-06-26T16:46:28.000Z</time>
   </trkpt>
   <trkpt lat="52.502802" lon="13.406733">
    <ele>17.4</ele>
    <time>2026-06-26T16:46:29.000Z</time>
   </trkpt>
   <trkpt lat="52.502926" lon="13.40684">
    <ele>16.6</ele>
    <time>2026-06-26T16:46:32.000Z</time>
   </trkpt>
   <trkpt lat="52.502972" lon="13.406868">
    <ele>16.4</ele>
    <time>2026-06-26T16:46:33.000Z</time>
   </trkpt>
   <trkpt lat="52.503011" lon="13.40691">
    <ele>16</ele>
    <time>2026-06-26T16:46:34.000Z</time>
   </trkpt>
   <trkpt lat="52.503183" lon="13.407056">
    <ele>15.8</ele>
    <time>2026-06-26T16:46:38.000Z</time>
   </trkpt>
   <trkpt lat="52.503399" lon="13.40709">
    <ele>29.8</ele>
    <time>2026-06-26T16:46:44.000Z</time>
   </trkpt>
   <trkpt lat="52.503534" lon="13.40715">
    <ele>32.2</ele>
    <time>2026-06-26T16:46:45.000Z</time>
   </trkpt>
   <trkpt lat="52.503653" lon="13.407193">
    <ele>35.4</ele>
    <time>2026-06-26T16:46:46.000Z</time>
   </trkpt>
   <trkpt lat="52.503664" lon="13.407105">
    <ele>35.4</ele>
    <time>2026-06-26T16:46:47.000Z</time>
   </trkpt>
   <trkpt lat="52.503565" lon="13.407077">
    <ele>32.6</ele>
    <time>2026-06-26T16:46:54.000Z</time>
   </trkpt>
   <trkpt lat="52.503581" lon="13.407038">
    <ele>29.6</ele>
    <time>2026-06-26T16:46:55.000Z</time>
   </trkpt>
   <trkpt lat="52.503619" lon="13.406932">
    <ele>28.4</ele>
    <time>2026-06-26T16:46:57.000Z</time>
   </trkpt>
   <trkpt lat="52.503653" lon="13.407403">
    <ele>27.8</ele>
    <time>2026-06-26T16:46:58.000Z</time>
   </trkpt>
   <trkpt lat="52.503476" lon="13.407674">
    <ele>27</ele>
    <time>2026-06-26T16:46:59.000Z</time>
   </trkpt>
   <trkpt lat="52.503348" lon="13.407802">
    <ele>26.2</ele>
    <time>2026-06-26T16:47:00.000Z</time>
   </trkpt>
   <trkpt lat="52.503354" lon="13.407946">
    <ele>25.8</ele>
    <time>2026-06-26T16:47:01.000Z</time>
   </trkpt>
   <trkpt lat="52.503367" lon="13.408165">
    <ele>25.6</ele>
    <time>2026-06-26T16:47:03.000Z</time>
   </trkpt>
   <trkpt lat="52.503357" lon="13.408223">
    <ele>25.6</ele>
    <time>2026-06-26T16:47:04.000Z</time>
   </trkpt>
   <trkpt lat="52.503345" lon="13.408329">
    <ele>24.8</ele>
    <time>2026-06-26T16:47:07.000Z</time>
   </trkpt>
   <trkpt lat="52.503346" lon="13.408338">
    <ele>24.8</ele>
    <time>2026-06-26T16:47:08.000Z</time>
   </trkpt>
   <trkpt lat="52.503361" lon="13.408349">
    <ele>26</ele>
    <time>2026-06-26T16:47:10.000Z</time>
   </trkpt>
   <trkpt lat="52.503447" lon="13.408475">
    <ele>27.6</ele>
    <time>2026-06-26T16:47:13.000Z</time>
   </trkpt>
   <trkpt lat="52.503515" lon="13.408513">
    <ele>30</ele>
    <time>2026-06-26T16:47:17.000Z</time>
   </trkpt>
   <trkpt lat="52.503522" lon="13.408519">
    <ele>30.6</ele>
    <time>2026-06-26T16:47:18.000Z</time>
   </trkpt>
   <trkpt lat="52.503519" lon="13.408536">
    <ele>29</ele>
    <time>2026-06-26T16:47:20.000Z</time>
   </trkpt>
   <trkpt lat="52.503518" lon="13.408539">
    <ele>27.8</ele>
    <time>2026-06-26T16:47:22.000Z</time>
   </trkpt>
   <trkpt lat="52.503515" lon="13.408541">
    <ele>27.2</ele>
    <time>2026-06-26T16:47:23.000Z</time>
   </trkpt>
   <trkpt lat="52.503513" lon="13.408546">
    <ele>26</ele>
    <time>2026-06-26T16:47:25.000Z</time>
   </trkpt>
   <trkpt lat="52.503527" lon="13.408548">
    <ele>25</ele>
    <time>2026-06-26T16:47:29.000Z</time>
   </trkpt>
   <trkpt lat="52.503532" lon="13.408551">
    <ele>25</ele>
    <time>2026-06-26T16:47:30.000Z</time>
   </trkpt>
   <trkpt lat="52.50356" lon="13.408548">
    <ele>26.2</ele>
    <time>2026-06-26T16:47:37.000Z</time>
   </trkpt>
   <trkpt lat="52.503563" lon="13.408552">
    <ele>26.4</ele>
    <time>2026-06-26T16:47:38.000Z</time>
   </trkpt>
   <trkpt lat="52.503569" lon="13.408561">
    <ele>27.2</ele>
    <time>2026-06-26T16:47:40.000Z</time>
   </trkpt>
   <trkpt lat="52.503577" lon="13.408555">
    <ele>27.2</ele>
    <time>2026-06-26T16:47:45.000Z</time>
   </trkpt>
   <trkpt lat="52.503577" lon="13.408563">
    <ele>26.2</ele>
    <time>2026-06-26T16:47:47.000Z</time>
   </trkpt>
   <trkpt lat="52.503576" lon="13.40858">
    <ele>25.2</ele>
    <time>2026-06-26T16:47:49.000Z</time>
   </trkpt>
   <trkpt lat="52.503574" lon="13.408588">
    <ele>25.2</ele>
    <time>2026-06-26T16:47:53.000Z</time>
   </trkpt>
   <trkpt lat="52.503564" lon="13.408589">
    <ele>25.2</ele>
    <time>2026-06-26T16:47:57.000Z</time>
   </trkpt>
   <trkpt lat="52.503559" lon="13.408603">
    <ele>24.8</ele>
    <time>2026-06-26T16:48:00.000Z</time>
   </trkpt>
   <trkpt lat="52.503559" lon="13.408601">
    <ele>24.8</ele>
    <time>2026-06-26T16:48:01.000Z</time>
   </trkpt>
   <trkpt lat="52.503565" lon="13.408601">
    <ele>25.6</ele>
    <time>2026-06-26T16:48:06.000Z</time>
   </trkpt>
   <trkpt lat="52.503568" lon="13.408601">
    <ele>26</ele>
    <time>2026-06-26T16:48:07.000Z</time>
   </trkpt>
   <trkpt lat="52.503572" lon="13.408603">
    <ele>37.2</ele>
    <time>2026-06-26T16:48:13.000Z</time>
   </trkpt>
   <trkpt lat="52.503573" lon="13.408595">
    <ele>40.8</ele>
    <time>2026-06-26T16:48:15.000Z</time>
   </trkpt>
   <trkpt lat="52.503576" lon="13.408592">
    <ele>42</ele>
    <time>2026-06-26T16:48:17.000Z</time>
   </trkpt>
   <trkpt lat="52.503584" lon="13.408583">
    <ele>43.6</ele>
    <time>2026-06-26T16:48:19.000Z</time>
   </trkpt>
   <trkpt lat="52.503583" lon="13.408583">
    <ele>44.8</ele>
    <time>2026-06-26T16:48:20.000Z</time>
   </trkpt>
   <trkpt lat="52.503591" lon="13.408587">
    <ele>46</ele>
    <time>2026-06-26T16:48:22.000Z</time>
   </trkpt>
   <trkpt lat="52.503613" lon="13.408601">
    <ele>44.6</ele>
    <time>2026-06-26T16:48:25.000Z</time>
   </trkpt>
   <trkpt lat="52.503601" lon="13.408582">
    <ele>43.2</ele>
    <time>2026-06-26T16:48:28.000Z</time>
   </trkpt>
   <trkpt lat="52.503573" lon="13.408528">
    <ele>40.8</ele>
    <time>2026-06-26T16:48:33.000Z</time>
   </trkpt>
   <trkpt lat="52.503545" lon="13.40847">
    <ele>39.4</ele>
    <time>2026-06-26T16:48:36.000Z</time>
   </trkpt>
   <trkpt lat="52.503539" lon="13.408456">
    <ele>38.4</ele>
    <time>2026-06-26T16:48:38.000Z</time>
   </trkpt>
   <trkpt lat="52.503516" lon="13.408427">
    <ele>37.4</ele>
    <time>2026-06-26T16:48:40.000Z</time>
   </trkpt>
   <trkpt lat="52.50348" lon="13.40834">
    <ele>35.2</ele>
    <time>2026-06-26T16:48:45.000Z</time>
   </trkpt>
   <trkpt lat="52.503469" lon="13.408291">
    <ele>34</ele>
    <time>2026-06-26T16:48:48.000Z</time>
   </trkpt>
   <trkpt lat="52.503453" lon="13.408258">
    <ele>34</ele>
    <time>2026-06-26T16:48:50.000Z</time>
   </trkpt>
   <trkpt lat="52.5034" lon="13.408194">
    <ele>32.8</ele>
    <time>2026-06-26T16:48:56.000Z</time>
   </trkpt>
   <trkpt lat="52.503346" lon="13.408191">
    <ele>35.8</ele>
    <time>2026-06-26T16:49:02.000Z</time>
   </trkpt>
   <trkpt lat="52.503347" lon="13.408204">
    <ele>37.4</ele>
    <time>2026-06-26T16:49:05.000Z</time>
   </trkpt>
   <trkpt lat="52.503347" lon="13.408243">
    <ele>35.4</ele>
    <time>2026-06-26T16:49:10.000Z</time>
   </trkpt>
   <trkpt lat="52.503351" lon="13.408258">
    <ele>30.8</ele>
    <time>2026-06-26T16:49:11.000Z</time>
   </trkpt>
   <trkpt lat="52.503363" lon="13.40829">
    <ele>29.4</ele>
    <time>2026-06-26T16:49:14.000Z</time>
   </trkpt>
   <trkpt lat="52.503359" lon="13.408317">
    <ele>28.4</ele>
    <time>2026-06-26T16:49:16.000Z</time>
   </trkpt>
   <trkpt lat="52.503363" lon="13.408353">
    <ele>27</ele>
    <time>2026-06-26T16:49:18.000Z</time>
   </trkpt>
   <trkpt lat="52.503351" lon="13.408372">
    <ele>25.8</ele>
    <time>2026-06-26T16:49:20.000Z</time>
   </trkpt>
   <trkpt lat="52.503342" lon="13.408376">
    <ele>24.6</ele>
    <time>2026-06-26T16:49:22.000Z</time>
   </trkpt>
   <trkpt lat="52.503313" lon="13.408322">
    <ele>23.6</ele>
    <time>2026-06-26T16:49:25.000Z</time>
   </trkpt>
   <trkpt lat="52.503306" lon="13.408307">
    <ele>23.6</ele>
    <time>2026-06-26T16:49:26.000Z</time>
   </trkpt>
   <trkpt lat="52.50327" lon="13.408265">
    <ele>22.6</ele>
    <time>2026-06-26T16:49:32.000Z</time>
   </trkpt>
   <trkpt lat="52.503257" lon="13.40826">
    <ele>22.4</ele>
    <time>2026-06-26T16:49:36.000Z</time>
   </trkpt>
   <trkpt lat="52.503276" lon="13.408244">
    <ele>22.6</ele>
    <time>2026-06-26T16:49:42.000Z</time>
   </trkpt>
   <trkpt lat="52.503274" lon="13.40824">
    <ele>21.6</ele>
    <time>2026-06-26T16:49:50.000Z</time>
   </trkpt>
   <trkpt lat="52.503265" lon="13.408239">
    <ele>22.4</ele>
    <time>2026-06-26T16:49:53.000Z</time>
   </trkpt>
   <trkpt lat="52.503258" lon="13.408235">
    <ele>23</ele>
    <time>2026-06-26T16:49:56.000Z</time>
   </trkpt>
   <trkpt lat="52.50325" lon="13.408252">
    <ele>23.4</ele>
    <time>2026-06-26T16:49:58.000Z</time>
   </trkpt>
   <trkpt lat="52.503292" lon="13.408269">
    <ele>24.4</ele>
    <time>2026-06-26T16:50:00.000Z</time>
   </trkpt>
   <trkpt lat="52.503275" lon="13.408309">
    <ele>23.6</ele>
    <time>2026-06-26T16:50:05.000Z</time>
   </trkpt>
   <trkpt lat="52.503311" lon="13.408239">
    <ele>26</ele>
    <time>2026-06-26T16:50:11.000Z</time>
   </trkpt>
   <trkpt lat="52.503286" lon="13.40823">
    <ele>26.6</ele>
    <time>2026-06-26T16:50:13.000Z</time>
   </trkpt>
   <trkpt lat="52.503275" lon="13.408221">
    <ele>27</ele>
    <time>2026-06-26T16:50:14.000Z</time>
   </trkpt>
   <trkpt lat="52.503273" lon="13.408219">
    <ele>28.2</ele>
    <time>2026-06-26T16:50:16.000Z</time>
   </trkpt>
   <trkpt lat="52.503272" lon="13.408219">
    <ele>29.8</ele>
    <time>2026-06-26T16:50:18.000Z</time>
   </trkpt>
   <trkpt lat="52.503272" lon="13.408219">
    <ele>31.4</ele>
    <time>2026-06-26T16:50:20.000Z</time>
   </trkpt>
   <trkpt lat="52.503272" lon="13.408219">
    <ele>32.4</ele>
    <time>2026-06-26T16:50:22.000Z</time>
   </trkpt>
   <trkpt lat="52.503272" lon="13.408219">
    <ele>35.6</ele>
    <time>2026-06-26T16:50:25.000Z</time>
   </trkpt>
   <trkpt lat="52.503272" lon="13.408219">
    <ele>36.2</ele>
    <time>2026-06-26T16:50:26.000Z</time>
   </trkpt>
  </trkseg>
 </trk>
</gpx>
