<?xml version="1.0" encoding="UTF-8"?>
<gpx creator="StravaGPX" version="1.1" xmlns="http://www.topografix.com/GPX/1/1">
 <metadata>
  <time>2026-06-26T20:08:47Z</time>
 </metadata>
 <trk>
  <name>Night Ride</name>
  <type>1</type>
  <trkseg>
   <trkpt lat="52.512121" lon="13.409715">
    <ele>37.4</ele>
    <time>2026-06-26T20:08:47.000Z</time>
   </trkpt>
   <trkpt lat="52.512222" lon="13.409854">
    <ele>37</ele>
    <time>2026-06-26T20:08:49.000Z</time>
   </trkpt>
   <trkpt lat="52.51224" lon="13.409914">
    <ele>37</ele>
    <time>2026-06-26T20:08:50.000Z</time>
   </trkpt>
   <trkpt lat="52.512266" lon="13.410057">
    <ele>36.8</ele>
    <time>2026-06-26T20:08:52.000Z</time>
   </trkpt>
   <trkpt lat="52.512287" lon="13.410249">
    <ele>37</ele>
    <time>2026-06-26T20:08:55.000Z</time>
   </trkpt>
   <trkpt lat="52.512388" lon="13.410544">
    <ele>37</ele>
    <time>2026-06-26T20:08:59.000Z</time>
   </trkpt>
   <trkpt lat="52.512438" lon="13.410669">
    <ele>37</ele>
    <time>2026-06-26T20:09:01.000Z</time>
   </trkpt>
   <trkpt lat="52.5127" lon="13.41113">
    <ele>37.4</ele>
    <time>2026-06-26T20:09:09.000Z</time>
   </trkpt>
   <trkpt lat="52.51271" lon="13.411162">
    <ele>37.4</ele>
    <time>2026-06-26T20:09:10.000Z</time>
   </trkpt>
   <trkpt lat="52.512807" lon="13.411518">
    <ele>37.6</ele>
    <time>2026-06-26T20:09:16.000Z</time>
   </trkpt>
   <trkpt lat="52.512794" lon="13.411617">
    <ele>37.6</ele>
    <time>2026-06-26T20:09:18.000Z</time>
   </trkpt>
   <trkpt lat="52.512774" lon="13.411659">
    <ele>37.8</ele>
    <time>2026-06-26T20:09:19.000Z</time>
   </trkpt>
   <trkpt lat="52.512603" lon="13.411904">
    <ele>37.8</ele>
    <time>2026-06-26T20:09:25.000Z</time>
   </trkpt>
   <trkpt lat="52.512431" lon="13.412098">
    <ele>37.8</ele>
    <time>2026-06-26T20:09:30.000Z</time>
   </trkpt>
   <trkpt lat="52.512323" lon="13.412225">
    <ele>37.6</ele>
    <time>2026-06-26T20:09:33.000Z</time>
   </trkpt>
   <trkpt lat="52.512251" lon="13.412309">
    <ele>37.4</ele>
    <time>2026-06-26T20:09:35.000Z</time>
   </trkpt>
   <trkpt lat="52.512211" lon="13.412376">
    <ele>37.8</ele>
    <time>2026-06-26T20:09:36.000Z</time>
   </trkpt>
   <trkpt lat="52.512127" lon="13.412531">
    <ele>37.8</ele>
    <time>2026-06-26T20:09:39.000Z</time>
   </trkpt>
   <trkpt lat="52.511948" lon="13.412865">
    <ele>37.8</ele>
    <time>2026-06-26T20:09:45.000Z</time>
   </trkpt>
   <trkpt lat="52.511922" lon="13.412912">
    <ele>37.8</ele>
    <time>2026-06-26T20:09:46.000Z</time>
   </trkpt>
   <trkpt lat="52.511711" lon="13.413239">
    <ele>37.6</ele>
    <time>2026-06-26T20:09:52.000Z</time>
   </trkpt>
   <trkpt lat="52.511649" lon="13.413359">
    <ele>37.4</ele>
    <time>2026-06-26T20:09:54.000Z</time>
   </trkpt>
   <trkpt lat="52.511628" lon="13.413422">
    <ele>37.4</ele>
    <time>2026-06-26T20:09:55.000Z</time>
   </trkpt>
   <trkpt lat="52.511579" lon="13.413559">
    <ele>37.2</ele>
    <time>2026-06-26T20:09:58.000Z</time>
   </trkpt>
   <trkpt lat="52.511522" lon="13.413724">
    <ele>37</ele>
    <time>2026-06-26T20:10:00.000Z</time>
   </trkpt>
   <trkpt lat="52.511419" lon="13.414034">
    <ele>37.2</ele>
    <time>2026-06-26T20:10:04.000Z</time>
   </trkpt>
   <trkpt lat="52.511335" lon="13.414316">
    <ele>37</ele>
    <time>2026-06-26T20:10:08.000Z</time>
   </trkpt>
   <trkpt lat="52.511279" lon="13.414972">
    <ele>37</ele>
    <time>2026-06-26T20:10:16.000Z</time>
   </trkpt>
   <trkpt lat="52.511271" lon="13.415054">
    <ele>36.8</ele>
    <time>2026-06-26T20:10:19.000Z</time>
   </trkpt>
   <trkpt lat="52.511268" lon="13.415064">
    <ele>36.8</ele>
    <time>2026-06-26T20:10:20.000Z</time>
   </trkpt>
   <trkpt lat="52.511238" lon="13.415179">
    <ele>37</ele>
    <time>2026-06-26T20:10:25.000Z</time>
   </trkpt>
   <trkpt lat="52.511203" lon="13.41536">
    <ele>37</ele>
    <time>2026-06-26T20:10:28.000Z</time>
   </trkpt>
   <trkpt lat="52.511173" lon="13.415481">
    <ele>37.2</ele>
    <time>2026-06-26T20:10:30.000Z</time>
   </trkpt>
   <trkpt lat="52.511076" lon="13.415868">
    <ele>36.8</ele>
    <time>2026-06-26T20:10:36.000Z</time>
   </trkpt>
   <trkpt lat="52.511013" lon="13.416103">
    <ele>36.8</ele>
    <time>2026-06-26T20:10:41.000Z</time>
   </trkpt>
   <trkpt lat="52.511009" lon="13.416139">
    <ele>37</ele>
    <time>2026-06-26T20:10:43.000Z</time>
   </trkpt>
   <trkpt lat="52.51101" lon="13.416182">
    <ele>37</ele>
    <time>2026-06-26T20:11:03.000Z</time>
   </trkpt>
   <trkpt lat="52.511007" lon="13.416219">
    <ele>37</ele>
    <time>2026-06-26T20:11:04.000Z</time>
   </trkpt>
   <trkpt lat="52.51093" lon="13.416517">
    <ele>37</ele>
    <time>2026-06-26T20:11:09.000Z</time>
   </trkpt>
   <trkpt lat="52.510911" lon="13.416582">
    <ele>37</ele>
    <time>2026-06-26T20:11:10.000Z</time>
   </trkpt>
   <trkpt lat="52.510888" lon="13.416719">
    <ele>37</ele>
    <time>2026-06-26T20:11:12.000Z</time>
   </trkpt>
   <trkpt lat="52.510844" lon="13.416858">
    <ele>37</ele>
    <time>2026-06-26T20:11:14.000Z</time>
   </trkpt>
   <trkpt lat="52.510729" lon="13.4173">
    <ele>37.2</ele>
    <time>2026-06-26T20:11:20.000Z</time>
   </trkpt>
   <trkpt lat="52.510692" lon="13.41744">
    <ele>37.2</ele>
    <time>2026-06-26T20:11:22.000Z</time>
   </trkpt>
   <trkpt lat="52.510658" lon="13.417585">
    <ele>37.2</ele>
    <time>2026-06-26T20:11:24.000Z</time>
   </trkpt>
   <trkpt lat="52.51064" lon="13.41766">
    <ele>37.2</ele>
    <time>2026-06-26T20:11:25.000Z</time>
   </trkpt>
   <trkpt lat="52.510621" lon="13.417748">
    <ele>37.2</ele>
    <time>2026-06-26T20:11:26.000Z</time>
   </trkpt>
   <trkpt lat="52.510531" lon="13.418134">
    <ele>37</ele>
    <time>2026-06-26T20:11:31.000Z</time>
   </trkpt>
   <trkpt lat="52.51038" lon="13.41876">
    <ele>37</ele>
    <time>2026-06-26T20:11:39.000Z</time>
   </trkpt>
   <trkpt lat="52.510352" lon="13.418835">
    <ele>37</ele>
    <time>2026-06-26T20:11:40.000Z</time>
   </trkpt>
   <trkpt lat="52.510182" lon="13.419439">
    <ele>37.6</ele>
    <time>2026-06-26T20:11:48.000Z</time>
   </trkpt>
   <trkpt lat="52.509987" lon="13.420202">
    <ele>37.6</ele>
    <time>2026-06-26T20:11:58.000Z</time>
   </trkpt>
   <trkpt lat="52.509968" lon="13.42026">
    <ele>37.6</ele>
    <time>2026-06-26T20:11:59.000Z</time>
   </trkpt>
   <trkpt lat="52.509868" lon="13.4206">
    <ele>37.4</ele>
    <time>2026-06-26T20:12:05.000Z</time>
   </trkpt>
   <trkpt lat="52.509807" lon="13.420824">
    <ele>37.4</ele>
    <time>2026-06-26T20:12:10.000Z</time>
   </trkpt>
   <trkpt lat="52.509794" lon="13.420877">
    <ele>37.4</ele>
    <time>2026-06-26T20:12:12.000Z</time>
   </trkpt>
   <trkpt lat="52.509778" lon="13.420904">
    <ele>37.6</ele>
    <time>2026-06-26T20:12:14.000Z</time>
   </trkpt>
   <trkpt lat="52.509772" lon="13.420922">
    <ele>37.6</ele>
    <time>2026-06-26T20:12:17.000Z</time>
   </trkpt>
   <trkpt lat="52.509759" lon="13.420982">
    <ele>37.8</ele>
    <time>2026-06-26T20:12:32.000Z</time>
   </trkpt>
   <trkpt lat="52.509751" lon="13.421025">
    <ele>37.8</ele>
    <time>2026-06-26T20:12:33.000Z</time>
   </trkpt>
   <trkpt lat="52.509683" lon="13.421344">
    <ele>37.8</ele>
    <time>2026-06-26T20:12:38.000Z</time>
   </trkpt>
   <trkpt lat="52.509662" lon="13.421494">
    <ele>38</ele>
    <time>2026-06-26T20:12:40.000Z</time>
   </trkpt>
   <trkpt lat="52.509635" lon="13.421646">
    <ele>38</ele>
    <time>2026-06-26T20:12:42.000Z</time>
   </trkpt>
   <trkpt lat="52.509615" lon="13.421724">
    <ele>38</ele>
    <time>2026-06-26T20:12:43.000Z</time>
   </trkpt>
   <trkpt lat="52.5096" lon="13.421801">
    <ele>38</ele>
    <time>2026-06-26T20:12:44.000Z</time>
   </trkpt>
   <trkpt lat="52.509573" lon="13.421951">
    <ele>38.2</ele>
    <time>2026-06-26T20:12:46.000Z</time>
   </trkpt>
   <trkpt lat="52.509551" lon="13.422039">
    <ele>38.2</ele>
    <time>2026-06-26T20:12:47.000Z</time>
   </trkpt>
   <trkpt lat="52.509498" lon="13.422221">
    <ele>38.2</ele>
    <time>2026-06-26T20:12:49.000Z</time>
   </trkpt>
   <trkpt lat="52.509447" lon="13.422411">
    <ele>38.2</ele>
    <time>2026-06-26T20:12:51.000Z</time>
   </trkpt>
   <trkpt lat="52.509423" lon="13.422493">
    <ele>38.2</ele>
    <time>2026-06-26T20:12:52.000Z</time>
   </trkpt>
   <trkpt lat="52.509283" lon="13.42295">
    <ele>38.2</ele>
    <time>2026-06-26T20:12:57.000Z</time>
   </trkpt>
   <trkpt lat="52.509245" lon="13.423114">
    <ele>38.2</ele>
    <time>2026-06-26T20:12:59.000Z</time>
   </trkpt>
   <trkpt lat="52.509084" lon="13.423742">
    <ele>38</ele>
    <time>2026-06-26T20:13:07.000Z</time>
   </trkpt>
   <trkpt lat="52.508928" lon="13.424328">
    <ele>37.8</ele>
    <time>2026-06-26T20:13:15.000Z</time>
   </trkpt>
   <trkpt lat="52.508857" lon="13.424543">
    <ele>37.6</ele>
    <time>2026-06-26T20:13:18.000Z</time>
   </trkpt>
   <trkpt lat="52.508806" lon="13.424699">
    <ele>37.6</ele>
    <time>2026-06-26T20:13:20.000Z</time>
   </trkpt>
   <trkpt lat="52.508781" lon="13.424777">
    <ele>37.6</ele>
    <time>2026-06-26T20:13:21.000Z</time>
   </trkpt>
   <trkpt lat="52.508742" lon="13.424934">
    <ele>37.6</ele>
    <time>2026-06-26T20:13:23.000Z</time>
   </trkpt>
   <trkpt lat="52.50872" lon="13.425012">
    <ele>37.6</ele>
    <time>2026-06-26T20:13:24.000Z</time>
   </trkpt>
   <trkpt lat="52.508697" lon="13.42509">
    <ele>37.6</ele>
    <time>2026-06-26T20:13:25.000Z</time>
   </trkpt>
   <trkpt lat="52.508517" lon="13.425481">
    <ele>37.4</ele>
    <time>2026-06-26T20:13:30.000Z</time>
   </trkpt>
   <trkpt lat="52.508352" lon="13.425872">
    <ele>37.2</ele>
    <time>2026-06-26T20:13:35.000Z</time>
   </trkpt>
   <trkpt lat="52.50829" lon="13.426024">
    <ele>37.2</ele>
    <time>2026-06-26T20:13:37.000Z</time>
   </trkpt>
   <trkpt lat="52.50798" lon="13.426709">
    <ele>37.2</ele>
    <time>2026-06-26T20:13:46.000Z</time>
   </trkpt>
   <trkpt lat="52.507757" lon="13.427065">
    <ele>37.2</ele>
    <time>2026-06-26T20:13:52.000Z</time>
   </trkpt>
   <trkpt lat="52.507691" lon="13.427262">
    <ele>37.2</ele>
    <time>2026-06-26T20:13:56.000Z</time>
   </trkpt>
   <trkpt lat="52.507613" lon="13.427431">
    <ele>37.2</ele>
    <time>2026-06-26T20:14:01.000Z</time>
   </trkpt>
   <trkpt lat="52.507601" lon="13.427467">
    <ele>37.2</ele>
    <time>2026-06-26T20:14:03.000Z</time>
   </trkpt>
   <trkpt lat="52.507582" lon="13.427515">
    <ele>37.4</ele>
    <time>2026-06-26T20:14:13.000Z</time>
   </trkpt>
   <trkpt lat="52.507571" lon="13.427552">
    <ele>37.4</ele>
    <time>2026-06-26T20:14:14.000Z</time>
   </trkpt>
   <trkpt lat="52.507489" lon="13.427756">
    <ele>37.4</ele>
    <time>2026-06-26T20:14:18.000Z</time>
   </trkpt>
   <trkpt lat="52.50746" lon="13.427817">
    <ele>37.4</ele>
    <time>2026-06-26T20:14:19.000Z</time>
   </trkpt>
   <trkpt lat="52.507315" lon="13.428212">
    <ele>37.4</ele>
    <time>2026-06-26T20:14:25.000Z</time>
   </trkpt>
   <trkpt lat="52.507257" lon="13.428353">
    <ele>37.4</ele>
    <time>2026-06-26T20:14:27.000Z</time>
   </trkpt>
   <trkpt lat="52.507166" lon="13.428569">
    <ele>37.4</ele>
    <time>2026-06-26T20:14:30.000Z</time>
   </trkpt>
   <trkpt lat="52.506894" lon="13.429254">
    <ele>37.6</ele>
    <time>2026-06-26T20:14:39.000Z</time>
   </trkpt>
   <trkpt lat="52.506659" lon="13.429808">
    <ele>37.6</ele>
    <time>2026-06-26T20:14:47.000Z</time>
   </trkpt>
   <trkpt lat="52.5066" lon="13.429946">
    <ele>37.6</ele>
    <time>2026-06-26T20:14:49.000Z</time>
   </trkpt>
   <trkpt lat="52.50645" lon="13.430313">
    <ele>37.4</ele>
    <time>2026-06-26T20:14:54.000Z</time>
   </trkpt>
   <trkpt lat="52.506274" lon="13.430676">
    <ele>37.4</ele>
    <time>2026-06-26T20:14:59.000Z</time>
   </trkpt>
   <trkpt lat="52.506234" lon="13.430748">
    <ele>37.4</ele>
    <time>2026-06-26T20:15:00.000Z</time>
   </trkpt>
   <trkpt lat="52.506202" lon="13.430819">
    <ele>37.4</ele>
    <time>2026-06-26T20:15:01.000Z</time>
   </trkpt>
   <trkpt lat="52.506065" lon="13.431159">
    <ele>37.4</ele>
    <time>2026-06-26T20:15:06.000Z</time>
   </trkpt>
   <trkpt lat="52.505945" lon="13.431477">
    <ele>37.4</ele>
    <time>2026-06-26T20:15:11.000Z</time>
   </trkpt>
   <trkpt lat="52.505912" lon="13.431548">
    <ele>37.4</ele>
    <time>2026-06-26T20:15:12.000Z</time>
   </trkpt>
   <trkpt lat="52.505755" lon="13.431915">
    <ele>37.4</ele>
    <time>2026-06-26T20:15:17.000Z</time>
   </trkpt>
   <trkpt lat="52.505688" lon="13.432061">
    <ele>37.4</ele>
    <time>2026-06-26T20:15:19.000Z</time>
   </trkpt>
   <trkpt lat="52.505519" lon="13.432479">
    <ele>37.2</ele>
    <time>2026-06-26T20:15:25.000Z</time>
   </trkpt>
   <trkpt lat="52.50542" lon="13.432752">
    <ele>37.2</ele>
    <time>2026-06-26T20:15:29.000Z</time>
   </trkpt>
   <trkpt lat="52.505347" lon="13.433014">
    <ele>37.2</ele>
    <time>2026-06-26T20:15:33.000Z</time>
   </trkpt>
   <trkpt lat="52.505328" lon="13.433087">
    <ele>37.2</ele>
    <time>2026-06-26T20:15:34.000Z</time>
   </trkpt>
   <trkpt lat="52.505308" lon="13.433145">
    <ele>37.2</ele>
    <time>2026-06-26T20:15:35.000Z</time>
   </trkpt>
   <trkpt lat="52.50524" lon="13.433271">
    <ele>37.2</ele>
    <time>2026-06-26T20:15:37.000Z</time>
   </trkpt>
   <trkpt lat="52.505159" lon="13.433432">
    <ele>37.2</ele>
    <time>2026-06-26T20:15:39.000Z</time>
   </trkpt>
   <trkpt lat="52.505066" lon="13.433634">
    <ele>37.2</ele>
    <time>2026-06-26T20:15:42.000Z</time>
   </trkpt>
   <trkpt lat="52.504917" lon="13.434002">
    <ele>36.8</ele>
    <time>2026-06-26T20:15:48.000Z</time>
   </trkpt>
   <trkpt lat="52.50487" lon="13.434147">
    <ele>36.8</ele>
    <time>2026-06-26T20:15:50.000Z</time>
   </trkpt>
   <trkpt lat="52.504803" lon="13.434294">
    <ele>36.8</ele>
    <time>2026-06-26T20:15:52.000Z</time>
   </trkpt>
   <trkpt lat="52.504688" lon="13.434472">
    <ele>36.8</ele>
    <time>2026-06-26T20:15:55.000Z</time>
   </trkpt>
   <trkpt lat="52.504598" lon="13.434583">
    <ele>36.8</ele>
    <time>2026-06-26T20:15:57.000Z</time>
   </trkpt>
   <trkpt lat="52.504476" lon="13.434856">
    <ele>36.8</ele>
    <time>2026-06-26T20:16:01.000Z</time>
   </trkpt>
   <trkpt lat="52.504447" lon="13.434921">
    <ele>36.8</ele>
    <time>2026-06-26T20:16:02.000Z</time>
   </trkpt>
   <trkpt lat="52.504329" lon="13.43519">
    <ele>36.8</ele>
    <time>2026-06-26T20:16:06.000Z</time>
   </trkpt>
   <trkpt lat="52.504146" lon="13.435609">
    <ele>37</ele>
    <time>2026-06-26T20:16:12.000Z</time>
   </trkpt>
   <trkpt lat="52.504066" lon="13.435806">
    <ele>37</ele>
    <time>2026-06-26T20:16:15.000Z</time>
   </trkpt>
   <trkpt lat="52.50402" lon="13.435935">
    <ele>37</ele>
    <time>2026-06-26T20:16:17.000Z</time>
   </trkpt>
   <trkpt lat="52.503765" lon="13.436593">
    <ele>37</ele>
    <time>2026-06-26T20:16:26.000Z</time>
   </trkpt>
   <trkpt lat="52.503679" lon="13.436799">
    <ele>37</ele>
    <time>2026-06-26T20:16:29.000Z</time>
   </trkpt>
   <trkpt lat="52.503585" lon="13.436974">
    <ele>37</ele>
    <time>2026-06-26T20:16:32.000Z</time>
   </trkpt>
   <trkpt lat="52.503418" lon="13.43735">
    <ele>37</ele>
    <time>2026-06-26T20:16:38.000Z</time>
   </trkpt>
   <trkpt lat="52.503205" lon="13.437842">
    <ele>37</ele>
    <time>2026-06-26T20:16:45.000Z</time>
   </trkpt>
   <trkpt lat="52.502954" lon="13.438359">
    <ele>37.2</ele>
    <time>2026-06-26T20:16:53.000Z</time>
   </trkpt>
   <trkpt lat="52.502917" lon="13.438429">
    <ele>37.2</ele>
    <time>2026-06-26T20:16:54.000Z</time>
   </trkpt>
   <trkpt lat="52.502769" lon="13.438617">
    <ele>37.2</ele>
    <time>2026-06-26T20:16:57.000Z</time>
   </trkpt>
   <trkpt lat="52.502731" lon="13.438685">
    <ele>37.2</ele>
    <time>2026-06-26T20:16:58.000Z</time>
   </trkpt>
   <trkpt lat="52.502499" lon="13.439218">
    <ele>37</ele>
    <time>2026-06-26T20:17:05.000Z</time>
   </trkpt>
   <trkpt lat="52.502349" lon="13.439556">
    <ele>36.6</ele>
    <time>2026-06-26T20:17:10.000Z</time>
   </trkpt>
   <trkpt lat="52.502127" lon="13.439953">
    <ele>37</ele>
    <time>2026-06-26T20:17:16.000Z</time>
   </trkpt>
   <trkpt lat="52.502007" lon="13.440179">
    <ele>37</ele>
    <time>2026-06-26T20:17:20.000Z</time>
   </trkpt>
   <trkpt lat="52.501947" lon="13.440312">
    <ele>36.8</ele>
    <time>2026-06-26T20:17:22.000Z</time>
   </trkpt>
   <trkpt lat="52.501861" lon="13.440498">
    <ele>36.8</ele>
    <time>2026-06-26T20:17:25.000Z</time>
   </trkpt>
   <trkpt lat="52.501704" lon="13.440806">
    <ele>37.2</ele>
    <time>2026-06-26T20:17:30.000Z</time>
   </trkpt>
   <trkpt lat="52.501584" lon="13.441004">
    <ele>37.2</ele>
    <time>2026-06-26T20:17:33.000Z</time>
   </trkpt>
   <trkpt lat="52.50146" lon="13.44121">
    <ele>37</ele>
    <time>2026-06-26T20:17:36.000Z</time>
   </trkpt>
   <trkpt lat="52.501202" lon="13.441616">
    <ele>37</ele>
    <time>2026-06-26T20:17:42.000Z</time>
   </trkpt>
   <trkpt lat="52.501172" lon="13.441687">
    <ele>37</ele>
    <time>2026-06-26T20:17:43.000Z</time>
   </trkpt>
   <trkpt lat="52.501128" lon="13.441806">
    <ele>37</ele>
    <time>2026-06-26T20:17:45.000Z</time>
   </trkpt>
   <trkpt lat="52.501061" lon="13.441944">
    <ele>36.8</ele>
    <time>2026-06-26T20:17:47.000Z</time>
   </trkpt>
   <trkpt lat="52.500998" lon="13.442079">
    <ele>36.8</ele>
    <time>2026-06-26T20:17:49.000Z</time>
   </trkpt>
   <trkpt lat="52.500857" lon="13.442336">
    <ele>36.8</ele>
    <time>2026-06-26T20:17:53.000Z</time>
   </trkpt>
   <trkpt lat="52.50063" lon="13.442741">
    <ele>37</ele>
    <time>2026-06-26T20:17:59.000Z</time>
   </trkpt>
   <trkpt lat="52.500366" lon="13.443238">
    <ele>36.8</ele>
    <time>2026-06-26T20:18:06.000Z</time>
   </trkpt>
   <trkpt lat="52.500332" lon="13.443307">
    <ele>36.6</ele>
    <time>2026-06-26T20:18:07.000Z</time>
   </trkpt>
   <trkpt lat="52.500237" lon="13.443516">
    <ele>36.4</ele>
    <time>2026-06-26T20:18:10.000Z</time>
   </trkpt>
   <trkpt lat="52.500185" lon="13.443627">
    <ele>36.4</ele>
    <time>2026-06-26T20:18:12.000Z</time>
   </trkpt>
   <trkpt lat="52.500165" lon="13.443649">
    <ele>36.6</ele>
    <time>2026-06-26T20:18:13.000Z</time>
   </trkpt>
   <trkpt lat="52.500124" lon="13.443689">
    <ele>36.6</ele>
    <time>2026-06-26T20:18:15.000Z</time>
   </trkpt>
   <trkpt lat="52.500114" lon="13.443697">
    <ele>36.6</ele>
    <time>2026-06-26T20:18:16.000Z</time>
   </trkpt>
   <trkpt lat="52.500101" lon="13.443723">
    <ele>36.8</ele>
    <time>2026-06-26T20:18:19.000Z</time>
   </trkpt>
   <trkpt lat="52.500081" lon="13.443771">
    <ele>36.8</ele>
    <time>2026-06-26T20:18:30.000Z</time>
   </trkpt>
   <trkpt lat="52.500074" lon="13.443788">
    <ele>36.8</ele>
    <time>2026-06-26T20:18:36.000Z</time>
   </trkpt>
   <trkpt lat="52.499998" lon="13.443933">
    <ele>37</ele>
    <time>2026-06-26T20:18:40.000Z</time>
   </trkpt>
   <trkpt lat="52.499939" lon="13.444026">
    <ele>37</ele>
    <time>2026-06-26T20:18:42.000Z</time>
   </trkpt>
   <trkpt lat="52.4999" lon="13.444137">
    <ele>37</ele>
    <time>2026-06-26T20:18:44.000Z</time>
   </trkpt>
   <trkpt lat="52.499832" lon="13.444272">
    <ele>36.8</ele>
    <time>2026-06-26T20:18:46.000Z</time>
   </trkpt>
   <trkpt lat="52.499761" lon="13.444412">
    <ele>36.8</ele>
    <time>2026-06-26T20:18:48.000Z</time>
   </trkpt>
   <trkpt lat="52.499598" lon="13.444672">
    <ele>36.6</ele>
    <time>2026-06-26T20:18:52.000Z</time>
   </trkpt>
   <trkpt lat="52.499567" lon="13.444738">
    <ele>36.6</ele>
    <time>2026-06-26T20:18:53.000Z</time>
   </trkpt>
   <trkpt lat="52.499496" lon="13.444872">
    <ele>36.6</ele>
    <time>2026-06-26T20:18:55.000Z</time>
   </trkpt>
   <trkpt lat="52.499459" lon="13.444942">
    <ele>36.6</ele>
    <time>2026-06-26T20:18:56.000Z</time>
   </trkpt>
   <trkpt lat="52.499423" lon="13.445009">
    <ele>36.6</ele>
    <time>2026-06-26T20:18:57.000Z</time>
   </trkpt>
   <trkpt lat="52.499328" lon="13.44523">
    <ele>36.6</ele>
    <time>2026-06-26T20:19:00.000Z</time>
   </trkpt>
   <trkpt lat="52.499295" lon="13.445306">
    <ele>36.6</ele>
    <time>2026-06-26T20:19:01.000Z</time>
   </trkpt>
   <trkpt lat="52.499268" lon="13.445359">
    <ele>36.6</ele>
    <time>2026-06-26T20:19:02.000Z</time>
   </trkpt>
   <trkpt lat="52.499139" lon="13.44557">
    <ele>36.8</ele>
    <time>2026-06-26T20:19:06.000Z</time>
   </trkpt>
   <trkpt lat="52.498982" lon="13.445828">
    <ele>36.8</ele>
    <time>2026-06-26T20:19:10.000Z</time>
   </trkpt>
   <trkpt lat="52.498875" lon="13.446011">
    <ele>37</ele>
    <time>2026-06-26T20:19:13.000Z</time>
   </trkpt>
   <trkpt lat="52.498802" lon="13.446123">
    <ele>36.8</ele>
    <time>2026-06-26T20:19:15.000Z</time>
   </trkpt>
   <trkpt lat="52.49869" lon="13.446307">
    <ele>36.8</ele>
    <time>2026-06-26T20:19:18.000Z</time>
   </trkpt>
   <trkpt lat="52.498421" lon="13.446793">
    <ele>37</ele>
    <time>2026-06-26T20:19:26.000Z</time>
   </trkpt>
   <trkpt lat="52.498281" lon="13.447031">
    <ele>37</ele>
    <time>2026-06-26T20:19:30.000Z</time>
   </trkpt>
   <trkpt lat="52.49817" lon="13.447198">
    <ele>36.8</ele>
    <time>2026-06-26T20:19:33.000Z</time>
   </trkpt>
   <trkpt lat="52.498066" lon="13.447379">
    <ele>36.8</ele>
    <time>2026-06-26T20:19:36.000Z</time>
   </trkpt>
   <trkpt lat="52.497933" lon="13.447608">
    <ele>36.6</ele>
    <time>2026-06-26T20:19:40.000Z</time>
   </trkpt>
   <trkpt lat="52.497774" lon="13.447859">
    <ele>36.6</ele>
    <time>2026-06-26T20:19:45.000Z</time>
   </trkpt>
   <trkpt lat="52.497739" lon="13.447913">
    <ele>36.6</ele>
    <time>2026-06-26T20:19:46.000Z</time>
   </trkpt>
   <trkpt lat="52.497675" lon="13.44802">
    <ele>36.8</ele>
    <time>2026-06-26T20:19:48.000Z</time>
   </trkpt>
   <trkpt lat="52.497639" lon="13.448093">
    <ele>37</ele>
    <time>2026-06-26T20:19:49.000Z</time>
   </trkpt>
   <trkpt lat="52.497611" lon="13.448142">
    <ele>37</ele>
    <time>2026-06-26T20:19:50.000Z</time>
   </trkpt>
   <trkpt lat="52.497473" lon="13.448389">
    <ele>37.4</ele>
    <time>2026-06-26T20:19:54.000Z</time>
   </trkpt>
   <trkpt lat="52.49744" lon="13.448444">
    <ele>37.4</ele>
    <time>2026-06-26T20:19:55.000Z</time>
   </trkpt>
   <trkpt lat="52.497131" lon="13.448966">
    <ele>38</ele>
    <time>2026-06-26T20:20:03.000Z</time>
   </trkpt>
   <trkpt lat="52.496901" lon="13.449375">
    <ele>37.6</ele>
    <time>2026-06-26T20:20:08.000Z</time>
   </trkpt>
   <trkpt lat="52.496542" lon="13.449945">
    <ele>36.8</ele>
    <time>2026-06-26T20:20:16.000Z</time>
   </trkpt>
   <trkpt lat="52.496385" lon="13.450198">
    <ele>36.8</ele>
    <time>2026-06-26T20:20:20.000Z</time>
   </trkpt>
   <trkpt lat="52.49634" lon="13.450267">
    <ele>37</ele>
    <time>2026-06-26T20:20:21.000Z</time>
   </trkpt>
   <trkpt lat="52.496029" lon="13.450784">
    <ele>37.2</ele>
    <time>2026-06-26T20:20:28.000Z</time>
   </trkpt>
   <trkpt lat="52.495679" lon="13.451377">
    <ele>37</ele>
    <time>2026-06-26T20:20:36.000Z</time>
   </trkpt>
   <trkpt lat="52.495375" lon="13.451897">
    <ele>36.6</ele>
    <time>2026-06-26T20:20:44.000Z</time>
   </trkpt>
   <trkpt lat="52.495225" lon="13.452148">
    <ele>36.6</ele>
    <time>2026-06-26T20:20:48.000Z</time>
   </trkpt>
   <trkpt lat="52.4952" lon="13.452208">
    <ele>36.6</ele>
    <time>2026-06-26T20:20:49.000Z</time>
   </trkpt>
   <trkpt lat="52.495187" lon="13.452264">
    <ele>36.6</ele>
    <time>2026-06-26T20:20:50.000Z</time>
   </trkpt>
   <trkpt lat="52.495165" lon="13.452316">
    <ele>36.6</ele>
    <time>2026-06-26T20:20:51.000Z</time>
   </trkpt>
   <trkpt lat="52.49506" lon="13.452494">
    <ele>36.6</ele>
    <time>2026-06-26T20:20:54.000Z</time>
   </trkpt>
   <trkpt lat="52.494974" lon="13.452642">
    <ele>36.8</ele>
    <time>2026-06-26T20:20:56.000Z</time>
   </trkpt>
   <trkpt lat="52.494854" lon="13.452804">
    <ele>36.6</ele>
    <time>2026-06-26T20:20:59.000Z</time>
   </trkpt>
   <trkpt lat="52.494717" lon="13.452984">
    <ele>36.6</ele>
    <time>2026-06-26T20:21:02.000Z</time>
   </trkpt>
   <trkpt lat="52.494481" lon="13.453324">
    <ele>36.4</ele>
    <time>2026-06-26T20:21:08.000Z</time>
   </trkpt>
   <trkpt lat="52.494409" lon="13.453442">
    <ele>36.2</ele>
    <time>2026-06-26T20:21:10.000Z</time>
   </trkpt>
   <trkpt lat="52.494263" lon="13.453666">
    <ele>36.2</ele>
    <time>2026-06-26T20:21:14.000Z</time>
   </trkpt>
   <trkpt lat="52.494185" lon="13.453751">
    <ele>36.2</ele>
    <time>2026-06-26T20:21:16.000Z</time>
   </trkpt>
   <trkpt lat="52.494155" lon="13.453791">
    <ele>36.4</ele>
    <time>2026-06-26T20:21:17.000Z</time>
   </trkpt>
   <trkpt lat="52.494092" lon="13.453915">
    <ele>36.4</ele>
    <time>2026-06-26T20:21:20.000Z</time>
   </trkpt>
   <trkpt lat="52.494076" lon="13.453956">
    <ele>36.4</ele>
    <time>2026-06-26T20:21:21.000Z</time>
   </trkpt>
   <trkpt lat="52.49401" lon="13.454056">
    <ele>36.4</ele>
    <time>2026-06-26T20:21:24.000Z</time>
   </trkpt>
   <trkpt lat="52.493891" lon="13.454288">
    <ele>36.6</ele>
    <time>2026-06-26T20:21:30.000Z</time>
   </trkpt>
   <trkpt lat="52.493866" lon="13.454322">
    <ele>36.6</ele>
    <time>2026-06-26T20:21:31.000Z</time>
   </trkpt>
   <trkpt lat="52.493798" lon="13.454418">
    <ele>36.8</ele>
    <time>2026-06-26T20:21:33.000Z</time>
   </trkpt>
   <trkpt lat="52.493743" lon="13.4545">
    <ele>36.8</ele>
    <time>2026-06-26T20:21:35.000Z</time>
   </trkpt>
   <trkpt lat="52.493661" lon="13.454615">
    <ele>37</ele>
    <time>2026-06-26T20:21:37.000Z</time>
   </trkpt>
   <trkpt lat="52.493347" lon="13.455082">
    <ele>37</ele>
    <time>2026-06-26T20:21:44.000Z</time>
   </trkpt>
   <trkpt lat="52.493306" lon="13.455142">
    <ele>37</ele>
    <time>2026-06-26T20:21:45.000Z</time>
   </trkpt>
   <trkpt lat="52.493131" lon="13.455404">
    <ele>37</ele>
    <time>2026-06-26T20:21:49.000Z</time>
   </trkpt>
   <trkpt lat="52.493059" lon="13.455502">
    <ele>37</ele>
    <time>2026-06-26T20:21:51.000Z</time>
   </trkpt>
   <trkpt lat="52.49303" lon="13.455559">
    <ele>37</ele>
    <time>2026-06-26T20:21:52.000Z</time>
   </trkpt>
   <trkpt lat="52.492791" lon="13.455906">
    <ele>37</ele>
    <time>2026-06-26T20:21:57.000Z</time>
   </trkpt>
   <trkpt lat="52.492645" lon="13.45609">
    <ele>37</ele>
    <time>2026-06-26T20:22:00.000Z</time>
   </trkpt>
   <trkpt lat="52.492603" lon="13.456209">
    <ele>37</ele>
    <time>2026-06-26T20:22:02.000Z</time>
   </trkpt>
   <trkpt lat="52.492563" lon="13.456271">
    <ele>37</ele>
    <time>2026-06-26T20:22:03.000Z</time>
   </trkpt>
   <trkpt lat="52.492465" lon="13.456414">
    <ele>37</ele>
    <time>2026-06-26T20:22:06.000Z</time>
   </trkpt>
   <trkpt lat="52.492263" lon="13.456705">
    <ele>37</ele>
    <time>2026-06-26T20:22:10.000Z</time>
   </trkpt>
   <trkpt lat="52.492123" lon="13.45689">
    <ele>37</ele>
    <time>2026-06-26T20:22:13.000Z</time>
   </trkpt>
   <trkpt lat="52.492077" lon="13.456948">
    <ele>37</ele>
    <time>2026-06-26T20:22:14.000Z</time>
   </trkpt>
   <trkpt lat="52.49198" lon="13.457052">
    <ele>37</ele>
    <time>2026-06-26T20:22:16.000Z</time>
   </trkpt>
   <trkpt lat="52.491946" lon="13.457135">
    <ele>37</ele>
    <time>2026-06-26T20:22:17.000Z</time>
   </trkpt>
   <trkpt lat="52.491931" lon="13.457192">
    <ele>37</ele>
    <time>2026-06-26T20:22:18.000Z</time>
   </trkpt>
   <trkpt lat="52.491858" lon="13.457352">
    <ele>37</ele>
    <time>2026-06-26T20:22:21.000Z</time>
   </trkpt>
   <trkpt lat="52.491807" lon="13.457433">
    <ele>37</ele>
    <time>2026-06-26T20:22:25.000Z</time>
   </trkpt>
   <trkpt lat="52.491786" lon="13.457452">
    <ele>36.6</ele>
    <time>2026-06-26T20:23:06.000Z</time>
   </trkpt>
   <trkpt lat="52.491745" lon="13.457517">
    <ele>36.6</ele>
    <time>2026-06-26T20:23:08.000Z</time>
   </trkpt>
   <trkpt lat="52.491563" lon="13.45778">
    <ele>36.8</ele>
    <time>2026-06-26T20:23:14.000Z</time>
   </trkpt>
   <trkpt lat="52.491468" lon="13.457925">
    <ele>36.8</ele>
    <time>2026-06-26T20:23:17.000Z</time>
   </trkpt>
   <trkpt lat="52.491331" lon="13.458089">
    <ele>36.8</ele>
    <time>2026-06-26T20:23:21.000Z</time>
   </trkpt>
   <trkpt lat="52.491263" lon="13.45818">
    <ele>36.8</ele>
    <time>2026-06-26T20:23:23.000Z</time>
   </trkpt>
   <trkpt lat="52.491145" lon="13.458363">
    <ele>36.6</ele>
    <time>2026-06-26T20:23:27.000Z</time>
   </trkpt>
   <trkpt lat="52.491071" lon="13.458482">
    <ele>36.6</ele>
    <time>2026-06-26T20:23:31.000Z</time>
   </trkpt>
   <trkpt lat="52.491069" lon="13.458492">
    <ele>36.6</ele>
    <time>2026-06-26T20:23:32.000Z</time>
   </trkpt>
   <trkpt lat="52.491049" lon="13.458536">
    <ele>36.6</ele>
    <time>2026-06-26T20:23:43.000Z</time>
   </trkpt>
   <trkpt lat="52.491002" lon="13.458613">
    <ele>36.4</ele>
    <time>2026-06-26T20:23:45.000Z</time>
   </trkpt>
   <trkpt lat="52.490841" lon="13.458857">
    <ele>36.4</ele>
    <time>2026-06-26T20:23:50.000Z</time>
   </trkpt>
   <trkpt lat="52.490626" lon="13.459192">
    <ele>36.4</ele>
    <time>2026-06-26T20:23:56.000Z</time>
   </trkpt>
   <trkpt lat="52.490553" lon="13.459315">
    <ele>36.2</ele>
    <time>2026-06-26T20:23:58.000Z</time>
   </trkpt>
   <trkpt lat="52.490504" lon="13.459371">
    <ele>36.2</ele>
    <time>2026-06-26T20:23:59.000Z</time>
   </trkpt>
   <trkpt lat="52.49045" lon="13.459447">
    <ele>36.2</ele>
    <time>2026-06-26T20:24:00.000Z</time>
   </trkpt>
   <trkpt lat="52.490264" lon="13.459707">
    <ele>36</ele>
    <time>2026-06-26T20:24:04.000Z</time>
   </trkpt>
   <trkpt lat="52.490196" lon="13.459813">
    <ele>36</ele>
    <time>2026-06-26T20:24:06.000Z</time>
   </trkpt>
   <trkpt lat="52.490147" lon="13.459905">
    <ele>36</ele>
    <time>2026-06-26T20:24:08.000Z</time>
   </trkpt>
   <trkpt lat="52.490073" lon="13.460027">
    <ele>36</ele>
    <time>2026-06-26T20:24:10.000Z</time>
   </trkpt>
   <trkpt lat="52.489976" lon="13.460165">
    <ele>36</ele>
    <time>2026-06-26T20:24:12.000Z</time>
   </trkpt>
   <trkpt lat="52.489864" lon="13.460327">
    <ele>36</ele>
    <time>2026-06-26T20:24:14.000Z</time>
   </trkpt>
   <trkpt lat="52.489712" lon="13.46056">
    <ele>36</ele>
    <time>2026-06-26T20:24:17.000Z</time>
   </trkpt>
   <trkpt lat="52.489231" lon="13.461246">
    <ele>36</ele>
    <time>2026-06-26T20:24:26.000Z</time>
   </trkpt>
   <trkpt lat="52.48885" lon="13.461832">
    <ele>36.2</ele>
    <time>2026-06-26T20:24:34.000Z</time>
   </trkpt>
   <trkpt lat="52.488447" lon="13.462434">
    <ele>36.2</ele>
    <time>2026-06-26T20:24:42.000Z</time>
   </trkpt>
   <trkpt lat="52.488096" lon="13.462944">
    <ele>36.4</ele>
    <time>2026-06-26T20:24:49.000Z</time>
   </trkpt>
   <trkpt lat="52.488041" lon="13.463024">
    <ele>36.4</ele>
    <time>2026-06-26T20:24:50.000Z</time>
   </trkpt>
   <trkpt lat="52.487605" lon="13.463667">
    <ele>36</ele>
    <time>2026-06-26T20:24:58.000Z</time>
   </trkpt>
   <trkpt lat="52.48733" lon="13.464055">
    <ele>36</ele>
    <time>2026-06-26T20:25:03.000Z</time>
   </trkpt>
   <trkpt lat="52.486903" lon="13.464697">
    <ele>36.4</ele>
    <time>2026-06-26T20:25:11.000Z</time>
   </trkpt>
   <trkpt lat="52.486856" lon="13.464765">
    <ele>36.4</ele>
    <time>2026-06-26T20:25:12.000Z</time>
   </trkpt>
   <trkpt lat="52.48644" lon="13.465367">
    <ele>36.2</ele>
    <time>2026-06-26T20:25:20.000Z</time>
   </trkpt>
   <trkpt lat="52.486344" lon="13.465511">
    <ele>36</ele>
    <time>2026-06-26T20:25:22.000Z</time>
   </trkpt>
   <trkpt lat="52.486021" lon="13.465991">
    <ele>36</ele>
    <time>2026-06-26T20:25:28.000Z</time>
   </trkpt>
   <trkpt lat="52.485716" lon="13.466436">
    <ele>36.2</ele>
    <time>2026-06-26T20:25:34.000Z</time>
   </trkpt>
   <trkpt lat="52.485561" lon="13.466668">
    <ele>36.2</ele>
    <time>2026-06-26T20:25:37.000Z</time>
   </trkpt>
   <trkpt lat="52.48512" lon="13.467295">
    <ele>36.2</ele>
    <time>2026-06-26T20:25:45.000Z</time>
   </trkpt>
   <trkpt lat="52.484702" lon="13.467906">
    <ele>36.2</ele>
    <time>2026-06-26T20:25:53.000Z</time>
   </trkpt>
   <trkpt lat="52.484267" lon="13.468565">
    <ele>36.2</ele>
    <time>2026-06-26T20:26:01.000Z</time>
   </trkpt>
   <trkpt lat="52.483901" lon="13.469116">
    <ele>36.4</ele>
    <time>2026-06-26T20:26:08.000Z</time>
   </trkpt>
   <trkpt lat="52.483589" lon="13.46957">
    <ele>36.6</ele>
    <time>2026-06-26T20:26:14.000Z</time>
   </trkpt>
   <trkpt lat="52.483294" lon="13.470032">
    <ele>36.4</ele>
    <time>2026-06-26T20:26:20.000Z</time>
   </trkpt>
   <trkpt lat="52.4831" lon="13.470321">
    <ele>36.2</ele>
    <time>2026-06-26T20:26:24.000Z</time>
   </trkpt>
   <trkpt lat="52.483054" lon="13.470392">
    <ele>36.2</ele>
    <time>2026-06-26T20:26:25.000Z</time>
   </trkpt>
   <trkpt lat="52.482648" lon="13.47099">
    <ele>36.4</ele>
    <time>2026-06-26T20:26:33.000Z</time>
   </trkpt>
   <trkpt lat="52.482322" lon="13.471487">
    <ele>36.4</ele>
    <time>2026-06-26T20:26:39.000Z</time>
   </trkpt>
   <trkpt lat="52.482024" lon="13.4719">
    <ele>36.6</ele>
    <time>2026-06-26T20:26:45.000Z</time>
   </trkpt>
   <trkpt lat="52.481645" lon="13.472461">
    <ele>36.6</ele>
    <time>2026-06-26T20:26:52.000Z</time>
   </trkpt>
   <trkpt lat="52.481262" lon="13.473038">
    <ele>36.4</ele>
    <time>2026-06-26T20:26:59.000Z</time>
   </trkpt>
   <trkpt lat="52.4809" lon="13.473576">
    <ele>36.6</ele>
    <time>2026-06-26T20:27:06.000Z</time>
   </trkpt>
   <trkpt lat="52.480852" lon="13.473641">
    <ele>36.6</ele>
    <time>2026-06-26T20:27:07.000Z</time>
   </trkpt>
   <trkpt lat="52.480424" lon="13.474266">
    <ele>36.8</ele>
    <time>2026-06-26T20:27:15.000Z</time>
   </trkpt>
   <trkpt lat="52.480314" lon="13.474431">
    <ele>37</ele>
    <time>2026-06-26T20:27:17.000Z</time>
   </trkpt>
   <trkpt lat="52.479888" lon="13.47506">
    <ele>37</ele>
    <time>2026-06-26T20:27:25.000Z</time>
   </trkpt>
   <trkpt lat="52.479834" lon="13.475136">
    <ele>37.2</ele>
    <time>2026-06-26T20:27:26.000Z</time>
   </trkpt>
   <trkpt lat="52.47957" lon="13.4755">
    <ele>37</ele>
    <time>2026-06-26T20:27:31.000Z</time>
   </trkpt>
   <trkpt lat="52.479469" lon="13.475662">
    <ele>37</ele>
    <time>2026-06-26T20:27:33.000Z</time>
   </trkpt>
   <trkpt lat="52.47904" lon="13.476311">
    <ele>37</ele>
    <time>2026-06-26T20:27:41.000Z</time>
   </trkpt>
   <trkpt lat="52.478935" lon="13.476466">
    <ele>37</ele>
    <time>2026-06-26T20:27:43.000Z</time>
   </trkpt>
   <trkpt lat="52.478559" lon="13.477045">
    <ele>36.8</ele>
    <time>2026-06-26T20:27:50.000Z</time>
   </trkpt>
   <trkpt lat="52.478323" lon="13.477387">
    <ele>36.8</ele>
    <time>2026-06-26T20:27:55.000Z</time>
   </trkpt>
   <trkpt lat="52.478058" lon="13.477776">
    <ele>36.8</ele>
    <time>2026-06-26T20:28:01.000Z</time>
   </trkpt>
   <trkpt lat="52.4778" lon="13.478167">
    <ele>37</ele>
    <time>2026-06-26T20:28:09.000Z</time>
   </trkpt>
   <trkpt lat="52.477632" lon="13.478401">
    <ele>36.8</ele>
    <time>2026-06-26T20:28:15.000Z</time>
   </trkpt>
   <trkpt lat="52.477498" lon="13.478434">
    <ele>36.8</ele>
    <time>2026-06-26T20:28:19.000Z</time>
   </trkpt>
   <trkpt lat="52.477386" lon="13.4783">
    <ele>36.8</ele>
    <time>2026-06-26T20:28:22.000Z</time>
   </trkpt>
   <trkpt lat="52.477349" lon="13.478232">
    <ele>36.8</ele>
    <time>2026-06-26T20:28:23.000Z</time>
   </trkpt>
   <trkpt lat="52.477157" lon="13.477836">
    <ele>36.6</ele>
    <time>2026-06-26T20:28:28.000Z</time>
   </trkpt>
   <trkpt lat="52.476879" lon="13.477329">
    <ele>36.2</ele>
    <time>2026-06-26T20:28:34.000Z</time>
   </trkpt>
   <trkpt lat="52.476637" lon="13.476865">
    <ele>36.2</ele>
    <time>2026-06-26T20:28:39.000Z</time>
   </trkpt>
   <trkpt lat="52.476544" lon="13.476689">
    <ele>36</ele>
    <time>2026-06-26T20:28:41.000Z</time>
   </trkpt>
   <trkpt lat="52.476333" lon="13.476299">
    <ele>35.6</ele>
    <time>2026-06-26T20:28:46.000Z</time>
   </trkpt>
   <trkpt lat="52.476296" lon="13.476241">
    <ele>35.6</ele>
    <time>2026-06-26T20:28:47.000Z</time>
   </trkpt>
   <trkpt lat="52.476273" lon="13.476203">
    <ele>35.6</ele>
    <time>2026-06-26T20:28:48.000Z</time>
   </trkpt>
   <trkpt lat="52.476207" lon="13.476103">
    <ele>35.6</ele>
    <time>2026-06-26T20:28:50.000Z</time>
   </trkpt>
   <trkpt lat="52.476053" lon="13.475813">
    <ele>35.6</ele>
    <time>2026-06-26T20:28:55.000Z</time>
   </trkpt>
   <trkpt lat="52.47602" lon="13.475782">
    <ele>35.6</ele>
    <time>2026-06-26T20:28:56.000Z</time>
   </trkpt>
   <trkpt lat="52.475943" lon="13.475774">
    <ele>35.8</ele>
    <time>2026-06-26T20:28:58.000Z</time>
   </trkpt>
   <trkpt lat="52.475833" lon="13.4759">
    <ele>35.8</ele>
    <time>2026-06-26T20:29:02.000Z</time>
   </trkpt>
   <trkpt lat="52.475642" lon="13.476172">
    <ele>36</ele>
    <time>2026-06-26T20:29:09.000Z</time>
   </trkpt>
   <trkpt lat="52.475612" lon="13.476206">
    <ele>36</ele>
    <time>2026-06-26T20:29:10.000Z</time>
   </trkpt>
   <trkpt lat="52.475469" lon="13.476403">
    <ele>36</ele>
    <time>2026-06-26T20:29:16.000Z</time>
   </trkpt>
   <trkpt lat="52.475438" lon="13.476438">
    <ele>36</ele>
    <time>2026-06-26T20:29:19.000Z</time>
   </trkpt>
   <trkpt lat="52.47543" lon="13.476443">
    <ele>36.2</ele>
    <time>2026-06-26T20:29:21.000Z</time>
   </trkpt>
   <trkpt lat="52.47543" lon="13.476444">
    <ele>36.2</ele>
    <time>2026-06-26T20:29:23.000Z</time>
   </trkpt>
  </trkseg>
 </trk>
</gpx>
