<?xml version="1.0" encoding="UTF-8"?>
<gpx creator="StravaGPX" version="1.1" xmlns="http://www.topografix.com/GPX/1/1">
 <metadata>
  <time>2020-02-18T14:05:06Z</time>
 </metadata>
 <trk>
  <name>Lunch Ride</name>
  <type>1</type>
  <trkseg>
   <trkpt lat="-8.036982" lon="-34.892693">
    <ele>8</ele>
    <time>2020-02-18T14:05:06.000Z</time>
   </trkpt>
   <trkpt lat="-8.037016" lon="-34.892702">
    <ele>8.2</ele>
    <time>2020-02-18T14:05:07.000Z</time>
   </trkpt>
   <trkpt lat="-8.037054" lon="-34.892722">
    <ele>8.4</ele>
    <time>2020-02-18T14:05:08.000Z</time>
   </trkpt>
   <trkpt lat="-8.037094" lon="-34.892742">
    <ele>8.6</ele>
    <time>2020-02-18T14:05:09.000Z</time>
   </trkpt>
   <trkpt lat="-8.037136" lon="-34.892759">
    <ele>8.8</ele>
    <time>2020-02-18T14:05:10.000Z</time>
   </trkpt>
   <trkpt lat="-8.03717" lon="-34.892775">
    <ele>8.9</ele>
    <time>2020-02-18T14:05:11.000Z</time>
   </trkpt>
   <trkpt lat="-8.037211" lon="-34.892788">
    <ele>9.2</ele>
    <time>2020-02-18T14:05:12.000Z</time>
   </trkpt>
   <trkpt lat="-8.037254" lon="-34.892798">
    <ele>9.4</ele>
    <time>2020-02-18T14:05:14.000Z</time>
   </trkpt>
   <trkpt lat="-8.037289" lon="-34.892787">
    <ele>9.8</ele>
    <time>2020-02-18T14:05:15.000Z</time>
   </trkpt>
   <trkpt lat="-8.03733" lon="-34.892765">
    <ele>9.7</ele>
    <time>2020-02-18T14:05:16.000Z</time>
   </trkpt>
   <trkpt lat="-8.037352" lon="-34.892736">
    <ele>9.7</ele>
    <time>2020-02-18T14:05:17.000Z</time>
   </trkpt>
   <trkpt lat="-8.03736" lon="-34.892703">
    <ele>9.6</ele>
    <time>2020-02-18T14:05:18.000Z</time>
   </trkpt>
   <trkpt lat="-8.03737" lon="-34.892668">
    <ele>9.5</ele>
    <time>2020-02-18T14:05:19.000Z</time>
   </trkpt>
   <trkpt lat="-8.037375" lon="-34.892617">
    <ele>9.5</ele>
    <time>2020-02-18T14:05:20.000Z</time>
   </trkpt>
   <trkpt lat="-8.037382" lon="-34.89257">
    <ele>9.4</ele>
    <time>2020-02-18T14:05:21.000Z</time>
   </trkpt>
   <trkpt lat="-8.037389" lon="-34.892528">
    <ele>9.3</ele>
    <time>2020-02-18T14:05:22.000Z</time>
   </trkpt>
   <trkpt lat="-8.037391" lon="-34.89249">
    <ele>9.2</ele>
    <time>2020-02-18T14:05:23.000Z</time>
   </trkpt>
   <trkpt lat="-8.037387" lon="-34.892447">
    <ele>9.1</ele>
    <time>2020-02-18T14:05:24.000Z</time>
   </trkpt>
   <trkpt lat="-8.037382" lon="-34.892399">
    <ele>9</ele>
    <time>2020-02-18T14:05:25.000Z</time>
   </trkpt>
   <trkpt lat="-8.037384" lon="-34.892348">
    <ele>8.9</ele>
    <time>2020-02-18T14:05:26.000Z</time>
   </trkpt>
   <trkpt lat="-8.037387" lon="-34.892299">
    <ele>8.8</ele>
    <time>2020-02-18T14:05:27.000Z</time>
   </trkpt>
   <trkpt lat="-8.037388" lon="-34.892253">
    <ele>8.8</ele>
    <time>2020-02-18T14:05:28.000Z</time>
   </trkpt>
   <trkpt lat="-8.037392" lon="-34.892207">
    <ele>8.7</ele>
    <time>2020-02-18T14:05:29.000Z</time>
   </trkpt>
   <trkpt lat="-8.037394" lon="-34.892159">
    <ele>8.6</ele>
    <time>2020-02-18T14:05:30.000Z</time>
   </trkpt>
   <trkpt lat="-8.037404" lon="-34.89211">
    <ele>8.5</ele>
    <time>2020-02-18T14:05:31.000Z</time>
   </trkpt>
   <trkpt lat="-8.037423" lon="-34.892071">
    <ele>8.7</ele>
    <time>2020-02-18T14:05:32.000Z</time>
   </trkpt>
   <trkpt lat="-8.037444" lon="-34.892033">
    <ele>9</ele>
    <time>2020-02-18T14:05:33.000Z</time>
   </trkpt>
   <trkpt lat="-8.037464" lon="-34.891998">
    <ele>9.2</ele>
    <time>2020-02-18T14:05:34.000Z</time>
   </trkpt>
   <trkpt lat="-8.037487" lon="-34.891958">
    <ele>9.5</ele>
    <time>2020-02-18T14:05:35.000Z</time>
   </trkpt>
   <trkpt lat="-8.03752" lon="-34.891912">
    <ele>10</ele>
    <time>2020-02-18T14:05:36.000Z</time>
   </trkpt>
   <trkpt lat="-8.037545" lon="-34.891877">
    <ele>10.1</ele>
    <time>2020-02-18T14:05:37.000Z</time>
   </trkpt>
   <trkpt lat="-8.03757" lon="-34.891844">
    <ele>10.3</ele>
    <time>2020-02-18T14:05:38.000Z</time>
   </trkpt>
   <trkpt lat="-8.037594" lon="-34.891812">
    <ele>10.4</ele>
    <time>2020-02-18T14:05:39.000Z</time>
   </trkpt>
   <trkpt lat="-8.037617" lon="-34.891779">
    <ele>10.6</ele>
    <time>2020-02-18T14:05:40.000Z</time>
   </trkpt>
   <trkpt lat="-8.037631" lon="-34.891744">
    <ele>10.7</ele>
    <time>2020-02-18T14:05:41.000Z</time>
   </trkpt>
   <trkpt lat="-8.037651" lon="-34.89171">
    <ele>10.9</ele>
    <time>2020-02-18T14:05:42.000Z</time>
   </trkpt>
   <trkpt lat="-8.037674" lon="-34.891678">
    <ele>11.1</ele>
    <time>2020-02-18T14:05:43.000Z</time>
   </trkpt>
   <trkpt lat="-8.037701" lon="-34.891638">
    <ele>11.4</ele>
    <time>2020-02-18T14:05:44.000Z</time>
   </trkpt>
   <trkpt lat="-8.037726" lon="-34.891604">
    <ele>11.6</ele>
    <time>2020-02-18T14:05:45.000Z</time>
   </trkpt>
   <trkpt lat="-8.037747" lon="-34.891576">
    <ele>11.7</ele>
    <time>2020-02-18T14:05:46.000Z</time>
   </trkpt>
   <trkpt lat="-8.037765" lon="-34.891561">
    <ele>11.8</ele>
    <time>2020-02-18T14:05:47.000Z</time>
   </trkpt>
   <trkpt lat="-8.037794" lon="-34.891565">
    <ele>12.2</ele>
    <time>2020-02-18T14:05:49.000Z</time>
   </trkpt>
   <trkpt lat="-8.037811" lon="-34.891571">
    <ele>12.2</ele>
    <time>2020-02-18T14:05:51.000Z</time>
   </trkpt>
   <trkpt lat="-8.037857" lon="-34.891593">
    <ele>12.3</ele>
    <time>2020-02-18T14:05:54.000Z</time>
   </trkpt>
   <trkpt lat="-8.037908" lon="-34.891631">
    <ele>12.4</ele>
    <time>2020-02-18T14:05:56.000Z</time>
   </trkpt>
   <trkpt lat="-8.037933" lon="-34.891645">
    <ele>12.4</ele>
    <time>2020-02-18T14:05:57.000Z</time>
   </trkpt>
   <trkpt lat="-8.037957" lon="-34.89167">
    <ele>12.5</ele>
    <time>2020-02-18T14:05:58.000Z</time>
   </trkpt>
   <trkpt lat="-8.037981" lon="-34.891692">
    <ele>12.6</ele>
    <time>2020-02-18T14:05:59.000Z</time>
   </trkpt>
   <trkpt lat="-8.038006" lon="-34.891712">
    <ele>12.6</ele>
    <time>2020-02-18T14:06:00.000Z</time>
   </trkpt>
   <trkpt lat="-8.038026" lon="-34.891727">
    <ele>12.7</ele>
    <time>2020-02-18T14:06:01.000Z</time>
   </trkpt>
   <trkpt lat="-8.038072" lon="-34.891737">
    <ele>12.9</ele>
    <time>2020-02-18T14:06:03.000Z</time>
   </trkpt>
   <trkpt lat="-8.038121" lon="-34.891766">
    <ele>13</ele>
    <time>2020-02-18T14:06:05.000Z</time>
   </trkpt>
   <trkpt lat="-8.038155" lon="-34.891791">
    <ele>13.1</ele>
    <time>2020-02-18T14:06:06.000Z</time>
   </trkpt>
   <trkpt lat="-8.038191" lon="-34.891821">
    <ele>13.1</ele>
    <time>2020-02-18T14:06:07.000Z</time>
   </trkpt>
   <trkpt lat="-8.038225" lon="-34.891847">
    <ele>13</ele>
    <time>2020-02-18T14:06:08.000Z</time>
   </trkpt>
   <trkpt lat="-8.038263" lon="-34.891869">
    <ele>12.9</ele>
    <time>2020-02-18T14:06:09.000Z</time>
   </trkpt>
   <trkpt lat="-8.0383" lon="-34.891886">
    <ele>12.8</ele>
    <time>2020-02-18T14:06:10.000Z</time>
   </trkpt>
   <trkpt lat="-8.038341" lon="-34.891904">
    <ele>12.6</ele>
    <time>2020-02-18T14:06:11.000Z</time>
   </trkpt>
   <trkpt lat="-8.038383" lon="-34.891926">
    <ele>12.6</ele>
    <time>2020-02-18T14:06:12.000Z</time>
   </trkpt>
   <trkpt lat="-8.038423" lon="-34.891939">
    <ele>12.6</ele>
    <time>2020-02-18T14:06:13.000Z</time>
   </trkpt>
   <trkpt lat="-8.038462" lon="-34.891964">
    <ele>12.6</ele>
    <time>2020-02-18T14:06:14.000Z</time>
   </trkpt>
   <trkpt lat="-8.0385" lon="-34.891988">
    <ele>12.5</ele>
    <time>2020-02-18T14:06:15.000Z</time>
   </trkpt>
   <trkpt lat="-8.038545" lon="-34.892013">
    <ele>12.5</ele>
    <time>2020-02-18T14:06:16.000Z</time>
   </trkpt>
   <trkpt lat="-8.03859" lon="-34.892035">
    <ele>12.5</ele>
    <time>2020-02-18T14:06:17.000Z</time>
   </trkpt>
   <trkpt lat="-8.038636" lon="-34.892057">
    <ele>12.4</ele>
    <time>2020-02-18T14:06:18.000Z</time>
   </trkpt>
   <trkpt lat="-8.03868" lon="-34.89208">
    <ele>12.3</ele>
    <time>2020-02-18T14:06:19.000Z</time>
   </trkpt>
   <trkpt lat="-8.038722" lon="-34.892111">
    <ele>12.6</ele>
    <time>2020-02-18T14:06:20.000Z</time>
   </trkpt>
   <trkpt lat="-8.038771" lon="-34.892128">
    <ele>12.8</ele>
    <time>2020-02-18T14:06:21.000Z</time>
   </trkpt>
   <trkpt lat="-8.038819" lon="-34.892143">
    <ele>13</ele>
    <time>2020-02-18T14:06:22.000Z</time>
   </trkpt>
   <trkpt lat="-8.038867" lon="-34.892163">
    <ele>13.2</ele>
    <time>2020-02-18T14:06:23.000Z</time>
   </trkpt>
   <trkpt lat="-8.038912" lon="-34.89218">
    <ele>13.3</ele>
    <time>2020-02-18T14:06:24.000Z</time>
   </trkpt>
   <trkpt lat="-8.038958" lon="-34.892196">
    <ele>13</ele>
    <time>2020-02-18T14:06:25.000Z</time>
   </trkpt>
   <trkpt lat="-8.039006" lon="-34.89221">
    <ele>12.6</ele>
    <time>2020-02-18T14:06:26.000Z</time>
   </trkpt>
   <trkpt lat="-8.039057" lon="-34.892218">
    <ele>12.2</ele>
    <time>2020-02-18T14:06:27.000Z</time>
   </trkpt>
   <trkpt lat="-8.039112" lon="-34.892228">
    <ele>12</ele>
    <time>2020-02-18T14:06:28.000Z</time>
   </trkpt>
   <trkpt lat="-8.039167" lon="-34.89224">
    <ele>12</ele>
    <time>2020-02-18T14:06:29.000Z</time>
   </trkpt>
   <trkpt lat="-8.039224" lon="-34.892251">
    <ele>11.7</ele>
    <time>2020-02-18T14:06:30.000Z</time>
   </trkpt>
   <trkpt lat="-8.039278" lon="-34.892269">
    <ele>11.5</ele>
    <time>2020-02-18T14:06:31.000Z</time>
   </trkpt>
   <trkpt lat="-8.039331" lon="-34.892278">
    <ele>11.5</ele>
    <time>2020-02-18T14:06:32.000Z</time>
   </trkpt>
   <trkpt lat="-8.039382" lon="-34.892288">
    <ele>11.6</ele>
    <time>2020-02-18T14:06:33.000Z</time>
   </trkpt>
   <trkpt lat="-8.039434" lon="-34.892288">
    <ele>11.7</ele>
    <time>2020-02-18T14:06:34.000Z</time>
   </trkpt>
   <trkpt lat="-8.039488" lon="-34.892285">
    <ele>11.9</ele>
    <time>2020-02-18T14:06:35.000Z</time>
   </trkpt>
   <trkpt lat="-8.039549" lon="-34.892275">
    <ele>12.1</ele>
    <time>2020-02-18T14:06:36.000Z</time>
   </trkpt>
   <trkpt lat="-8.039613" lon="-34.892276">
    <ele>12.3</ele>
    <time>2020-02-18T14:06:37.000Z</time>
   </trkpt>
   <trkpt lat="-8.039675" lon="-34.892281">
    <ele>12.5</ele>
    <time>2020-02-18T14:06:38.000Z</time>
   </trkpt>
   <trkpt lat="-8.039719" lon="-34.892291">
    <ele>12.8</ele>
    <time>2020-02-18T14:06:39.000Z</time>
   </trkpt>
   <trkpt lat="-8.03975" lon="-34.892317">
    <ele>13.1</ele>
    <time>2020-02-18T14:06:40.000Z</time>
   </trkpt>
   <trkpt lat="-8.039792" lon="-34.892354">
    <ele>13.5</ele>
    <time>2020-02-18T14:06:41.000Z</time>
   </trkpt>
   <trkpt lat="-8.039834" lon="-34.89239">
    <ele>13.8</ele>
    <time>2020-02-18T14:06:42.000Z</time>
   </trkpt>
   <trkpt lat="-8.039875" lon="-34.892428">
    <ele>14</ele>
    <time>2020-02-18T14:06:43.000Z</time>
   </trkpt>
   <trkpt lat="-8.039916" lon="-34.892472">
    <ele>14.2</ele>
    <time>2020-02-18T14:06:44.000Z</time>
   </trkpt>
   <trkpt lat="-8.039955" lon="-34.89251">
    <ele>14.4</ele>
    <time>2020-02-18T14:06:45.000Z</time>
   </trkpt>
   <trkpt lat="-8.039988" lon="-34.892546">
    <ele>14.6</ele>
    <time>2020-02-18T14:06:46.000Z</time>
   </trkpt>
   <trkpt lat="-8.040031" lon="-34.892578">
    <ele>14.7</ele>
    <time>2020-02-18T14:06:47.000Z</time>
   </trkpt>
   <trkpt lat="-8.040069" lon="-34.892618">
    <ele>14.9</ele>
    <time>2020-02-18T14:06:48.000Z</time>
   </trkpt>
   <trkpt lat="-8.040109" lon="-34.892647">
    <ele>15</ele>
    <time>2020-02-18T14:06:49.000Z</time>
   </trkpt>
   <trkpt lat="-8.040149" lon="-34.892681">
    <ele>15.1</ele>
    <time>2020-02-18T14:06:50.000Z</time>
   </trkpt>
   <trkpt lat="-8.040186" lon="-34.89272">
    <ele>15.1</ele>
    <time>2020-02-18T14:06:51.000Z</time>
   </trkpt>
   <trkpt lat="-8.040224" lon="-34.892761">
    <ele>15.2</ele>
    <time>2020-02-18T14:06:52.000Z</time>
   </trkpt>
   <trkpt lat="-8.040269" lon="-34.892808">
    <ele>15.2</ele>
    <time>2020-02-18T14:06:53.000Z</time>
   </trkpt>
   <trkpt lat="-8.040318" lon="-34.892847">
    <ele>15.3</ele>
    <time>2020-02-18T14:06:54.000Z</time>
   </trkpt>
   <trkpt lat="-8.040365" lon="-34.89289">
    <ele>15.3</ele>
    <time>2020-02-18T14:06:55.000Z</time>
   </trkpt>
   <trkpt lat="-8.040404" lon="-34.892923">
    <ele>15.4</ele>
    <time>2020-02-18T14:06:56.000Z</time>
   </trkpt>
   <trkpt lat="-8.040449" lon="-34.89295">
    <ele>15.5</ele>
    <time>2020-02-18T14:06:57.000Z</time>
   </trkpt>
   <trkpt lat="-8.040488" lon="-34.892976">
    <ele>15.6</ele>
    <time>2020-02-18T14:06:58.000Z</time>
   </trkpt>
   <trkpt lat="-8.040534" lon="-34.893002">
    <ele>15.7</ele>
    <time>2020-02-18T14:06:59.000Z</time>
   </trkpt>
   <trkpt lat="-8.040585" lon="-34.893031">
    <ele>15.8</ele>
    <time>2020-02-18T14:07:00.000Z</time>
   </trkpt>
   <trkpt lat="-8.040646" lon="-34.893059">
    <ele>15.9</ele>
    <time>2020-02-18T14:07:01.000Z</time>
   </trkpt>
   <trkpt lat="-8.040692" lon="-34.893088">
    <ele>16</ele>
    <time>2020-02-18T14:07:02.000Z</time>
   </trkpt>
   <trkpt lat="-8.040727" lon="-34.893128">
    <ele>16.1</ele>
    <time>2020-02-18T14:07:03.000Z</time>
   </trkpt>
   <trkpt lat="-8.040777" lon="-34.893171">
    <ele>16.2</ele>
    <time>2020-02-18T14:07:04.000Z</time>
   </trkpt>
   <trkpt lat="-8.040827" lon="-34.893211">
    <ele>16.3</ele>
    <time>2020-02-18T14:07:05.000Z</time>
   </trkpt>
   <trkpt lat="-8.040872" lon="-34.893254">
    <ele>16.4</ele>
    <time>2020-02-18T14:07:06.000Z</time>
   </trkpt>
   <trkpt lat="-8.040917" lon="-34.893301">
    <ele>16.5</ele>
    <time>2020-02-18T14:07:07.000Z</time>
   </trkpt>
   <trkpt lat="-8.040958" lon="-34.893335">
    <ele>16.7</ele>
    <time>2020-02-18T14:07:08.000Z</time>
   </trkpt>
   <trkpt lat="-8.04099" lon="-34.893366">
    <ele>16.8</ele>
    <time>2020-02-18T14:07:09.000Z</time>
   </trkpt>
   <trkpt lat="-8.041019" lon="-34.893403">
    <ele>16.9</ele>
    <time>2020-02-18T14:07:10.000Z</time>
   </trkpt>
   <trkpt lat="-8.041047" lon="-34.893429">
    <ele>17</ele>
    <time>2020-02-18T14:07:11.000Z</time>
   </trkpt>
   <trkpt lat="-8.041073" lon="-34.893435">
    <ele>17.1</ele>
    <time>2020-02-18T14:07:12.000Z</time>
   </trkpt>
   <trkpt lat="-8.041093" lon="-34.893453">
    <ele>17.1</ele>
    <time>2020-02-18T14:07:14.000Z</time>
   </trkpt>
   <trkpt lat="-8.04108" lon="-34.89347">
    <ele>17.2</ele>
    <time>2020-02-18T14:07:17.000Z</time>
   </trkpt>
   <trkpt lat="-8.041066" lon="-34.893466">
    <ele>17.2</ele>
    <time>2020-02-18T14:07:21.000Z</time>
   </trkpt>
   <trkpt lat="-8.041175" lon="-34.893512">
    <ele>17.6</ele>
    <time>2020-02-18T14:07:47.000Z</time>
   </trkpt>
   <trkpt lat="-8.041201" lon="-34.893522">
    <ele>17.6</ele>
    <time>2020-02-18T14:07:48.000Z</time>
   </trkpt>
   <trkpt lat="-8.041222" lon="-34.893537">
    <ele>17.7</ele>
    <time>2020-02-18T14:07:49.000Z</time>
   </trkpt>
   <trkpt lat="-8.041266" lon="-34.893592">
    <ele>17.9</ele>
    <time>2020-02-18T14:07:51.000Z</time>
   </trkpt>
   <trkpt lat="-8.04128" lon="-34.893606">
    <ele>17.9</ele>
    <time>2020-02-18T14:07:52.000Z</time>
   </trkpt>
   <trkpt lat="-8.041319" lon="-34.893641">
    <ele>18</ele>
    <time>2020-02-18T14:07:54.000Z</time>
   </trkpt>
   <trkpt lat="-8.041341" lon="-34.893664">
    <ele>18.1</ele>
    <time>2020-02-18T14:07:55.000Z</time>
   </trkpt>
   <trkpt lat="-8.041371" lon="-34.89368">
    <ele>18.1</ele>
    <time>2020-02-18T14:07:56.000Z</time>
   </trkpt>
   <trkpt lat="-8.041401" lon="-34.893688">
    <ele>18.1</ele>
    <time>2020-02-18T14:07:57.000Z</time>
   </trkpt>
   <trkpt lat="-8.041426" lon="-34.893695">
    <ele>17.9</ele>
    <time>2020-02-18T14:07:58.000Z</time>
   </trkpt>
   <trkpt lat="-8.041462" lon="-34.893664">
    <ele>17.8</ele>
    <time>2020-02-18T14:08:00.000Z</time>
   </trkpt>
   <trkpt lat="-8.041484" lon="-34.893641">
    <ele>17.7</ele>
    <time>2020-02-18T14:08:01.000Z</time>
   </trkpt>
   <trkpt lat="-8.041517" lon="-34.893616">
    <ele>17.6</ele>
    <time>2020-02-18T14:08:02.000Z</time>
   </trkpt>
   <trkpt lat="-8.04155" lon="-34.89359">
    <ele>17.5</ele>
    <time>2020-02-18T14:08:03.000Z</time>
   </trkpt>
   <trkpt lat="-8.041577" lon="-34.893554">
    <ele>17.5</ele>
    <time>2020-02-18T14:08:04.000Z</time>
   </trkpt>
   <trkpt lat="-8.041602" lon="-34.893512">
    <ele>17.4</ele>
    <time>2020-02-18T14:08:05.000Z</time>
   </trkpt>
   <trkpt lat="-8.041622" lon="-34.893477">
    <ele>17.3</ele>
    <time>2020-02-18T14:08:06.000Z</time>
   </trkpt>
   <trkpt lat="-8.041663" lon="-34.893446">
    <ele>17.2</ele>
    <time>2020-02-18T14:08:07.000Z</time>
   </trkpt>
   <trkpt lat="-8.041692" lon="-34.893406">
    <ele>17.2</ele>
    <time>2020-02-18T14:08:08.000Z</time>
   </trkpt>
   <trkpt lat="-8.04172" lon="-34.89337">
    <ele>17.2</ele>
    <time>2020-02-18T14:08:09.000Z</time>
   </trkpt>
   <trkpt lat="-8.041751" lon="-34.893336">
    <ele>17.1</ele>
    <time>2020-02-18T14:08:10.000Z</time>
   </trkpt>
   <trkpt lat="-8.041781" lon="-34.893289">
    <ele>17.1</ele>
    <time>2020-02-18T14:08:11.000Z</time>
   </trkpt>
   <trkpt lat="-8.041818" lon="-34.893249">
    <ele>17.1</ele>
    <time>2020-02-18T14:08:12.000Z</time>
   </trkpt>
   <trkpt lat="-8.041852" lon="-34.89322">
    <ele>17.1</ele>
    <time>2020-02-18T14:08:13.000Z</time>
   </trkpt>
   <trkpt lat="-8.041896" lon="-34.893181">
    <ele>17.1</ele>
    <time>2020-02-18T14:08:14.000Z</time>
   </trkpt>
   <trkpt lat="-8.041941" lon="-34.893139">
    <ele>17.1</ele>
    <time>2020-02-18T14:08:15.000Z</time>
   </trkpt>
   <trkpt lat="-8.041979" lon="-34.893085">
    <ele>17.1</ele>
    <time>2020-02-18T14:08:16.000Z</time>
   </trkpt>
   <trkpt lat="-8.042019" lon="-34.893023">
    <ele>17</ele>
    <time>2020-02-18T14:08:17.000Z</time>
   </trkpt>
   <trkpt lat="-8.042053" lon="-34.89297">
    <ele>17</ele>
    <time>2020-02-18T14:08:18.000Z</time>
   </trkpt>
   <trkpt lat="-8.042085" lon="-34.892919">
    <ele>17</ele>
    <time>2020-02-18T14:08:19.000Z</time>
   </trkpt>
   <trkpt lat="-8.042112" lon="-34.892864">
    <ele>17</ele>
    <time>2020-02-18T14:08:20.000Z</time>
   </trkpt>
   <trkpt lat="-8.042144" lon="-34.892811">
    <ele>17</ele>
    <time>2020-02-18T14:08:21.000Z</time>
   </trkpt>
   <trkpt lat="-8.042179" lon="-34.892755">
    <ele>17</ele>
    <time>2020-02-18T14:08:22.000Z</time>
   </trkpt>
   <trkpt lat="-8.042226" lon="-34.892704">
    <ele>17</ele>
    <time>2020-02-18T14:08:23.000Z</time>
   </trkpt>
   <trkpt lat="-8.04227" lon="-34.892649">
    <ele>17</ele>
    <time>2020-02-18T14:08:24.000Z</time>
   </trkpt>
   <trkpt lat="-8.042312" lon="-34.892595">
    <ele>17</ele>
    <time>2020-02-18T14:08:25.000Z</time>
   </trkpt>
   <trkpt lat="-8.042343" lon="-34.892552">
    <ele>16.8</ele>
    <time>2020-02-18T14:08:26.000Z</time>
   </trkpt>
   <trkpt lat="-8.042377" lon="-34.892505">
    <ele>16.6</ele>
    <time>2020-02-18T14:08:27.000Z</time>
   </trkpt>
   <trkpt lat="-8.042409" lon="-34.892447">
    <ele>16.5</ele>
    <time>2020-02-18T14:08:28.000Z</time>
   </trkpt>
   <trkpt lat="-8.042449" lon="-34.892393">
    <ele>16.3</ele>
    <time>2020-02-18T14:08:29.000Z</time>
   </trkpt>
   <trkpt lat="-8.042488" lon="-34.892348">
    <ele>16</ele>
    <time>2020-02-18T14:08:30.000Z</time>
   </trkpt>
   <trkpt lat="-8.042529" lon="-34.892296">
    <ele>15.7</ele>
    <time>2020-02-18T14:08:31.000Z</time>
   </trkpt>
   <trkpt lat="-8.042569" lon="-34.892254">
    <ele>15.5</ele>
    <time>2020-02-18T14:08:32.000Z</time>
   </trkpt>
   <trkpt lat="-8.04262" lon="-34.892214">
    <ele>15.3</ele>
    <time>2020-02-18T14:08:33.000Z</time>
   </trkpt>
   <trkpt lat="-8.042662" lon="-34.892161">
    <ele>15.2</ele>
    <time>2020-02-18T14:08:34.000Z</time>
   </trkpt>
   <trkpt lat="-8.042698" lon="-34.892106">
    <ele>15</ele>
    <time>2020-02-18T14:08:35.000Z</time>
   </trkpt>
   <trkpt lat="-8.042732" lon="-34.892049">
    <ele>14.9</ele>
    <time>2020-02-18T14:08:36.000Z</time>
   </trkpt>
   <trkpt lat="-8.042777" lon="-34.89199">
    <ele>14.8</ele>
    <time>2020-02-18T14:08:37.000Z</time>
   </trkpt>
   <trkpt lat="-8.042827" lon="-34.891934">
    <ele>14.8</ele>
    <time>2020-02-18T14:08:38.000Z</time>
   </trkpt>
   <trkpt lat="-8.042877" lon="-34.891891">
    <ele>14.7</ele>
    <time>2020-02-18T14:08:39.000Z</time>
   </trkpt>
   <trkpt lat="-8.042911" lon="-34.891846">
    <ele>14.7</ele>
    <time>2020-02-18T14:08:40.000Z</time>
   </trkpt>
   <trkpt lat="-8.042955" lon="-34.891798">
    <ele>14.7</ele>
    <time>2020-02-18T14:08:41.000Z</time>
   </trkpt>
   <trkpt lat="-8.042996" lon="-34.891743">
    <ele>14.6</ele>
    <time>2020-02-18T14:08:42.000Z</time>
   </trkpt>
   <trkpt lat="-8.043046" lon="-34.891681">
    <ele>14.5</ele>
    <time>2020-02-18T14:08:43.000Z</time>
   </trkpt>
   <trkpt lat="-8.043092" lon="-34.891623">
    <ele>14.4</ele>
    <time>2020-02-18T14:08:44.000Z</time>
   </trkpt>
   <trkpt lat="-8.043144" lon="-34.891563">
    <ele>14.3</ele>
    <time>2020-02-18T14:08:45.000Z</time>
   </trkpt>
   <trkpt lat="-8.043185" lon="-34.891521">
    <ele>14.3</ele>
    <time>2020-02-18T14:08:46.000Z</time>
   </trkpt>
   <trkpt lat="-8.043226" lon="-34.891472">
    <ele>14.2</ele>
    <time>2020-02-18T14:08:47.000Z</time>
   </trkpt>
   <trkpt lat="-8.043272" lon="-34.891417">
    <ele>14</ele>
    <time>2020-02-18T14:08:48.000Z</time>
   </trkpt>
   <trkpt lat="-8.043321" lon="-34.89137">
    <ele>13.9</ele>
    <time>2020-02-18T14:08:49.000Z</time>
   </trkpt>
   <trkpt lat="-8.043376" lon="-34.891323">
    <ele>13.8</ele>
    <time>2020-02-18T14:08:50.000Z</time>
   </trkpt>
   <trkpt lat="-8.043424" lon="-34.891281">
    <ele>13.7</ele>
    <time>2020-02-18T14:08:51.000Z</time>
   </trkpt>
   <trkpt lat="-8.043482" lon="-34.891223">
    <ele>13.7</ele>
    <time>2020-02-18T14:08:52.000Z</time>
   </trkpt>
   <trkpt lat="-8.043542" lon="-34.891153">
    <ele>13.6</ele>
    <time>2020-02-18T14:08:53.000Z</time>
   </trkpt>
   <trkpt lat="-8.043596" lon="-34.89109">
    <ele>13.6</ele>
    <time>2020-02-18T14:08:54.000Z</time>
   </trkpt>
   <trkpt lat="-8.043648" lon="-34.891038">
    <ele>13.5</ele>
    <time>2020-02-18T14:08:55.000Z</time>
   </trkpt>
   <trkpt lat="-8.043707" lon="-34.890982">
    <ele>13.5</ele>
    <time>2020-02-18T14:08:56.000Z</time>
   </trkpt>
   <trkpt lat="-8.043757" lon="-34.890927">
    <ele>13.4</ele>
    <time>2020-02-18T14:08:57.000Z</time>
   </trkpt>
   <trkpt lat="-8.043808" lon="-34.890874">
    <ele>13.4</ele>
    <time>2020-02-18T14:08:58.000Z</time>
   </trkpt>
   <trkpt lat="-8.04387" lon="-34.890823">
    <ele>13.2</ele>
    <time>2020-02-18T14:08:59.000Z</time>
   </trkpt>
   <trkpt lat="-8.043934" lon="-34.890778">
    <ele>13</ele>
    <time>2020-02-18T14:09:00.000Z</time>
   </trkpt>
   <trkpt lat="-8.043997" lon="-34.890722">
    <ele>12.8</ele>
    <time>2020-02-18T14:09:01.000Z</time>
   </trkpt>
   <trkpt lat="-8.044053" lon="-34.890682">
    <ele>12.6</ele>
    <time>2020-02-18T14:09:02.000Z</time>
   </trkpt>
   <trkpt lat="-8.044104" lon="-34.890633">
    <ele>12.4</ele>
    <time>2020-02-18T14:09:03.000Z</time>
   </trkpt>
   <trkpt lat="-8.044141" lon="-34.890574">
    <ele>12</ele>
    <time>2020-02-18T14:09:04.000Z</time>
   </trkpt>
   <trkpt lat="-8.044186" lon="-34.890514">
    <ele>11.8</ele>
    <time>2020-02-18T14:09:05.000Z</time>
   </trkpt>
   <trkpt lat="-8.044242" lon="-34.890456">
    <ele>11.4</ele>
    <time>2020-02-18T14:09:06.000Z</time>
   </trkpt>
   <trkpt lat="-8.04429" lon="-34.890406">
    <ele>11</ele>
    <time>2020-02-18T14:09:07.000Z</time>
   </trkpt>
   <trkpt lat="-8.044347" lon="-34.890341">
    <ele>10.4</ele>
    <time>2020-02-18T14:09:08.000Z</time>
   </trkpt>
   <trkpt lat="-8.044419" lon="-34.890278">
    <ele>9.8</ele>
    <time>2020-02-18T14:09:09.000Z</time>
   </trkpt>
   <trkpt lat="-8.044477" lon="-34.890227">
    <ele>9.3</ele>
    <time>2020-02-18T14:09:10.000Z</time>
   </trkpt>
   <trkpt lat="-8.044525" lon="-34.890173">
    <ele>8.9</ele>
    <time>2020-02-18T14:09:11.000Z</time>
   </trkpt>
   <trkpt lat="-8.044575" lon="-34.89013">
    <ele>8.6</ele>
    <time>2020-02-18T14:09:12.000Z</time>
   </trkpt>
   <trkpt lat="-8.044632" lon="-34.890113">
    <ele>8.8</ele>
    <time>2020-02-18T14:09:13.000Z</time>
   </trkpt>
   <trkpt lat="-8.044698" lon="-34.890122">
    <ele>9</ele>
    <time>2020-02-18T14:09:14.000Z</time>
   </trkpt>
   <trkpt lat="-8.044759" lon="-34.89014">
    <ele>9.2</ele>
    <time>2020-02-18T14:09:15.000Z</time>
   </trkpt>
   <trkpt lat="-8.044808" lon="-34.890172">
    <ele>9.4</ele>
    <time>2020-02-18T14:09:16.000Z</time>
   </trkpt>
   <trkpt lat="-8.044851" lon="-34.890222">
    <ele>9.5</ele>
    <time>2020-02-18T14:09:17.000Z</time>
   </trkpt>
   <trkpt lat="-8.044895" lon="-34.890272">
    <ele>9.7</ele>
    <time>2020-02-18T14:09:18.000Z</time>
   </trkpt>
   <trkpt lat="-8.044946" lon="-34.890329">
    <ele>9.8</ele>
    <time>2020-02-18T14:09:19.000Z</time>
   </trkpt>
   <trkpt lat="-8.044998" lon="-34.890378">
    <ele>9.9</ele>
    <time>2020-02-18T14:09:20.000Z</time>
   </trkpt>
   <trkpt lat="-8.045056" lon="-34.890435">
    <ele>10.2</ele>
    <time>2020-02-18T14:09:21.000Z</time>
   </trkpt>
   <trkpt lat="-8.045108" lon="-34.890482">
    <ele>10.3</ele>
    <time>2020-02-18T14:09:22.000Z</time>
   </trkpt>
   <trkpt lat="-8.045157" lon="-34.890521">
    <ele>10.5</ele>
    <time>2020-02-18T14:09:23.000Z</time>
   </trkpt>
   <trkpt lat="-8.045209" lon="-34.890566">
    <ele>10.6</ele>
    <time>2020-02-18T14:09:24.000Z</time>
   </trkpt>
   <trkpt lat="-8.045266" lon="-34.890613">
    <ele>10.7</ele>
    <time>2020-02-18T14:09:25.000Z</time>
   </trkpt>
   <trkpt lat="-8.045328" lon="-34.890669">
    <ele>10.7</ele>
    <time>2020-02-18T14:09:26.000Z</time>
   </trkpt>
   <trkpt lat="-8.045384" lon="-34.890721">
    <ele>10.8</ele>
    <time>2020-02-18T14:09:27.000Z</time>
   </trkpt>
   <trkpt lat="-8.045431" lon="-34.890767">
    <ele>10.9</ele>
    <time>2020-02-18T14:09:28.000Z</time>
   </trkpt>
   <trkpt lat="-8.045481" lon="-34.890806">
    <ele>11.2</ele>
    <time>2020-02-18T14:09:29.000Z</time>
   </trkpt>
   <trkpt lat="-8.045539" lon="-34.890851">
    <ele>11.5</ele>
    <time>2020-02-18T14:09:30.000Z</time>
   </trkpt>
   <trkpt lat="-8.0456" lon="-34.890902">
    <ele>11.8</ele>
    <time>2020-02-18T14:09:31.000Z</time>
   </trkpt>
   <trkpt lat="-8.045653" lon="-34.890941">
    <ele>12.1</ele>
    <time>2020-02-18T14:09:32.000Z</time>
   </trkpt>
   <trkpt lat="-8.045708" lon="-34.890981">
    <ele>12.4</ele>
    <time>2020-02-18T14:09:33.000Z</time>
   </trkpt>
   <trkpt lat="-8.04577" lon="-34.891033">
    <ele>12.8</ele>
    <time>2020-02-18T14:09:34.000Z</time>
   </trkpt>
   <trkpt lat="-8.045823" lon="-34.89107">
    <ele>13</ele>
    <time>2020-02-18T14:09:35.000Z</time>
   </trkpt>
   <trkpt lat="-8.045873" lon="-34.891118">
    <ele>13.3</ele>
    <time>2020-02-18T14:09:36.000Z</time>
   </trkpt>
   <trkpt lat="-8.045934" lon="-34.891165">
    <ele>13.6</ele>
    <time>2020-02-18T14:09:37.000Z</time>
   </trkpt>
   <trkpt lat="-8.045987" lon="-34.891203">
    <ele>13.9</ele>
    <time>2020-02-18T14:09:38.000Z</time>
   </trkpt>
   <trkpt lat="-8.046042" lon="-34.891247">
    <ele>15.2</ele>
    <time>2020-02-18T14:09:39.000Z</time>
   </trkpt>
   <trkpt lat="-8.046098" lon="-34.891287">
    <ele>16.1</ele>
    <time>2020-02-18T14:09:40.000Z</time>
   </trkpt>
   <trkpt lat="-8.046153" lon="-34.891329">
    <ele>17</ele>
    <time>2020-02-18T14:09:41.000Z</time>
   </trkpt>
   <trkpt lat="-8.046205" lon="-34.891373">
    <ele>17.7</ele>
    <time>2020-02-18T14:09:42.000Z</time>
   </trkpt>
   <trkpt lat="-8.046268" lon="-34.891411">
    <ele>18.1</ele>
    <time>2020-02-18T14:09:43.000Z</time>
   </trkpt>
   <trkpt lat="-8.046322" lon="-34.891449">
    <ele>18.3</ele>
    <time>2020-02-18T14:09:44.000Z</time>
   </trkpt>
   <trkpt lat="-8.046376" lon="-34.891491">
    <ele>18.4</ele>
    <time>2020-02-18T14:09:45.000Z</time>
   </trkpt>
   <trkpt lat="-8.04643" lon="-34.89154">
    <ele>18.4</ele>
    <time>2020-02-18T14:09:46.000Z</time>
   </trkpt>
   <trkpt lat="-8.046484" lon="-34.891582">
    <ele>18.5</ele>
    <time>2020-02-18T14:09:47.000Z</time>
   </trkpt>
   <trkpt lat="-8.046538" lon="-34.891628">
    <ele>18.8</ele>
    <time>2020-02-18T14:09:48.000Z</time>
   </trkpt>
   <trkpt lat="-8.046594" lon="-34.891663">
    <ele>19.5</ele>
    <time>2020-02-18T14:09:49.000Z</time>
   </trkpt>
   <trkpt lat="-8.04664" lon="-34.891698">
    <ele>20.1</ele>
    <time>2020-02-18T14:09:50.000Z</time>
   </trkpt>
   <trkpt lat="-8.04669" lon="-34.891733">
    <ele>20.8</ele>
    <time>2020-02-18T14:09:51.000Z</time>
   </trkpt>
   <trkpt lat="-8.046744" lon="-34.891773">
    <ele>21.5</ele>
    <time>2020-02-18T14:09:52.000Z</time>
   </trkpt>
   <trkpt lat="-8.046777" lon="-34.891822">
    <ele>22.2</ele>
    <time>2020-02-18T14:09:53.000Z</time>
   </trkpt>
   <trkpt lat="-8.046819" lon="-34.891854">
    <ele>22.8</ele>
    <time>2020-02-18T14:09:54.000Z</time>
   </trkpt>
   <trkpt lat="-8.046866" lon="-34.891878">
    <ele>22.9</ele>
    <time>2020-02-18T14:09:55.000Z</time>
   </trkpt>
   <trkpt lat="-8.046888" lon="-34.891914">
    <ele>23</ele>
    <time>2020-02-18T14:09:56.000Z</time>
   </trkpt>
   <trkpt lat="-8.046919" lon="-34.891933">
    <ele>23.1</ele>
    <time>2020-02-18T14:09:57.000Z</time>
   </trkpt>
   <trkpt lat="-8.046956" lon="-34.891971">
    <ele>23.2</ele>
    <time>2020-02-18T14:09:58.000Z</time>
   </trkpt>
   <trkpt lat="-8.046984" lon="-34.892">
    <ele>23.2</ele>
    <time>2020-02-18T14:09:59.000Z</time>
   </trkpt>
   <trkpt lat="-8.046994" lon="-34.892002">
    <ele>23.3</ele>
    <time>2020-02-18T14:10:00.000Z</time>
   </trkpt>
   <trkpt lat="-8.047041" lon="-34.892031">
    <ele>23.4</ele>
    <time>2020-02-18T14:10:02.000Z</time>
   </trkpt>
   <trkpt lat="-8.047058" lon="-34.892035">
    <ele>23.4</ele>
    <time>2020-02-18T14:10:03.000Z</time>
   </trkpt>
   <trkpt lat="-8.047049" lon="-34.892033">
    <ele>23.4</ele>
    <time>2020-02-18T14:10:06.000Z</time>
   </trkpt>
   <trkpt lat="-8.047136" lon="-34.892078">
    <ele>21.5</ele>
    <time>2020-02-18T14:10:09.000Z</time>
   </trkpt>
   <trkpt lat="-8.04718" lon="-34.892103">
    <ele>20.4</ele>
    <time>2020-02-18T14:10:10.000Z</time>
   </trkpt>
   <trkpt lat="-8.047222" lon="-34.892128">
    <ele>19.5</ele>
    <time>2020-02-18T14:10:11.000Z</time>
   </trkpt>
   <trkpt lat="-8.047267" lon="-34.892157">
    <ele>18.5</ele>
    <time>2020-02-18T14:10:12.000Z</time>
   </trkpt>
   <trkpt lat="-8.047302" lon="-34.892187">
    <ele>17.6</ele>
    <time>2020-02-18T14:10:13.000Z</time>
   </trkpt>
   <trkpt lat="-8.047343" lon="-34.892213">
    <ele>16.8</ele>
    <time>2020-02-18T14:10:14.000Z</time>
   </trkpt>
   <trkpt lat="-8.047384" lon="-34.892242">
    <ele>15.9</ele>
    <time>2020-02-18T14:10:15.000Z</time>
   </trkpt>
   <trkpt lat="-8.047427" lon="-34.89228">
    <ele>14.6</ele>
    <time>2020-02-18T14:10:16.000Z</time>
   </trkpt>
   <trkpt lat="-8.047464" lon="-34.892314">
    <ele>14.1</ele>
    <time>2020-02-18T14:10:17.000Z</time>
   </trkpt>
   <trkpt lat="-8.047501" lon="-34.892346">
    <ele>13.7</ele>
    <time>2020-02-18T14:10:18.000Z</time>
   </trkpt>
   <trkpt lat="-8.047541" lon="-34.892378">
    <ele>13.2</ele>
    <time>2020-02-18T14:10:19.000Z</time>
   </trkpt>
   <trkpt lat="-8.047584" lon="-34.892407">
    <ele>12.8</ele>
    <time>2020-02-18T14:10:20.000Z</time>
   </trkpt>
   <trkpt lat="-8.047625" lon="-34.892442">
    <ele>12.4</ele>
    <time>2020-02-18T14:10:21.000Z</time>
   </trkpt>
   <trkpt lat="-8.047661" lon="-34.892476">
    <ele>12.1</ele>
    <time>2020-02-18T14:10:22.000Z</time>
   </trkpt>
   <trkpt lat="-8.047701" lon="-34.892504">
    <ele>11.7</ele>
    <time>2020-02-18T14:10:23.000Z</time>
   </trkpt>
   <trkpt lat="-8.047742" lon="-34.892527">
    <ele>11.4</ele>
    <time>2020-02-18T14:10:24.000Z</time>
   </trkpt>
   <trkpt lat="-8.047791" lon="-34.892566">
    <ele>10.8</ele>
    <time>2020-02-18T14:10:25.000Z</time>
   </trkpt>
   <trkpt lat="-8.04783" lon="-34.892601">
    <ele>10.2</ele>
    <time>2020-02-18T14:10:26.000Z</time>
   </trkpt>
   <trkpt lat="-8.047854" lon="-34.892624">
    <ele>9.8</ele>
    <time>2020-02-18T14:10:27.000Z</time>
   </trkpt>
   <trkpt lat="-8.047896" lon="-34.892659">
    <ele>8.9</ele>
    <time>2020-02-18T14:10:28.000Z</time>
   </trkpt>
   <trkpt lat="-8.047936" lon="-34.89269">
    <ele>7.9</ele>
    <time>2020-02-18T14:10:29.000Z</time>
   </trkpt>
   <trkpt lat="-8.047975" lon="-34.892717">
    <ele>7</ele>
    <time>2020-02-18T14:10:30.000Z</time>
   </trkpt>
   <trkpt lat="-8.048018" lon="-34.892741">
    <ele>6</ele>
    <time>2020-02-18T14:10:31.000Z</time>
   </trkpt>
   <trkpt lat="-8.04807" lon="-34.89278">
    <ele>6.2</ele>
    <time>2020-02-18T14:10:32.000Z</time>
   </trkpt>
   <trkpt lat="-8.048121" lon="-34.892813">
    <ele>6.4</ele>
    <time>2020-02-18T14:10:33.000Z</time>
   </trkpt>
   <trkpt lat="-8.048161" lon="-34.892846">
    <ele>6.5</ele>
    <time>2020-02-18T14:10:34.000Z</time>
   </trkpt>
   <trkpt lat="-8.048188" lon="-34.892874">
    <ele>6.6</ele>
    <time>2020-02-18T14:10:35.000Z</time>
   </trkpt>
   <trkpt lat="-8.048224" lon="-34.892884">
    <ele>6.8</ele>
    <time>2020-02-18T14:10:36.000Z</time>
   </trkpt>
   <trkpt lat="-8.048256" lon="-34.892914">
    <ele>6.9</ele>
    <time>2020-02-18T14:10:37.000Z</time>
   </trkpt>
   <trkpt lat="-8.048259" lon="-34.892925">
    <ele>6.9</ele>
    <time>2020-02-18T14:10:38.000Z</time>
   </trkpt>
   <trkpt lat="-8.048267" lon="-34.892954">
    <ele>7</ele>
    <time>2020-02-18T14:10:42.000Z</time>
   </trkpt>
   <trkpt lat="-8.048286" lon="-34.892967">
    <ele>7.1</ele>
    <time>2020-02-18T14:10:44.000Z</time>
   </trkpt>
   <trkpt lat="-8.048342" lon="-34.893025">
    <ele>7.3</ele>
    <time>2020-02-18T14:10:47.000Z</time>
   </trkpt>
   <trkpt lat="-8.048358" lon="-34.893052">
    <ele>7.4</ele>
    <time>2020-02-18T14:10:48.000Z</time>
   </trkpt>
   <trkpt lat="-8.04839" lon="-34.893066">
    <ele>7.5</ele>
    <time>2020-02-18T14:10:49.000Z</time>
   </trkpt>
   <trkpt lat="-8.048414" lon="-34.893072">
    <ele>7.5</ele>
    <time>2020-02-18T14:10:50.000Z</time>
   </trkpt>
   <trkpt lat="-8.048446" lon="-34.893085">
    <ele>7.6</ele>
    <time>2020-02-18T14:10:52.000Z</time>
   </trkpt>
   <trkpt lat="-8.048465" lon="-34.893107">
    <ele>7.7</ele>
    <time>2020-02-18T14:10:54.000Z</time>
   </trkpt>
   <trkpt lat="-8.048479" lon="-34.89311">
    <ele>7.7</ele>
    <time>2020-02-18T14:10:57.000Z</time>
   </trkpt>
   <trkpt lat="-8.048517" lon="-34.893112">
    <ele>8</ele>
    <time>2020-02-18T14:11:01.000Z</time>
   </trkpt>
   <trkpt lat="-8.048564" lon="-34.893144">
    <ele>8.2</ele>
    <time>2020-02-18T14:11:03.000Z</time>
   </trkpt>
   <trkpt lat="-8.048597" lon="-34.893174">
    <ele>8.3</ele>
    <time>2020-02-18T14:11:04.000Z</time>
   </trkpt>
   <trkpt lat="-8.048631" lon="-34.89321">
    <ele>8.5</ele>
    <time>2020-02-18T14:11:05.000Z</time>
   </trkpt>
   <trkpt lat="-8.048668" lon="-34.893249">
    <ele>8.6</ele>
    <time>2020-02-18T14:11:06.000Z</time>
   </trkpt>
   <trkpt lat="-8.0487" lon="-34.893288">
    <ele>8.7</ele>
    <time>2020-02-18T14:11:07.000Z</time>
   </trkpt>
   <trkpt lat="-8.048726" lon="-34.893317">
    <ele>8.8</ele>
    <time>2020-02-18T14:11:08.000Z</time>
   </trkpt>
   <trkpt lat="-8.048762" lon="-34.893339">
    <ele>9</ele>
    <time>2020-02-18T14:11:09.000Z</time>
   </trkpt>
   <trkpt lat="-8.048768" lon="-34.893381">
    <ele>9.1</ele>
    <time>2020-02-18T14:11:10.000Z</time>
   </trkpt>
   <trkpt lat="-8.048799" lon="-34.893423">
    <ele>9.2</ele>
    <time>2020-02-18T14:11:11.000Z</time>
   </trkpt>
   <trkpt lat="-8.048838" lon="-34.893457">
    <ele>9.4</ele>
    <time>2020-02-18T14:11:12.000Z</time>
   </trkpt>
   <trkpt lat="-8.048873" lon="-34.893493">
    <ele>9.6</ele>
    <time>2020-02-18T14:11:13.000Z</time>
   </trkpt>
   <trkpt lat="-8.04891" lon="-34.89353">
    <ele>9.8</ele>
    <time>2020-02-18T14:11:14.000Z</time>
   </trkpt>
   <trkpt lat="-8.048942" lon="-34.893546">
    <ele>10</ele>
    <time>2020-02-18T14:11:15.000Z</time>
   </trkpt>
   <trkpt lat="-8.048967" lon="-34.893562">
    <ele>10.1</ele>
    <time>2020-02-18T14:11:16.000Z</time>
   </trkpt>
   <trkpt lat="-8.048981" lon="-34.893571">
    <ele>10.2</ele>
    <time>2020-02-18T14:11:17.000Z</time>
   </trkpt>
   <trkpt lat="-8.049034" lon="-34.893605">
    <ele>10.6</ele>
    <time>2020-02-18T14:11:19.000Z</time>
   </trkpt>
   <trkpt lat="-8.049063" lon="-34.89363">
    <ele>10.8</ele>
    <time>2020-02-18T14:11:20.000Z</time>
   </trkpt>
   <trkpt lat="-8.049102" lon="-34.893643">
    <ele>11</ele>
    <time>2020-02-18T14:11:21.000Z</time>
   </trkpt>
   <trkpt lat="-8.049152" lon="-34.893667">
    <ele>11.2</ele>
    <time>2020-02-18T14:11:22.000Z</time>
   </trkpt>
   <trkpt lat="-8.049193" lon="-34.893686">
    <ele>11.5</ele>
    <time>2020-02-18T14:11:23.000Z</time>
   </trkpt>
   <trkpt lat="-8.049229" lon="-34.893715">
    <ele>11.8</ele>
    <time>2020-02-18T14:11:24.000Z</time>
   </trkpt>
   <trkpt lat="-8.049265" lon="-34.893747">
    <ele>12.1</ele>
    <time>2020-02-18T14:11:25.000Z</time>
   </trkpt>
   <trkpt lat="-8.049281" lon="-34.893787">
    <ele>11.9</ele>
    <time>2020-02-18T14:11:26.000Z</time>
   </trkpt>
   <trkpt lat="-8.049334" lon="-34.893817">
    <ele>11.7</ele>
    <time>2020-02-18T14:11:27.000Z</time>
   </trkpt>
   <trkpt lat="-8.049381" lon="-34.893839">
    <ele>11.5</ele>
    <time>2020-02-18T14:11:28.000Z</time>
   </trkpt>
   <trkpt lat="-8.049435" lon="-34.89388">
    <ele>11.3</ele>
    <time>2020-02-18T14:11:29.000Z</time>
   </trkpt>
   <trkpt lat="-8.049488" lon="-34.893908">
    <ele>11.3</ele>
    <time>2020-02-18T14:11:30.000Z</time>
   </trkpt>
   <trkpt lat="-8.049538" lon="-34.893947">
    <ele>11.2</ele>
    <time>2020-02-18T14:11:31.000Z</time>
   </trkpt>
   <trkpt lat="-8.049576" lon="-34.893982">
    <ele>11.2</ele>
    <time>2020-02-18T14:11:32.000Z</time>
   </trkpt>
   <trkpt lat="-8.049606" lon="-34.894017">
    <ele>11.1</ele>
    <time>2020-02-18T14:11:33.000Z</time>
   </trkpt>
   <trkpt lat="-8.049629" lon="-34.894063">
    <ele>11</ele>
    <time>2020-02-18T14:11:34.000Z</time>
   </trkpt>
   <trkpt lat="-8.049664" lon="-34.894104">
    <ele>10.9</ele>
    <time>2020-02-18T14:11:35.000Z</time>
   </trkpt>
   <trkpt lat="-8.049697" lon="-34.894145">
    <ele>10.8</ele>
    <time>2020-02-18T14:11:36.000Z</time>
   </trkpt>
   <trkpt lat="-8.049747" lon="-34.894182">
    <ele>10.6</ele>
    <time>2020-02-18T14:11:37.000Z</time>
   </trkpt>
   <trkpt lat="-8.049794" lon="-34.894216">
    <ele>10.2</ele>
    <time>2020-02-18T14:11:38.000Z</time>
   </trkpt>
   <trkpt lat="-8.049844" lon="-34.894239">
    <ele>9.7</ele>
    <time>2020-02-18T14:11:39.000Z</time>
   </trkpt>
   <trkpt lat="-8.049889" lon="-34.894259">
    <ele>9.3</ele>
    <time>2020-02-18T14:11:40.000Z</time>
   </trkpt>
   <trkpt lat="-8.049925" lon="-34.894282">
    <ele>8.9</ele>
    <time>2020-02-18T14:11:41.000Z</time>
   </trkpt>
   <trkpt lat="-8.049948" lon="-34.894303">
    <ele>8.7</ele>
    <time>2020-02-18T14:11:42.000Z</time>
   </trkpt>
   <trkpt lat="-8.049967" lon="-34.894321">
    <ele>8.5</ele>
    <time>2020-02-18T14:11:43.000Z</time>
   </trkpt>
   <trkpt lat="-8.049988" lon="-34.894351">
    <ele>8.3</ele>
    <time>2020-02-18T14:11:45.000Z</time>
   </trkpt>
   <trkpt lat="-8.050029" lon="-34.89438">
    <ele>7.9</ele>
    <time>2020-02-18T14:11:47.000Z</time>
   </trkpt>
   <trkpt lat="-8.050047" lon="-34.894411">
    <ele>7.7</ele>
    <time>2020-02-18T14:11:48.000Z</time>
   </trkpt>
   <trkpt lat="-8.050089" lon="-34.894429">
    <ele>7.6</ele>
    <time>2020-02-18T14:11:49.000Z</time>
   </trkpt>
   <trkpt lat="-8.050128" lon="-34.894455">
    <ele>7.4</ele>
    <time>2020-02-18T14:11:50.000Z</time>
   </trkpt>
   <trkpt lat="-8.050172" lon="-34.894479">
    <ele>7.2</ele>
    <time>2020-02-18T14:11:51.000Z</time>
   </trkpt>
   <trkpt lat="-8.050212" lon="-34.894525">
    <ele>7</ele>
    <time>2020-02-18T14:11:52.000Z</time>
   </trkpt>
   <trkpt lat="-8.050257" lon="-34.894554">
    <ele>6.8</ele>
    <time>2020-02-18T14:11:53.000Z</time>
   </trkpt>
   <trkpt lat="-8.050303" lon="-34.894578">
    <ele>6.7</ele>
    <time>2020-02-18T14:11:54.000Z</time>
   </trkpt>
   <trkpt lat="-8.050346" lon="-34.894612">
    <ele>6.5</ele>
    <time>2020-02-18T14:11:55.000Z</time>
   </trkpt>
   <trkpt lat="-8.050385" lon="-34.894647">
    <ele>6.4</ele>
    <time>2020-02-18T14:11:56.000Z</time>
   </trkpt>
   <trkpt lat="-8.050425" lon="-34.89468">
    <ele>6.2</ele>
    <time>2020-02-18T14:11:57.000Z</time>
   </trkpt>
   <trkpt lat="-8.05047" lon="-34.894711">
    <ele>6.1</ele>
    <time>2020-02-18T14:11:58.000Z</time>
   </trkpt>
   <trkpt lat="-8.050516" lon="-34.89474">
    <ele>5.9</ele>
    <time>2020-02-18T14:11:59.000Z</time>
   </trkpt>
   <trkpt lat="-8.050558" lon="-34.894768">
    <ele>5.8</ele>
    <time>2020-02-18T14:12:00.000Z</time>
   </trkpt>
   <trkpt lat="-8.050593" lon="-34.894801">
    <ele>5.7</ele>
    <time>2020-02-18T14:12:01.000Z</time>
   </trkpt>
   <trkpt lat="-8.050627" lon="-34.89483">
    <ele>5.5</ele>
    <time>2020-02-18T14:12:02.000Z</time>
   </trkpt>
   <trkpt lat="-8.050663" lon="-34.89486">
    <ele>5.4</ele>
    <time>2020-02-18T14:12:03.000Z</time>
   </trkpt>
   <trkpt lat="-8.050704" lon="-34.894887">
    <ele>5.3</ele>
    <time>2020-02-18T14:12:04.000Z</time>
   </trkpt>
   <trkpt lat="-8.050739" lon="-34.89492">
    <ele>5.1</ele>
    <time>2020-02-18T14:12:05.000Z</time>
   </trkpt>
   <trkpt lat="-8.050785" lon="-34.894949">
    <ele>5</ele>
    <time>2020-02-18T14:12:06.000Z</time>
   </trkpt>
   <trkpt lat="-8.050827" lon="-34.894985">
    <ele>4.8</ele>
    <time>2020-02-18T14:12:07.000Z</time>
   </trkpt>
   <trkpt lat="-8.050873" lon="-34.895016">
    <ele>4.7</ele>
    <time>2020-02-18T14:12:08.000Z</time>
   </trkpt>
   <trkpt lat="-8.05093" lon="-34.895049">
    <ele>4.5</ele>
    <time>2020-02-18T14:12:09.000Z</time>
   </trkpt>
   <trkpt lat="-8.050978" lon="-34.895086">
    <ele>4.4</ele>
    <time>2020-02-18T14:12:10.000Z</time>
   </trkpt>
   <trkpt lat="-8.051024" lon="-34.895123">
    <ele>4.2</ele>
    <time>2020-02-18T14:12:11.000Z</time>
   </trkpt>
   <trkpt lat="-8.051071" lon="-34.895162">
    <ele>4</ele>
    <time>2020-02-18T14:12:12.000Z</time>
   </trkpt>
   <trkpt lat="-8.051125" lon="-34.895203">
    <ele>3.8</ele>
    <time>2020-02-18T14:12:13.000Z</time>
   </trkpt>
   <trkpt lat="-8.051178" lon="-34.895247">
    <ele>3.6</ele>
    <time>2020-02-18T14:12:14.000Z</time>
   </trkpt>
   <trkpt lat="-8.051228" lon="-34.895295">
    <ele>4.4</ele>
    <time>2020-02-18T14:12:15.000Z</time>
   </trkpt>
   <trkpt lat="-8.051274" lon="-34.895335">
    <ele>4.7</ele>
    <time>2020-02-18T14:12:16.000Z</time>
   </trkpt>
   <trkpt lat="-8.051318" lon="-34.895374">
    <ele>4.7</ele>
    <time>2020-02-18T14:12:17.000Z</time>
   </trkpt>
   <trkpt lat="-8.051365" lon="-34.895413">
    <ele>4.8</ele>
    <time>2020-02-18T14:12:18.000Z</time>
   </trkpt>
   <trkpt lat="-8.051408" lon="-34.895453">
    <ele>4.8</ele>
    <time>2020-02-18T14:12:19.000Z</time>
   </trkpt>
   <trkpt lat="-8.051452" lon="-34.895492">
    <ele>4.9</ele>
    <time>2020-02-18T14:12:20.000Z</time>
   </trkpt>
   <trkpt lat="-8.051489" lon="-34.895527">
    <ele>5</ele>
    <time>2020-02-18T14:12:21.000Z</time>
   </trkpt>
   <trkpt lat="-8.051525" lon="-34.895561">
    <ele>5</ele>
    <time>2020-02-18T14:12:22.000Z</time>
   </trkpt>
   <trkpt lat="-8.051565" lon="-34.895597">
    <ele>5.1</ele>
    <time>2020-02-18T14:12:23.000Z</time>
   </trkpt>
   <trkpt lat="-8.051609" lon="-34.895624">
    <ele>5.1</ele>
    <time>2020-02-18T14:12:24.000Z</time>
   </trkpt>
   <trkpt lat="-8.051656" lon="-34.895673">
    <ele>5.2</ele>
    <time>2020-02-18T14:12:25.000Z</time>
   </trkpt>
   <trkpt lat="-8.051699" lon="-34.895713">
    <ele>5.3</ele>
    <time>2020-02-18T14:12:26.000Z</time>
   </trkpt>
   <trkpt lat="-8.051741" lon="-34.895744">
    <ele>5.4</ele>
    <time>2020-02-18T14:12:27.000Z</time>
   </trkpt>
   <trkpt lat="-8.051785" lon="-34.895783">
    <ele>5.5</ele>
    <time>2020-02-18T14:12:28.000Z</time>
   </trkpt>
   <trkpt lat="-8.051824" lon="-34.895822">
    <ele>5.6</ele>
    <time>2020-02-18T14:12:29.000Z</time>
   </trkpt>
   <trkpt lat="-8.051879" lon="-34.895845">
    <ele>5.7</ele>
    <time>2020-02-18T14:12:30.000Z</time>
   </trkpt>
   <trkpt lat="-8.051929" lon="-34.895883">
    <ele>5.8</ele>
    <time>2020-02-18T14:12:31.000Z</time>
   </trkpt>
   <trkpt lat="-8.051974" lon="-34.895915">
    <ele>6</ele>
    <time>2020-02-18T14:12:32.000Z</time>
   </trkpt>
   <trkpt lat="-8.052016" lon="-34.895936">
    <ele>6.1</ele>
    <time>2020-02-18T14:12:33.000Z</time>
   </trkpt>
   <trkpt lat="-8.052059" lon="-34.895952">
    <ele>6.2</ele>
    <time>2020-02-18T14:12:34.000Z</time>
   </trkpt>
   <trkpt lat="-8.05212" lon="-34.895962">
    <ele>6.5</ele>
    <time>2020-02-18T14:12:35.000Z</time>
   </trkpt>
   <trkpt lat="-8.052179" lon="-34.89597">
    <ele>6.8</ele>
    <time>2020-02-18T14:12:36.000Z</time>
   </trkpt>
   <trkpt lat="-8.052234" lon="-34.895993">
    <ele>7</ele>
    <time>2020-02-18T14:12:37.000Z</time>
   </trkpt>
   <trkpt lat="-8.052295" lon="-34.896017">
    <ele>7.2</ele>
    <time>2020-02-18T14:12:38.000Z</time>
   </trkpt>
   <trkpt lat="-8.052355" lon="-34.896036">
    <ele>7.1</ele>
    <time>2020-02-18T14:12:39.000Z</time>
   </trkpt>
   <trkpt lat="-8.052405" lon="-34.896064">
    <ele>7</ele>
    <time>2020-02-18T14:12:40.000Z</time>
   </trkpt>
   <trkpt lat="-8.052458" lon="-34.896094">
    <ele>6.9</ele>
    <time>2020-02-18T14:12:41.000Z</time>
   </trkpt>
   <trkpt lat="-8.052514" lon="-34.896128">
    <ele>6.8</ele>
    <time>2020-02-18T14:12:42.000Z</time>
   </trkpt>
   <trkpt lat="-8.052574" lon="-34.896162">
    <ele>6.7</ele>
    <time>2020-02-18T14:12:43.000Z</time>
   </trkpt>
   <trkpt lat="-8.052632" lon="-34.896198">
    <ele>6.6</ele>
    <time>2020-02-18T14:12:44.000Z</time>
   </trkpt>
   <trkpt lat="-8.052689" lon="-34.896237">
    <ele>6.4</ele>
    <time>2020-02-18T14:12:45.000Z</time>
   </trkpt>
   <trkpt lat="-8.052749" lon="-34.896272">
    <ele>6.3</ele>
    <time>2020-02-18T14:12:46.000Z</time>
   </trkpt>
   <trkpt lat="-8.052801" lon="-34.896318">
    <ele>6.4</ele>
    <time>2020-02-18T14:12:47.000Z</time>
   </trkpt>
   <trkpt lat="-8.052862" lon="-34.896366">
    <ele>6.4</ele>
    <time>2020-02-18T14:12:48.000Z</time>
   </trkpt>
   <trkpt lat="-8.052924" lon="-34.896418">
    <ele>6.5</ele>
    <time>2020-02-18T14:12:49.000Z</time>
   </trkpt>
   <trkpt lat="-8.052978" lon="-34.89647">
    <ele>6.5</ele>
    <time>2020-02-18T14:12:50.000Z</time>
   </trkpt>
   <trkpt lat="-8.053036" lon="-34.896517">
    <ele>7</ele>
    <time>2020-02-18T14:12:51.000Z</time>
   </trkpt>
   <trkpt lat="-8.053093" lon="-34.896553">
    <ele>7.2</ele>
    <time>2020-02-18T14:12:52.000Z</time>
   </trkpt>
   <trkpt lat="-8.053145" lon="-34.896588">
    <ele>7.4</ele>
    <time>2020-02-18T14:12:53.000Z</time>
   </trkpt>
   <trkpt lat="-8.053197" lon="-34.89663">
    <ele>7.5</ele>
    <time>2020-02-18T14:12:54.000Z</time>
   </trkpt>
   <trkpt lat="-8.053247" lon="-34.896672">
    <ele>7.3</ele>
    <time>2020-02-18T14:12:55.000Z</time>
   </trkpt>
   <trkpt lat="-8.053302" lon="-34.896707">
    <ele>7.2</ele>
    <time>2020-02-18T14:12:56.000Z</time>
   </trkpt>
   <trkpt lat="-8.053358" lon="-34.896744">
    <ele>7</ele>
    <time>2020-02-18T14:12:57.000Z</time>
   </trkpt>
   <trkpt lat="-8.053418" lon="-34.896786">
    <ele>6.6</ele>
    <time>2020-02-18T14:12:58.000Z</time>
   </trkpt>
   <trkpt lat="-8.053475" lon="-34.896829">
    <ele>6.6</ele>
    <time>2020-02-18T14:12:59.000Z</time>
   </trkpt>
   <trkpt lat="-8.053529" lon="-34.896873">
    <ele>6.3</ele>
    <time>2020-02-18T14:13:00.000Z</time>
   </trkpt>
   <trkpt lat="-8.053579" lon="-34.896914">
    <ele>5.8</ele>
    <time>2020-02-18T14:13:01.000Z</time>
   </trkpt>
   <trkpt lat="-8.053632" lon="-34.896954">
    <ele>5.7</ele>
    <time>2020-02-18T14:13:02.000Z</time>
   </trkpt>
   <trkpt lat="-8.05368" lon="-34.896996">
    <ele>5.9</ele>
    <time>2020-02-18T14:13:03.000Z</time>
   </trkpt>
   <trkpt lat="-8.053733" lon="-34.897038">
    <ele>6.2</ele>
    <time>2020-02-18T14:13:04.000Z</time>
   </trkpt>
   <trkpt lat="-8.053789" lon="-34.89708">
    <ele>6.6</ele>
    <time>2020-02-18T14:13:05.000Z</time>
   </trkpt>
   <trkpt lat="-8.053847" lon="-34.897124">
    <ele>7</ele>
    <time>2020-02-18T14:13:06.000Z</time>
   </trkpt>
   <trkpt lat="-8.0539" lon="-34.897167">
    <ele>7.5</ele>
    <time>2020-02-18T14:13:07.000Z</time>
   </trkpt>
   <trkpt lat="-8.053947" lon="-34.897212">
    <ele>8</ele>
    <time>2020-02-18T14:13:08.000Z</time>
   </trkpt>
   <trkpt lat="-8.053998" lon="-34.897252">
    <ele>8.2</ele>
    <time>2020-02-18T14:13:09.000Z</time>
   </trkpt>
   <trkpt lat="-8.054047" lon="-34.897293">
    <ele>8</ele>
    <time>2020-02-18T14:13:10.000Z</time>
   </trkpt>
   <trkpt lat="-8.054101" lon="-34.897335">
    <ele>7.8</ele>
    <time>2020-02-18T14:13:11.000Z</time>
   </trkpt>
   <trkpt lat="-8.05415" lon="-34.89738">
    <ele>7.6</ele>
    <time>2020-02-18T14:13:12.000Z</time>
   </trkpt>
   <trkpt lat="-8.054197" lon="-34.897422">
    <ele>7.2</ele>
    <time>2020-02-18T14:13:13.000Z</time>
   </trkpt>
   <trkpt lat="-8.05425" lon="-34.897462">
    <ele>6.8</ele>
    <time>2020-02-18T14:13:14.000Z</time>
   </trkpt>
   <trkpt lat="-8.054299" lon="-34.897495">
    <ele>6.6</ele>
    <time>2020-02-18T14:13:15.000Z</time>
   </trkpt>
   <trkpt lat="-8.054348" lon="-34.897527">
    <ele>6.6</ele>
    <time>2020-02-18T14:13:16.000Z</time>
   </trkpt>
   <trkpt lat="-8.054404" lon="-34.897558">
    <ele>6.7</ele>
    <time>2020-02-18T14:13:17.000Z</time>
   </trkpt>
   <trkpt lat="-8.054459" lon="-34.897593">
    <ele>6.8</ele>
    <time>2020-02-18T14:13:18.000Z</time>
   </trkpt>
   <trkpt lat="-8.054512" lon="-34.897639">
    <ele>7</ele>
    <time>2020-02-18T14:13:19.000Z</time>
   </trkpt>
   <trkpt lat="-8.054561" lon="-34.897681">
    <ele>7</ele>
    <time>2020-02-18T14:13:20.000Z</time>
   </trkpt>
   <trkpt lat="-8.054616" lon="-34.89772">
    <ele>7.1</ele>
    <time>2020-02-18T14:13:21.000Z</time>
   </trkpt>
   <trkpt lat="-8.054685" lon="-34.897761">
    <ele>7.2</ele>
    <time>2020-02-18T14:13:22.000Z</time>
   </trkpt>
   <trkpt lat="-8.05476" lon="-34.897805">
    <ele>7.2</ele>
    <time>2020-02-18T14:13:23.000Z</time>
   </trkpt>
   <trkpt lat="-8.054819" lon="-34.897834">
    <ele>7.2</ele>
    <time>2020-02-18T14:13:24.000Z</time>
   </trkpt>
   <trkpt lat="-8.054881" lon="-34.897873">
    <ele>7.1</ele>
    <time>2020-02-18T14:13:25.000Z</time>
   </trkpt>
   <trkpt lat="-8.054942" lon="-34.897913">
    <ele>7</ele>
    <time>2020-02-18T14:13:26.000Z</time>
   </trkpt>
   <trkpt lat="-8.054993" lon="-34.897947">
    <ele>7</ele>
    <time>2020-02-18T14:13:27.000Z</time>
   </trkpt>
   <trkpt lat="-8.055045" lon="-34.897977">
    <ele>6.9</ele>
    <time>2020-02-18T14:13:28.000Z</time>
   </trkpt>
   <trkpt lat="-8.055097" lon="-34.898004">
    <ele>6.8</ele>
    <time>2020-02-18T14:13:29.000Z</time>
   </trkpt>
   <trkpt lat="-8.055141" lon="-34.89802">
    <ele>6.8</ele>
    <time>2020-02-18T14:13:30.000Z</time>
   </trkpt>
   <trkpt lat="-8.055184" lon="-34.898037">
    <ele>6.8</ele>
    <time>2020-02-18T14:13:31.000Z</time>
   </trkpt>
   <trkpt lat="-8.055238" lon="-34.898059">
    <ele>6.7</ele>
    <time>2020-02-18T14:13:32.000Z</time>
   </trkpt>
   <trkpt lat="-8.05529" lon="-34.898074">
    <ele>6.6</ele>
    <time>2020-02-18T14:13:33.000Z</time>
   </trkpt>
   <trkpt lat="-8.055344" lon="-34.898088">
    <ele>6.6</ele>
    <time>2020-02-18T14:13:34.000Z</time>
   </trkpt>
   <trkpt lat="-8.055375" lon="-34.898091">
    <ele>6.6</ele>
    <time>2020-02-18T14:13:35.000Z</time>
   </trkpt>
   <trkpt lat="-8.055385" lon="-34.898086">
    <ele>6.6</ele>
    <time>2020-02-18T14:13:36.000Z</time>
   </trkpt>
   <trkpt lat="-8.055412" lon="-34.898092">
    <ele>6.5</ele>
    <time>2020-02-18T14:13:40.000Z</time>
   </trkpt>
   <trkpt lat="-8.055461" lon="-34.898089">
    <ele>6.5</ele>
    <time>2020-02-18T14:13:42.000Z</time>
   </trkpt>
   <trkpt lat="-8.055506" lon="-34.898095">
    <ele>6.4</ele>
    <time>2020-02-18T14:13:44.000Z</time>
   </trkpt>
   <trkpt lat="-8.055552" lon="-34.898102">
    <ele>6.4</ele>
    <time>2020-02-18T14:13:46.000Z</time>
   </trkpt>
   <trkpt lat="-8.055594" lon="-34.898109">
    <ele>6.3</ele>
    <time>2020-02-18T14:13:48.000Z</time>
   </trkpt>
   <trkpt lat="-8.055604" lon="-34.898122">
    <ele>6.3</ele>
    <time>2020-02-18T14:13:50.000Z</time>
   </trkpt>
   <trkpt lat="-8.055669" lon="-34.898124">
    <ele>6.2</ele>
    <time>2020-02-18T14:13:52.000Z</time>
   </trkpt>
   <trkpt lat="-8.055705" lon="-34.898124">
    <ele>6.1</ele>
    <time>2020-02-18T14:13:53.000Z</time>
   </trkpt>
   <trkpt lat="-8.05574" lon="-34.898133">
    <ele>6</ele>
    <time>2020-02-18T14:13:54.000Z</time>
   </trkpt>
   <trkpt lat="-8.055769" lon="-34.898152">
    <ele>5.8</ele>
    <time>2020-02-18T14:13:55.000Z</time>
   </trkpt>
   <trkpt lat="-8.055798" lon="-34.898166">
    <ele>5.6</ele>
    <time>2020-02-18T14:13:56.000Z</time>
   </trkpt>
   <trkpt lat="-8.055832" lon="-34.898174">
    <ele>5.3</ele>
    <time>2020-02-18T14:13:57.000Z</time>
   </trkpt>
   <trkpt lat="-8.055867" lon="-34.898176">
    <ele>5</ele>
    <time>2020-02-18T14:13:58.000Z</time>
   </trkpt>
   <trkpt lat="-8.055907" lon="-34.898169">
    <ele>4.6</ele>
    <time>2020-02-18T14:13:59.000Z</time>
   </trkpt>
   <trkpt lat="-8.055954" lon="-34.898167">
    <ele>4</ele>
    <time>2020-02-18T14:14:00.000Z</time>
   </trkpt>
   <trkpt lat="-8.056003" lon="-34.898155">
    <ele>4.2</ele>
    <time>2020-02-18T14:14:01.000Z</time>
   </trkpt>
   <trkpt lat="-8.05606" lon="-34.898156">
    <ele>4.4</ele>
    <time>2020-02-18T14:14:02.000Z</time>
   </trkpt>
   <trkpt lat="-8.056117" lon="-34.898157">
    <ele>4.7</ele>
    <time>2020-02-18T14:14:03.000Z</time>
   </trkpt>
   <trkpt lat="-8.056165" lon="-34.898157">
    <ele>4.9</ele>
    <time>2020-02-18T14:14:04.000Z</time>
   </trkpt>
   <trkpt lat="-8.056223" lon="-34.89816">
    <ele>5.1</ele>
    <time>2020-02-18T14:14:05.000Z</time>
   </trkpt>
   <trkpt lat="-8.056277" lon="-34.898158">
    <ele>5.4</ele>
    <time>2020-02-18T14:14:06.000Z</time>
   </trkpt>
   <trkpt lat="-8.056333" lon="-34.898157">
    <ele>5.6</ele>
    <time>2020-02-18T14:14:07.000Z</time>
   </trkpt>
   <trkpt lat="-8.056393" lon="-34.898157">
    <ele>5.9</ele>
    <time>2020-02-18T14:14:08.000Z</time>
   </trkpt>
   <trkpt lat="-8.056452" lon="-34.898161">
    <ele>6.1</ele>
    <time>2020-02-18T14:14:09.000Z</time>
   </trkpt>
   <trkpt lat="-8.056513" lon="-34.898161">
    <ele>6.3</ele>
    <time>2020-02-18T14:14:10.000Z</time>
   </trkpt>
   <trkpt lat="-8.056573" lon="-34.898166">
    <ele>6.5</ele>
    <time>2020-02-18T14:14:11.000Z</time>
   </trkpt>
   <trkpt lat="-8.056637" lon="-34.898169">
    <ele>6.6</ele>
    <time>2020-02-18T14:14:12.000Z</time>
   </trkpt>
   <trkpt lat="-8.056698" lon="-34.898164">
    <ele>6.6</ele>
    <time>2020-02-18T14:14:13.000Z</time>
   </trkpt>
   <trkpt lat="-8.056771" lon="-34.898167">
    <ele>6.6</ele>
    <time>2020-02-18T14:14:14.000Z</time>
   </trkpt>
   <trkpt lat="-8.056835" lon="-34.898171">
    <ele>6.7</ele>
    <time>2020-02-18T14:14:15.000Z</time>
   </trkpt>
   <trkpt lat="-8.056895" lon="-34.898177">
    <ele>6.7</ele>
    <time>2020-02-18T14:14:16.000Z</time>
   </trkpt>
   <trkpt lat="-8.05696" lon="-34.898175">
    <ele>6.9</ele>
    <time>2020-02-18T14:14:17.000Z</time>
   </trkpt>
   <trkpt lat="-8.057025" lon="-34.89818">
    <ele>7.1</ele>
    <time>2020-02-18T14:14:18.000Z</time>
   </trkpt>
   <trkpt lat="-8.057094" lon="-34.898173">
    <ele>7.5</ele>
    <time>2020-02-18T14:14:19.000Z</time>
   </trkpt>
   <trkpt lat="-8.05715" lon="-34.898182">
    <ele>7.8</ele>
    <time>2020-02-18T14:14:20.000Z</time>
   </trkpt>
   <trkpt lat="-8.057216" lon="-34.898181">
    <ele>8.3</ele>
    <time>2020-02-18T14:14:21.000Z</time>
   </trkpt>
   <trkpt lat="-8.057282" lon="-34.89818">
    <ele>8.9</ele>
    <time>2020-02-18T14:14:22.000Z</time>
   </trkpt>
   <trkpt lat="-8.05735" lon="-34.898176">
    <ele>9.5</ele>
    <time>2020-02-18T14:14:23.000Z</time>
   </trkpt>
   <trkpt lat="-8.057394" lon="-34.898186">
    <ele>9.8</ele>
    <time>2020-02-18T14:14:24.000Z</time>
   </trkpt>
   <trkpt lat="-8.05745" lon="-34.898183">
    <ele>10.1</ele>
    <time>2020-02-18T14:14:25.000Z</time>
   </trkpt>
   <trkpt lat="-8.057498" lon="-34.898174">
    <ele>10.4</ele>
    <time>2020-02-18T14:14:26.000Z</time>
   </trkpt>
   <trkpt lat="-8.057545" lon="-34.898153">
    <ele>9.7</ele>
    <time>2020-02-18T14:14:27.000Z</time>
   </trkpt>
   <trkpt lat="-8.057595" lon="-34.898141">
    <ele>9.5</ele>
    <time>2020-02-18T14:14:28.000Z</time>
   </trkpt>
   <trkpt lat="-8.057652" lon="-34.898151">
    <ele>9.3</ele>
    <time>2020-02-18T14:14:29.000Z</time>
   </trkpt>
   <trkpt lat="-8.057715" lon="-34.898157">
    <ele>9.2</ele>
    <time>2020-02-18T14:14:30.000Z</time>
   </trkpt>
   <trkpt lat="-8.057781" lon="-34.898163">
    <ele>9.1</ele>
    <time>2020-02-18T14:14:31.000Z</time>
   </trkpt>
   <trkpt lat="-8.057844" lon="-34.898161">
    <ele>9.1</ele>
    <time>2020-02-18T14:14:32.000Z</time>
   </trkpt>
   <trkpt lat="-8.057903" lon="-34.898158">
    <ele>9.2</ele>
    <time>2020-02-18T14:14:33.000Z</time>
   </trkpt>
   <trkpt lat="-8.057961" lon="-34.898162">
    <ele>9.3</ele>
    <time>2020-02-18T14:14:34.000Z</time>
   </trkpt>
   <trkpt lat="-8.058024" lon="-34.898163">
    <ele>9.4</ele>
    <time>2020-02-18T14:14:35.000Z</time>
   </trkpt>
   <trkpt lat="-8.058081" lon="-34.898172">
    <ele>9.5</ele>
    <time>2020-02-18T14:14:36.000Z</time>
   </trkpt>
   <trkpt lat="-8.05813" lon="-34.89818">
    <ele>9.6</ele>
    <time>2020-02-18T14:14:37.000Z</time>
   </trkpt>
   <trkpt lat="-8.058184" lon="-34.898175">
    <ele>9.7</ele>
    <time>2020-02-18T14:14:38.000Z</time>
   </trkpt>
   <trkpt lat="-8.058224" lon="-34.898164">
    <ele>9.7</ele>
    <time>2020-02-18T14:14:39.000Z</time>
   </trkpt>
   <trkpt lat="-8.058287" lon="-34.898145">
    <ele>9.7</ele>
    <time>2020-02-18T14:14:40.000Z</time>
   </trkpt>
   <trkpt lat="-8.058328" lon="-34.898131">
    <ele>9.6</ele>
    <time>2020-02-18T14:14:41.000Z</time>
   </trkpt>
   <trkpt lat="-8.058373" lon="-34.89811">
    <ele>9.4</ele>
    <time>2020-02-18T14:14:42.000Z</time>
   </trkpt>
   <trkpt lat="-8.058415" lon="-34.898095">
    <ele>9.3</ele>
    <time>2020-02-18T14:14:43.000Z</time>
   </trkpt>
   <trkpt lat="-8.058457" lon="-34.898088">
    <ele>9.2</ele>
    <time>2020-02-18T14:14:44.000Z</time>
   </trkpt>
   <trkpt lat="-8.05851" lon="-34.898089">
    <ele>9.1</ele>
    <time>2020-02-18T14:14:45.000Z</time>
   </trkpt>
   <trkpt lat="-8.058564" lon="-34.898087">
    <ele>9</ele>
    <time>2020-02-18T14:14:46.000Z</time>
   </trkpt>
   <trkpt lat="-8.058627" lon="-34.898072">
    <ele>9</ele>
    <time>2020-02-18T14:14:47.000Z</time>
   </trkpt>
   <trkpt lat="-8.058672" lon="-34.898076">
    <ele>9</ele>
    <time>2020-02-18T14:14:48.000Z</time>
   </trkpt>
   <trkpt lat="-8.058726" lon="-34.898079">
    <ele>8.9</ele>
    <time>2020-02-18T14:14:49.000Z</time>
   </trkpt>
   <trkpt lat="-8.058776" lon="-34.898071">
    <ele>8.9</ele>
    <time>2020-02-18T14:14:50.000Z</time>
   </trkpt>
   <trkpt lat="-8.058812" lon="-34.898064">
    <ele>8.9</ele>
    <time>2020-02-18T14:14:51.000Z</time>
   </trkpt>
   <trkpt lat="-8.058832" lon="-34.898057">
    <ele>8.3</ele>
    <time>2020-02-18T14:14:52.000Z</time>
   </trkpt>
   <trkpt lat="-8.058851" lon="-34.89801">
    <ele>8.4</ele>
    <time>2020-02-18T14:14:54.000Z</time>
   </trkpt>
   <trkpt lat="-8.058845" lon="-34.897981">
    <ele>8.4</ele>
    <time>2020-02-18T14:14:56.000Z</time>
   </trkpt>
   <trkpt lat="-8.058835" lon="-34.897928">
    <ele>8.5</ele>
    <time>2020-02-18T14:14:58.000Z</time>
   </trkpt>
   <trkpt lat="-8.058827" lon="-34.897875">
    <ele>8.6</ele>
    <time>2020-02-18T14:15:00.000Z</time>
   </trkpt>
   <trkpt lat="-8.058799" lon="-34.897819">
    <ele>8.7</ele>
    <time>2020-02-18T14:15:02.000Z</time>
   </trkpt>
   <trkpt lat="-8.058796" lon="-34.897785">
    <ele>8.7</ele>
    <time>2020-02-18T14:15:03.000Z</time>
   </trkpt>
   <trkpt lat="-8.058789" lon="-34.897741">
    <ele>8.8</ele>
    <time>2020-02-18T14:15:04.000Z</time>
   </trkpt>
   <trkpt lat="-8.058782" lon="-34.897695">
    <ele>9</ele>
    <time>2020-02-18T14:15:05.000Z</time>
   </trkpt>
   <trkpt lat="-8.058784" lon="-34.897641">
    <ele>9.3</ele>
    <time>2020-02-18T14:15:06.000Z</time>
   </trkpt>
   <trkpt lat="-8.058762" lon="-34.897591">
    <ele>9.3</ele>
    <time>2020-02-18T14:15:07.000Z</time>
   </trkpt>
   <trkpt lat="-8.058764" lon="-34.897536">
    <ele>9.3</ele>
    <time>2020-02-18T14:15:08.000Z</time>
   </trkpt>
   <trkpt lat="-8.058761" lon="-34.897481">
    <ele>9.3</ele>
    <time>2020-02-18T14:15:09.000Z</time>
   </trkpt>
   <trkpt lat="-8.058761" lon="-34.897428">
    <ele>9.4</ele>
    <time>2020-02-18T14:15:10.000Z</time>
   </trkpt>
   <trkpt lat="-8.058758" lon="-34.89737">
    <ele>9.4</ele>
    <time>2020-02-18T14:15:11.000Z</time>
   </trkpt>
   <trkpt lat="-8.058765" lon="-34.897318">
    <ele>9.5</ele>
    <time>2020-02-18T14:15:12.000Z</time>
   </trkpt>
   <trkpt lat="-8.058758" lon="-34.897262">
    <ele>9.6</ele>
    <time>2020-02-18T14:15:13.000Z</time>
   </trkpt>
   <trkpt lat="-8.058759" lon="-34.897212">
    <ele>9.6</ele>
    <time>2020-02-18T14:15:14.000Z</time>
   </trkpt>
   <trkpt lat="-8.058757" lon="-34.89716">
    <ele>9.7</ele>
    <time>2020-02-18T14:15:15.000Z</time>
   </trkpt>
   <trkpt lat="-8.058752" lon="-34.897112">
    <ele>9.7</ele>
    <time>2020-02-18T14:15:16.000Z</time>
   </trkpt>
   <trkpt lat="-8.058743" lon="-34.89705">
    <ele>9.8</ele>
    <time>2020-02-18T14:15:17.000Z</time>
   </trkpt>
   <trkpt lat="-8.058732" lon="-34.896995">
    <ele>9.7</ele>
    <time>2020-02-18T14:15:18.000Z</time>
   </trkpt>
   <trkpt lat="-8.058724" lon="-34.896939">
    <ele>9.7</ele>
    <time>2020-02-18T14:15:19.000Z</time>
   </trkpt>
   <trkpt lat="-8.058717" lon="-34.896887">
    <ele>9.6</ele>
    <time>2020-02-18T14:15:20.000Z</time>
   </trkpt>
   <trkpt lat="-8.058711" lon="-34.896837">
    <ele>9.5</ele>
    <time>2020-02-18T14:15:21.000Z</time>
   </trkpt>
   <trkpt lat="-8.058711" lon="-34.896792">
    <ele>9.4</ele>
    <time>2020-02-18T14:15:22.000Z</time>
   </trkpt>
   <trkpt lat="-8.058706" lon="-34.896743">
    <ele>9.3</ele>
    <time>2020-02-18T14:15:23.000Z</time>
   </trkpt>
   <trkpt lat="-8.058697" lon="-34.896698">
    <ele>9.2</ele>
    <time>2020-02-18T14:15:24.000Z</time>
   </trkpt>
   <trkpt lat="-8.058682" lon="-34.896651">
    <ele>9.1</ele>
    <time>2020-02-18T14:15:25.000Z</time>
   </trkpt>
   <trkpt lat="-8.058671" lon="-34.896617">
    <ele>9</ele>
    <time>2020-02-18T14:15:26.000Z</time>
   </trkpt>
   <trkpt lat="-8.058662" lon="-34.896582">
    <ele>9.3</ele>
    <time>2020-02-18T14:15:27.000Z</time>
   </trkpt>
   <trkpt lat="-8.058646" lon="-34.896542">
    <ele>9.5</ele>
    <time>2020-02-18T14:15:28.000Z</time>
   </trkpt>
   <trkpt lat="-8.058626" lon="-34.896505">
    <ele>9.6</ele>
    <time>2020-02-18T14:15:29.000Z</time>
   </trkpt>
   <trkpt lat="-8.058616" lon="-34.896461">
    <ele>9.8</ele>
    <time>2020-02-18T14:15:30.000Z</time>
   </trkpt>
   <trkpt lat="-8.058593" lon="-34.896411">
    <ele>10</ele>
    <time>2020-02-18T14:15:31.000Z</time>
   </trkpt>
   <trkpt lat="-8.058578" lon="-34.896355">
    <ele>10.2</ele>
    <time>2020-02-18T14:15:32.000Z</time>
   </trkpt>
   <trkpt lat="-8.058563" lon="-34.896294">
    <ele>10.4</ele>
    <time>2020-02-18T14:15:33.000Z</time>
   </trkpt>
   <trkpt lat="-8.058547" lon="-34.896238">
    <ele>10.5</ele>
    <time>2020-02-18T14:15:34.000Z</time>
   </trkpt>
   <trkpt lat="-8.058535" lon="-34.896189">
    <ele>10.6</ele>
    <time>2020-02-18T14:15:35.000Z</time>
   </trkpt>
   <trkpt lat="-8.058524" lon="-34.896137">
    <ele>10.7</ele>
    <time>2020-02-18T14:15:36.000Z</time>
   </trkpt>
   <trkpt lat="-8.058511" lon="-34.896082">
    <ele>10.8</ele>
    <time>2020-02-18T14:15:37.000Z</time>
   </trkpt>
   <trkpt lat="-8.058496" lon="-34.89602">
    <ele>11</ele>
    <time>2020-02-18T14:15:38.000Z</time>
   </trkpt>
   <trkpt lat="-8.058483" lon="-34.895962">
    <ele>11.1</ele>
    <time>2020-02-18T14:15:39.000Z</time>
   </trkpt>
   <trkpt lat="-8.058466" lon="-34.895915">
    <ele>11.2</ele>
    <time>2020-02-18T14:15:40.000Z</time>
   </trkpt>
   <trkpt lat="-8.058446" lon="-34.895862">
    <ele>11.3</ele>
    <time>2020-02-18T14:15:41.000Z</time>
   </trkpt>
   <trkpt lat="-8.058424" lon="-34.895811">
    <ele>11.4</ele>
    <time>2020-02-18T14:15:42.000Z</time>
   </trkpt>
   <trkpt lat="-8.058399" lon="-34.89575">
    <ele>11.5</ele>
    <time>2020-02-18T14:15:43.000Z</time>
   </trkpt>
   <trkpt lat="-8.058381" lon="-34.895696">
    <ele>11.5</ele>
    <time>2020-02-18T14:15:44.000Z</time>
   </trkpt>
   <trkpt lat="-8.058363" lon="-34.895641">
    <ele>11.5</ele>
    <time>2020-02-18T14:15:45.000Z</time>
   </trkpt>
   <trkpt lat="-8.058353" lon="-34.895581">
    <ele>11.5</ele>
    <time>2020-02-18T14:15:46.000Z</time>
   </trkpt>
   <trkpt lat="-8.058335" lon="-34.895524">
    <ele>11.5</ele>
    <time>2020-02-18T14:15:47.000Z</time>
   </trkpt>
   <trkpt lat="-8.058321" lon="-34.895465">
    <ele>11.5</ele>
    <time>2020-02-18T14:15:48.000Z</time>
   </trkpt>
   <trkpt lat="-8.058296" lon="-34.8954">
    <ele>11.5</ele>
    <time>2020-02-18T14:15:49.000Z</time>
   </trkpt>
   <trkpt lat="-8.058277" lon="-34.895348">
    <ele>11.6</ele>
    <time>2020-02-18T14:15:50.000Z</time>
   </trkpt>
   <trkpt lat="-8.05826" lon="-34.895299">
    <ele>11.6</ele>
    <time>2020-02-18T14:15:51.000Z</time>
   </trkpt>
   <trkpt lat="-8.058245" lon="-34.89525">
    <ele>11.6</ele>
    <time>2020-02-18T14:15:52.000Z</time>
   </trkpt>
   <trkpt lat="-8.058227" lon="-34.895198">
    <ele>11.7</ele>
    <time>2020-02-18T14:15:53.000Z</time>
   </trkpt>
   <trkpt lat="-8.058208" lon="-34.895138">
    <ele>11.8</ele>
    <time>2020-02-18T14:15:54.000Z</time>
   </trkpt>
   <trkpt lat="-8.058181" lon="-34.895085">
    <ele>11.9</ele>
    <time>2020-02-18T14:15:55.000Z</time>
   </trkpt>
   <trkpt lat="-8.058158" lon="-34.895032">
    <ele>12.1</ele>
    <time>2020-02-18T14:15:56.000Z</time>
   </trkpt>
   <trkpt lat="-8.058143" lon="-34.894987">
    <ele>12.2</ele>
    <time>2020-02-18T14:15:57.000Z</time>
   </trkpt>
   <trkpt lat="-8.058144" lon="-34.894935">
    <ele>12.3</ele>
    <time>2020-02-18T14:15:58.000Z</time>
   </trkpt>
   <trkpt lat="-8.058133" lon="-34.894874">
    <ele>12.6</ele>
    <time>2020-02-18T14:15:59.000Z</time>
   </trkpt>
   <trkpt lat="-8.058115" lon="-34.894819">
    <ele>12.7</ele>
    <time>2020-02-18T14:16:00.000Z</time>
   </trkpt>
   <trkpt lat="-8.058101" lon="-34.894776">
    <ele>12.8</ele>
    <time>2020-02-18T14:16:01.000Z</time>
   </trkpt>
   <trkpt lat="-8.058092" lon="-34.894736">
    <ele>12.9</ele>
    <time>2020-02-18T14:16:02.000Z</time>
   </trkpt>
   <trkpt lat="-8.05809" lon="-34.894686">
    <ele>13</ele>
    <time>2020-02-18T14:16:03.000Z</time>
   </trkpt>
   <trkpt lat="-8.058077" lon="-34.894639">
    <ele>13.1</ele>
    <time>2020-02-18T14:16:04.000Z</time>
   </trkpt>
   <trkpt lat="-8.058082" lon="-34.894586">
    <ele>13.3</ele>
    <time>2020-02-18T14:16:05.000Z</time>
   </trkpt>
   <trkpt lat="-8.058115" lon="-34.894547">
    <ele>13.2</ele>
    <time>2020-02-18T14:16:06.000Z</time>
   </trkpt>
   <trkpt lat="-8.058163" lon="-34.894529">
    <ele>13</ele>
    <time>2020-02-18T14:16:07.000Z</time>
   </trkpt>
   <trkpt lat="-8.058218" lon="-34.894514">
    <ele>12.9</ele>
    <time>2020-02-18T14:16:08.000Z</time>
   </trkpt>
   <trkpt lat="-8.058278" lon="-34.894498">
    <ele>12.8</ele>
    <time>2020-02-18T14:16:09.000Z</time>
   </trkpt>
   <trkpt lat="-8.058334" lon="-34.894478">
    <ele>12.7</ele>
    <time>2020-02-18T14:16:10.000Z</time>
   </trkpt>
   <trkpt lat="-8.058387" lon="-34.894454">
    <ele>12.7</ele>
    <time>2020-02-18T14:16:11.000Z</time>
   </trkpt>
   <trkpt lat="-8.058442" lon="-34.894437">
    <ele>12.7</ele>
    <time>2020-02-18T14:16:12.000Z</time>
   </trkpt>
   <trkpt lat="-8.058495" lon="-34.894412">
    <ele>12.7</ele>
    <time>2020-02-18T14:16:13.000Z</time>
   </trkpt>
   <trkpt lat="-8.058549" lon="-34.894393">
    <ele>12.6</ele>
    <time>2020-02-18T14:16:14.000Z</time>
   </trkpt>
   <trkpt lat="-8.058599" lon="-34.894382">
    <ele>12.6</ele>
    <time>2020-02-18T14:16:15.000Z</time>
   </trkpt>
   <trkpt lat="-8.058646" lon="-34.89436">
    <ele>12.5</ele>
    <time>2020-02-18T14:16:16.000Z</time>
   </trkpt>
   <trkpt lat="-8.058693" lon="-34.894341">
    <ele>12.4</ele>
    <time>2020-02-18T14:16:17.000Z</time>
   </trkpt>
   <trkpt lat="-8.058735" lon="-34.894319">
    <ele>12.4</ele>
    <time>2020-02-18T14:16:18.000Z</time>
   </trkpt>
   <trkpt lat="-8.05877" lon="-34.89431">
    <ele>12.3</ele>
    <time>2020-02-18T14:16:19.000Z</time>
   </trkpt>
   <trkpt lat="-8.058812" lon="-34.894294">
    <ele>12.3</ele>
    <time>2020-02-18T14:16:20.000Z</time>
   </trkpt>
   <trkpt lat="-8.058857" lon="-34.89427">
    <ele>12.2</ele>
    <time>2020-02-18T14:16:21.000Z</time>
   </trkpt>
   <trkpt lat="-8.058902" lon="-34.894249">
    <ele>12.2</ele>
    <time>2020-02-18T14:16:22.000Z</time>
   </trkpt>
   <trkpt lat="-8.058934" lon="-34.89423">
    <ele>12.1</ele>
    <time>2020-02-18T14:16:23.000Z</time>
   </trkpt>
   <trkpt lat="-8.058973" lon="-34.894204">
    <ele>12</ele>
    <time>2020-02-18T14:16:24.000Z</time>
   </trkpt>
   <trkpt lat="-8.059026" lon="-34.894177">
    <ele>11.8</ele>
    <time>2020-02-18T14:16:25.000Z</time>
   </trkpt>
   <trkpt lat="-8.059071" lon="-34.894158">
    <ele>11.6</ele>
    <time>2020-02-18T14:16:26.000Z</time>
   </trkpt>
   <trkpt lat="-8.059116" lon="-34.894139">
    <ele>11.4</ele>
    <time>2020-02-18T14:16:27.000Z</time>
   </trkpt>
   <trkpt lat="-8.059158" lon="-34.89412">
    <ele>11.1</ele>
    <time>2020-02-18T14:16:28.000Z</time>
   </trkpt>
   <trkpt lat="-8.059197" lon="-34.894095">
    <ele>10.8</ele>
    <time>2020-02-18T14:16:29.000Z</time>
   </trkpt>
   <trkpt lat="-8.059232" lon="-34.894077">
    <ele>10.5</ele>
    <time>2020-02-18T14:16:30.000Z</time>
   </trkpt>
   <trkpt lat="-8.059288" lon="-34.894051">
    <ele>9.9</ele>
    <time>2020-02-18T14:16:31.000Z</time>
   </trkpt>
   <trkpt lat="-8.059343" lon="-34.894048">
    <ele>9.9</ele>
    <time>2020-02-18T14:16:32.000Z</time>
   </trkpt>
   <trkpt lat="-8.059388" lon="-34.894057">
    <ele>9.2</ele>
    <time>2020-02-18T14:16:33.000Z</time>
   </trkpt>
   <trkpt lat="-8.059428" lon="-34.894084">
    <ele>9.3</ele>
    <time>2020-02-18T14:16:34.000Z</time>
   </trkpt>
   <trkpt lat="-8.059471" lon="-34.894118">
    <ele>9.3</ele>
    <time>2020-02-18T14:16:35.000Z</time>
   </trkpt>
   <trkpt lat="-8.059521" lon="-34.894161">
    <ele>9.4</ele>
    <time>2020-02-18T14:16:36.000Z</time>
   </trkpt>
   <trkpt lat="-8.05957" lon="-34.89421">
    <ele>9.4</ele>
    <time>2020-02-18T14:16:37.000Z</time>
   </trkpt>
   <trkpt lat="-8.059622" lon="-34.894256">
    <ele>9.5</ele>
    <time>2020-02-18T14:16:38.000Z</time>
   </trkpt>
   <trkpt lat="-8.059669" lon="-34.894293">
    <ele>9.5</ele>
    <time>2020-02-18T14:16:39.000Z</time>
   </trkpt>
   <trkpt lat="-8.05972" lon="-34.894328">
    <ele>9.6</ele>
    <time>2020-02-18T14:16:40.000Z</time>
   </trkpt>
   <trkpt lat="-8.059782" lon="-34.89436">
    <ele>9.7</ele>
    <time>2020-02-18T14:16:41.000Z</time>
   </trkpt>
   <trkpt lat="-8.059828" lon="-34.8944">
    <ele>9.8</ele>
    <time>2020-02-18T14:16:42.000Z</time>
   </trkpt>
   <trkpt lat="-8.05988" lon="-34.89445">
    <ele>9.8</ele>
    <time>2020-02-18T14:16:43.000Z</time>
   </trkpt>
   <trkpt lat="-8.05993" lon="-34.894486">
    <ele>9.5</ele>
    <time>2020-02-18T14:16:44.000Z</time>
   </trkpt>
   <trkpt lat="-8.059979" lon="-34.894519">
    <ele>9.3</ele>
    <time>2020-02-18T14:16:45.000Z</time>
   </trkpt>
   <trkpt lat="-8.060033" lon="-34.894556">
    <ele>8.9</ele>
    <time>2020-02-18T14:16:46.000Z</time>
   </trkpt>
   <trkpt lat="-8.060084" lon="-34.894587">
    <ele>8.7</ele>
    <time>2020-02-18T14:16:47.000Z</time>
   </trkpt>
   <trkpt lat="-8.06013" lon="-34.894631">
    <ele>8.4</ele>
    <time>2020-02-18T14:16:48.000Z</time>
   </trkpt>
   <trkpt lat="-8.06018" lon="-34.894661">
    <ele>8.1</ele>
    <time>2020-02-18T14:16:49.000Z</time>
   </trkpt>
   <trkpt lat="-8.060231" lon="-34.89469">
    <ele>7.9</ele>
    <time>2020-02-18T14:16:50.000Z</time>
   </trkpt>
   <trkpt lat="-8.060274" lon="-34.894726">
    <ele>7.6</ele>
    <time>2020-02-18T14:16:51.000Z</time>
   </trkpt>
   <trkpt lat="-8.060325" lon="-34.894759">
    <ele>7.4</ele>
    <time>2020-02-18T14:16:52.000Z</time>
   </trkpt>
   <trkpt lat="-8.060366" lon="-34.894785">
    <ele>7.1</ele>
    <time>2020-02-18T14:16:53.000Z</time>
   </trkpt>
   <trkpt lat="-8.060412" lon="-34.894799">
    <ele>6.9</ele>
    <time>2020-02-18T14:16:54.000Z</time>
   </trkpt>
   <trkpt lat="-8.060458" lon="-34.894814">
    <ele>6.7</ele>
    <time>2020-02-18T14:16:55.000Z</time>
   </trkpt>
   <trkpt lat="-8.060517" lon="-34.89483">
    <ele>6.4</ele>
    <time>2020-02-18T14:16:56.000Z</time>
   </trkpt>
   <trkpt lat="-8.060579" lon="-34.894836">
    <ele>6</ele>
    <time>2020-02-18T14:16:57.000Z</time>
   </trkpt>
   <trkpt lat="-8.060637" lon="-34.894846">
    <ele>6.2</ele>
    <time>2020-02-18T14:16:58.000Z</time>
   </trkpt>
   <trkpt lat="-8.060698" lon="-34.894851">
    <ele>6.4</ele>
    <time>2020-02-18T14:16:59.000Z</time>
   </trkpt>
   <trkpt lat="-8.060755" lon="-34.894856">
    <ele>6.7</ele>
    <time>2020-02-18T14:17:00.000Z</time>
   </trkpt>
   <trkpt lat="-8.060807" lon="-34.894855">
    <ele>6.8</ele>
    <time>2020-02-18T14:17:01.000Z</time>
   </trkpt>
   <trkpt lat="-8.060859" lon="-34.894859">
    <ele>7.2</ele>
    <time>2020-02-18T14:17:02.000Z</time>
   </trkpt>
   <trkpt lat="-8.06091" lon="-34.894864">
    <ele>7.4</ele>
    <time>2020-02-18T14:17:03.000Z</time>
   </trkpt>
   <trkpt lat="-8.060963" lon="-34.894854">
    <ele>7.7</ele>
    <time>2020-02-18T14:17:04.000Z</time>
   </trkpt>
   <trkpt lat="-8.061019" lon="-34.894849">
    <ele>7.9</ele>
    <time>2020-02-18T14:17:05.000Z</time>
   </trkpt>
   <trkpt lat="-8.061081" lon="-34.894842">
    <ele>8</ele>
    <time>2020-02-18T14:17:06.000Z</time>
   </trkpt>
   <trkpt lat="-8.061134" lon="-34.894859">
    <ele>8</ele>
    <time>2020-02-18T14:17:07.000Z</time>
   </trkpt>
   <trkpt lat="-8.061187" lon="-34.894881">
    <ele>8</ele>
    <time>2020-02-18T14:17:08.000Z</time>
   </trkpt>
   <trkpt lat="-8.061227" lon="-34.894917">
    <ele>7.9</ele>
    <time>2020-02-18T14:17:09.000Z</time>
   </trkpt>
   <trkpt lat="-8.061273" lon="-34.894948">
    <ele>7.7</ele>
    <time>2020-02-18T14:17:10.000Z</time>
   </trkpt>
   <trkpt lat="-8.061328" lon="-34.894968">
    <ele>7.5</ele>
    <time>2020-02-18T14:17:11.000Z</time>
   </trkpt>
   <trkpt lat="-8.061384" lon="-34.89499">
    <ele>7.2</ele>
    <time>2020-02-18T14:17:12.000Z</time>
   </trkpt>
   <trkpt lat="-8.061442" lon="-34.895022">
    <ele>6.7</ele>
    <time>2020-02-18T14:17:13.000Z</time>
   </trkpt>
   <trkpt lat="-8.061506" lon="-34.895033">
    <ele>6.4</ele>
    <time>2020-02-18T14:17:14.000Z</time>
   </trkpt>
   <trkpt lat="-8.061566" lon="-34.895051">
    <ele>6.4</ele>
    <time>2020-02-18T14:17:15.000Z</time>
   </trkpt>
   <trkpt lat="-8.061624" lon="-34.895039">
    <ele>6.7</ele>
    <time>2020-02-18T14:17:16.000Z</time>
   </trkpt>
   <trkpt lat="-8.061676" lon="-34.895044">
    <ele>6.9</ele>
    <time>2020-02-18T14:17:17.000Z</time>
   </trkpt>
   <trkpt lat="-8.061719" lon="-34.895075">
    <ele>7.1</ele>
    <time>2020-02-18T14:17:18.000Z</time>
   </trkpt>
   <trkpt lat="-8.061778" lon="-34.895088">
    <ele>7.1</ele>
    <time>2020-02-18T14:17:19.000Z</time>
   </trkpt>
   <trkpt lat="-8.061826" lon="-34.895086">
    <ele>7.1</ele>
    <time>2020-02-18T14:17:20.000Z</time>
   </trkpt>
   <trkpt lat="-8.061875" lon="-34.895077">
    <ele>7.1</ele>
    <time>2020-02-18T14:17:21.000Z</time>
   </trkpt>
   <trkpt lat="-8.06192" lon="-34.895076">
    <ele>7.1</ele>
    <time>2020-02-18T14:17:22.000Z</time>
   </trkpt>
   <trkpt lat="-8.061949" lon="-34.895088">
    <ele>7.1</ele>
    <time>2020-02-18T14:17:23.000Z</time>
   </trkpt>
   <trkpt lat="-8.061977" lon="-34.895086">
    <ele>7.1</ele>
    <time>2020-02-18T14:17:24.000Z</time>
   </trkpt>
   <trkpt lat="-8.061997" lon="-34.895087">
    <ele>7.1</ele>
    <time>2020-02-18T14:17:25.000Z</time>
   </trkpt>
   <trkpt lat="-8.06203" lon="-34.895095">
    <ele>7.1</ele>
    <time>2020-02-18T14:17:27.000Z</time>
   </trkpt>
   <trkpt lat="-8.06207" lon="-34.895093">
    <ele>7.1</ele>
    <time>2020-02-18T14:17:29.000Z</time>
   </trkpt>
   <trkpt lat="-8.062094" lon="-34.895133">
    <ele>7.1</ele>
    <time>2020-02-18T14:17:31.000Z</time>
   </trkpt>
   <trkpt lat="-8.062091" lon="-34.895138">
    <ele>7.1</ele>
    <time>2020-02-18T14:17:32.000Z</time>
   </trkpt>
   <trkpt lat="-8.062143" lon="-34.895093">
    <ele>7.1</ele>
    <time>2020-02-18T14:17:35.000Z</time>
   </trkpt>
   <trkpt lat="-8.062196" lon="-34.8951">
    <ele>7.1</ele>
    <time>2020-02-18T14:17:37.000Z</time>
   </trkpt>
   <trkpt lat="-8.062242" lon="-34.895098">
    <ele>7</ele>
    <time>2020-02-18T14:17:38.000Z</time>
   </trkpt>
   <trkpt lat="-8.062296" lon="-34.895105">
    <ele>7</ele>
    <time>2020-02-18T14:17:39.000Z</time>
   </trkpt>
   <trkpt lat="-8.062351" lon="-34.895103">
    <ele>6.9</ele>
    <time>2020-02-18T14:17:40.000Z</time>
   </trkpt>
   <trkpt lat="-8.062395" lon="-34.895111">
    <ele>6.8</ele>
    <time>2020-02-18T14:17:41.000Z</time>
   </trkpt>
   <trkpt lat="-8.062437" lon="-34.895123">
    <ele>6.7</ele>
    <time>2020-02-18T14:17:42.000Z</time>
   </trkpt>
   <trkpt lat="-8.062477" lon="-34.895134">
    <ele>6.6</ele>
    <time>2020-02-18T14:17:43.000Z</time>
   </trkpt>
   <trkpt lat="-8.062516" lon="-34.895138">
    <ele>6.6</ele>
    <time>2020-02-18T14:17:44.000Z</time>
   </trkpt>
   <trkpt lat="-8.062563" lon="-34.895145">
    <ele>6.5</ele>
    <time>2020-02-18T14:17:45.000Z</time>
   </trkpt>
   <trkpt lat="-8.062604" lon="-34.895152">
    <ele>6.5</ele>
    <time>2020-02-18T14:17:46.000Z</time>
   </trkpt>
   <trkpt lat="-8.062651" lon="-34.89516">
    <ele>6.4</ele>
    <time>2020-02-18T14:17:47.000Z</time>
   </trkpt>
   <trkpt lat="-8.062694" lon="-34.895169">
    <ele>6.4</ele>
    <time>2020-02-18T14:17:48.000Z</time>
   </trkpt>
   <trkpt lat="-8.062737" lon="-34.895183">
    <ele>6.3</ele>
    <time>2020-02-18T14:17:49.000Z</time>
   </trkpt>
   <trkpt lat="-8.062777" lon="-34.895217">
    <ele>6.4</ele>
    <time>2020-02-18T14:17:50.000Z</time>
   </trkpt>
   <trkpt lat="-8.062799" lon="-34.895259">
    <ele>6.4</ele>
    <time>2020-02-18T14:17:51.000Z</time>
   </trkpt>
   <trkpt lat="-8.062805" lon="-34.895302">
    <ele>6.5</ele>
    <time>2020-02-18T14:17:52.000Z</time>
   </trkpt>
   <trkpt lat="-8.062803" lon="-34.895347">
    <ele>6.5</ele>
    <time>2020-02-18T14:17:53.000Z</time>
   </trkpt>
   <trkpt lat="-8.062798" lon="-34.89539">
    <ele>6.6</ele>
    <time>2020-02-18T14:17:54.000Z</time>
   </trkpt>
   <trkpt lat="-8.062784" lon="-34.895433">
    <ele>6.6</ele>
    <time>2020-02-18T14:17:55.000Z</time>
   </trkpt>
   <trkpt lat="-8.062779" lon="-34.895477">
    <ele>6.7</ele>
    <time>2020-02-18T14:17:56.000Z</time>
   </trkpt>
   <trkpt lat="-8.062774" lon="-34.895536">
    <ele>6.8</ele>
    <time>2020-02-18T14:17:57.000Z</time>
   </trkpt>
   <trkpt lat="-8.062777" lon="-34.895576">
    <ele>6.8</ele>
    <time>2020-02-18T14:17:58.000Z</time>
   </trkpt>
   <trkpt lat="-8.062787" lon="-34.895621">
    <ele>7.2</ele>
    <time>2020-02-18T14:17:59.000Z</time>
   </trkpt>
   <trkpt lat="-8.062801" lon="-34.895643">
    <ele>7.4</ele>
    <time>2020-02-18T14:18:00.000Z</time>
   </trkpt>
   <trkpt lat="-8.062772" lon="-34.89574">
    <ele>8.2</ele>
    <time>2020-02-18T14:18:02.000Z</time>
   </trkpt>
   <trkpt lat="-8.062765" lon="-34.895787">
    <ele>8.4</ele>
    <time>2020-02-18T14:18:03.000Z</time>
   </trkpt>
   <trkpt lat="-8.062764" lon="-34.895807">
    <ele>8.5</ele>
    <time>2020-02-18T14:18:04.000Z</time>
   </trkpt>
   <trkpt lat="-8.062743" lon="-34.895853">
    <ele>8.5</ele>
    <time>2020-02-18T14:18:06.000Z</time>
   </trkpt>
   <trkpt lat="-8.062726" lon="-34.895897">
    <ele>8.5</ele>
    <time>2020-02-18T14:18:07.000Z</time>
   </trkpt>
   <trkpt lat="-8.062713" lon="-34.895941">
    <ele>8.5</ele>
    <time>2020-02-18T14:18:08.000Z</time>
   </trkpt>
   <trkpt lat="-8.062691" lon="-34.895981">
    <ele>8.3</ele>
    <time>2020-02-18T14:18:09.000Z</time>
   </trkpt>
   <trkpt lat="-8.062678" lon="-34.89601">
    <ele>8.1</ele>
    <time>2020-02-18T14:18:10.000Z</time>
   </trkpt>
   <trkpt lat="-8.062671" lon="-34.896036">
    <ele>8</ele>
    <time>2020-02-18T14:18:11.000Z</time>
   </trkpt>
   <trkpt lat="-8.062677" lon="-34.896098">
    <ele>7.7</ele>
    <time>2020-02-18T14:18:13.000Z</time>
   </trkpt>
   <trkpt lat="-8.062634" lon="-34.896122">
    <ele>7.5</ele>
    <time>2020-02-18T14:18:14.000Z</time>
   </trkpt>
   <trkpt lat="-8.062625" lon="-34.896141">
    <ele>7.4</ele>
    <time>2020-02-18T14:18:15.000Z</time>
   </trkpt>
   <trkpt lat="-8.062606" lon="-34.896151">
    <ele>7.4</ele>
    <time>2020-02-18T14:18:17.000Z</time>
   </trkpt>
   <trkpt lat="-8.062598" lon="-34.89618">
    <ele>7.4</ele>
    <time>2020-02-18T14:18:20.000Z</time>
   </trkpt>
   <trkpt lat="-8.06266" lon="-34.896269">
    <ele>7.2</ele>
    <time>2020-02-18T14:18:22.000Z</time>
   </trkpt>
   <trkpt lat="-8.062663" lon="-34.896311">
    <ele>7</ele>
    <time>2020-02-18T14:18:23.000Z</time>
   </trkpt>
   <trkpt lat="-8.062653" lon="-34.896333">
    <ele>6.9</ele>
    <time>2020-02-18T14:18:24.000Z</time>
   </trkpt>
   <trkpt lat="-8.062647" lon="-34.896356">
    <ele>6.8</ele>
    <time>2020-02-18T14:18:26.000Z</time>
   </trkpt>
   <trkpt lat="-8.062691" lon="-34.89637">
    <ele>6.4</ele>
    <time>2020-02-18T14:18:29.000Z</time>
   </trkpt>
   <trkpt lat="-8.062734" lon="-34.896375">
    <ele>6.4</ele>
    <time>2020-02-18T14:18:30.000Z</time>
   </trkpt>
   <trkpt lat="-8.062785" lon="-34.896367">
    <ele>6.5</ele>
    <time>2020-02-18T14:18:31.000Z</time>
   </trkpt>
   <trkpt lat="-8.062829" lon="-34.896367">
    <ele>6.5</ele>
    <time>2020-02-18T14:18:32.000Z</time>
   </trkpt>
   <trkpt lat="-8.062882" lon="-34.896369">
    <ele>6.6</ele>
    <time>2020-02-18T14:18:33.000Z</time>
   </trkpt>
   <trkpt lat="-8.062952" lon="-34.896378">
    <ele>6.7</ele>
    <time>2020-02-18T14:18:34.000Z</time>
   </trkpt>
   <trkpt lat="-8.06301" lon="-34.89637">
    <ele>6.7</ele>
    <time>2020-02-18T14:18:35.000Z</time>
   </trkpt>
   <trkpt lat="-8.063058" lon="-34.896372">
    <ele>6.8</ele>
    <time>2020-02-18T14:18:36.000Z</time>
   </trkpt>
   <trkpt lat="-8.063114" lon="-34.896359">
    <ele>6.8</ele>
    <time>2020-02-18T14:18:37.000Z</time>
   </trkpt>
   <trkpt lat="-8.063171" lon="-34.89634">
    <ele>6.9</ele>
    <time>2020-02-18T14:18:38.000Z</time>
   </trkpt>
   <trkpt lat="-8.063248" lon="-34.89628">
    <ele>7</ele>
    <time>2020-02-18T14:18:39.000Z</time>
   </trkpt>
   <trkpt lat="-8.063311" lon="-34.896244">
    <ele>7</ele>
    <time>2020-02-18T14:18:40.000Z</time>
   </trkpt>
   <trkpt lat="-8.063372" lon="-34.896217">
    <ele>7.1</ele>
    <time>2020-02-18T14:18:41.000Z</time>
   </trkpt>
   <trkpt lat="-8.063433" lon="-34.896206">
    <ele>7.1</ele>
    <time>2020-02-18T14:18:42.000Z</time>
   </trkpt>
   <trkpt lat="-8.063495" lon="-34.896193">
    <ele>7.2</ele>
    <time>2020-02-18T14:18:43.000Z</time>
   </trkpt>
   <trkpt lat="-8.063554" lon="-34.896177">
    <ele>7.3</ele>
    <time>2020-02-18T14:18:44.000Z</time>
   </trkpt>
   <trkpt lat="-8.063603" lon="-34.896158">
    <ele>7.3</ele>
    <time>2020-02-18T14:18:45.000Z</time>
   </trkpt>
   <trkpt lat="-8.063659" lon="-34.896153">
    <ele>7.2</ele>
    <time>2020-02-18T14:18:46.000Z</time>
   </trkpt>
   <trkpt lat="-8.063701" lon="-34.896141">
    <ele>7.1</ele>
    <time>2020-02-18T14:18:47.000Z</time>
   </trkpt>
   <trkpt lat="-8.063732" lon="-34.896133">
    <ele>7.1</ele>
    <time>2020-02-18T14:18:48.000Z</time>
   </trkpt>
   <trkpt lat="-8.063765" lon="-34.896135">
    <ele>7</ele>
    <time>2020-02-18T14:18:49.000Z</time>
   </trkpt>
   <trkpt lat="-8.063802" lon="-34.896117">
    <ele>7</ele>
    <time>2020-02-18T14:18:50.000Z</time>
   </trkpt>
   <trkpt lat="-8.063838" lon="-34.896097">
    <ele>6.9</ele>
    <time>2020-02-18T14:18:51.000Z</time>
   </trkpt>
   <trkpt lat="-8.063884" lon="-34.896097">
    <ele>6.8</ele>
    <time>2020-02-18T14:18:52.000Z</time>
   </trkpt>
   <trkpt lat="-8.063933" lon="-34.896087">
    <ele>6.8</ele>
    <time>2020-02-18T14:18:53.000Z</time>
   </trkpt>
   <trkpt lat="-8.063985" lon="-34.896073">
    <ele>6.7</ele>
    <time>2020-02-18T14:18:54.000Z</time>
   </trkpt>
   <trkpt lat="-8.064029" lon="-34.896052">
    <ele>6.5</ele>
    <time>2020-02-18T14:18:55.000Z</time>
   </trkpt>
   <trkpt lat="-8.064085" lon="-34.896024">
    <ele>6.3</ele>
    <time>2020-02-18T14:18:56.000Z</time>
   </trkpt>
   <trkpt lat="-8.064138" lon="-34.895997">
    <ele>6.1</ele>
    <time>2020-02-18T14:18:57.000Z</time>
   </trkpt>
   <trkpt lat="-8.0642" lon="-34.895989">
    <ele>5.9</ele>
    <time>2020-02-18T14:18:58.000Z</time>
   </trkpt>
   <trkpt lat="-8.064253" lon="-34.895989">
    <ele>5.6</ele>
    <time>2020-02-18T14:18:59.000Z</time>
   </trkpt>
   <trkpt lat="-8.064298" lon="-34.895981">
    <ele>5.3</ele>
    <time>2020-02-18T14:19:00.000Z</time>
   </trkpt>
   <trkpt lat="-8.064334" lon="-34.895959">
    <ele>5.1</ele>
    <time>2020-02-18T14:19:01.000Z</time>
   </trkpt>
   <trkpt lat="-8.064381" lon="-34.895966">
    <ele>4.8</ele>
    <time>2020-02-18T14:19:02.000Z</time>
   </trkpt>
   <trkpt lat="-8.064419" lon="-34.89596">
    <ele>4.6</ele>
    <time>2020-02-18T14:19:03.000Z</time>
   </trkpt>
   <trkpt lat="-8.06445" lon="-34.895945">
    <ele>4.4</ele>
    <time>2020-02-18T14:19:04.000Z</time>
   </trkpt>
   <trkpt lat="-8.064496" lon="-34.895937">
    <ele>4.1</ele>
    <time>2020-02-18T14:19:05.000Z</time>
   </trkpt>
   <trkpt lat="-8.064537" lon="-34.895911">
    <ele>3.8</ele>
    <time>2020-02-18T14:19:06.000Z</time>
   </trkpt>
   <trkpt lat="-8.064579" lon="-34.895878">
    <ele>3.6</ele>
    <time>2020-02-18T14:19:07.000Z</time>
   </trkpt>
   <trkpt lat="-8.064618" lon="-34.895856">
    <ele>3.3</ele>
    <time>2020-02-18T14:19:08.000Z</time>
   </trkpt>
   <trkpt lat="-8.064655" lon="-34.895843">
    <ele>3.1</ele>
    <time>2020-02-18T14:19:09.000Z</time>
   </trkpt>
   <trkpt lat="-8.064695" lon="-34.895829">
    <ele>2.9</ele>
    <time>2020-02-18T14:19:10.000Z</time>
   </trkpt>
   <trkpt lat="-8.064738" lon="-34.895811">
    <ele>2.7</ele>
    <time>2020-02-18T14:19:11.000Z</time>
   </trkpt>
   <trkpt lat="-8.064781" lon="-34.895795">
    <ele>2.5</ele>
    <time>2020-02-18T14:19:12.000Z</time>
   </trkpt>
   <trkpt lat="-8.064832" lon="-34.895793">
    <ele>2.3</ele>
    <time>2020-02-18T14:19:13.000Z</time>
   </trkpt>
   <trkpt lat="-8.064877" lon="-34.895775">
    <ele>2.1</ele>
    <time>2020-02-18T14:19:14.000Z</time>
   </trkpt>
   <trkpt lat="-8.064925" lon="-34.895733">
    <ele>1.9</ele>
    <time>2020-02-18T14:19:15.000Z</time>
   </trkpt>
   <trkpt lat="-8.064983" lon="-34.895713">
    <ele>1.7</ele>
    <time>2020-02-18T14:19:16.000Z</time>
   </trkpt>
   <trkpt lat="-8.065018" lon="-34.895734">
    <ele>1.5</ele>
    <time>2020-02-18T14:19:17.000Z</time>
   </trkpt>
   <trkpt lat="-8.065038" lon="-34.895712">
    <ele>1.4</ele>
    <time>2020-02-18T14:19:18.000Z</time>
   </trkpt>
   <trkpt lat="-8.065048" lon="-34.895713">
    <ele>1.4</ele>
    <time>2020-02-18T14:19:19.000Z</time>
   </trkpt>
   <trkpt lat="-8.065072" lon="-34.895761">
    <ele>0.9</ele>
    <time>2020-02-18T14:19:21.000Z</time>
   </trkpt>
   <trkpt lat="-8.06509" lon="-34.895782">
    <ele>1</ele>
    <time>2020-02-18T14:19:22.000Z</time>
   </trkpt>
   <trkpt lat="-8.065082" lon="-34.895818">
    <ele>1.1</ele>
    <time>2020-02-18T14:19:23.000Z</time>
   </trkpt>
   <trkpt lat="-8.065088" lon="-34.895843">
    <ele>1.2</ele>
    <time>2020-02-18T14:19:24.000Z</time>
   </trkpt>
   <trkpt lat="-8.065098" lon="-34.895874">
    <ele>1.2</ele>
    <time>2020-02-18T14:19:26.000Z</time>
   </trkpt>
   <trkpt lat="-8.065117" lon="-34.89588">
    <ele>1.3</ele>
    <time>2020-02-18T14:19:28.000Z</time>
   </trkpt>
   <trkpt lat="-8.065101" lon="-34.895957">
    <ele>1.4</ele>
    <time>2020-02-18T14:19:31.000Z</time>
   </trkpt>
   <trkpt lat="-8.065097" lon="-34.896032">
    <ele>1.6</ele>
    <time>2020-02-18T14:19:35.000Z</time>
   </trkpt>
   <trkpt lat="-8.065092" lon="-34.896106">
    <ele>1.8</ele>
    <time>2020-02-18T14:20:14.000Z</time>
   </trkpt>
   <trkpt lat="-8.065088" lon="-34.89618">
    <ele>2</ele>
    <time>2020-02-18T14:20:15.000Z</time>
   </trkpt>
   <trkpt lat="-8.065027" lon="-34.896159">
    <ele>2.2</ele>
    <time>2020-02-18T14:20:18.000Z</time>
   </trkpt>
   <trkpt lat="-8.065007" lon="-34.896129">
    <ele>2.3</ele>
    <time>2020-02-18T14:20:20.000Z</time>
   </trkpt>
   <trkpt lat="-8.065003" lon="-34.896106">
    <ele>2.3</ele>
    <time>2020-02-18T14:20:22.000Z</time>
   </trkpt>
  </trkseg>
 </trk>
</gpx>
