<?xml version="1.0" encoding="UTF-8"?>
<gpx creator="StravaGPX" version="1.1" xmlns="http://www.topografix.com/GPX/1/1">
 <metadata>
  <time>2024-07-31T16:18:54Z</time>
 </metadata>
 <trk>
  <name>Evening Ride</name>
  <type>1</type>
  <trkseg>
   <trkpt lat="52.475309" lon="13.477011">
    <ele>37.4</ele>
    <time>2024-07-31T16:18:54.000Z</time>
   </trkpt>
   <trkpt lat="52.475304" lon="13.477019">
    <ele>38.2</ele>
    <time>2024-07-31T16:18:55.000Z</time>
   </trkpt>
   <trkpt lat="52.47542" lon="13.476787">
    <ele>38.8</ele>
    <time>2024-07-31T16:18:58.000Z</time>
   </trkpt>
   <trkpt lat="52.475468" lon="13.476684">
    <ele>38.8</ele>
    <time>2024-07-31T16:19:00.000Z</time>
   </trkpt>
   <trkpt lat="52.475478" lon="13.476657">
    <ele>38.6</ele>
    <time>2024-07-31T16:19:01.000Z</time>
   </trkpt>
   <trkpt lat="52.475493" lon="13.476623">
    <ele>38.6</ele>
    <time>2024-07-31T16:19:02.000Z</time>
   </trkpt>
   <trkpt lat="52.475606" lon="13.476471">
    <ele>38.8</ele>
    <time>2024-07-31T16:19:07.000Z</time>
   </trkpt>
   <trkpt lat="52.475722" lon="13.476331">
    <ele>38.6</ele>
    <time>2024-07-31T16:19:11.000Z</time>
   </trkpt>
   <trkpt lat="52.475775" lon="13.476254">
    <ele>38.8</ele>
    <time>2024-07-31T16:19:13.000Z</time>
   </trkpt>
   <trkpt lat="52.475842" lon="13.476163">
    <ele>39</ele>
    <time>2024-07-31T16:19:15.000Z</time>
   </trkpt>
   <trkpt lat="52.475953" lon="13.475947">
    <ele>39</ele>
    <time>2024-07-31T16:19:20.000Z</time>
   </trkpt>
   <trkpt lat="52.476024" lon="13.475806">
    <ele>39</ele>
    <time>2024-07-31T16:19:24.000Z</time>
   </trkpt>
   <trkpt lat="52.476031" lon="13.47581">
    <ele>39</ele>
    <time>2024-07-31T16:19:25.000Z</time>
   </trkpt>
   <trkpt lat="52.476078" lon="13.475852">
    <ele>38.8</ele>
    <time>2024-07-31T16:19:27.000Z</time>
   </trkpt>
   <trkpt lat="52.476139" lon="13.475986">
    <ele>39</ele>
    <time>2024-07-31T16:19:31.000Z</time>
   </trkpt>
   <trkpt lat="52.476157" lon="13.476091">
    <ele>39</ele>
    <time>2024-07-31T16:19:33.000Z</time>
   </trkpt>
   <trkpt lat="52.476182" lon="13.476176">
    <ele>39</ele>
    <time>2024-07-31T16:19:35.000Z</time>
   </trkpt>
   <trkpt lat="52.476192" lon="13.47621">
    <ele>39</ele>
    <time>2024-07-31T16:19:36.000Z</time>
   </trkpt>
   <trkpt lat="52.476206" lon="13.476245">
    <ele>39</ele>
    <time>2024-07-31T16:19:37.000Z</time>
   </trkpt>
   <trkpt lat="52.476292" lon="13.476333">
    <ele>39</ele>
    <time>2024-07-31T16:19:39.000Z</time>
   </trkpt>
   <trkpt lat="52.476333" lon="13.476382">
    <ele>39</ele>
    <time>2024-07-31T16:19:40.000Z</time>
   </trkpt>
   <trkpt lat="52.476365" lon="13.476443">
    <ele>39</ele>
    <time>2024-07-31T16:19:41.000Z</time>
   </trkpt>
   <trkpt lat="52.476445" lon="13.476597">
    <ele>38.8</ele>
    <time>2024-07-31T16:19:43.000Z</time>
   </trkpt>
   <trkpt lat="52.476473" lon="13.476655">
    <ele>38.8</ele>
    <time>2024-07-31T16:19:44.000Z</time>
   </trkpt>
   <trkpt lat="52.476533" lon="13.476769">
    <ele>38.6</ele>
    <time>2024-07-31T16:19:46.000Z</time>
   </trkpt>
   <trkpt lat="52.47661" lon="13.476946">
    <ele>38.6</ele>
    <time>2024-07-31T16:19:49.000Z</time>
   </trkpt>
   <trkpt lat="52.476644" lon="13.477004">
    <ele>38.6</ele>
    <time>2024-07-31T16:19:50.000Z</time>
   </trkpt>
   <trkpt lat="52.47675" lon="13.477182">
    <ele>38.6</ele>
    <time>2024-07-31T16:19:53.000Z</time>
   </trkpt>
   <trkpt lat="52.476806" lon="13.477298">
    <ele>38.8</ele>
    <time>2024-07-31T16:19:55.000Z</time>
   </trkpt>
   <trkpt lat="52.476852" lon="13.477356">
    <ele>38.8</ele>
    <time>2024-07-31T16:19:56.000Z</time>
   </trkpt>
   <trkpt lat="52.476884" lon="13.477413">
    <ele>38.8</ele>
    <time>2024-07-31T16:19:57.000Z</time>
   </trkpt>
   <trkpt lat="52.476934" lon="13.477531">
    <ele>39</ele>
    <time>2024-07-31T16:19:59.000Z</time>
   </trkpt>
   <trkpt lat="52.476988" lon="13.477644">
    <ele>39</ele>
    <time>2024-07-31T16:20:01.000Z</time>
   </trkpt>
   <trkpt lat="52.477104" lon="13.477884">
    <ele>39.2</ele>
    <time>2024-07-31T16:20:05.000Z</time>
   </trkpt>
   <trkpt lat="52.477188" lon="13.477972">
    <ele>39.2</ele>
    <time>2024-07-31T16:20:07.000Z</time>
   </trkpt>
   <trkpt lat="52.477247" lon="13.478072">
    <ele>39.2</ele>
    <time>2024-07-31T16:20:09.000Z</time>
   </trkpt>
   <trkpt lat="52.477408" lon="13.478401">
    <ele>39.4</ele>
    <time>2024-07-31T16:20:16.000Z</time>
   </trkpt>
   <trkpt lat="52.477542" lon="13.478657">
    <ele>39.4</ele>
    <time>2024-07-31T16:20:22.000Z</time>
   </trkpt>
   <trkpt lat="52.477678" lon="13.478844">
    <ele>39.4</ele>
    <time>2024-07-31T16:20:26.000Z</time>
   </trkpt>
   <trkpt lat="52.477823" lon="13.479037">
    <ele>39.4</ele>
    <time>2024-07-31T16:20:30.000Z</time>
   </trkpt>
   <trkpt lat="52.477956" lon="13.479316">
    <ele>39.4</ele>
    <time>2024-07-31T16:20:35.000Z</time>
   </trkpt>
   <trkpt lat="52.478132" lon="13.479642">
    <ele>39.4</ele>
    <time>2024-07-31T16:20:41.000Z</time>
   </trkpt>
   <trkpt lat="52.478248" lon="13.479867">
    <ele>39.4</ele>
    <time>2024-07-31T16:20:45.000Z</time>
   </trkpt>
   <trkpt lat="52.478305" lon="13.479982">
    <ele>39.4</ele>
    <time>2024-07-31T16:20:47.000Z</time>
   </trkpt>
   <trkpt lat="52.478334" lon="13.480044">
    <ele>39.4</ele>
    <time>2024-07-31T16:20:48.000Z</time>
   </trkpt>
   <trkpt lat="52.4784" lon="13.480168">
    <ele>39.6</ele>
    <time>2024-07-31T16:20:50.000Z</time>
   </trkpt>
   <trkpt lat="52.478517" lon="13.480399">
    <ele>39.6</ele>
    <time>2024-07-31T16:20:54.000Z</time>
   </trkpt>
   <trkpt lat="52.478773" lon="13.480857">
    <ele>39.6</ele>
    <time>2024-07-31T16:21:01.000Z</time>
   </trkpt>
   <trkpt lat="52.478859" lon="13.48105">
    <ele>39.6</ele>
    <time>2024-07-31T16:21:04.000Z</time>
   </trkpt>
   <trkpt lat="52.478952" lon="13.481213">
    <ele>39.6</ele>
    <time>2024-07-31T16:21:07.000Z</time>
   </trkpt>
   <trkpt lat="52.479156" lon="13.481616">
    <ele>39.6</ele>
    <time>2024-07-31T16:21:14.000Z</time>
   </trkpt>
   <trkpt lat="52.479185" lon="13.481674">
    <ele>39.6</ele>
    <time>2024-07-31T16:21:15.000Z</time>
   </trkpt>
   <trkpt lat="52.479349" lon="13.48199">
    <ele>39.6</ele>
    <time>2024-07-31T16:21:20.000Z</time>
   </trkpt>
   <trkpt lat="52.479377" lon="13.482049">
    <ele>39.6</ele>
    <time>2024-07-31T16:21:21.000Z</time>
   </trkpt>
   <trkpt lat="52.479484" lon="13.482275">
    <ele>39.4</ele>
    <time>2024-07-31T16:21:25.000Z</time>
   </trkpt>
   <trkpt lat="52.4798" lon="13.482886">
    <ele>39.4</ele>
    <time>2024-07-31T16:21:35.000Z</time>
   </trkpt>
   <trkpt lat="52.479892" lon="13.483053">
    <ele>39.6</ele>
    <time>2024-07-31T16:21:38.000Z</time>
   </trkpt>
   <trkpt lat="52.480022" lon="13.483285">
    <ele>39.8</ele>
    <time>2024-07-31T16:21:42.000Z</time>
   </trkpt>
   <trkpt lat="52.480051" lon="13.483342">
    <ele>39.8</ele>
    <time>2024-07-31T16:21:43.000Z</time>
   </trkpt>
   <trkpt lat="52.480086" lon="13.483398">
    <ele>39.8</ele>
    <time>2024-07-31T16:21:44.000Z</time>
   </trkpt>
   <trkpt lat="52.480155" lon="13.483447">
    <ele>40</ele>
    <time>2024-07-31T16:21:46.000Z</time>
   </trkpt>
   <trkpt lat="52.48024" lon="13.483465">
    <ele>40</ele>
    <time>2024-07-31T16:21:48.000Z</time>
   </trkpt>
   <trkpt lat="52.480334" lon="13.483437">
    <ele>40</ele>
    <time>2024-07-31T16:21:50.000Z</time>
   </trkpt>
   <trkpt lat="52.480387" lon="13.483413">
    <ele>40</ele>
    <time>2024-07-31T16:21:51.000Z</time>
   </trkpt>
   <trkpt lat="52.48056" lon="13.483271">
    <ele>40</ele>
    <time>2024-07-31T16:21:55.000Z</time>
   </trkpt>
   <trkpt lat="52.480787" lon="13.483082">
    <ele>40.2</ele>
    <time>2024-07-31T16:22:00.000Z</time>
   </trkpt>
   <trkpt lat="52.480956" lon="13.482924">
    <ele>40.2</ele>
    <time>2024-07-31T16:22:04.000Z</time>
   </trkpt>
   <trkpt lat="52.481314" lon="13.482617">
    <ele>40.4</ele>
    <time>2024-07-31T16:22:12.000Z</time>
   </trkpt>
   <trkpt lat="52.481719" lon="13.482257">
    <ele>40</ele>
    <time>2024-07-31T16:22:21.000Z</time>
   </trkpt>
   <trkpt lat="52.481935" lon="13.482119">
    <ele>40</ele>
    <time>2024-07-31T16:22:26.000Z</time>
   </trkpt>
   <trkpt lat="52.482142" lon="13.481937">
    <ele>40.2</ele>
    <time>2024-07-31T16:22:31.000Z</time>
   </trkpt>
   <trkpt lat="52.482229" lon="13.481869">
    <ele>40.2</ele>
    <time>2024-07-31T16:22:33.000Z</time>
   </trkpt>
   <trkpt lat="52.4826" lon="13.481542">
    <ele>40.2</ele>
    <time>2024-07-31T16:22:41.000Z</time>
   </trkpt>
   <trkpt lat="52.482886" lon="13.481271">
    <ele>40.2</ele>
    <time>2024-07-31T16:22:47.000Z</time>
   </trkpt>
   <trkpt lat="52.482928" lon="13.481223">
    <ele>40.2</ele>
    <time>2024-07-31T16:22:48.000Z</time>
   </trkpt>
   <trkpt lat="52.483012" lon="13.48112">
    <ele>40.2</ele>
    <time>2024-07-31T16:22:50.000Z</time>
   </trkpt>
   <trkpt lat="52.483146" lon="13.480997">
    <ele>40.2</ele>
    <time>2024-07-31T16:22:53.000Z</time>
   </trkpt>
   <trkpt lat="52.483175" lon="13.480962">
    <ele>40.2</ele>
    <time>2024-07-31T16:22:54.000Z</time>
   </trkpt>
   <trkpt lat="52.483254" lon="13.480875">
    <ele>40.2</ele>
    <time>2024-07-31T16:22:56.000Z</time>
   </trkpt>
   <trkpt lat="52.483299" lon="13.480834">
    <ele>40.2</ele>
    <time>2024-07-31T16:22:57.000Z</time>
   </trkpt>
   <trkpt lat="52.483602" lon="13.480608">
    <ele>40.2</ele>
    <time>2024-07-31T16:23:04.000Z</time>
   </trkpt>
   <trkpt lat="52.483645" lon="13.480571">
    <ele>40.2</ele>
    <time>2024-07-31T16:23:05.000Z</time>
   </trkpt>
   <trkpt lat="52.483825" lon="13.480402">
    <ele>40.2</ele>
    <time>2024-07-31T16:23:09.000Z</time>
   </trkpt>
   <trkpt lat="52.483872" lon="13.480371">
    <ele>40.2</ele>
    <time>2024-07-31T16:23:10.000Z</time>
   </trkpt>
   <trkpt lat="52.483918" lon="13.48034">
    <ele>40.2</ele>
    <time>2024-07-31T16:23:11.000Z</time>
   </trkpt>
   <trkpt lat="52.484101" lon="13.480152">
    <ele>40.2</ele>
    <time>2024-07-31T16:23:15.000Z</time>
   </trkpt>
   <trkpt lat="52.484231" lon="13.480025">
    <ele>40.2</ele>
    <time>2024-07-31T16:23:18.000Z</time>
   </trkpt>
   <trkpt lat="52.484278" lon="13.479981">
    <ele>40.2</ele>
    <time>2024-07-31T16:23:19.000Z</time>
   </trkpt>
   <trkpt lat="52.484377" lon="13.479894">
    <ele>40.2</ele>
    <time>2024-07-31T16:23:21.000Z</time>
   </trkpt>
   <trkpt lat="52.484467" lon="13.479811">
    <ele>40.2</ele>
    <time>2024-07-31T16:23:23.000Z</time>
   </trkpt>
   <trkpt lat="52.484556" lon="13.479707">
    <ele>40.2</ele>
    <time>2024-07-31T16:23:25.000Z</time>
   </trkpt>
   <trkpt lat="52.484602" lon="13.479668">
    <ele>40</ele>
    <time>2024-07-31T16:23:26.000Z</time>
   </trkpt>
   <trkpt lat="52.484736" lon="13.479547">
    <ele>40</ele>
    <time>2024-07-31T16:23:29.000Z</time>
   </trkpt>
   <trkpt lat="52.484831" lon="13.479493">
    <ele>40</ele>
    <time>2024-07-31T16:23:31.000Z</time>
   </trkpt>
   <trkpt lat="52.484872" lon="13.479462">
    <ele>40</ele>
    <time>2024-07-31T16:23:32.000Z</time>
   </trkpt>
   <trkpt lat="52.485047" lon="13.479296">
    <ele>40</ele>
    <time>2024-07-31T16:23:36.000Z</time>
   </trkpt>
   <trkpt lat="52.485272" lon="13.479045">
    <ele>40</ele>
    <time>2024-07-31T16:23:42.000Z</time>
   </trkpt>
   <trkpt lat="52.485352" lon="13.478966">
    <ele>40</ele>
    <time>2024-07-31T16:23:44.000Z</time>
   </trkpt>
   <trkpt lat="52.485665" lon="13.478638">
    <ele>40.2</ele>
    <time>2024-07-31T16:23:52.000Z</time>
   </trkpt>
   <trkpt lat="52.485954" lon="13.478371">
    <ele>40.2</ele>
    <time>2024-07-31T16:23:59.000Z</time>
   </trkpt>
   <trkpt lat="52.486123" lon="13.478217">
    <ele>40.2</ele>
    <time>2024-07-31T16:24:03.000Z</time>
   </trkpt>
   <trkpt lat="52.486212" lon="13.478142">
    <ele>40.4</ele>
    <time>2024-07-31T16:24:05.000Z</time>
   </trkpt>
   <trkpt lat="52.486557" lon="13.477806">
    <ele>40.4</ele>
    <time>2024-07-31T16:24:13.000Z</time>
   </trkpt>
   <trkpt lat="52.486736" lon="13.47764">
    <ele>40.2</ele>
    <time>2024-07-31T16:24:17.000Z</time>
   </trkpt>
   <trkpt lat="52.486874" lon="13.477515">
    <ele>40.2</ele>
    <time>2024-07-31T16:24:20.000Z</time>
   </trkpt>
   <trkpt lat="52.48709" lon="13.477307">
    <ele>40.2</ele>
    <time>2024-07-31T16:24:25.000Z</time>
   </trkpt>
   <trkpt lat="52.487174" lon="13.477204">
    <ele>40.2</ele>
    <time>2024-07-31T16:24:27.000Z</time>
   </trkpt>
   <trkpt lat="52.487219" lon="13.477171">
    <ele>40.2</ele>
    <time>2024-07-31T16:24:28.000Z</time>
   </trkpt>
   <trkpt lat="52.487312" lon="13.47711">
    <ele>40.4</ele>
    <time>2024-07-31T16:24:30.000Z</time>
   </trkpt>
   <trkpt lat="52.487418" lon="13.47702">
    <ele>40.4</ele>
    <time>2024-07-31T16:24:32.000Z</time>
   </trkpt>
   <trkpt lat="52.487597" lon="13.476774">
    <ele>40.4</ele>
    <time>2024-07-31T16:24:37.000Z</time>
   </trkpt>
   <trkpt lat="52.487672" lon="13.476684">
    <ele>40.4</ele>
    <time>2024-07-31T16:24:39.000Z</time>
   </trkpt>
   <trkpt lat="52.487703" lon="13.476644">
    <ele>40.6</ele>
    <time>2024-07-31T16:24:40.000Z</time>
   </trkpt>
   <trkpt lat="52.487797" lon="13.476462">
    <ele>40.6</ele>
    <time>2024-07-31T16:24:43.000Z</time>
   </trkpt>
   <trkpt lat="52.487823" lon="13.476393">
    <ele>40.6</ele>
    <time>2024-07-31T16:24:44.000Z</time>
   </trkpt>
   <trkpt lat="52.487863" lon="13.476259">
    <ele>40.6</ele>
    <time>2024-07-31T16:24:46.000Z</time>
   </trkpt>
   <trkpt lat="52.487921" lon="13.476087">
    <ele>40.4</ele>
    <time>2024-07-31T16:24:49.000Z</time>
   </trkpt>
   <trkpt lat="52.488002" lon="13.475796">
    <ele>40.2</ele>
    <time>2024-07-31T16:24:53.000Z</time>
   </trkpt>
   <trkpt lat="52.488087" lon="13.47546">
    <ele>40</ele>
    <time>2024-07-31T16:24:58.000Z</time>
   </trkpt>
   <trkpt lat="52.488184" lon="13.475135">
    <ele>40</ele>
    <time>2024-07-31T16:25:02.000Z</time>
   </trkpt>
   <trkpt lat="52.488213" lon="13.475075">
    <ele>40</ele>
    <time>2024-07-31T16:25:03.000Z</time>
   </trkpt>
   <trkpt lat="52.488237" lon="13.475006">
    <ele>40</ele>
    <time>2024-07-31T16:25:04.000Z</time>
   </trkpt>
   <trkpt lat="52.488283" lon="13.474823">
    <ele>40</ele>
    <time>2024-07-31T16:25:07.000Z</time>
   </trkpt>
   <trkpt lat="52.488288" lon="13.474774">
    <ele>40</ele>
    <time>2024-07-31T16:25:08.000Z</time>
   </trkpt>
   <trkpt lat="52.488312" lon="13.474696">
    <ele>40</ele>
    <time>2024-07-31T16:25:09.000Z</time>
   </trkpt>
   <trkpt lat="52.488362" lon="13.474469">
    <ele>39.8</ele>
    <time>2024-07-31T16:25:12.000Z</time>
   </trkpt>
   <trkpt lat="52.488403" lon="13.474289">
    <ele>40</ele>
    <time>2024-07-31T16:25:14.000Z</time>
   </trkpt>
   <trkpt lat="52.48849" lon="13.47403">
    <ele>40</ele>
    <time>2024-07-31T16:25:17.000Z</time>
   </trkpt>
   <trkpt lat="52.488641" lon="13.473677">
    <ele>40</ele>
    <time>2024-07-31T16:25:20.000Z</time>
   </trkpt>
   <trkpt lat="52.488772" lon="13.473313">
    <ele>40.2</ele>
    <time>2024-07-31T16:25:25.000Z</time>
   </trkpt>
   <trkpt lat="52.488783" lon="13.473236">
    <ele>40.2</ele>
    <time>2024-07-31T16:25:26.000Z</time>
   </trkpt>
   <trkpt lat="52.48883" lon="13.472933">
    <ele>40.2</ele>
    <time>2024-07-31T16:25:30.000Z</time>
   </trkpt>
   <trkpt lat="52.488873" lon="13.472842">
    <ele>40.4</ele>
    <time>2024-07-31T16:25:32.000Z</time>
   </trkpt>
   <trkpt lat="52.488894" lon="13.472761">
    <ele>40.4</ele>
    <time>2024-07-31T16:25:33.000Z</time>
   </trkpt>
   <trkpt lat="52.489055" lon="13.472365">
    <ele>40.4</ele>
    <time>2024-07-31T16:25:37.000Z</time>
   </trkpt>
   <trkpt lat="52.489155" lon="13.472057">
    <ele>40.4</ele>
    <time>2024-07-31T16:25:41.000Z</time>
   </trkpt>
   <trkpt lat="52.489206" lon="13.471843">
    <ele>40.2</ele>
    <time>2024-07-31T16:25:44.000Z</time>
   </trkpt>
   <trkpt lat="52.489315" lon="13.471427">
    <ele>40.2</ele>
    <time>2024-07-31T16:25:49.000Z</time>
   </trkpt>
   <trkpt lat="52.489367" lon="13.4712">
    <ele>40.2</ele>
    <time>2024-07-31T16:25:52.000Z</time>
   </trkpt>
   <trkpt lat="52.489572" lon="13.470609">
    <ele>40.2</ele>
    <time>2024-07-31T16:26:00.000Z</time>
   </trkpt>
   <trkpt lat="52.489574" lon="13.470545">
    <ele>40.2</ele>
    <time>2024-07-31T16:26:01.000Z</time>
   </trkpt>
   <trkpt lat="52.489617" lon="13.470342">
    <ele>40.4</ele>
    <time>2024-07-31T16:26:04.000Z</time>
   </trkpt>
   <trkpt lat="52.489646" lon="13.470203">
    <ele>40.4</ele>
    <time>2024-07-31T16:26:06.000Z</time>
   </trkpt>
   <trkpt lat="52.489687" lon="13.470083">
    <ele>40.4</ele>
    <time>2024-07-31T16:26:08.000Z</time>
   </trkpt>
   <trkpt lat="52.489804" lon="13.469666">
    <ele>40.4</ele>
    <time>2024-07-31T16:26:13.000Z</time>
   </trkpt>
   <trkpt lat="52.489839" lon="13.469513">
    <ele>40.2</ele>
    <time>2024-07-31T16:26:15.000Z</time>
   </trkpt>
   <trkpt lat="52.489883" lon="13.46935">
    <ele>40.4</ele>
    <time>2024-07-31T16:26:17.000Z</time>
   </trkpt>
   <trkpt lat="52.489973" lon="13.469102">
    <ele>40.4</ele>
    <time>2024-07-31T16:26:20.000Z</time>
   </trkpt>
   <trkpt lat="52.489998" lon="13.468998">
    <ele>40.4</ele>
    <time>2024-07-31T16:26:22.000Z</time>
   </trkpt>
   <trkpt lat="52.490069" lon="13.468822">
    <ele>40.4</ele>
    <time>2024-07-31T16:26:25.000Z</time>
   </trkpt>
   <trkpt lat="52.490083" lon="13.468763">
    <ele>40.4</ele>
    <time>2024-07-31T16:26:26.000Z</time>
   </trkpt>
   <trkpt lat="52.490119" lon="13.468582">
    <ele>40.4</ele>
    <time>2024-07-31T16:26:28.000Z</time>
   </trkpt>
   <trkpt lat="52.490187" lon="13.46827">
    <ele>40.4</ele>
    <time>2024-07-31T16:26:30.000Z</time>
   </trkpt>
   <trkpt lat="52.490316" lon="13.467936">
    <ele>40.4</ele>
    <time>2024-07-31T16:26:35.000Z</time>
   </trkpt>
   <trkpt lat="52.490327" lon="13.467866">
    <ele>40.4</ele>
    <time>2024-07-31T16:26:36.000Z</time>
   </trkpt>
   <trkpt lat="52.490348" lon="13.467805">
    <ele>40.4</ele>
    <time>2024-07-31T16:26:37.000Z</time>
   </trkpt>
   <trkpt lat="52.490403" lon="13.467638">
    <ele>40.4</ele>
    <time>2024-07-31T16:26:40.000Z</time>
   </trkpt>
   <trkpt lat="52.49044" lon="13.467536">
    <ele>40.2</ele>
    <time>2024-07-31T16:26:41.000Z</time>
   </trkpt>
   <trkpt lat="52.490604" lon="13.467129">
    <ele>40.2</ele>
    <time>2024-07-31T16:26:45.000Z</time>
   </trkpt>
   <trkpt lat="52.490631" lon="13.467001">
    <ele>40.2</ele>
    <time>2024-07-31T16:26:46.000Z</time>
   </trkpt>
   <trkpt lat="52.490701" lon="13.46675">
    <ele>40.2</ele>
    <time>2024-07-31T16:26:50.000Z</time>
   </trkpt>
   <trkpt lat="52.490785" lon="13.466475">
    <ele>40.2</ele>
    <time>2024-07-31T16:26:55.000Z</time>
   </trkpt>
   <trkpt lat="52.490875" lon="13.466149">
    <ele>40.4</ele>
    <time>2024-07-31T16:27:00.000Z</time>
   </trkpt>
   <trkpt lat="52.49089" lon="13.466085">
    <ele>40.6</ele>
    <time>2024-07-31T16:27:01.000Z</time>
   </trkpt>
   <trkpt lat="52.490902" lon="13.466027">
    <ele>40.6</ele>
    <time>2024-07-31T16:27:02.000Z</time>
   </trkpt>
   <trkpt lat="52.491022" lon="13.465644">
    <ele>40.6</ele>
    <time>2024-07-31T16:27:06.000Z</time>
   </trkpt>
   <trkpt lat="52.491078" lon="13.46547">
    <ele>40.6</ele>
    <time>2024-07-31T16:27:08.000Z</time>
   </trkpt>
   <trkpt lat="52.491125" lon="13.465303">
    <ele>40.4</ele>
    <time>2024-07-31T16:27:10.000Z</time>
   </trkpt>
   <trkpt lat="52.491156" lon="13.465217">
    <ele>40.4</ele>
    <time>2024-07-31T16:27:11.000Z</time>
   </trkpt>
   <trkpt lat="52.49121" lon="13.464995">
    <ele>40.4</ele>
    <time>2024-07-31T16:27:14.000Z</time>
   </trkpt>
   <trkpt lat="52.491284" lon="13.464765">
    <ele>40.4</ele>
    <time>2024-07-31T16:27:17.000Z</time>
   </trkpt>
   <trkpt lat="52.49151" lon="13.464201">
    <ele>40.6</ele>
    <time>2024-07-31T16:27:23.000Z</time>
   </trkpt>
   <trkpt lat="52.491561" lon="13.464016">
    <ele>40.6</ele>
    <time>2024-07-31T16:27:25.000Z</time>
   </trkpt>
   <trkpt lat="52.491605" lon="13.463888">
    <ele>40.8</ele>
    <time>2024-07-31T16:27:27.000Z</time>
   </trkpt>
   <trkpt lat="52.491622" lon="13.463785">
    <ele>41</ele>
    <time>2024-07-31T16:27:29.000Z</time>
   </trkpt>
   <trkpt lat="52.491623" lon="13.46365">
    <ele>41.2</ele>
    <time>2024-07-31T16:27:31.000Z</time>
   </trkpt>
   <trkpt lat="52.491818" lon="13.463024">
    <ele>40.6</ele>
    <time>2024-07-31T16:27:39.000Z</time>
   </trkpt>
   <trkpt lat="52.491994" lon="13.462431">
    <ele>40.4</ele>
    <time>2024-07-31T16:27:47.000Z</time>
   </trkpt>
   <trkpt lat="52.492022" lon="13.462361">
    <ele>40.2</ele>
    <time>2024-07-31T16:27:48.000Z</time>
   </trkpt>
   <trkpt lat="52.492087" lon="13.462115">
    <ele>40.2</ele>
    <time>2024-07-31T16:27:51.000Z</time>
   </trkpt>
   <trkpt lat="52.492101" lon="13.462045">
    <ele>40.2</ele>
    <time>2024-07-31T16:27:52.000Z</time>
   </trkpt>
   <trkpt lat="52.492272" lon="13.46157">
    <ele>40.2</ele>
    <time>2024-07-31T16:27:58.000Z</time>
   </trkpt>
   <trkpt lat="52.492418" lon="13.46111">
    <ele>40.2</ele>
    <time>2024-07-31T16:28:04.000Z</time>
   </trkpt>
   <trkpt lat="52.492525" lon="13.460519">
    <ele>40.2</ele>
    <time>2024-07-31T16:28:11.000Z</time>
   </trkpt>
   <trkpt lat="52.492634" lon="13.460358">
    <ele>40.2</ele>
    <time>2024-07-31T16:28:14.000Z</time>
   </trkpt>
   <trkpt lat="52.492822" lon="13.460199">
    <ele>40.2</ele>
    <time>2024-07-31T16:28:20.000Z</time>
   </trkpt>
   <trkpt lat="52.492836" lon="13.460194">
    <ele>40.2</ele>
    <time>2024-07-31T16:28:21.000Z</time>
   </trkpt>
   <trkpt lat="52.492858" lon="13.460149">
    <ele>40.2</ele>
    <time>2024-07-31T16:28:23.000Z</time>
   </trkpt>
   <trkpt lat="52.492831" lon="13.459964">
    <ele>40.2</ele>
    <time>2024-07-31T16:28:28.000Z</time>
   </trkpt>
   <trkpt lat="52.492822" lon="13.459785">
    <ele>40.6</ele>
    <time>2024-07-31T16:28:34.000Z</time>
   </trkpt>
   <trkpt lat="52.492838" lon="13.459717">
    <ele>40.2</ele>
    <time>2024-07-31T16:29:13.000Z</time>
   </trkpt>
   <trkpt lat="52.492858" lon="13.459642">
    <ele>40.4</ele>
    <time>2024-07-31T16:29:16.000Z</time>
   </trkpt>
   <trkpt lat="52.492895" lon="13.45961">
    <ele>40.4</ele>
    <time>2024-07-31T16:29:18.000Z</time>
   </trkpt>
   <trkpt lat="52.49294" lon="13.459544">
    <ele>40.4</ele>
    <time>2024-07-31T16:29:21.000Z</time>
   </trkpt>
   <trkpt lat="52.492939" lon="13.459472">
    <ele>40.4</ele>
    <time>2024-07-31T16:29:23.000Z</time>
   </trkpt>
   <trkpt lat="52.492945" lon="13.459374">
    <ele>40.4</ele>
    <time>2024-07-31T16:29:25.000Z</time>
   </trkpt>
   <trkpt lat="52.49298" lon="13.459172">
    <ele>40.6</ele>
    <time>2024-07-31T16:29:28.000Z</time>
   </trkpt>
   <trkpt lat="52.492996" lon="13.459106">
    <ele>40.6</ele>
    <time>2024-07-31T16:29:29.000Z</time>
   </trkpt>
   <trkpt lat="52.493051" lon="13.458995">
    <ele>40.6</ele>
    <time>2024-07-31T16:29:31.000Z</time>
   </trkpt>
   <trkpt lat="52.493163" lon="13.458592">
    <ele>40.2</ele>
    <time>2024-07-31T16:29:37.000Z</time>
   </trkpt>
   <trkpt lat="52.493205" lon="13.458462">
    <ele>40.2</ele>
    <time>2024-07-31T16:29:39.000Z</time>
   </trkpt>
   <trkpt lat="52.493224" lon="13.458392">
    <ele>40.2</ele>
    <time>2024-07-31T16:29:40.000Z</time>
   </trkpt>
   <trkpt lat="52.493312" lon="13.458097">
    <ele>40.2</ele>
    <time>2024-07-31T16:29:44.000Z</time>
   </trkpt>
   <trkpt lat="52.493369" lon="13.457903">
    <ele>40.2</ele>
    <time>2024-07-31T16:29:46.000Z</time>
   </trkpt>
   <trkpt lat="52.493421" lon="13.457687">
    <ele>40.2</ele>
    <time>2024-07-31T16:29:48.000Z</time>
   </trkpt>
   <trkpt lat="52.493483" lon="13.457516">
    <ele>40.4</ele>
    <time>2024-07-31T16:29:50.000Z</time>
   </trkpt>
   <trkpt lat="52.493521" lon="13.457416">
    <ele>40.4</ele>
    <time>2024-07-31T16:29:51.000Z</time>
   </trkpt>
   <trkpt lat="52.493677" lon="13.456829">
    <ele>40.4</ele>
    <time>2024-07-31T16:29:58.000Z</time>
   </trkpt>
   <trkpt lat="52.493739" lon="13.456614">
    <ele>40.4</ele>
    <time>2024-07-31T16:30:01.000Z</time>
   </trkpt>
   <trkpt lat="52.49379" lon="13.456465">
    <ele>40.6</ele>
    <time>2024-07-31T16:30:03.000Z</time>
   </trkpt>
   <trkpt lat="52.493856" lon="13.456301">
    <ele>40.6</ele>
    <time>2024-07-31T16:30:05.000Z</time>
   </trkpt>
   <trkpt lat="52.494095" lon="13.455521">
    <ele>40.4</ele>
    <time>2024-07-31T16:30:15.000Z</time>
   </trkpt>
   <trkpt lat="52.494159" lon="13.455313">
    <ele>40.4</ele>
    <time>2024-07-31T16:30:18.000Z</time>
   </trkpt>
   <trkpt lat="52.494211" lon="13.455082">
    <ele>40.4</ele>
    <time>2024-07-31T16:30:21.000Z</time>
   </trkpt>
   <trkpt lat="52.494359" lon="13.454669">
    <ele>40.4</ele>
    <time>2024-07-31T16:30:26.000Z</time>
   </trkpt>
   <trkpt lat="52.494409" lon="13.454455">
    <ele>40.4</ele>
    <time>2024-07-31T16:30:28.000Z</time>
   </trkpt>
   <trkpt lat="52.494491" lon="13.454163">
    <ele>40.4</ele>
    <time>2024-07-31T16:30:32.000Z</time>
   </trkpt>
   <trkpt lat="52.494547" lon="13.454">
    <ele>40.4</ele>
    <time>2024-07-31T16:30:34.000Z</time>
   </trkpt>
   <trkpt lat="52.49468" lon="13.453555">
    <ele>40.4</ele>
    <time>2024-07-31T16:30:41.000Z</time>
   </trkpt>
   <trkpt lat="52.494723" lon="13.453419">
    <ele>40.4</ele>
    <time>2024-07-31T16:30:43.000Z</time>
   </trkpt>
   <trkpt lat="52.494834" lon="13.45321">
    <ele>40.4</ele>
    <time>2024-07-31T16:30:46.000Z</time>
   </trkpt>
   <trkpt lat="52.495032" lon="13.452862">
    <ele>40.4</ele>
    <time>2024-07-31T16:30:52.000Z</time>
   </trkpt>
   <trkpt lat="52.495231" lon="13.452517">
    <ele>40.6</ele>
    <time>2024-07-31T16:30:57.000Z</time>
   </trkpt>
   <trkpt lat="52.495587" lon="13.451939">
    <ele>40.6</ele>
    <time>2024-07-31T16:31:06.000Z</time>
   </trkpt>
   <trkpt lat="52.49586" lon="13.451496">
    <ele>40.6</ele>
    <time>2024-07-31T16:31:13.000Z</time>
   </trkpt>
   <trkpt lat="52.496045" lon="13.451197">
    <ele>40.8</ele>
    <time>2024-07-31T16:31:18.000Z</time>
   </trkpt>
   <trkpt lat="52.496106" lon="13.451098">
    <ele>40.8</ele>
    <time>2024-07-31T16:31:20.000Z</time>
   </trkpt>
   <trkpt lat="52.496511" lon="13.450409">
    <ele>41</ele>
    <time>2024-07-31T16:31:31.000Z</time>
   </trkpt>
   <trkpt lat="52.496589" lon="13.450284">
    <ele>41</ele>
    <time>2024-07-31T16:31:33.000Z</time>
   </trkpt>
   <trkpt lat="52.496926" lon="13.449668">
    <ele>41.2</ele>
    <time>2024-07-31T16:31:42.000Z</time>
   </trkpt>
   <trkpt lat="52.497068" lon="13.449415">
    <ele>41.2</ele>
    <time>2024-07-31T16:31:46.000Z</time>
   </trkpt>
   <trkpt lat="52.497266" lon="13.449103">
    <ele>41.2</ele>
    <time>2024-07-31T16:31:51.000Z</time>
   </trkpt>
   <trkpt lat="52.497449" lon="13.44877">
    <ele>41.2</ele>
    <time>2024-07-31T16:31:56.000Z</time>
   </trkpt>
   <trkpt lat="52.497553" lon="13.448575">
    <ele>41.8</ele>
    <time>2024-07-31T16:31:59.000Z</time>
   </trkpt>
   <trkpt lat="52.497696" lon="13.448305">
    <ele>42</ele>
    <time>2024-07-31T16:32:03.000Z</time>
   </trkpt>
   <trkpt lat="52.497794" lon="13.448164">
    <ele>42</ele>
    <time>2024-07-31T16:32:05.000Z</time>
   </trkpt>
   <trkpt lat="52.498079" lon="13.447729">
    <ele>40.8</ele>
    <time>2024-07-31T16:32:13.000Z</time>
   </trkpt>
   <trkpt lat="52.498123" lon="13.447636">
    <ele>40.6</ele>
    <time>2024-07-31T16:32:17.000Z</time>
   </trkpt>
   <trkpt lat="52.49814" lon="13.447568">
    <ele>40.6</ele>
    <time>2024-07-31T16:32:22.000Z</time>
   </trkpt>
   <trkpt lat="52.49814" lon="13.447555">
    <ele>40.6</ele>
    <time>2024-07-31T16:32:23.000Z</time>
   </trkpt>
   <trkpt lat="52.498168" lon="13.447495">
    <ele>40.6</ele>
    <time>2024-07-31T16:32:27.000Z</time>
   </trkpt>
   <trkpt lat="52.49818" lon="13.44748">
    <ele>40.6</ele>
    <time>2024-07-31T16:32:29.000Z</time>
   </trkpt>
   <trkpt lat="52.498224" lon="13.447419">
    <ele>40.6</ele>
    <time>2024-07-31T16:32:33.000Z</time>
   </trkpt>
   <trkpt lat="52.498231" lon="13.447416">
    <ele>40.6</ele>
    <time>2024-07-31T16:32:35.000Z</time>
   </trkpt>
   <trkpt lat="52.498247" lon="13.447408">
    <ele>40.6</ele>
    <time>2024-07-31T16:32:37.000Z</time>
   </trkpt>
   <trkpt lat="52.498315" lon="13.447279">
    <ele>40.4</ele>
    <time>2024-07-31T16:32:41.000Z</time>
   </trkpt>
   <trkpt lat="52.498367" lon="13.447171">
    <ele>40.4</ele>
    <time>2024-07-31T16:32:43.000Z</time>
   </trkpt>
   <trkpt lat="52.498458" lon="13.446996">
    <ele>40.4</ele>
    <time>2024-07-31T16:32:46.000Z</time>
   </trkpt>
   <trkpt lat="52.498657" lon="13.446659">
    <ele>40.4</ele>
    <time>2024-07-31T16:32:52.000Z</time>
   </trkpt>
   <trkpt lat="52.498859" lon="13.446315">
    <ele>40.4</ele>
    <time>2024-07-31T16:32:58.000Z</time>
   </trkpt>
   <trkpt lat="52.49893" lon="13.446198">
    <ele>40.4</ele>
    <time>2024-07-31T16:33:00.000Z</time>
   </trkpt>
   <trkpt lat="52.499024" lon="13.446034">
    <ele>40.4</ele>
    <time>2024-07-31T16:33:03.000Z</time>
   </trkpt>
   <trkpt lat="52.49914" lon="13.445809">
    <ele>40.6</ele>
    <time>2024-07-31T16:33:07.000Z</time>
   </trkpt>
   <trkpt lat="52.499189" lon="13.44571">
    <ele>40.4</ele>
    <time>2024-07-31T16:33:09.000Z</time>
   </trkpt>
   <trkpt lat="52.499325" lon="13.445483">
    <ele>40.2</ele>
    <time>2024-07-31T16:33:13.000Z</time>
   </trkpt>
   <trkpt lat="52.499438" lon="13.445291">
    <ele>40.2</ele>
    <time>2024-07-31T16:33:17.000Z</time>
   </trkpt>
   <trkpt lat="52.499534" lon="13.445136">
    <ele>40.2</ele>
    <time>2024-07-31T16:33:20.000Z</time>
   </trkpt>
   <trkpt lat="52.499711" lon="13.444802">
    <ele>40</ele>
    <time>2024-07-31T16:33:25.000Z</time>
   </trkpt>
   <trkpt lat="52.499745" lon="13.444732">
    <ele>40</ele>
    <time>2024-07-31T16:33:26.000Z</time>
   </trkpt>
   <trkpt lat="52.499894" lon="13.444447">
    <ele>40</ele>
    <time>2024-07-31T16:33:30.000Z</time>
   </trkpt>
   <trkpt lat="52.500088" lon="13.444104">
    <ele>40</ele>
    <time>2024-07-31T16:33:35.000Z</time>
   </trkpt>
   <trkpt lat="52.500203" lon="13.443902">
    <ele>40</ele>
    <time>2024-07-31T16:33:38.000Z</time>
   </trkpt>
   <trkpt lat="52.500404" lon="13.443545">
    <ele>40</ele>
    <time>2024-07-31T16:33:43.000Z</time>
   </trkpt>
   <trkpt lat="52.500656" lon="13.443043">
    <ele>40</ele>
    <time>2024-07-31T16:33:50.000Z</time>
   </trkpt>
   <trkpt lat="52.500689" lon="13.442983">
    <ele>40</ele>
    <time>2024-07-31T16:33:51.000Z</time>
   </trkpt>
   <trkpt lat="52.500814" lon="13.442734">
    <ele>40</ele>
    <time>2024-07-31T16:33:56.000Z</time>
   </trkpt>
   <trkpt lat="52.500898" lon="13.442569">
    <ele>40.4</ele>
    <time>2024-07-31T16:34:02.000Z</time>
   </trkpt>
   <trkpt lat="52.500918" lon="13.442537">
    <ele>40.6</ele>
    <time>2024-07-31T16:34:45.000Z</time>
   </trkpt>
   <trkpt lat="52.500975" lon="13.442404">
    <ele>40.6</ele>
    <time>2024-07-31T16:34:49.000Z</time>
   </trkpt>
   <trkpt lat="52.501034" lon="13.442303">
    <ele>40.6</ele>
    <time>2024-07-31T16:34:52.000Z</time>
   </trkpt>
   <trkpt lat="52.501059" lon="13.442281">
    <ele>40.6</ele>
    <time>2024-07-31T16:34:53.000Z</time>
   </trkpt>
   <trkpt lat="52.501076" lon="13.442254">
    <ele>40.6</ele>
    <time>2024-07-31T16:34:54.000Z</time>
   </trkpt>
   <trkpt lat="52.501117" lon="13.442168">
    <ele>40.6</ele>
    <time>2024-07-31T16:34:56.000Z</time>
   </trkpt>
   <trkpt lat="52.50126" lon="13.441983">
    <ele>40.6</ele>
    <time>2024-07-31T16:35:01.000Z</time>
   </trkpt>
   <trkpt lat="52.501275" lon="13.441959">
    <ele>40.6</ele>
    <time>2024-07-31T16:35:02.000Z</time>
   </trkpt>
   <trkpt lat="52.50128" lon="13.441935">
    <ele>40.6</ele>
    <time>2024-07-31T16:35:03.000Z</time>
   </trkpt>
   <trkpt lat="52.501282" lon="13.441856">
    <ele>40.8</ele>
    <time>2024-07-31T16:35:44.000Z</time>
   </trkpt>
   <trkpt lat="52.501221" lon="13.441648">
    <ele>40.8</ele>
    <time>2024-07-31T16:35:48.000Z</time>
   </trkpt>
   <trkpt lat="52.501172" lon="13.441552">
    <ele>40.8</ele>
    <time>2024-07-31T16:35:50.000Z</time>
   </trkpt>
   <trkpt lat="52.501109" lon="13.441462">
    <ele>40.8</ele>
    <time>2024-07-31T16:35:52.000Z</time>
   </trkpt>
   <trkpt lat="52.501077" lon="13.441425">
    <ele>40.8</ele>
    <time>2024-07-31T16:35:53.000Z</time>
   </trkpt>
   <trkpt lat="52.500994" lon="13.441311">
    <ele>40.8</ele>
    <time>2024-07-31T16:35:55.000Z</time>
   </trkpt>
   <trkpt lat="52.500924" lon="13.441194">
    <ele>41</ele>
    <time>2024-07-31T16:35:57.000Z</time>
   </trkpt>
   <trkpt lat="52.500898" lon="13.440951">
    <ele>40.8</ele>
    <time>2024-07-31T16:36:00.000Z</time>
   </trkpt>
   <trkpt lat="52.500828" lon="13.440631">
    <ele>41.2</ele>
    <time>2024-07-31T16:36:04.000Z</time>
   </trkpt>
   <trkpt lat="52.50081" lon="13.440539">
    <ele>41.2</ele>
    <time>2024-07-31T16:36:05.000Z</time>
   </trkpt>
   <trkpt lat="52.500793" lon="13.440392">
    <ele>41.2</ele>
    <time>2024-07-31T16:36:07.000Z</time>
   </trkpt>
   <trkpt lat="52.500756" lon="13.440249">
    <ele>41.4</ele>
    <time>2024-07-31T16:36:09.000Z</time>
   </trkpt>
   <trkpt lat="52.500744" lon="13.440212">
    <ele>41.6</ele>
    <time>2024-07-31T16:36:10.000Z</time>
   </trkpt>
   <trkpt lat="52.500683" lon="13.439855">
    <ele>41.8</ele>
    <time>2024-07-31T16:36:14.000Z</time>
   </trkpt>
   <trkpt lat="52.500638" lon="13.439687">
    <ele>41.8</ele>
    <time>2024-07-31T16:36:16.000Z</time>
   </trkpt>
   <trkpt lat="52.500629" lon="13.439521">
    <ele>41.8</ele>
    <time>2024-07-31T16:36:18.000Z</time>
   </trkpt>
   <trkpt lat="52.500584" lon="13.439291">
    <ele>41.8</ele>
    <time>2024-07-31T16:36:21.000Z</time>
   </trkpt>
   <trkpt lat="52.500533" lon="13.439096">
    <ele>41.8</ele>
    <time>2024-07-31T16:36:24.000Z</time>
   </trkpt>
   <trkpt lat="52.500542" lon="13.438956">
    <ele>41.8</ele>
    <time>2024-07-31T16:36:26.000Z</time>
   </trkpt>
   <trkpt lat="52.500495" lon="13.438677">
    <ele>41.8</ele>
    <time>2024-07-31T16:36:30.000Z</time>
   </trkpt>
   <trkpt lat="52.500504" lon="13.438382">
    <ele>42.2</ele>
    <time>2024-07-31T16:36:35.000Z</time>
   </trkpt>
   <trkpt lat="52.500484" lon="13.438325">
    <ele>42.2</ele>
    <time>2024-07-31T16:36:36.000Z</time>
   </trkpt>
   <trkpt lat="52.500423" lon="13.438163">
    <ele>42.2</ele>
    <time>2024-07-31T16:36:41.000Z</time>
   </trkpt>
   <trkpt lat="52.500423" lon="13.438163">
    <ele>42.2</ele>
    <time>2024-07-31T16:36:42.000Z</time>
   </trkpt>
   <trkpt lat="52.500406" lon="13.438076">
    <ele>42.2</ele>
    <time>2024-07-31T16:36:50.000Z</time>
   </trkpt>
   <trkpt lat="52.500398" lon="13.437992">
    <ele>42.2</ele>
    <time>2024-07-31T16:36:52.000Z</time>
   </trkpt>
   <trkpt lat="52.500348" lon="13.43765">
    <ele>42</ele>
    <time>2024-07-31T16:36:56.000Z</time>
   </trkpt>
   <trkpt lat="52.500342" lon="13.437429">
    <ele>42</ele>
    <time>2024-07-31T16:36:58.000Z</time>
   </trkpt>
   <trkpt lat="52.500361" lon="13.437238">
    <ele>42</ele>
    <time>2024-07-31T16:37:00.000Z</time>
   </trkpt>
   <trkpt lat="52.500276" lon="13.436698">
    <ele>41.8</ele>
    <time>2024-07-31T16:37:06.000Z</time>
   </trkpt>
   <trkpt lat="52.500235" lon="13.436552">
    <ele>41.8</ele>
    <time>2024-07-31T16:37:08.000Z</time>
   </trkpt>
   <trkpt lat="52.500177" lon="13.436261">
    <ele>42</ele>
    <time>2024-07-31T16:37:11.000Z</time>
   </trkpt>
   <trkpt lat="52.500123" lon="13.43596">
    <ele>41.8</ele>
    <time>2024-07-31T16:37:14.000Z</time>
   </trkpt>
   <trkpt lat="52.50012" lon="13.435855">
    <ele>41.8</ele>
    <time>2024-07-31T16:37:15.000Z</time>
   </trkpt>
   <trkpt lat="52.500088" lon="13.43572">
    <ele>42</ele>
    <time>2024-07-31T16:37:17.000Z</time>
   </trkpt>
   <trkpt lat="52.500021" lon="13.435544">
    <ele>42.2</ele>
    <time>2024-07-31T16:37:19.000Z</time>
   </trkpt>
   <trkpt lat="52.500008" lon="13.435433">
    <ele>42.2</ele>
    <time>2024-07-31T16:37:20.000Z</time>
   </trkpt>
   <trkpt lat="52.499987" lon="13.435177">
    <ele>42.2</ele>
    <time>2024-07-31T16:37:22.000Z</time>
   </trkpt>
   <trkpt lat="52.499956" lon="13.435055">
    <ele>42.2</ele>
    <time>2024-07-31T16:37:23.000Z</time>
   </trkpt>
   <trkpt lat="52.499912" lon="13.434961">
    <ele>42.2</ele>
    <time>2024-07-31T16:37:24.000Z</time>
   </trkpt>
   <trkpt lat="52.499952" lon="13.434779">
    <ele>42.2</ele>
    <time>2024-07-31T16:37:26.000Z</time>
   </trkpt>
   <trkpt lat="52.499905" lon="13.434464">
    <ele>42.2</ele>
    <time>2024-07-31T16:37:29.000Z</time>
   </trkpt>
   <trkpt lat="52.499894" lon="13.434285">
    <ele>42.2</ele>
    <time>2024-07-31T16:37:31.000Z</time>
   </trkpt>
   <trkpt lat="52.499882" lon="13.433857">
    <ele>42.2</ele>
    <time>2024-07-31T16:37:36.000Z</time>
   </trkpt>
   <trkpt lat="52.499868" lon="13.433779">
    <ele>42.2</ele>
    <time>2024-07-31T16:37:37.000Z</time>
   </trkpt>
   <trkpt lat="52.499779" lon="13.433555">
    <ele>42.2</ele>
    <time>2024-07-31T16:37:40.000Z</time>
   </trkpt>
   <trkpt lat="52.499689" lon="13.433102">
    <ele>42.4</ele>
    <time>2024-07-31T16:37:45.000Z</time>
   </trkpt>
   <trkpt lat="52.499679" lon="13.432832">
    <ele>42.4</ele>
    <time>2024-07-31T16:37:48.000Z</time>
   </trkpt>
   <trkpt lat="52.499663" lon="13.432749">
    <ele>42.6</ele>
    <time>2024-07-31T16:37:49.000Z</time>
   </trkpt>
   <trkpt lat="52.499602" lon="13.432375">
    <ele>42.6</ele>
    <time>2024-07-31T16:37:53.000Z</time>
   </trkpt>
   <trkpt lat="52.499563" lon="13.432199">
    <ele>42.6</ele>
    <time>2024-07-31T16:37:55.000Z</time>
   </trkpt>
   <trkpt lat="52.499462" lon="13.43156">
    <ele>43</ele>
    <time>2024-07-31T16:38:03.000Z</time>
   </trkpt>
   <trkpt lat="52.499425" lon="13.431008">
    <ele>42.8</ele>
    <time>2024-07-31T16:38:10.000Z</time>
   </trkpt>
   <trkpt lat="52.49943" lon="13.43082">
    <ele>42.8</ele>
    <time>2024-07-31T16:38:12.000Z</time>
   </trkpt>
   <trkpt lat="52.499438" lon="13.43064">
    <ele>42.8</ele>
    <time>2024-07-31T16:38:14.000Z</time>
   </trkpt>
   <trkpt lat="52.49951" lon="13.430054">
    <ele>42.8</ele>
    <time>2024-07-31T16:38:21.000Z</time>
   </trkpt>
   <trkpt lat="52.499505" lon="13.429714">
    <ele>43</ele>
    <time>2024-07-31T16:38:25.000Z</time>
   </trkpt>
   <trkpt lat="52.499495" lon="13.429588">
    <ele>43</ele>
    <time>2024-07-31T16:38:27.000Z</time>
   </trkpt>
   <trkpt lat="52.499475" lon="13.429319">
    <ele>43</ele>
    <time>2024-07-31T16:38:32.000Z</time>
   </trkpt>
   <trkpt lat="52.499446" lon="13.429216">
    <ele>43</ele>
    <time>2024-07-31T16:38:34.000Z</time>
   </trkpt>
   <trkpt lat="52.499414" lon="13.429009">
    <ele>42.8</ele>
    <time>2024-07-31T16:38:37.000Z</time>
   </trkpt>
   <trkpt lat="52.499382" lon="13.42874">
    <ele>42.6</ele>
    <time>2024-07-31T16:38:42.000Z</time>
   </trkpt>
   <trkpt lat="52.499357" lon="13.428417">
    <ele>42.6</ele>
    <time>2024-07-31T16:38:48.000Z</time>
   </trkpt>
   <trkpt lat="52.499347" lon="13.42814">
    <ele>42.6</ele>
    <time>2024-07-31T16:38:52.000Z</time>
   </trkpt>
   <trkpt lat="52.499332" lon="13.427876">
    <ele>42.6</ele>
    <time>2024-07-31T16:38:56.000Z</time>
   </trkpt>
   <trkpt lat="52.499321" lon="13.427814">
    <ele>42.6</ele>
    <time>2024-07-31T16:38:57.000Z</time>
   </trkpt>
   <trkpt lat="52.499301" lon="13.427469">
    <ele>42.6</ele>
    <time>2024-07-31T16:39:03.000Z</time>
   </trkpt>
   <trkpt lat="52.499298" lon="13.427294">
    <ele>42.4</ele>
    <time>2024-07-31T16:39:07.000Z</time>
   </trkpt>
   <trkpt lat="52.499289" lon="13.427192">
    <ele>42.2</ele>
    <time>2024-07-31T16:39:09.000Z</time>
   </trkpt>
   <trkpt lat="52.499291" lon="13.427007">
    <ele>42.2</ele>
    <time>2024-07-31T16:39:14.000Z</time>
   </trkpt>
   <trkpt lat="52.499292" lon="13.426921">
    <ele>42.2</ele>
    <time>2024-07-31T16:39:18.000Z</time>
   </trkpt>
   <trkpt lat="52.499287" lon="13.426813">
    <ele>41.8</ele>
    <time>2024-07-31T16:40:06.000Z</time>
   </trkpt>
   <trkpt lat="52.499285" lon="13.426768">
    <ele>41.8</ele>
    <time>2024-07-31T16:40:07.000Z</time>
   </trkpt>
   <trkpt lat="52.499308" lon="13.426607">
    <ele>41.8</ele>
    <time>2024-07-31T16:40:10.000Z</time>
   </trkpt>
   <trkpt lat="52.499329" lon="13.426559">
    <ele>41.8</ele>
    <time>2024-07-31T16:40:11.000Z</time>
   </trkpt>
   <trkpt lat="52.499364" lon="13.426477">
    <ele>41.6</ele>
    <time>2024-07-31T16:40:12.000Z</time>
   </trkpt>
   <trkpt lat="52.499435" lon="13.426237">
    <ele>41.6</ele>
    <time>2024-07-31T16:40:15.000Z</time>
   </trkpt>
   <trkpt lat="52.499629" lon="13.425622">
    <ele>41.6</ele>
    <time>2024-07-31T16:40:22.000Z</time>
   </trkpt>
   <trkpt lat="52.499734" lon="13.425213">
    <ele>41.6</ele>
    <time>2024-07-31T16:40:26.000Z</time>
   </trkpt>
   <trkpt lat="52.499784" lon="13.425058">
    <ele>41.6</ele>
    <time>2024-07-31T16:40:28.000Z</time>
   </trkpt>
   <trkpt lat="52.499821" lon="13.424943">
    <ele>41.6</ele>
    <time>2024-07-31T16:40:29.000Z</time>
   </trkpt>
   <trkpt lat="52.499882" lon="13.424664">
    <ele>41.6</ele>
    <time>2024-07-31T16:40:32.000Z</time>
   </trkpt>
   <trkpt lat="52.499929" lon="13.424473">
    <ele>41.6</ele>
    <time>2024-07-31T16:40:34.000Z</time>
   </trkpt>
   <trkpt lat="52.500068" lon="13.423902">
    <ele>41.4</ele>
    <time>2024-07-31T16:40:40.000Z</time>
   </trkpt>
   <trkpt lat="52.500092" lon="13.42381">
    <ele>41.4</ele>
    <time>2024-07-31T16:40:41.000Z</time>
   </trkpt>
   <trkpt lat="52.500169" lon="13.423587">
    <ele>41.4</ele>
    <time>2024-07-31T16:40:44.000Z</time>
   </trkpt>
   <trkpt lat="52.500218" lon="13.423527">
    <ele>41.4</ele>
    <time>2024-07-31T16:40:45.000Z</time>
   </trkpt>
   <trkpt lat="52.500267" lon="13.423454">
    <ele>41.4</ele>
    <time>2024-07-31T16:40:46.000Z</time>
   </trkpt>
   <trkpt lat="52.500335" lon="13.423292">
    <ele>41.4</ele>
    <time>2024-07-31T16:40:48.000Z</time>
   </trkpt>
   <trkpt lat="52.500358" lon="13.423209">
    <ele>41.6</ele>
    <time>2024-07-31T16:40:49.000Z</time>
   </trkpt>
   <trkpt lat="52.500502" lon="13.422623">
    <ele>41.6</ele>
    <time>2024-07-31T16:40:55.000Z</time>
   </trkpt>
   <trkpt lat="52.500663" lon="13.421947">
    <ele>41.4</ele>
    <time>2024-07-31T16:41:02.000Z</time>
   </trkpt>
   <trkpt lat="52.500792" lon="13.421363">
    <ele>41.4</ele>
    <time>2024-07-31T16:41:08.000Z</time>
   </trkpt>
   <trkpt lat="52.500898" lon="13.420926">
    <ele>41.2</ele>
    <time>2024-07-31T16:41:13.000Z</time>
   </trkpt>
   <trkpt lat="52.500928" lon="13.420804">
    <ele>41.2</ele>
    <time>2024-07-31T16:41:15.000Z</time>
   </trkpt>
   <trkpt lat="52.501027" lon="13.420469">
    <ele>41.2</ele>
    <time>2024-07-31T16:41:19.000Z</time>
   </trkpt>
   <trkpt lat="52.501096" lon="13.420259">
    <ele>41</ele>
    <time>2024-07-31T16:41:22.000Z</time>
   </trkpt>
   <trkpt lat="52.501171" lon="13.420033">
    <ele>41</ele>
    <time>2024-07-31T16:41:25.000Z</time>
   </trkpt>
   <trkpt lat="52.501223" lon="13.419781">
    <ele>41</ele>
    <time>2024-07-31T16:41:30.000Z</time>
   </trkpt>
   <trkpt lat="52.50134" lon="13.419391">
    <ele>41</ele>
    <time>2024-07-31T16:41:36.000Z</time>
   </trkpt>
   <trkpt lat="52.501442" lon="13.419016">
    <ele>41</ele>
    <time>2024-07-31T16:41:41.000Z</time>
   </trkpt>
   <trkpt lat="52.501564" lon="13.418535">
    <ele>41.2</ele>
    <time>2024-07-31T16:41:47.000Z</time>
   </trkpt>
   <trkpt lat="52.501687" lon="13.418103">
    <ele>41</ele>
    <time>2024-07-31T16:41:53.000Z</time>
   </trkpt>
   <trkpt lat="52.501723" lon="13.417895">
    <ele>41</ele>
    <time>2024-07-31T16:41:57.000Z</time>
   </trkpt>
   <trkpt lat="52.501773" lon="13.417778">
    <ele>41</ele>
    <time>2024-07-31T16:41:59.000Z</time>
   </trkpt>
   <trkpt lat="52.501796" lon="13.417702">
    <ele>41</ele>
    <time>2024-07-31T16:42:00.000Z</time>
   </trkpt>
   <trkpt lat="52.501952" lon="13.417148">
    <ele>40.8</ele>
    <time>2024-07-31T16:42:07.000Z</time>
   </trkpt>
   <trkpt lat="52.502016" lon="13.416938">
    <ele>40.8</ele>
    <time>2024-07-31T16:42:10.000Z</time>
   </trkpt>
   <trkpt lat="52.502066" lon="13.416783">
    <ele>40.8</ele>
    <time>2024-07-31T16:42:12.000Z</time>
   </trkpt>
   <trkpt lat="52.502087" lon="13.416724">
    <ele>41</ele>
    <time>2024-07-31T16:42:13.000Z</time>
   </trkpt>
   <trkpt lat="52.50212" lon="13.416653">
    <ele>41</ele>
    <time>2024-07-31T16:42:14.000Z</time>
   </trkpt>
   <trkpt lat="52.502212" lon="13.416414">
    <ele>41.2</ele>
    <time>2024-07-31T16:42:17.000Z</time>
   </trkpt>
   <trkpt lat="52.502415" lon="13.415767">
    <ele>41.4</ele>
    <time>2024-07-31T16:42:25.000Z</time>
   </trkpt>
   <trkpt lat="52.502434" lon="13.415681">
    <ele>41.2</ele>
    <time>2024-07-31T16:42:26.000Z</time>
   </trkpt>
   <trkpt lat="52.502514" lon="13.41525">
    <ele>41</ele>
    <time>2024-07-31T16:42:31.000Z</time>
   </trkpt>
   <trkpt lat="52.502541" lon="13.414859">
    <ele>41.2</ele>
    <time>2024-07-31T16:42:35.000Z</time>
   </trkpt>
   <trkpt lat="52.502558" lon="13.414769">
    <ele>41.2</ele>
    <time>2024-07-31T16:42:36.000Z</time>
   </trkpt>
   <trkpt lat="52.502747" lon="13.414067">
    <ele>41.2</ele>
    <time>2024-07-31T16:42:44.000Z</time>
   </trkpt>
   <trkpt lat="52.502954" lon="13.413409">
    <ele>41.4</ele>
    <time>2024-07-31T16:42:51.000Z</time>
   </trkpt>
   <trkpt lat="52.503133" lon="13.412798">
    <ele>41.2</ele>
    <time>2024-07-31T16:42:58.000Z</time>
   </trkpt>
   <trkpt lat="52.50331" lon="13.412172">
    <ele>41.2</ele>
    <time>2024-07-31T16:43:06.000Z</time>
   </trkpt>
   <trkpt lat="52.503395" lon="13.411915">
    <ele>41.2</ele>
    <time>2024-07-31T16:43:10.000Z</time>
   </trkpt>
   <trkpt lat="52.503429" lon="13.411795">
    <ele>41.2</ele>
    <time>2024-07-31T16:43:12.000Z</time>
   </trkpt>
   <trkpt lat="52.503515" lon="13.411512">
    <ele>41.2</ele>
    <time>2024-07-31T16:43:16.000Z</time>
   </trkpt>
   <trkpt lat="52.503586" lon="13.411342">
    <ele>41.2</ele>
    <time>2024-07-31T16:43:19.000Z</time>
   </trkpt>
   <trkpt lat="52.503799" lon="13.411153">
    <ele>41</ele>
    <time>2024-07-31T16:43:24.000Z</time>
   </trkpt>
   <trkpt lat="52.503886" lon="13.411032">
    <ele>41</ele>
    <time>2024-07-31T16:43:26.000Z</time>
   </trkpt>
   <trkpt lat="52.503901" lon="13.410963">
    <ele>41</ele>
    <time>2024-07-31T16:43:27.000Z</time>
   </trkpt>
   <trkpt lat="52.503911" lon="13.410884">
    <ele>41</ele>
    <time>2024-07-31T16:43:28.000Z</time>
   </trkpt>
   <trkpt lat="52.503901" lon="13.410725">
    <ele>41.2</ele>
    <time>2024-07-31T16:43:30.000Z</time>
   </trkpt>
   <trkpt lat="52.503886" lon="13.410645">
    <ele>41.2</ele>
    <time>2024-07-31T16:43:31.000Z</time>
   </trkpt>
   <trkpt lat="52.503857" lon="13.410471">
    <ele>41</ele>
    <time>2024-07-31T16:43:33.000Z</time>
   </trkpt>
   <trkpt lat="52.503871" lon="13.41034">
    <ele>41.2</ele>
    <time>2024-07-31T16:43:35.000Z</time>
   </trkpt>
   <trkpt lat="52.503958" lon="13.410122">
    <ele>41.4</ele>
    <time>2024-07-31T16:43:40.000Z</time>
   </trkpt>
   <trkpt lat="52.503998" lon="13.409973">
    <ele>41.2</ele>
    <time>2024-07-31T16:43:43.000Z</time>
   </trkpt>
   <trkpt lat="52.504003" lon="13.409888">
    <ele>41.2</ele>
    <time>2024-07-31T16:43:44.000Z</time>
   </trkpt>
   <trkpt lat="52.504019" lon="13.409821">
    <ele>41.2</ele>
    <time>2024-07-31T16:43:45.000Z</time>
   </trkpt>
   <trkpt lat="52.504125" lon="13.409458">
    <ele>41.2</ele>
    <time>2024-07-31T16:43:51.000Z</time>
   </trkpt>
   <trkpt lat="52.504221" lon="13.409215">
    <ele>41.2</ele>
    <time>2024-07-31T16:43:55.000Z</time>
   </trkpt>
   <trkpt lat="52.504256" lon="13.409099">
    <ele>41.2</ele>
    <time>2024-07-31T16:43:57.000Z</time>
   </trkpt>
   <trkpt lat="52.504285" lon="13.408957">
    <ele>41.2</ele>
    <time>2024-07-31T16:43:59.000Z</time>
   </trkpt>
   <trkpt lat="52.5043" lon="13.40883">
    <ele>41.2</ele>
    <time>2024-07-31T16:44:01.000Z</time>
   </trkpt>
   <trkpt lat="52.504314" lon="13.408773">
    <ele>41.4</ele>
    <time>2024-07-31T16:44:02.000Z</time>
   </trkpt>
   <trkpt lat="52.50444" lon="13.408375">
    <ele>41.4</ele>
    <time>2024-07-31T16:44:09.000Z</time>
   </trkpt>
   <trkpt lat="52.504497" lon="13.408117">
    <ele>41.2</ele>
    <time>2024-07-31T16:44:14.000Z</time>
   </trkpt>
   <trkpt lat="52.504488" lon="13.408088">
    <ele>41.2</ele>
    <time>2024-07-31T16:44:15.000Z</time>
   </trkpt>
   <trkpt lat="52.504483" lon="13.408076">
    <ele>41.4</ele>
    <time>2024-07-31T16:44:16.000Z</time>
   </trkpt>
   <trkpt lat="52.504457" lon="13.408038">
    <ele>41.2</ele>
    <time>2024-07-31T16:45:01.000Z</time>
   </trkpt>
   <trkpt lat="52.504418" lon="13.407981">
    <ele>41.2</ele>
    <time>2024-07-31T16:45:03.000Z</time>
   </trkpt>
   <trkpt lat="52.504262" lon="13.40786">
    <ele>41.4</ele>
    <time>2024-07-31T16:45:08.000Z</time>
   </trkpt>
   <trkpt lat="52.504041" lon="13.407688">
    <ele>41.2</ele>
    <time>2024-07-31T16:45:15.000Z</time>
   </trkpt>
   <trkpt lat="52.50381" lon="13.40747">
    <ele>41.4</ele>
    <time>2024-07-31T16:45:22.000Z</time>
   </trkpt>
   <trkpt lat="52.503584" lon="13.407298">
    <ele>41.4</ele>
    <time>2024-07-31T16:45:29.000Z</time>
   </trkpt>
   <trkpt lat="52.503504" lon="13.407277">
    <ele>41.4</ele>
    <time>2024-07-31T16:45:32.000Z</time>
   </trkpt>
   <trkpt lat="52.503481" lon="13.407274">
    <ele>41.4</ele>
    <time>2024-07-31T16:45:33.000Z</time>
   </trkpt>
   <trkpt lat="52.503466" lon="13.40725">
    <ele>41.4</ele>
    <time>2024-07-31T16:45:36.000Z</time>
   </trkpt>
   <trkpt lat="52.503278" lon="13.408218">
    <ele>41.6</ele>
    <time>2024-07-31T16:45:51.000Z</time>
   </trkpt>
   <trkpt lat="52.503212" lon="13.408307">
    <ele>41.6</ele>
    <time>2024-07-31T16:45:52.000Z</time>
   </trkpt>
   <trkpt lat="52.503211" lon="13.408303">
    <ele>41.6</ele>
    <time>2024-07-31T16:45:53.000Z</time>
   </trkpt>
   <trkpt lat="52.503246" lon="13.408271">
    <ele>41.8</ele>
    <time>2024-07-31T16:45:56.000Z</time>
   </trkpt>
   <trkpt lat="52.503304" lon="13.408279">
    <ele>42</ele>
    <time>2024-07-31T16:45:57.000Z</time>
   </trkpt>
   <trkpt lat="52.503505" lon="13.40842">
    <ele>42.2</ele>
    <time>2024-07-31T16:46:03.000Z</time>
   </trkpt>
  </trkseg>
 </trk>
</gpx>
