<?xml version="1.0" encoding="UTF-8"?>
<gpx creator="StravaGPX" version="1.1" xmlns="http://www.topografix.com/GPX/1/1">
 <metadata>
  <time>2019-09-04T13:56:42Z</time>
 </metadata>
 <trk>
  <name>Morning Ride</name>
  <type>1</type>
  <trkseg>
   <trkpt lat="-8.036708" lon="-34.892709">
    <ele>8.9</ele>
    <time>2019-09-04T13:56:42.000Z</time>
   </trkpt>
   <trkpt lat="-8.036869" lon="-34.892737">
    <ele>9.9</ele>
    <time>2019-09-04T13:57:39.000Z</time>
   </trkpt>
   <trkpt lat="-8.036902" lon="-34.892748">
    <ele>10</ele>
    <time>2019-09-04T13:57:41.000Z</time>
   </trkpt>
   <trkpt lat="-8.036929" lon="-34.892756">
    <ele>10</ele>
    <time>2019-09-04T13:57:42.000Z</time>
   </trkpt>
   <trkpt lat="-8.036958" lon="-34.892767">
    <ele>10</ele>
    <time>2019-09-04T13:57:43.000Z</time>
   </trkpt>
   <trkpt lat="-8.036988" lon="-34.892786">
    <ele>10</ele>
    <time>2019-09-04T13:57:44.000Z</time>
   </trkpt>
   <trkpt lat="-8.037019" lon="-34.89281">
    <ele>10</ele>
    <time>2019-09-04T13:57:45.000Z</time>
   </trkpt>
   <trkpt lat="-8.037053" lon="-34.89283">
    <ele>10</ele>
    <time>2019-09-04T13:57:46.000Z</time>
   </trkpt>
   <trkpt lat="-8.037085" lon="-34.89285">
    <ele>10</ele>
    <time>2019-09-04T13:57:47.000Z</time>
   </trkpt>
   <trkpt lat="-8.037119" lon="-34.892864">
    <ele>10</ele>
    <time>2019-09-04T13:57:48.000Z</time>
   </trkpt>
   <trkpt lat="-8.037154" lon="-34.89288">
    <ele>10</ele>
    <time>2019-09-04T13:57:49.000Z</time>
   </trkpt>
   <trkpt lat="-8.037189" lon="-34.892896">
    <ele>10</ele>
    <time>2019-09-04T13:57:50.000Z</time>
   </trkpt>
   <trkpt lat="-8.037225" lon="-34.892913">
    <ele>10</ele>
    <time>2019-09-04T13:57:51.000Z</time>
   </trkpt>
   <trkpt lat="-8.03726" lon="-34.89293">
    <ele>10</ele>
    <time>2019-09-04T13:57:52.000Z</time>
   </trkpt>
   <trkpt lat="-8.037289" lon="-34.892939">
    <ele>10</ele>
    <time>2019-09-04T13:57:53.000Z</time>
   </trkpt>
   <trkpt lat="-8.03733" lon="-34.892957">
    <ele>10</ele>
    <time>2019-09-04T13:57:55.000Z</time>
   </trkpt>
   <trkpt lat="-8.037343" lon="-34.893006">
    <ele>10</ele>
    <time>2019-09-04T13:57:57.000Z</time>
   </trkpt>
   <trkpt lat="-8.037327" lon="-34.893034">
    <ele>10</ele>
    <time>2019-09-04T13:57:58.000Z</time>
   </trkpt>
   <trkpt lat="-8.037316" lon="-34.89307">
    <ele>10</ele>
    <time>2019-09-04T13:57:59.000Z</time>
   </trkpt>
   <trkpt lat="-8.03729" lon="-34.893108">
    <ele>10</ele>
    <time>2019-09-04T13:58:00.000Z</time>
   </trkpt>
   <trkpt lat="-8.037264" lon="-34.893146">
    <ele>10</ele>
    <time>2019-09-04T13:58:01.000Z</time>
   </trkpt>
   <trkpt lat="-8.03724" lon="-34.893179">
    <ele>10</ele>
    <time>2019-09-04T13:58:02.000Z</time>
   </trkpt>
   <trkpt lat="-8.03722" lon="-34.893211">
    <ele>10</ele>
    <time>2019-09-04T13:58:03.000Z</time>
   </trkpt>
   <trkpt lat="-8.037205" lon="-34.89325">
    <ele>10</ele>
    <time>2019-09-04T13:58:04.000Z</time>
   </trkpt>
   <trkpt lat="-8.037189" lon="-34.893282">
    <ele>10</ele>
    <time>2019-09-04T13:58:05.000Z</time>
   </trkpt>
   <trkpt lat="-8.037169" lon="-34.893309">
    <ele>9.9</ele>
    <time>2019-09-04T13:58:06.000Z</time>
   </trkpt>
   <trkpt lat="-8.037138" lon="-34.893341">
    <ele>9.8</ele>
    <time>2019-09-04T13:58:07.000Z</time>
   </trkpt>
   <trkpt lat="-8.037112" lon="-34.893381">
    <ele>9.6</ele>
    <time>2019-09-04T13:58:08.000Z</time>
   </trkpt>
   <trkpt lat="-8.037088" lon="-34.893425">
    <ele>9.3</ele>
    <time>2019-09-04T13:58:09.000Z</time>
   </trkpt>
   <trkpt lat="-8.037058" lon="-34.89347">
    <ele>8.9</ele>
    <time>2019-09-04T13:58:10.000Z</time>
   </trkpt>
   <trkpt lat="-8.03708" lon="-34.893521">
    <ele>8.6</ele>
    <time>2019-09-04T13:58:11.000Z</time>
   </trkpt>
   <trkpt lat="-8.037046" lon="-34.893564">
    <ele>8.4</ele>
    <time>2019-09-04T13:58:12.000Z</time>
   </trkpt>
   <trkpt lat="-8.037016" lon="-34.893605">
    <ele>8.3</ele>
    <time>2019-09-04T13:58:13.000Z</time>
   </trkpt>
   <trkpt lat="-8.036994" lon="-34.893643">
    <ele>8.1</ele>
    <time>2019-09-04T13:58:14.000Z</time>
   </trkpt>
   <trkpt lat="-8.036974" lon="-34.893679">
    <ele>8.3</ele>
    <time>2019-09-04T13:58:15.000Z</time>
   </trkpt>
   <trkpt lat="-8.036948" lon="-34.893708">
    <ele>8.5</ele>
    <time>2019-09-04T13:58:16.000Z</time>
   </trkpt>
   <trkpt lat="-8.036928" lon="-34.893744">
    <ele>8.8</ele>
    <time>2019-09-04T13:58:17.000Z</time>
   </trkpt>
   <trkpt lat="-8.036917" lon="-34.893785">
    <ele>9.1</ele>
    <time>2019-09-04T13:58:18.000Z</time>
   </trkpt>
   <trkpt lat="-8.03689" lon="-34.893824">
    <ele>9.4</ele>
    <time>2019-09-04T13:58:19.000Z</time>
   </trkpt>
   <trkpt lat="-8.036877" lon="-34.893862">
    <ele>9.5</ele>
    <time>2019-09-04T13:58:20.000Z</time>
   </trkpt>
   <trkpt lat="-8.036858" lon="-34.893892">
    <ele>9.5</ele>
    <time>2019-09-04T13:58:21.000Z</time>
   </trkpt>
   <trkpt lat="-8.036853" lon="-34.893924">
    <ele>9.5</ele>
    <time>2019-09-04T13:58:22.000Z</time>
   </trkpt>
   <trkpt lat="-8.036846" lon="-34.893962">
    <ele>9.6</ele>
    <time>2019-09-04T13:58:23.000Z</time>
   </trkpt>
   <trkpt lat="-8.03683" lon="-34.893997">
    <ele>9.7</ele>
    <time>2019-09-04T13:58:24.000Z</time>
   </trkpt>
   <trkpt lat="-8.036828" lon="-34.894026">
    <ele>9.8</ele>
    <time>2019-09-04T13:58:25.000Z</time>
   </trkpt>
   <trkpt lat="-8.036799" lon="-34.894045">
    <ele>9.8</ele>
    <time>2019-09-04T13:58:26.000Z</time>
   </trkpt>
   <trkpt lat="-8.036772" lon="-34.894067">
    <ele>9.8</ele>
    <time>2019-09-04T13:58:27.000Z</time>
   </trkpt>
   <trkpt lat="-8.036763" lon="-34.894108">
    <ele>9.7</ele>
    <time>2019-09-04T13:58:28.000Z</time>
   </trkpt>
   <trkpt lat="-8.036784" lon="-34.894167">
    <ele>9.7</ele>
    <time>2019-09-04T13:58:29.000Z</time>
   </trkpt>
   <trkpt lat="-8.036809" lon="-34.894215">
    <ele>9.6</ele>
    <time>2019-09-04T13:58:30.000Z</time>
   </trkpt>
   <trkpt lat="-8.036849" lon="-34.894264">
    <ele>9.1</ele>
    <time>2019-09-04T13:58:31.000Z</time>
   </trkpt>
   <trkpt lat="-8.036858" lon="-34.894332">
    <ele>8.9</ele>
    <time>2019-09-04T13:58:32.000Z</time>
   </trkpt>
   <trkpt lat="-8.036888" lon="-34.894346">
    <ele>8.7</ele>
    <time>2019-09-04T13:58:33.000Z</time>
   </trkpt>
   <trkpt lat="-8.036935" lon="-34.894349">
    <ele>8.5</ele>
    <time>2019-09-04T13:58:35.000Z</time>
   </trkpt>
   <trkpt lat="-8.036968" lon="-34.894344">
    <ele>8.4</ele>
    <time>2019-09-04T13:58:40.000Z</time>
   </trkpt>
   <trkpt lat="-8.037041" lon="-34.894346">
    <ele>7.9</ele>
    <time>2019-09-04T13:59:06.000Z</time>
   </trkpt>
   <trkpt lat="-8.037071" lon="-34.894338">
    <ele>7.8</ele>
    <time>2019-09-04T13:59:07.000Z</time>
   </trkpt>
   <trkpt lat="-8.037099" lon="-34.894322">
    <ele>7.7</ele>
    <time>2019-09-04T13:59:08.000Z</time>
   </trkpt>
   <trkpt lat="-8.037123" lon="-34.894302">
    <ele>7.5</ele>
    <time>2019-09-04T13:59:09.000Z</time>
   </trkpt>
   <trkpt lat="-8.037152" lon="-34.894276">
    <ele>7.4</ele>
    <time>2019-09-04T13:59:10.000Z</time>
   </trkpt>
   <trkpt lat="-8.037174" lon="-34.894256">
    <ele>7.3</ele>
    <time>2019-09-04T13:59:11.000Z</time>
   </trkpt>
   <trkpt lat="-8.037206" lon="-34.89423">
    <ele>7.2</ele>
    <time>2019-09-04T13:59:12.000Z</time>
   </trkpt>
   <trkpt lat="-8.037226" lon="-34.894206">
    <ele>7.1</ele>
    <time>2019-09-04T13:59:13.000Z</time>
   </trkpt>
   <trkpt lat="-8.037253" lon="-34.894176">
    <ele>7</ele>
    <time>2019-09-04T13:59:14.000Z</time>
   </trkpt>
   <trkpt lat="-8.037284" lon="-34.894151">
    <ele>6.9</ele>
    <time>2019-09-04T13:59:15.000Z</time>
   </trkpt>
   <trkpt lat="-8.037314" lon="-34.894127">
    <ele>6.9</ele>
    <time>2019-09-04T13:59:16.000Z</time>
   </trkpt>
   <trkpt lat="-8.037348" lon="-34.894097">
    <ele>6.7</ele>
    <time>2019-09-04T13:59:17.000Z</time>
   </trkpt>
   <trkpt lat="-8.037378" lon="-34.894069">
    <ele>6.6</ele>
    <time>2019-09-04T13:59:18.000Z</time>
   </trkpt>
   <trkpt lat="-8.037407" lon="-34.89404">
    <ele>6.5</ele>
    <time>2019-09-04T13:59:19.000Z</time>
   </trkpt>
   <trkpt lat="-8.037425" lon="-34.89402">
    <ele>6.4</ele>
    <time>2019-09-04T13:59:20.000Z</time>
   </trkpt>
   <trkpt lat="-8.037458" lon="-34.89403">
    <ele>6.2</ele>
    <time>2019-09-04T13:59:22.000Z</time>
   </trkpt>
   <trkpt lat="-8.037497" lon="-34.894045">
    <ele>6</ele>
    <time>2019-09-04T13:59:24.000Z</time>
   </trkpt>
   <trkpt lat="-8.037539" lon="-34.89407">
    <ele>5.8</ele>
    <time>2019-09-04T13:59:25.000Z</time>
   </trkpt>
   <trkpt lat="-8.037581" lon="-34.894107">
    <ele>5.6</ele>
    <time>2019-09-04T13:59:26.000Z</time>
   </trkpt>
   <trkpt lat="-8.037625" lon="-34.894128">
    <ele>5.4</ele>
    <time>2019-09-04T13:59:27.000Z</time>
   </trkpt>
   <trkpt lat="-8.037672" lon="-34.894137">
    <ele>5.2</ele>
    <time>2019-09-04T13:59:28.000Z</time>
   </trkpt>
   <trkpt lat="-8.03772" lon="-34.894143">
    <ele>5.3</ele>
    <time>2019-09-04T13:59:29.000Z</time>
   </trkpt>
   <trkpt lat="-8.037763" lon="-34.894156">
    <ele>5.6</ele>
    <time>2019-09-04T13:59:30.000Z</time>
   </trkpt>
   <trkpt lat="-8.03781" lon="-34.894168">
    <ele>5.8</ele>
    <time>2019-09-04T13:59:31.000Z</time>
   </trkpt>
   <trkpt lat="-8.03785" lon="-34.894185">
    <ele>6</ele>
    <time>2019-09-04T13:59:32.000Z</time>
   </trkpt>
   <trkpt lat="-8.03789" lon="-34.894195">
    <ele>6.2</ele>
    <time>2019-09-04T13:59:33.000Z</time>
   </trkpt>
   <trkpt lat="-8.037925" lon="-34.894209">
    <ele>6.4</ele>
    <time>2019-09-04T13:59:34.000Z</time>
   </trkpt>
   <trkpt lat="-8.037963" lon="-34.894222">
    <ele>6.7</ele>
    <time>2019-09-04T13:59:35.000Z</time>
   </trkpt>
   <trkpt lat="-8.038003" lon="-34.894236">
    <ele>7</ele>
    <time>2019-09-04T13:59:36.000Z</time>
   </trkpt>
   <trkpt lat="-8.038041" lon="-34.894249">
    <ele>7.2</ele>
    <time>2019-09-04T13:59:37.000Z</time>
   </trkpt>
   <trkpt lat="-8.038081" lon="-34.894261">
    <ele>7.5</ele>
    <time>2019-09-04T13:59:38.000Z</time>
   </trkpt>
   <trkpt lat="-8.038122" lon="-34.894275">
    <ele>7.7</ele>
    <time>2019-09-04T13:59:39.000Z</time>
   </trkpt>
   <trkpt lat="-8.038165" lon="-34.894291">
    <ele>8</ele>
    <time>2019-09-04T13:59:40.000Z</time>
   </trkpt>
   <trkpt lat="-8.038202" lon="-34.894297">
    <ele>8.2</ele>
    <time>2019-09-04T13:59:41.000Z</time>
   </trkpt>
   <trkpt lat="-8.038235" lon="-34.894304">
    <ele>8.4</ele>
    <time>2019-09-04T13:59:42.000Z</time>
   </trkpt>
   <trkpt lat="-8.038267" lon="-34.894315">
    <ele>8.8</ele>
    <time>2019-09-04T13:59:43.000Z</time>
   </trkpt>
   <trkpt lat="-8.038304" lon="-34.894326">
    <ele>8.8</ele>
    <time>2019-09-04T13:59:44.000Z</time>
   </trkpt>
   <trkpt lat="-8.038338" lon="-34.894342">
    <ele>8.9</ele>
    <time>2019-09-04T13:59:45.000Z</time>
   </trkpt>
   <trkpt lat="-8.038374" lon="-34.894354">
    <ele>9</ele>
    <time>2019-09-04T13:59:46.000Z</time>
   </trkpt>
   <trkpt lat="-8.038417" lon="-34.89437">
    <ele>9.2</ele>
    <time>2019-09-04T13:59:47.000Z</time>
   </trkpt>
   <trkpt lat="-8.038467" lon="-34.894383">
    <ele>9.4</ele>
    <time>2019-09-04T13:59:48.000Z</time>
   </trkpt>
   <trkpt lat="-8.038503" lon="-34.894396">
    <ele>9.6</ele>
    <time>2019-09-04T13:59:49.000Z</time>
   </trkpt>
   <trkpt lat="-8.038541" lon="-34.894404">
    <ele>9.7</ele>
    <time>2019-09-04T13:59:50.000Z</time>
   </trkpt>
   <trkpt lat="-8.03858" lon="-34.89441">
    <ele>9.7</ele>
    <time>2019-09-04T13:59:51.000Z</time>
   </trkpt>
   <trkpt lat="-8.038625" lon="-34.89442">
    <ele>9.6</ele>
    <time>2019-09-04T13:59:52.000Z</time>
   </trkpt>
   <trkpt lat="-8.038665" lon="-34.894429">
    <ele>9.6</ele>
    <time>2019-09-04T13:59:53.000Z</time>
   </trkpt>
   <trkpt lat="-8.038695" lon="-34.894444">
    <ele>9.6</ele>
    <time>2019-09-04T13:59:54.000Z</time>
   </trkpt>
   <trkpt lat="-8.038737" lon="-34.894451">
    <ele>9.5</ele>
    <time>2019-09-04T13:59:55.000Z</time>
   </trkpt>
   <trkpt lat="-8.038775" lon="-34.894467">
    <ele>9.5</ele>
    <time>2019-09-04T13:59:56.000Z</time>
   </trkpt>
   <trkpt lat="-8.038813" lon="-34.89448">
    <ele>9.5</ele>
    <time>2019-09-04T13:59:57.000Z</time>
   </trkpt>
   <trkpt lat="-8.03885" lon="-34.894491">
    <ele>9.5</ele>
    <time>2019-09-04T13:59:58.000Z</time>
   </trkpt>
   <trkpt lat="-8.038882" lon="-34.8945">
    <ele>9.6</ele>
    <time>2019-09-04T13:59:59.000Z</time>
   </trkpt>
   <trkpt lat="-8.038945" lon="-34.89452">
    <ele>10</ele>
    <time>2019-09-04T14:00:01.000Z</time>
   </trkpt>
   <trkpt lat="-8.03898" lon="-34.894528">
    <ele>10.2</ele>
    <time>2019-09-04T14:00:02.000Z</time>
   </trkpt>
   <trkpt lat="-8.039025" lon="-34.894548">
    <ele>10.4</ele>
    <time>2019-09-04T14:00:03.000Z</time>
   </trkpt>
   <trkpt lat="-8.039069" lon="-34.894568">
    <ele>10.4</ele>
    <time>2019-09-04T14:00:04.000Z</time>
   </trkpt>
   <trkpt lat="-8.039096" lon="-34.894587">
    <ele>10.2</ele>
    <time>2019-09-04T14:00:05.000Z</time>
   </trkpt>
   <trkpt lat="-8.039135" lon="-34.894598">
    <ele>9.8</ele>
    <time>2019-09-04T14:00:06.000Z</time>
   </trkpt>
   <trkpt lat="-8.039171" lon="-34.894621">
    <ele>9.6</ele>
    <time>2019-09-04T14:00:07.000Z</time>
   </trkpt>
   <trkpt lat="-8.039205" lon="-34.894639">
    <ele>9.4</ele>
    <time>2019-09-04T14:00:08.000Z</time>
   </trkpt>
   <trkpt lat="-8.039239" lon="-34.89466">
    <ele>9.3</ele>
    <time>2019-09-04T14:00:09.000Z</time>
   </trkpt>
   <trkpt lat="-8.039272" lon="-34.894682">
    <ele>9.3</ele>
    <time>2019-09-04T14:00:10.000Z</time>
   </trkpt>
   <trkpt lat="-8.039299" lon="-34.894695">
    <ele>9.3</ele>
    <time>2019-09-04T14:00:11.000Z</time>
   </trkpt>
   <trkpt lat="-8.039331" lon="-34.894703">
    <ele>9.8</ele>
    <time>2019-09-04T14:00:12.000Z</time>
   </trkpt>
   <trkpt lat="-8.03936" lon="-34.894715">
    <ele>10.2</ele>
    <time>2019-09-04T14:00:13.000Z</time>
   </trkpt>
   <trkpt lat="-8.039401" lon="-34.894726">
    <ele>10.6</ele>
    <time>2019-09-04T14:00:14.000Z</time>
   </trkpt>
   <trkpt lat="-8.039457" lon="-34.894734">
    <ele>11.3</ele>
    <time>2019-09-04T14:00:15.000Z</time>
   </trkpt>
   <trkpt lat="-8.039503" lon="-34.894744">
    <ele>11.8</ele>
    <time>2019-09-04T14:00:16.000Z</time>
   </trkpt>
   <trkpt lat="-8.039544" lon="-34.894758">
    <ele>12.3</ele>
    <time>2019-09-04T14:00:17.000Z</time>
   </trkpt>
   <trkpt lat="-8.039586" lon="-34.894769">
    <ele>12.8</ele>
    <time>2019-09-04T14:00:18.000Z</time>
   </trkpt>
   <trkpt lat="-8.039633" lon="-34.894774">
    <ele>13.3</ele>
    <time>2019-09-04T14:00:19.000Z</time>
   </trkpt>
   <trkpt lat="-8.039673" lon="-34.894783">
    <ele>13.7</ele>
    <time>2019-09-04T14:00:20.000Z</time>
   </trkpt>
   <trkpt lat="-8.039707" lon="-34.894792">
    <ele>14.1</ele>
    <time>2019-09-04T14:00:21.000Z</time>
   </trkpt>
   <trkpt lat="-8.039752" lon="-34.894798">
    <ele>14.6</ele>
    <time>2019-09-04T14:00:22.000Z</time>
   </trkpt>
   <trkpt lat="-8.039792" lon="-34.894802">
    <ele>15</ele>
    <time>2019-09-04T14:00:23.000Z</time>
   </trkpt>
   <trkpt lat="-8.039835" lon="-34.894818">
    <ele>15.5</ele>
    <time>2019-09-04T14:00:24.000Z</time>
   </trkpt>
   <trkpt lat="-8.03989" lon="-34.894824">
    <ele>16.1</ele>
    <time>2019-09-04T14:00:25.000Z</time>
   </trkpt>
   <trkpt lat="-8.039938" lon="-34.89483">
    <ele>16.7</ele>
    <time>2019-09-04T14:00:26.000Z</time>
   </trkpt>
   <trkpt lat="-8.03999" lon="-34.894836">
    <ele>17.3</ele>
    <time>2019-09-04T14:00:27.000Z</time>
   </trkpt>
   <trkpt lat="-8.040047" lon="-34.894852">
    <ele>17.9</ele>
    <time>2019-09-04T14:00:28.000Z</time>
   </trkpt>
   <trkpt lat="-8.040104" lon="-34.894864">
    <ele>18.2</ele>
    <time>2019-09-04T14:00:29.000Z</time>
   </trkpt>
   <trkpt lat="-8.040147" lon="-34.894867">
    <ele>18.4</ele>
    <time>2019-09-04T14:00:30.000Z</time>
   </trkpt>
   <trkpt lat="-8.040193" lon="-34.894852">
    <ele>18.6</ele>
    <time>2019-09-04T14:00:31.000Z</time>
   </trkpt>
   <trkpt lat="-8.040235" lon="-34.894838">
    <ele>18.9</ele>
    <time>2019-09-04T14:00:32.000Z</time>
   </trkpt>
   <trkpt lat="-8.040281" lon="-34.894833">
    <ele>19.1</ele>
    <time>2019-09-04T14:00:33.000Z</time>
   </trkpt>
   <trkpt lat="-8.040314" lon="-34.894822">
    <ele>19.4</ele>
    <time>2019-09-04T14:00:34.000Z</time>
   </trkpt>
   <trkpt lat="-8.040365" lon="-34.894797">
    <ele>19.3</ele>
    <time>2019-09-04T14:00:36.000Z</time>
   </trkpt>
   <trkpt lat="-8.040404" lon="-34.894783">
    <ele>19.2</ele>
    <time>2019-09-04T14:00:37.000Z</time>
   </trkpt>
   <trkpt lat="-8.040447" lon="-34.894772">
    <ele>19</ele>
    <time>2019-09-04T14:00:38.000Z</time>
   </trkpt>
   <trkpt lat="-8.040479" lon="-34.89476">
    <ele>19</ele>
    <time>2019-09-04T14:00:39.000Z</time>
   </trkpt>
   <trkpt lat="-8.040512" lon="-34.894749">
    <ele>18.9</ele>
    <time>2019-09-04T14:00:40.000Z</time>
   </trkpt>
   <trkpt lat="-8.040556" lon="-34.894739">
    <ele>18.7</ele>
    <time>2019-09-04T14:00:41.000Z</time>
   </trkpt>
   <trkpt lat="-8.0406" lon="-34.894714">
    <ele>18.6</ele>
    <time>2019-09-04T14:00:42.000Z</time>
   </trkpt>
   <trkpt lat="-8.040625" lon="-34.894701">
    <ele>18.5</ele>
    <time>2019-09-04T14:00:43.000Z</time>
   </trkpt>
   <trkpt lat="-8.040653" lon="-34.894695">
    <ele>18.5</ele>
    <time>2019-09-04T14:00:44.000Z</time>
   </trkpt>
   <trkpt lat="-8.040686" lon="-34.894686">
    <ele>18.4</ele>
    <time>2019-09-04T14:00:45.000Z</time>
   </trkpt>
   <trkpt lat="-8.040722" lon="-34.894674">
    <ele>18.3</ele>
    <time>2019-09-04T14:00:46.000Z</time>
   </trkpt>
   <trkpt lat="-8.040752" lon="-34.894666">
    <ele>18.2</ele>
    <time>2019-09-04T14:00:47.000Z</time>
   </trkpt>
   <trkpt lat="-8.040782" lon="-34.894657">
    <ele>18.1</ele>
    <time>2019-09-04T14:00:48.000Z</time>
   </trkpt>
   <trkpt lat="-8.04082" lon="-34.894646">
    <ele>18</ele>
    <time>2019-09-04T14:00:49.000Z</time>
   </trkpt>
   <trkpt lat="-8.040862" lon="-34.894642">
    <ele>17.9</ele>
    <time>2019-09-04T14:00:50.000Z</time>
   </trkpt>
   <trkpt lat="-8.040891" lon="-34.894633">
    <ele>17.8</ele>
    <time>2019-09-04T14:00:51.000Z</time>
   </trkpt>
   <trkpt lat="-8.04093" lon="-34.894617">
    <ele>17.7</ele>
    <time>2019-09-04T14:00:52.000Z</time>
   </trkpt>
   <trkpt lat="-8.040967" lon="-34.894586">
    <ele>17.6</ele>
    <time>2019-09-04T14:00:53.000Z</time>
   </trkpt>
   <trkpt lat="-8.040999" lon="-34.894546">
    <ele>17.4</ele>
    <time>2019-09-04T14:00:54.000Z</time>
   </trkpt>
   <trkpt lat="-8.041044" lon="-34.894488">
    <ele>17.3</ele>
    <time>2019-09-04T14:00:55.000Z</time>
   </trkpt>
   <trkpt lat="-8.041083" lon="-34.894431">
    <ele>17.9</ele>
    <time>2019-09-04T14:00:56.000Z</time>
   </trkpt>
   <trkpt lat="-8.041125" lon="-34.894381">
    <ele>18.2</ele>
    <time>2019-09-04T14:00:57.000Z</time>
   </trkpt>
   <trkpt lat="-8.041149" lon="-34.894341">
    <ele>18.4</ele>
    <time>2019-09-04T14:00:58.000Z</time>
   </trkpt>
   <trkpt lat="-8.041176" lon="-34.894309">
    <ele>18.6</ele>
    <time>2019-09-04T14:00:59.000Z</time>
   </trkpt>
   <trkpt lat="-8.041173" lon="-34.894262">
    <ele>18.8</ele>
    <time>2019-09-04T14:01:00.000Z</time>
   </trkpt>
   <trkpt lat="-8.041195" lon="-34.89423">
    <ele>18.9</ele>
    <time>2019-09-04T14:01:01.000Z</time>
   </trkpt>
   <trkpt lat="-8.041222" lon="-34.894193">
    <ele>19.1</ele>
    <time>2019-09-04T14:01:02.000Z</time>
   </trkpt>
   <trkpt lat="-8.041232" lon="-34.894167">
    <ele>19.1</ele>
    <time>2019-09-04T14:01:03.000Z</time>
   </trkpt>
   <trkpt lat="-8.041243" lon="-34.894138">
    <ele>19.1</ele>
    <time>2019-09-04T14:01:04.000Z</time>
   </trkpt>
   <trkpt lat="-8.041252" lon="-34.894105">
    <ele>19</ele>
    <time>2019-09-04T14:01:06.000Z</time>
   </trkpt>
   <trkpt lat="-8.04125" lon="-34.894075">
    <ele>19</ele>
    <time>2019-09-04T14:01:08.000Z</time>
   </trkpt>
   <trkpt lat="-8.041258" lon="-34.894041">
    <ele>18.9</ele>
    <time>2019-09-04T14:01:10.000Z</time>
   </trkpt>
   <trkpt lat="-8.041293" lon="-34.894017">
    <ele>18.8</ele>
    <time>2019-09-04T14:01:12.000Z</time>
   </trkpt>
   <trkpt lat="-8.041311" lon="-34.893996">
    <ele>18.8</ele>
    <time>2019-09-04T14:01:13.000Z</time>
   </trkpt>
   <trkpt lat="-8.041348" lon="-34.893955">
    <ele>18.7</ele>
    <time>2019-09-04T14:01:15.000Z</time>
   </trkpt>
   <trkpt lat="-8.041362" lon="-34.893931">
    <ele>18.6</ele>
    <time>2019-09-04T14:01:16.000Z</time>
   </trkpt>
   <trkpt lat="-8.041384" lon="-34.893911">
    <ele>18.5</ele>
    <time>2019-09-04T14:01:17.000Z</time>
   </trkpt>
   <trkpt lat="-8.041414" lon="-34.893892">
    <ele>18.4</ele>
    <time>2019-09-04T14:01:18.000Z</time>
   </trkpt>
   <trkpt lat="-8.041426" lon="-34.893853">
    <ele>18.3</ele>
    <time>2019-09-04T14:01:20.000Z</time>
   </trkpt>
   <trkpt lat="-8.041458" lon="-34.893839">
    <ele>18.1</ele>
    <time>2019-09-04T14:01:23.000Z</time>
   </trkpt>
   <trkpt lat="-8.041515" lon="-34.893859">
    <ele>17.6</ele>
    <time>2019-09-04T14:01:25.000Z</time>
   </trkpt>
   <trkpt lat="-8.04155" lon="-34.893875">
    <ele>17.4</ele>
    <time>2019-09-04T14:01:26.000Z</time>
   </trkpt>
   <trkpt lat="-8.041585" lon="-34.893894">
    <ele>17</ele>
    <time>2019-09-04T14:01:27.000Z</time>
   </trkpt>
   <trkpt lat="-8.041621" lon="-34.893922">
    <ele>16.6</ele>
    <time>2019-09-04T14:01:28.000Z</time>
   </trkpt>
   <trkpt lat="-8.041653" lon="-34.893949">
    <ele>16.3</ele>
    <time>2019-09-04T14:01:29.000Z</time>
   </trkpt>
   <trkpt lat="-8.041679" lon="-34.893976">
    <ele>16</ele>
    <time>2019-09-04T14:01:30.000Z</time>
   </trkpt>
   <trkpt lat="-8.041708" lon="-34.894002">
    <ele>15.8</ele>
    <time>2019-09-04T14:01:31.000Z</time>
   </trkpt>
   <trkpt lat="-8.041738" lon="-34.894027">
    <ele>15.6</ele>
    <time>2019-09-04T14:01:32.000Z</time>
   </trkpt>
   <trkpt lat="-8.041767" lon="-34.89406">
    <ele>15.4</ele>
    <time>2019-09-04T14:01:33.000Z</time>
   </trkpt>
   <trkpt lat="-8.041805" lon="-34.89408">
    <ele>15.2</ele>
    <time>2019-09-04T14:01:34.000Z</time>
   </trkpt>
   <trkpt lat="-8.04184" lon="-34.894103">
    <ele>15</ele>
    <time>2019-09-04T14:01:35.000Z</time>
   </trkpt>
   <trkpt lat="-8.041878" lon="-34.894124">
    <ele>14.9</ele>
    <time>2019-09-04T14:01:36.000Z</time>
   </trkpt>
   <trkpt lat="-8.041913" lon="-34.894156">
    <ele>14.7</ele>
    <time>2019-09-04T14:01:37.000Z</time>
   </trkpt>
   <trkpt lat="-8.041949" lon="-34.894189">
    <ele>14.6</ele>
    <time>2019-09-04T14:01:38.000Z</time>
   </trkpt>
   <trkpt lat="-8.041979" lon="-34.894224">
    <ele>14.4</ele>
    <time>2019-09-04T14:01:39.000Z</time>
   </trkpt>
   <trkpt lat="-8.042021" lon="-34.894251">
    <ele>14.3</ele>
    <time>2019-09-04T14:01:40.000Z</time>
   </trkpt>
   <trkpt lat="-8.04206" lon="-34.8943">
    <ele>14.1</ele>
    <time>2019-09-04T14:01:41.000Z</time>
   </trkpt>
   <trkpt lat="-8.042101" lon="-34.894338">
    <ele>14</ele>
    <time>2019-09-04T14:01:42.000Z</time>
   </trkpt>
   <trkpt lat="-8.042137" lon="-34.89437">
    <ele>13.8</ele>
    <time>2019-09-04T14:01:43.000Z</time>
   </trkpt>
   <trkpt lat="-8.042171" lon="-34.894396">
    <ele>13.7</ele>
    <time>2019-09-04T14:01:44.000Z</time>
   </trkpt>
   <trkpt lat="-8.042206" lon="-34.894428">
    <ele>13.6</ele>
    <time>2019-09-04T14:01:45.000Z</time>
   </trkpt>
   <trkpt lat="-8.042235" lon="-34.894458">
    <ele>13.9</ele>
    <time>2019-09-04T14:01:46.000Z</time>
   </trkpt>
   <trkpt lat="-8.042266" lon="-34.894485">
    <ele>14.1</ele>
    <time>2019-09-04T14:01:47.000Z</time>
   </trkpt>
   <trkpt lat="-8.042294" lon="-34.894522">
    <ele>14.4</ele>
    <time>2019-09-04T14:01:48.000Z</time>
   </trkpt>
   <trkpt lat="-8.042332" lon="-34.894549">
    <ele>14.8</ele>
    <time>2019-09-04T14:01:49.000Z</time>
   </trkpt>
   <trkpt lat="-8.042362" lon="-34.894578">
    <ele>15</ele>
    <time>2019-09-04T14:01:50.000Z</time>
   </trkpt>
   <trkpt lat="-8.042399" lon="-34.894594">
    <ele>15.3</ele>
    <time>2019-09-04T14:01:51.000Z</time>
   </trkpt>
   <trkpt lat="-8.042436" lon="-34.894616">
    <ele>15.6</ele>
    <time>2019-09-04T14:01:52.000Z</time>
   </trkpt>
   <trkpt lat="-8.042466" lon="-34.894649">
    <ele>15.9</ele>
    <time>2019-09-04T14:01:53.000Z</time>
   </trkpt>
   <trkpt lat="-8.042491" lon="-34.894692">
    <ele>16.2</ele>
    <time>2019-09-04T14:01:54.000Z</time>
   </trkpt>
   <trkpt lat="-8.04252" lon="-34.894727">
    <ele>16.5</ele>
    <time>2019-09-04T14:01:55.000Z</time>
   </trkpt>
   <trkpt lat="-8.042542" lon="-34.894752">
    <ele>16.8</ele>
    <time>2019-09-04T14:01:56.000Z</time>
   </trkpt>
   <trkpt lat="-8.042561" lon="-34.894782">
    <ele>17</ele>
    <time>2019-09-04T14:01:57.000Z</time>
   </trkpt>
   <trkpt lat="-8.042584" lon="-34.894815">
    <ele>17.3</ele>
    <time>2019-09-04T14:01:58.000Z</time>
   </trkpt>
   <trkpt lat="-8.042603" lon="-34.894858">
    <ele>17.6</ele>
    <time>2019-09-04T14:01:59.000Z</time>
   </trkpt>
   <trkpt lat="-8.04262" lon="-34.894891">
    <ele>17.9</ele>
    <time>2019-09-04T14:02:00.000Z</time>
   </trkpt>
   <trkpt lat="-8.042642" lon="-34.894919">
    <ele>18.1</ele>
    <time>2019-09-04T14:02:01.000Z</time>
   </trkpt>
   <trkpt lat="-8.042661" lon="-34.894948">
    <ele>18.3</ele>
    <time>2019-09-04T14:02:02.000Z</time>
   </trkpt>
   <trkpt lat="-8.042678" lon="-34.894975">
    <ele>18.6</ele>
    <time>2019-09-04T14:02:03.000Z</time>
   </trkpt>
   <trkpt lat="-8.042694" lon="-34.894998">
    <ele>18.8</ele>
    <time>2019-09-04T14:02:04.000Z</time>
   </trkpt>
   <trkpt lat="-8.042709" lon="-34.895025">
    <ele>19</ele>
    <time>2019-09-04T14:02:05.000Z</time>
   </trkpt>
   <trkpt lat="-8.042729" lon="-34.895066">
    <ele>19.3</ele>
    <time>2019-09-04T14:02:06.000Z</time>
   </trkpt>
   <trkpt lat="-8.042756" lon="-34.895116">
    <ele>19.6</ele>
    <time>2019-09-04T14:02:07.000Z</time>
   </trkpt>
   <trkpt lat="-8.042793" lon="-34.895162">
    <ele>19.9</ele>
    <time>2019-09-04T14:02:08.000Z</time>
   </trkpt>
   <trkpt lat="-8.042833" lon="-34.895218">
    <ele>20.1</ele>
    <time>2019-09-04T14:02:09.000Z</time>
   </trkpt>
   <trkpt lat="-8.042847" lon="-34.895288">
    <ele>20.3</ele>
    <time>2019-09-04T14:02:10.000Z</time>
   </trkpt>
   <trkpt lat="-8.042861" lon="-34.895338">
    <ele>20.4</ele>
    <time>2019-09-04T14:02:11.000Z</time>
   </trkpt>
   <trkpt lat="-8.042873" lon="-34.895391">
    <ele>20.5</ele>
    <time>2019-09-04T14:02:12.000Z</time>
   </trkpt>
   <trkpt lat="-8.042886" lon="-34.895436">
    <ele>20.6</ele>
    <time>2019-09-04T14:02:13.000Z</time>
   </trkpt>
   <trkpt lat="-8.042885" lon="-34.89549">
    <ele>20.7</ele>
    <time>2019-09-04T14:02:15.000Z</time>
   </trkpt>
   <trkpt lat="-8.042883" lon="-34.895533">
    <ele>20.7</ele>
    <time>2019-09-04T14:02:17.000Z</time>
   </trkpt>
   <trkpt lat="-8.042895" lon="-34.895562">
    <ele>20.8</ele>
    <time>2019-09-04T14:02:22.000Z</time>
   </trkpt>
   <trkpt lat="-8.042926" lon="-34.8956">
    <ele>20.8</ele>
    <time>2019-09-04T14:02:24.000Z</time>
   </trkpt>
   <trkpt lat="-8.042943" lon="-34.895631">
    <ele>20.8</ele>
    <time>2019-09-04T14:02:25.000Z</time>
   </trkpt>
   <trkpt lat="-8.042957" lon="-34.895659">
    <ele>20.9</ele>
    <time>2019-09-04T14:02:26.000Z</time>
   </trkpt>
   <trkpt lat="-8.042974" lon="-34.895697">
    <ele>20.9</ele>
    <time>2019-09-04T14:02:27.000Z</time>
   </trkpt>
   <trkpt lat="-8.042991" lon="-34.895719">
    <ele>21</ele>
    <time>2019-09-04T14:02:28.000Z</time>
   </trkpt>
   <trkpt lat="-8.043024" lon="-34.895764">
    <ele>21</ele>
    <time>2019-09-04T14:02:30.000Z</time>
   </trkpt>
   <trkpt lat="-8.043042" lon="-34.895817">
    <ele>21.1</ele>
    <time>2019-09-04T14:02:32.000Z</time>
   </trkpt>
   <trkpt lat="-8.043057" lon="-34.895854">
    <ele>21.1</ele>
    <time>2019-09-04T14:02:33.000Z</time>
   </trkpt>
   <trkpt lat="-8.043069" lon="-34.895892">
    <ele>21.1</ele>
    <time>2019-09-04T14:02:34.000Z</time>
   </trkpt>
   <trkpt lat="-8.043077" lon="-34.895936">
    <ele>21.1</ele>
    <time>2019-09-04T14:02:35.000Z</time>
   </trkpt>
   <trkpt lat="-8.043075" lon="-34.895989">
    <ele>21</ele>
    <time>2019-09-04T14:02:36.000Z</time>
   </trkpt>
   <trkpt lat="-8.043108" lon="-34.896036">
    <ele>21</ele>
    <time>2019-09-04T14:02:37.000Z</time>
   </trkpt>
   <trkpt lat="-8.043121" lon="-34.896093">
    <ele>20.9</ele>
    <time>2019-09-04T14:02:38.000Z</time>
   </trkpt>
   <trkpt lat="-8.043133" lon="-34.896145">
    <ele>20.9</ele>
    <time>2019-09-04T14:02:39.000Z</time>
   </trkpt>
   <trkpt lat="-8.043148" lon="-34.896198">
    <ele>20.8</ele>
    <time>2019-09-04T14:02:40.000Z</time>
   </trkpt>
   <trkpt lat="-8.043169" lon="-34.896244">
    <ele>20.7</ele>
    <time>2019-09-04T14:02:41.000Z</time>
   </trkpt>
   <trkpt lat="-8.043194" lon="-34.89629">
    <ele>20.7</ele>
    <time>2019-09-04T14:02:42.000Z</time>
   </trkpt>
   <trkpt lat="-8.043261" lon="-34.896356">
    <ele>20.6</ele>
    <time>2019-09-04T14:02:43.000Z</time>
   </trkpt>
   <trkpt lat="-8.043308" lon="-34.896398">
    <ele>20.5</ele>
    <time>2019-09-04T14:02:44.000Z</time>
   </trkpt>
   <trkpt lat="-8.04332" lon="-34.896443">
    <ele>20.4</ele>
    <time>2019-09-04T14:02:45.000Z</time>
   </trkpt>
   <trkpt lat="-8.043332" lon="-34.89649">
    <ele>20.3</ele>
    <time>2019-09-04T14:02:46.000Z</time>
   </trkpt>
   <trkpt lat="-8.043344" lon="-34.896537">
    <ele>20.2</ele>
    <time>2019-09-04T14:02:47.000Z</time>
   </trkpt>
   <trkpt lat="-8.043358" lon="-34.896574">
    <ele>20.1</ele>
    <time>2019-09-04T14:02:48.000Z</time>
   </trkpt>
   <trkpt lat="-8.04337" lon="-34.896612">
    <ele>19.8</ele>
    <time>2019-09-04T14:02:49.000Z</time>
   </trkpt>
   <trkpt lat="-8.043379" lon="-34.896643">
    <ele>19.6</ele>
    <time>2019-09-04T14:02:50.000Z</time>
   </trkpt>
   <trkpt lat="-8.043394" lon="-34.896668">
    <ele>19.3</ele>
    <time>2019-09-04T14:02:51.000Z</time>
   </trkpt>
   <trkpt lat="-8.043401" lon="-34.896703">
    <ele>19.1</ele>
    <time>2019-09-04T14:02:52.000Z</time>
   </trkpt>
   <trkpt lat="-8.043389" lon="-34.896745">
    <ele>18.8</ele>
    <time>2019-09-04T14:02:54.000Z</time>
   </trkpt>
   <trkpt lat="-8.043388" lon="-34.896788">
    <ele>18.5</ele>
    <time>2019-09-04T14:02:57.000Z</time>
   </trkpt>
   <trkpt lat="-8.043407" lon="-34.89682">
    <ele>18.2</ele>
    <time>2019-09-04T14:02:59.000Z</time>
   </trkpt>
   <trkpt lat="-8.043411" lon="-34.896859">
    <ele>17.9</ele>
    <time>2019-09-04T14:03:01.000Z</time>
   </trkpt>
   <trkpt lat="-8.043414" lon="-34.896893">
    <ele>17.7</ele>
    <time>2019-09-04T14:03:03.000Z</time>
   </trkpt>
   <trkpt lat="-8.043417" lon="-34.896926">
    <ele>17.4</ele>
    <time>2019-09-04T14:03:06.000Z</time>
   </trkpt>
   <trkpt lat="-8.043421" lon="-34.896961">
    <ele>17.1</ele>
    <time>2019-09-04T14:03:08.000Z</time>
   </trkpt>
   <trkpt lat="-8.043434" lon="-34.896996">
    <ele>16.7</ele>
    <time>2019-09-04T14:03:14.000Z</time>
   </trkpt>
   <trkpt lat="-8.043445" lon="-34.897026">
    <ele>16.3</ele>
    <time>2019-09-04T14:03:17.000Z</time>
   </trkpt>
   <trkpt lat="-8.043473" lon="-34.897049">
    <ele>15.9</ele>
    <time>2019-09-04T14:03:22.000Z</time>
   </trkpt>
   <trkpt lat="-8.043494" lon="-34.89707">
    <ele>15.7</ele>
    <time>2019-09-04T14:03:24.000Z</time>
   </trkpt>
   <trkpt lat="-8.043507" lon="-34.897099">
    <ele>15.5</ele>
    <time>2019-09-04T14:03:27.000Z</time>
   </trkpt>
   <trkpt lat="-8.043549" lon="-34.897144">
    <ele>15</ele>
    <time>2019-09-04T14:03:30.000Z</time>
   </trkpt>
   <trkpt lat="-8.043582" lon="-34.897159">
    <ele>14.8</ele>
    <time>2019-09-04T14:03:31.000Z</time>
   </trkpt>
   <trkpt lat="-8.043613" lon="-34.897163">
    <ele>14.6</ele>
    <time>2019-09-04T14:03:32.000Z</time>
   </trkpt>
   <trkpt lat="-8.043631" lon="-34.897185">
    <ele>14.4</ele>
    <time>2019-09-04T14:03:35.000Z</time>
   </trkpt>
   <trkpt lat="-8.043633" lon="-34.897215">
    <ele>14.1</ele>
    <time>2019-09-04T14:03:38.000Z</time>
   </trkpt>
   <trkpt lat="-8.043618" lon="-34.897239">
    <ele>13.7</ele>
    <time>2019-09-04T14:03:47.000Z</time>
   </trkpt>
   <trkpt lat="-8.043613" lon="-34.897281">
    <ele>13.2</ele>
    <time>2019-09-04T14:03:49.000Z</time>
   </trkpt>
   <trkpt lat="-8.043618" lon="-34.897317">
    <ele>12.7</ele>
    <time>2019-09-04T14:03:50.000Z</time>
   </trkpt>
   <trkpt lat="-8.043614" lon="-34.897357">
    <ele>12.2</ele>
    <time>2019-09-04T14:03:52.000Z</time>
   </trkpt>
   <trkpt lat="-8.043629" lon="-34.897408">
    <ele>12.5</ele>
    <time>2019-09-04T14:03:53.000Z</time>
   </trkpt>
   <trkpt lat="-8.043657" lon="-34.897461">
    <ele>12.9</ele>
    <time>2019-09-04T14:03:54.000Z</time>
   </trkpt>
   <trkpt lat="-8.043681" lon="-34.897519">
    <ele>13.3</ele>
    <time>2019-09-04T14:03:55.000Z</time>
   </trkpt>
   <trkpt lat="-8.043703" lon="-34.897579">
    <ele>13.6</ele>
    <time>2019-09-04T14:03:57.000Z</time>
   </trkpt>
   <trkpt lat="-8.043719" lon="-34.897648">
    <ele>13.9</ele>
    <time>2019-09-04T14:03:58.000Z</time>
   </trkpt>
   <trkpt lat="-8.04373" lon="-34.897715">
    <ele>14</ele>
    <time>2019-09-04T14:03:59.000Z</time>
   </trkpt>
   <trkpt lat="-8.043747" lon="-34.897774">
    <ele>14.1</ele>
    <time>2019-09-04T14:04:00.000Z</time>
   </trkpt>
   <trkpt lat="-8.04376" lon="-34.89782">
    <ele>14.2</ele>
    <time>2019-09-04T14:04:01.000Z</time>
   </trkpt>
   <trkpt lat="-8.043775" lon="-34.897866">
    <ele>14.2</ele>
    <time>2019-09-04T14:04:02.000Z</time>
   </trkpt>
   <trkpt lat="-8.04379" lon="-34.897914">
    <ele>14.2</ele>
    <time>2019-09-04T14:04:03.000Z</time>
   </trkpt>
   <trkpt lat="-8.043786" lon="-34.89797">
    <ele>14.3</ele>
    <time>2019-09-04T14:04:04.000Z</time>
   </trkpt>
   <trkpt lat="-8.043813" lon="-34.898049">
    <ele>14.3</ele>
    <time>2019-09-04T14:04:05.000Z</time>
   </trkpt>
   <trkpt lat="-8.043838" lon="-34.898108">
    <ele>14.4</ele>
    <time>2019-09-04T14:04:06.000Z</time>
   </trkpt>
   <trkpt lat="-8.043866" lon="-34.898168">
    <ele>14.4</ele>
    <time>2019-09-04T14:04:07.000Z</time>
   </trkpt>
   <trkpt lat="-8.043893" lon="-34.89822">
    <ele>14.4</ele>
    <time>2019-09-04T14:04:08.000Z</time>
   </trkpt>
   <trkpt lat="-8.043917" lon="-34.898254">
    <ele>14.5</ele>
    <time>2019-09-04T14:04:09.000Z</time>
   </trkpt>
   <trkpt lat="-8.043964" lon="-34.898289">
    <ele>14.5</ele>
    <time>2019-09-04T14:04:10.000Z</time>
   </trkpt>
   <trkpt lat="-8.044019" lon="-34.89829">
    <ele>14.4</ele>
    <time>2019-09-04T14:04:11.000Z</time>
   </trkpt>
   <trkpt lat="-8.044064" lon="-34.898279">
    <ele>14.4</ele>
    <time>2019-09-04T14:04:12.000Z</time>
   </trkpt>
   <trkpt lat="-8.044114" lon="-34.898266">
    <ele>14.3</ele>
    <time>2019-09-04T14:04:13.000Z</time>
   </trkpt>
   <trkpt lat="-8.044152" lon="-34.898262">
    <ele>14.2</ele>
    <time>2019-09-04T14:04:14.000Z</time>
   </trkpt>
   <trkpt lat="-8.044197" lon="-34.898248">
    <ele>14.1</ele>
    <time>2019-09-04T14:04:15.000Z</time>
   </trkpt>
   <trkpt lat="-8.044238" lon="-34.898242">
    <ele>13.9</ele>
    <time>2019-09-04T14:04:16.000Z</time>
   </trkpt>
   <trkpt lat="-8.044283" lon="-34.898236">
    <ele>13.7</ele>
    <time>2019-09-04T14:04:17.000Z</time>
   </trkpt>
   <trkpt lat="-8.044331" lon="-34.898236">
    <ele>13.6</ele>
    <time>2019-09-04T14:04:18.000Z</time>
   </trkpt>
   <trkpt lat="-8.044387" lon="-34.898245">
    <ele>13.4</ele>
    <time>2019-09-04T14:04:19.000Z</time>
   </trkpt>
   <trkpt lat="-8.044427" lon="-34.898243">
    <ele>13.3</ele>
    <time>2019-09-04T14:04:20.000Z</time>
   </trkpt>
   <trkpt lat="-8.044466" lon="-34.898242">
    <ele>13.4</ele>
    <time>2019-09-04T14:04:21.000Z</time>
   </trkpt>
   <trkpt lat="-8.044518" lon="-34.898229">
    <ele>13.5</ele>
    <time>2019-09-04T14:04:22.000Z</time>
   </trkpt>
   <trkpt lat="-8.044579" lon="-34.898242">
    <ele>13.7</ele>
    <time>2019-09-04T14:04:24.000Z</time>
   </trkpt>
   <trkpt lat="-8.044617" lon="-34.898252">
    <ele>13.8</ele>
    <time>2019-09-04T14:04:25.000Z</time>
   </trkpt>
   <trkpt lat="-8.044655" lon="-34.898255">
    <ele>13.9</ele>
    <time>2019-09-04T14:04:26.000Z</time>
   </trkpt>
   <trkpt lat="-8.044687" lon="-34.898266">
    <ele>14</ele>
    <time>2019-09-04T14:04:27.000Z</time>
   </trkpt>
   <trkpt lat="-8.044727" lon="-34.89828">
    <ele>14.2</ele>
    <time>2019-09-04T14:04:28.000Z</time>
   </trkpt>
   <trkpt lat="-8.044764" lon="-34.898278">
    <ele>14.5</ele>
    <time>2019-09-04T14:04:29.000Z</time>
   </trkpt>
   <trkpt lat="-8.044804" lon="-34.898276">
    <ele>14.8</ele>
    <time>2019-09-04T14:04:30.000Z</time>
   </trkpt>
   <trkpt lat="-8.044844" lon="-34.898279">
    <ele>15.1</ele>
    <time>2019-09-04T14:04:31.000Z</time>
   </trkpt>
   <trkpt lat="-8.044891" lon="-34.898293">
    <ele>15.4</ele>
    <time>2019-09-04T14:04:32.000Z</time>
   </trkpt>
   <trkpt lat="-8.044931" lon="-34.898305">
    <ele>15.8</ele>
    <time>2019-09-04T14:04:33.000Z</time>
   </trkpt>
   <trkpt lat="-8.044969" lon="-34.898319">
    <ele>16.1</ele>
    <time>2019-09-04T14:04:34.000Z</time>
   </trkpt>
   <trkpt lat="-8.045011" lon="-34.898326">
    <ele>16.4</ele>
    <time>2019-09-04T14:04:35.000Z</time>
   </trkpt>
   <trkpt lat="-8.045055" lon="-34.898332">
    <ele>16.7</ele>
    <time>2019-09-04T14:04:36.000Z</time>
   </trkpt>
   <trkpt lat="-8.04509" lon="-34.898344">
    <ele>16.8</ele>
    <time>2019-09-04T14:04:37.000Z</time>
   </trkpt>
   <trkpt lat="-8.045128" lon="-34.898356">
    <ele>16.9</ele>
    <time>2019-09-04T14:04:38.000Z</time>
   </trkpt>
   <trkpt lat="-8.045168" lon="-34.898356">
    <ele>17.1</ele>
    <time>2019-09-04T14:04:39.000Z</time>
   </trkpt>
   <trkpt lat="-8.045211" lon="-34.898328">
    <ele>17.2</ele>
    <time>2019-09-04T14:04:40.000Z</time>
   </trkpt>
   <trkpt lat="-8.045237" lon="-34.898289">
    <ele>17.3</ele>
    <time>2019-09-04T14:04:41.000Z</time>
   </trkpt>
   <trkpt lat="-8.045257" lon="-34.898259">
    <ele>17.3</ele>
    <time>2019-09-04T14:04:42.000Z</time>
   </trkpt>
   <trkpt lat="-8.045278" lon="-34.898226">
    <ele>17.3</ele>
    <time>2019-09-04T14:04:43.000Z</time>
   </trkpt>
   <trkpt lat="-8.045293" lon="-34.898186">
    <ele>17.3</ele>
    <time>2019-09-04T14:04:44.000Z</time>
   </trkpt>
   <trkpt lat="-8.045306" lon="-34.898147">
    <ele>17.3</ele>
    <time>2019-09-04T14:04:45.000Z</time>
   </trkpt>
   <trkpt lat="-8.045322" lon="-34.898104">
    <ele>17.3</ele>
    <time>2019-09-04T14:04:46.000Z</time>
   </trkpt>
   <trkpt lat="-8.045318" lon="-34.898061">
    <ele>17.2</ele>
    <time>2019-09-04T14:04:47.000Z</time>
   </trkpt>
   <trkpt lat="-8.045326" lon="-34.898018">
    <ele>17.2</ele>
    <time>2019-09-04T14:04:48.000Z</time>
   </trkpt>
   <trkpt lat="-8.045323" lon="-34.897971">
    <ele>17.2</ele>
    <time>2019-09-04T14:04:49.000Z</time>
   </trkpt>
   <trkpt lat="-8.045326" lon="-34.897931">
    <ele>17.2</ele>
    <time>2019-09-04T14:04:50.000Z</time>
   </trkpt>
   <trkpt lat="-8.045334" lon="-34.897873">
    <ele>17.2</ele>
    <time>2019-09-04T14:04:51.000Z</time>
   </trkpt>
   <trkpt lat="-8.045339" lon="-34.897824">
    <ele>17.2</ele>
    <time>2019-09-04T14:04:52.000Z</time>
   </trkpt>
   <trkpt lat="-8.04534" lon="-34.897786">
    <ele>17.2</ele>
    <time>2019-09-04T14:04:53.000Z</time>
   </trkpt>
   <trkpt lat="-8.045355" lon="-34.897759">
    <ele>17.1</ele>
    <time>2019-09-04T14:04:54.000Z</time>
   </trkpt>
   <trkpt lat="-8.045372" lon="-34.897735">
    <ele>17</ele>
    <time>2019-09-04T14:04:55.000Z</time>
   </trkpt>
   <trkpt lat="-8.0454" lon="-34.897742">
    <ele>17</ele>
    <time>2019-09-04T14:04:57.000Z</time>
   </trkpt>
   <trkpt lat="-8.045425" lon="-34.897765">
    <ele>16.9</ele>
    <time>2019-09-04T14:04:58.000Z</time>
   </trkpt>
   <trkpt lat="-8.045453" lon="-34.897785">
    <ele>16.9</ele>
    <time>2019-09-04T14:04:59.000Z</time>
   </trkpt>
   <trkpt lat="-8.045482" lon="-34.897796">
    <ele>16.8</ele>
    <time>2019-09-04T14:05:00.000Z</time>
   </trkpt>
   <trkpt lat="-8.045514" lon="-34.897812">
    <ele>16.7</ele>
    <time>2019-09-04T14:05:01.000Z</time>
   </trkpt>
   <trkpt lat="-8.045548" lon="-34.897825">
    <ele>16.7</ele>
    <time>2019-09-04T14:05:03.000Z</time>
   </trkpt>
   <trkpt lat="-8.045603" lon="-34.897816">
    <ele>16.5</ele>
    <time>2019-09-04T14:05:05.000Z</time>
   </trkpt>
   <trkpt lat="-8.04565" lon="-34.897829">
    <ele>16.4</ele>
    <time>2019-09-04T14:05:07.000Z</time>
   </trkpt>
   <trkpt lat="-8.045686" lon="-34.897837">
    <ele>16.3</ele>
    <time>2019-09-04T14:05:09.000Z</time>
   </trkpt>
   <trkpt lat="-8.045739" lon="-34.897853">
    <ele>16.1</ele>
    <time>2019-09-04T14:05:11.000Z</time>
   </trkpt>
   <trkpt lat="-8.045776" lon="-34.897854">
    <ele>16</ele>
    <time>2019-09-04T14:05:12.000Z</time>
   </trkpt>
   <trkpt lat="-8.045815" lon="-34.89786">
    <ele>15.9</ele>
    <time>2019-09-04T14:05:13.000Z</time>
   </trkpt>
   <trkpt lat="-8.045864" lon="-34.897861">
    <ele>15.8</ele>
    <time>2019-09-04T14:05:15.000Z</time>
   </trkpt>
   <trkpt lat="-8.045892" lon="-34.89786">
    <ele>15.7</ele>
    <time>2019-09-04T14:05:16.000Z</time>
   </trkpt>
   <trkpt lat="-8.04592" lon="-34.897871">
    <ele>15.5</ele>
    <time>2019-09-04T14:05:17.000Z</time>
   </trkpt>
   <trkpt lat="-8.045968" lon="-34.897879">
    <ele>15.3</ele>
    <time>2019-09-04T14:05:19.000Z</time>
   </trkpt>
   <trkpt lat="-8.046003" lon="-34.89789">
    <ele>15.2</ele>
    <time>2019-09-04T14:05:20.000Z</time>
   </trkpt>
   <trkpt lat="-8.046045" lon="-34.897882">
    <ele>15.1</ele>
    <time>2019-09-04T14:05:21.000Z</time>
   </trkpt>
   <trkpt lat="-8.046083" lon="-34.897881">
    <ele>14.9</ele>
    <time>2019-09-04T14:05:22.000Z</time>
   </trkpt>
   <trkpt lat="-8.046112" lon="-34.897889">
    <ele>14.8</ele>
    <time>2019-09-04T14:05:23.000Z</time>
   </trkpt>
   <trkpt lat="-8.046138" lon="-34.89791">
    <ele>14.7</ele>
    <time>2019-09-04T14:05:24.000Z</time>
   </trkpt>
   <trkpt lat="-8.046179" lon="-34.897912">
    <ele>14.7</ele>
    <time>2019-09-04T14:05:26.000Z</time>
   </trkpt>
   <trkpt lat="-8.046216" lon="-34.897907">
    <ele>14.7</ele>
    <time>2019-09-04T14:05:27.000Z</time>
   </trkpt>
   <trkpt lat="-8.046251" lon="-34.897913">
    <ele>14.7</ele>
    <time>2019-09-04T14:05:28.000Z</time>
   </trkpt>
   <trkpt lat="-8.046285" lon="-34.897922">
    <ele>14.7</ele>
    <time>2019-09-04T14:05:29.000Z</time>
   </trkpt>
   <trkpt lat="-8.046327" lon="-34.897949">
    <ele>14.7</ele>
    <time>2019-09-04T14:05:30.000Z</time>
   </trkpt>
   <trkpt lat="-8.04636" lon="-34.897966">
    <ele>14.8</ele>
    <time>2019-09-04T14:05:31.000Z</time>
   </trkpt>
   <trkpt lat="-8.04639" lon="-34.897974">
    <ele>14.8</ele>
    <time>2019-09-04T14:05:32.000Z</time>
   </trkpt>
   <trkpt lat="-8.046438" lon="-34.897985">
    <ele>14.8</ele>
    <time>2019-09-04T14:05:33.000Z</time>
   </trkpt>
   <trkpt lat="-8.046477" lon="-34.898007">
    <ele>14.8</ele>
    <time>2019-09-04T14:05:34.000Z</time>
   </trkpt>
   <trkpt lat="-8.046513" lon="-34.898025">
    <ele>14.8</ele>
    <time>2019-09-04T14:05:35.000Z</time>
   </trkpt>
   <trkpt lat="-8.046543" lon="-34.898034">
    <ele>14.8</ele>
    <time>2019-09-04T14:05:36.000Z</time>
   </trkpt>
   <trkpt lat="-8.046574" lon="-34.898036">
    <ele>14.8</ele>
    <time>2019-09-04T14:05:37.000Z</time>
   </trkpt>
   <trkpt lat="-8.046625" lon="-34.898039">
    <ele>14.8</ele>
    <time>2019-09-04T14:05:39.000Z</time>
   </trkpt>
   <trkpt lat="-8.04666" lon="-34.898045">
    <ele>14.8</ele>
    <time>2019-09-04T14:05:40.000Z</time>
   </trkpt>
   <trkpt lat="-8.046704" lon="-34.898043">
    <ele>14.7</ele>
    <time>2019-09-04T14:05:41.000Z</time>
   </trkpt>
   <trkpt lat="-8.04676" lon="-34.898053">
    <ele>14.7</ele>
    <time>2019-09-04T14:05:43.000Z</time>
   </trkpt>
   <trkpt lat="-8.046791" lon="-34.898066">
    <ele>14.6</ele>
    <time>2019-09-04T14:05:44.000Z</time>
   </trkpt>
   <trkpt lat="-8.04682" lon="-34.898077">
    <ele>14.6</ele>
    <time>2019-09-04T14:05:45.000Z</time>
   </trkpt>
   <trkpt lat="-8.046856" lon="-34.898093">
    <ele>14.5</ele>
    <time>2019-09-04T14:05:46.000Z</time>
   </trkpt>
   <trkpt lat="-8.046892" lon="-34.898115">
    <ele>14.4</ele>
    <time>2019-09-04T14:05:47.000Z</time>
   </trkpt>
   <trkpt lat="-8.046927" lon="-34.898117">
    <ele>14.4</ele>
    <time>2019-09-04T14:05:48.000Z</time>
   </trkpt>
   <trkpt lat="-8.046984" lon="-34.898113">
    <ele>14.3</ele>
    <time>2019-09-04T14:05:50.000Z</time>
   </trkpt>
   <trkpt lat="-8.047022" lon="-34.898112">
    <ele>14.2</ele>
    <time>2019-09-04T14:05:51.000Z</time>
   </trkpt>
   <trkpt lat="-8.04706" lon="-34.89812">
    <ele>14.1</ele>
    <time>2019-09-04T14:05:53.000Z</time>
   </trkpt>
   <trkpt lat="-8.047085" lon="-34.898141">
    <ele>14.1</ele>
    <time>2019-09-04T14:05:55.000Z</time>
   </trkpt>
   <trkpt lat="-8.047109" lon="-34.898197">
    <ele>14.6</ele>
    <time>2019-09-04T14:05:57.000Z</time>
   </trkpt>
   <trkpt lat="-8.047114" lon="-34.898237">
    <ele>14.9</ele>
    <time>2019-09-04T14:05:58.000Z</time>
   </trkpt>
   <trkpt lat="-8.047108" lon="-34.898272">
    <ele>15.3</ele>
    <time>2019-09-04T14:05:59.000Z</time>
   </trkpt>
   <trkpt lat="-8.047101" lon="-34.898319">
    <ele>15.6</ele>
    <time>2019-09-04T14:06:00.000Z</time>
   </trkpt>
   <trkpt lat="-8.047085" lon="-34.898377">
    <ele>15.8</ele>
    <time>2019-09-04T14:06:01.000Z</time>
   </trkpt>
   <trkpt lat="-8.047077" lon="-34.898426">
    <ele>16</ele>
    <time>2019-09-04T14:06:02.000Z</time>
   </trkpt>
   <trkpt lat="-8.047079" lon="-34.898472">
    <ele>16</ele>
    <time>2019-09-04T14:06:03.000Z</time>
   </trkpt>
   <trkpt lat="-8.047079" lon="-34.898518">
    <ele>16</ele>
    <time>2019-09-04T14:06:04.000Z</time>
   </trkpt>
   <trkpt lat="-8.047068" lon="-34.898561">
    <ele>16</ele>
    <time>2019-09-04T14:06:05.000Z</time>
   </trkpt>
   <trkpt lat="-8.047072" lon="-34.898619">
    <ele>15.8</ele>
    <time>2019-09-04T14:06:06.000Z</time>
   </trkpt>
   <trkpt lat="-8.047071" lon="-34.898668">
    <ele>15.8</ele>
    <time>2019-09-04T14:06:07.000Z</time>
   </trkpt>
   <trkpt lat="-8.047073" lon="-34.898697">
    <ele>15.8</ele>
    <time>2019-09-04T14:06:08.000Z</time>
   </trkpt>
   <trkpt lat="-8.047085" lon="-34.898735">
    <ele>15.8</ele>
    <time>2019-09-04T14:06:09.000Z</time>
   </trkpt>
   <trkpt lat="-8.047092" lon="-34.89877">
    <ele>15.8</ele>
    <time>2019-09-04T14:06:10.000Z</time>
   </trkpt>
   <trkpt lat="-8.047097" lon="-34.8988">
    <ele>15.8</ele>
    <time>2019-09-04T14:06:12.000Z</time>
   </trkpt>
   <trkpt lat="-8.047096" lon="-34.898834">
    <ele>15.8</ele>
    <time>2019-09-04T14:06:13.000Z</time>
   </trkpt>
   <trkpt lat="-8.047082" lon="-34.898865">
    <ele>15.7</ele>
    <time>2019-09-04T14:06:14.000Z</time>
   </trkpt>
   <trkpt lat="-8.047064" lon="-34.898892">
    <ele>15.7</ele>
    <time>2019-09-04T14:06:15.000Z</time>
   </trkpt>
   <trkpt lat="-8.047081" lon="-34.898965">
    <ele>15.5</ele>
    <time>2019-09-04T14:06:17.000Z</time>
   </trkpt>
   <trkpt lat="-8.047092" lon="-34.899013">
    <ele>15.5</ele>
    <time>2019-09-04T14:06:18.000Z</time>
   </trkpt>
   <trkpt lat="-8.047089" lon="-34.89906">
    <ele>15.4</ele>
    <time>2019-09-04T14:06:19.000Z</time>
   </trkpt>
   <trkpt lat="-8.047092" lon="-34.899103">
    <ele>15.3</ele>
    <time>2019-09-04T14:06:20.000Z</time>
   </trkpt>
   <trkpt lat="-8.047105" lon="-34.899143">
    <ele>15.3</ele>
    <time>2019-09-04T14:06:21.000Z</time>
   </trkpt>
   <trkpt lat="-8.047105" lon="-34.899174">
    <ele>15.2</ele>
    <time>2019-09-04T14:06:22.000Z</time>
   </trkpt>
   <trkpt lat="-8.047109" lon="-34.899213">
    <ele>15.2</ele>
    <time>2019-09-04T14:06:23.000Z</time>
   </trkpt>
   <trkpt lat="-8.047103" lon="-34.899255">
    <ele>15.1</ele>
    <time>2019-09-04T14:06:24.000Z</time>
   </trkpt>
   <trkpt lat="-8.047099" lon="-34.899304">
    <ele>15</ele>
    <time>2019-09-04T14:06:25.000Z</time>
   </trkpt>
   <trkpt lat="-8.047093" lon="-34.899353">
    <ele>14.9</ele>
    <time>2019-09-04T14:06:26.000Z</time>
   </trkpt>
   <trkpt lat="-8.047086" lon="-34.899395">
    <ele>14.8</ele>
    <time>2019-09-04T14:06:27.000Z</time>
   </trkpt>
   <trkpt lat="-8.047084" lon="-34.89945">
    <ele>14.7</ele>
    <time>2019-09-04T14:06:29.000Z</time>
   </trkpt>
   <trkpt lat="-8.047098" lon="-34.89948">
    <ele>14.7</ele>
    <time>2019-09-04T14:06:30.000Z</time>
   </trkpt>
   <trkpt lat="-8.047092" lon="-34.899509">
    <ele>14.6</ele>
    <time>2019-09-04T14:06:31.000Z</time>
   </trkpt>
   <trkpt lat="-8.047098" lon="-34.89954">
    <ele>14.6</ele>
    <time>2019-09-04T14:06:32.000Z</time>
   </trkpt>
   <trkpt lat="-8.047115" lon="-34.899589">
    <ele>14.5</ele>
    <time>2019-09-04T14:06:34.000Z</time>
   </trkpt>
   <trkpt lat="-8.04712" lon="-34.899617">
    <ele>14.5</ele>
    <time>2019-09-04T14:06:35.000Z</time>
   </trkpt>
   <trkpt lat="-8.047145" lon="-34.899654">
    <ele>14.4</ele>
    <time>2019-09-04T14:06:37.000Z</time>
   </trkpt>
   <trkpt lat="-8.047182" lon="-34.899665">
    <ele>14.4</ele>
    <time>2019-09-04T14:06:39.000Z</time>
   </trkpt>
   <trkpt lat="-8.047162" lon="-34.899686">
    <ele>14.3</ele>
    <time>2019-09-04T14:06:48.000Z</time>
   </trkpt>
   <trkpt lat="-8.047119" lon="-34.89968">
    <ele>14.3</ele>
    <time>2019-09-04T14:06:53.000Z</time>
   </trkpt>
   <trkpt lat="-8.047087" lon="-34.899679">
    <ele>14.2</ele>
    <time>2019-09-04T14:06:55.000Z</time>
   </trkpt>
   <trkpt lat="-8.047058" lon="-34.899682">
    <ele>14.2</ele>
    <time>2019-09-04T14:06:57.000Z</time>
   </trkpt>
   <trkpt lat="-8.047171" lon="-34.899703">
    <ele>14.1</ele>
    <time>2019-09-04T14:07:51.000Z</time>
   </trkpt>
   <trkpt lat="-8.047194" lon="-34.899719">
    <ele>14</ele>
    <time>2019-09-04T14:07:52.000Z</time>
   </trkpt>
   <trkpt lat="-8.047223" lon="-34.899731">
    <ele>14</ele>
    <time>2019-09-04T14:07:53.000Z</time>
   </trkpt>
   <trkpt lat="-8.047262" lon="-34.899739">
    <ele>13.8</ele>
    <time>2019-09-04T14:07:54.000Z</time>
   </trkpt>
   <trkpt lat="-8.047306" lon="-34.899744">
    <ele>13.7</ele>
    <time>2019-09-04T14:07:55.000Z</time>
   </trkpt>
   <trkpt lat="-8.047357" lon="-34.899754">
    <ele>13.6</ele>
    <time>2019-09-04T14:07:56.000Z</time>
   </trkpt>
   <trkpt lat="-8.047405" lon="-34.899784">
    <ele>13.5</ele>
    <time>2019-09-04T14:07:57.000Z</time>
   </trkpt>
   <trkpt lat="-8.047455" lon="-34.899807">
    <ele>13.4</ele>
    <time>2019-09-04T14:07:58.000Z</time>
   </trkpt>
   <trkpt lat="-8.047501" lon="-34.899827">
    <ele>13.3</ele>
    <time>2019-09-04T14:07:59.000Z</time>
   </trkpt>
   <trkpt lat="-8.047543" lon="-34.899845">
    <ele>13.2</ele>
    <time>2019-09-04T14:08:00.000Z</time>
   </trkpt>
   <trkpt lat="-8.047589" lon="-34.89986">
    <ele>13.1</ele>
    <time>2019-09-04T14:08:01.000Z</time>
   </trkpt>
   <trkpt lat="-8.047628" lon="-34.899877">
    <ele>13.2</ele>
    <time>2019-09-04T14:08:02.000Z</time>
   </trkpt>
   <trkpt lat="-8.047668" lon="-34.899892">
    <ele>13.2</ele>
    <time>2019-09-04T14:08:03.000Z</time>
   </trkpt>
   <trkpt lat="-8.047688" lon="-34.899911">
    <ele>13.3</ele>
    <time>2019-09-04T14:08:04.000Z</time>
   </trkpt>
   <trkpt lat="-8.047722" lon="-34.899932">
    <ele>13.3</ele>
    <time>2019-09-04T14:08:05.000Z</time>
   </trkpt>
   <trkpt lat="-8.047769" lon="-34.899954">
    <ele>13.4</ele>
    <time>2019-09-04T14:08:06.000Z</time>
   </trkpt>
   <trkpt lat="-8.047817" lon="-34.899981">
    <ele>13.4</ele>
    <time>2019-09-04T14:08:07.000Z</time>
   </trkpt>
   <trkpt lat="-8.047869" lon="-34.900009">
    <ele>13.5</ele>
    <time>2019-09-04T14:08:08.000Z</time>
   </trkpt>
   <trkpt lat="-8.047912" lon="-34.90004">
    <ele>13.6</ele>
    <time>2019-09-04T14:08:09.000Z</time>
   </trkpt>
   <trkpt lat="-8.047949" lon="-34.900056">
    <ele>13.6</ele>
    <time>2019-09-04T14:08:10.000Z</time>
   </trkpt>
   <trkpt lat="-8.047983" lon="-34.900079">
    <ele>13.7</ele>
    <time>2019-09-04T14:08:11.000Z</time>
   </trkpt>
   <trkpt lat="-8.048019" lon="-34.900105">
    <ele>13.7</ele>
    <time>2019-09-04T14:08:12.000Z</time>
   </trkpt>
   <trkpt lat="-8.048058" lon="-34.900138">
    <ele>13.8</ele>
    <time>2019-09-04T14:08:13.000Z</time>
   </trkpt>
   <trkpt lat="-8.048099" lon="-34.900164">
    <ele>13.9</ele>
    <time>2019-09-04T14:08:14.000Z</time>
   </trkpt>
   <trkpt lat="-8.048143" lon="-34.900191">
    <ele>13.9</ele>
    <time>2019-09-04T14:08:15.000Z</time>
   </trkpt>
   <trkpt lat="-8.048186" lon="-34.900214">
    <ele>14</ele>
    <time>2019-09-04T14:08:16.000Z</time>
   </trkpt>
   <trkpt lat="-8.048221" lon="-34.900253">
    <ele>14</ele>
    <time>2019-09-04T14:08:17.000Z</time>
   </trkpt>
   <trkpt lat="-8.048269" lon="-34.900283">
    <ele>14.1</ele>
    <time>2019-09-04T14:08:18.000Z</time>
   </trkpt>
   <trkpt lat="-8.04832" lon="-34.900306">
    <ele>14.2</ele>
    <time>2019-09-04T14:08:19.000Z</time>
   </trkpt>
   <trkpt lat="-8.048366" lon="-34.900329">
    <ele>14.2</ele>
    <time>2019-09-04T14:08:20.000Z</time>
   </trkpt>
   <trkpt lat="-8.04841" lon="-34.900355">
    <ele>14.3</ele>
    <time>2019-09-04T14:08:21.000Z</time>
   </trkpt>
   <trkpt lat="-8.048447" lon="-34.90038">
    <ele>14.3</ele>
    <time>2019-09-04T14:08:22.000Z</time>
   </trkpt>
   <trkpt lat="-8.048489" lon="-34.900418">
    <ele>14.4</ele>
    <time>2019-09-04T14:08:23.000Z</time>
   </trkpt>
   <trkpt lat="-8.048539" lon="-34.900453">
    <ele>14.5</ele>
    <time>2019-09-04T14:08:24.000Z</time>
   </trkpt>
   <trkpt lat="-8.04858" lon="-34.900488">
    <ele>14.6</ele>
    <time>2019-09-04T14:08:25.000Z</time>
   </trkpt>
   <trkpt lat="-8.04861" lon="-34.900527">
    <ele>14.6</ele>
    <time>2019-09-04T14:08:26.000Z</time>
   </trkpt>
   <trkpt lat="-8.048634" lon="-34.900554">
    <ele>14.7</ele>
    <time>2019-09-04T14:08:27.000Z</time>
   </trkpt>
   <trkpt lat="-8.048676" lon="-34.900568">
    <ele>14.7</ele>
    <time>2019-09-04T14:08:28.000Z</time>
   </trkpt>
   <trkpt lat="-8.048726" lon="-34.900583">
    <ele>14.8</ele>
    <time>2019-09-04T14:08:29.000Z</time>
   </trkpt>
   <trkpt lat="-8.048757" lon="-34.900598">
    <ele>14.8</ele>
    <time>2019-09-04T14:08:30.000Z</time>
   </trkpt>
   <trkpt lat="-8.048788" lon="-34.900627">
    <ele>14.9</ele>
    <time>2019-09-04T14:08:31.000Z</time>
   </trkpt>
   <trkpt lat="-8.048818" lon="-34.900645">
    <ele>14.9</ele>
    <time>2019-09-04T14:08:32.000Z</time>
   </trkpt>
   <trkpt lat="-8.048866" lon="-34.900647">
    <ele>15</ele>
    <time>2019-09-04T14:08:33.000Z</time>
   </trkpt>
   <trkpt lat="-8.048906" lon="-34.90066">
    <ele>15</ele>
    <time>2019-09-04T14:08:34.000Z</time>
   </trkpt>
   <trkpt lat="-8.048942" lon="-34.900684">
    <ele>15</ele>
    <time>2019-09-04T14:08:35.000Z</time>
   </trkpt>
   <trkpt lat="-8.048983" lon="-34.900699">
    <ele>14.9</ele>
    <time>2019-09-04T14:08:36.000Z</time>
   </trkpt>
   <trkpt lat="-8.049022" lon="-34.900717">
    <ele>14.9</ele>
    <time>2019-09-04T14:08:37.000Z</time>
   </trkpt>
   <trkpt lat="-8.049059" lon="-34.900744">
    <ele>14.9</ele>
    <time>2019-09-04T14:08:38.000Z</time>
   </trkpt>
   <trkpt lat="-8.049106" lon="-34.900758">
    <ele>14.9</ele>
    <time>2019-09-04T14:08:39.000Z</time>
   </trkpt>
   <trkpt lat="-8.04915" lon="-34.90078">
    <ele>14.8</ele>
    <time>2019-09-04T14:08:40.000Z</time>
   </trkpt>
   <trkpt lat="-8.049184" lon="-34.90081">
    <ele>14.7</ele>
    <time>2019-09-04T14:08:41.000Z</time>
   </trkpt>
   <trkpt lat="-8.049219" lon="-34.900838">
    <ele>14.6</ele>
    <time>2019-09-04T14:08:42.000Z</time>
   </trkpt>
   <trkpt lat="-8.049256" lon="-34.900856">
    <ele>14.4</ele>
    <time>2019-09-04T14:08:43.000Z</time>
   </trkpt>
   <trkpt lat="-8.049287" lon="-34.900883">
    <ele>14.3</ele>
    <time>2019-09-04T14:08:44.000Z</time>
   </trkpt>
   <trkpt lat="-8.049324" lon="-34.900896">
    <ele>14.1</ele>
    <time>2019-09-04T14:08:45.000Z</time>
   </trkpt>
   <trkpt lat="-8.049358" lon="-34.900921">
    <ele>13.9</ele>
    <time>2019-09-04T14:08:46.000Z</time>
   </trkpt>
   <trkpt lat="-8.049407" lon="-34.900931">
    <ele>13.6</ele>
    <time>2019-09-04T14:08:47.000Z</time>
   </trkpt>
   <trkpt lat="-8.049441" lon="-34.90096">
    <ele>13.4</ele>
    <time>2019-09-04T14:08:48.000Z</time>
   </trkpt>
   <trkpt lat="-8.049495" lon="-34.900983">
    <ele>13.2</ele>
    <time>2019-09-04T14:08:49.000Z</time>
   </trkpt>
   <trkpt lat="-8.049553" lon="-34.901015">
    <ele>13.1</ele>
    <time>2019-09-04T14:08:50.000Z</time>
   </trkpt>
   <trkpt lat="-8.049596" lon="-34.901034">
    <ele>13.1</ele>
    <time>2019-09-04T14:08:51.000Z</time>
   </trkpt>
   <trkpt lat="-8.04964" lon="-34.901054">
    <ele>13</ele>
    <time>2019-09-04T14:08:52.000Z</time>
   </trkpt>
   <trkpt lat="-8.049693" lon="-34.901078">
    <ele>13</ele>
    <time>2019-09-04T14:08:53.000Z</time>
   </trkpt>
   <trkpt lat="-8.04975" lon="-34.901083">
    <ele>12.9</ele>
    <time>2019-09-04T14:08:54.000Z</time>
   </trkpt>
   <trkpt lat="-8.049802" lon="-34.901087">
    <ele>12.9</ele>
    <time>2019-09-04T14:08:55.000Z</time>
   </trkpt>
   <trkpt lat="-8.049843" lon="-34.901097">
    <ele>12.9</ele>
    <time>2019-09-04T14:08:56.000Z</time>
   </trkpt>
   <trkpt lat="-8.049897" lon="-34.901112">
    <ele>12.9</ele>
    <time>2019-09-04T14:08:57.000Z</time>
   </trkpt>
   <trkpt lat="-8.049957" lon="-34.901114">
    <ele>12.8</ele>
    <time>2019-09-04T14:08:58.000Z</time>
   </trkpt>
   <trkpt lat="-8.050014" lon="-34.901109">
    <ele>12.8</ele>
    <time>2019-09-04T14:08:59.000Z</time>
   </trkpt>
   <trkpt lat="-8.050077" lon="-34.901106">
    <ele>12.8</ele>
    <time>2019-09-04T14:09:00.000Z</time>
   </trkpt>
   <trkpt lat="-8.050125" lon="-34.901104">
    <ele>12.7</ele>
    <time>2019-09-04T14:09:01.000Z</time>
   </trkpt>
   <trkpt lat="-8.05018" lon="-34.901096">
    <ele>12.7</ele>
    <time>2019-09-04T14:09:02.000Z</time>
   </trkpt>
   <trkpt lat="-8.05023" lon="-34.901098">
    <ele>12.7</ele>
    <time>2019-09-04T14:09:03.000Z</time>
   </trkpt>
   <trkpt lat="-8.050285" lon="-34.9011">
    <ele>12.7</ele>
    <time>2019-09-04T14:09:04.000Z</time>
   </trkpt>
   <trkpt lat="-8.050329" lon="-34.901106">
    <ele>12.6</ele>
    <time>2019-09-04T14:09:05.000Z</time>
   </trkpt>
   <trkpt lat="-8.050389" lon="-34.901114">
    <ele>12.6</ele>
    <time>2019-09-04T14:09:06.000Z</time>
   </trkpt>
   <trkpt lat="-8.050438" lon="-34.901119">
    <ele>12.6</ele>
    <time>2019-09-04T14:09:07.000Z</time>
   </trkpt>
   <trkpt lat="-8.050497" lon="-34.901109">
    <ele>12.6</ele>
    <time>2019-09-04T14:09:08.000Z</time>
   </trkpt>
   <trkpt lat="-8.050554" lon="-34.901109">
    <ele>12.5</ele>
    <time>2019-09-04T14:09:09.000Z</time>
   </trkpt>
   <trkpt lat="-8.050598" lon="-34.901107">
    <ele>12.5</ele>
    <time>2019-09-04T14:09:10.000Z</time>
   </trkpt>
   <trkpt lat="-8.050641" lon="-34.901115">
    <ele>12.5</ele>
    <time>2019-09-04T14:09:11.000Z</time>
   </trkpt>
   <trkpt lat="-8.05068" lon="-34.901122">
    <ele>12.5</ele>
    <time>2019-09-04T14:09:12.000Z</time>
   </trkpt>
   <trkpt lat="-8.05072" lon="-34.901112">
    <ele>12.5</ele>
    <time>2019-09-04T14:09:13.000Z</time>
   </trkpt>
   <trkpt lat="-8.050764" lon="-34.901098">
    <ele>12.4</ele>
    <time>2019-09-04T14:09:14.000Z</time>
   </trkpt>
   <trkpt lat="-8.050807" lon="-34.901094">
    <ele>12.4</ele>
    <time>2019-09-04T14:09:15.000Z</time>
   </trkpt>
   <trkpt lat="-8.050847" lon="-34.901125">
    <ele>12.4</ele>
    <time>2019-09-04T14:09:17.000Z</time>
   </trkpt>
   <trkpt lat="-8.050853" lon="-34.901157">
    <ele>12.4</ele>
    <time>2019-09-04T14:09:18.000Z</time>
   </trkpt>
   <trkpt lat="-8.050857" lon="-34.901196">
    <ele>12.5</ele>
    <time>2019-09-04T14:09:19.000Z</time>
   </trkpt>
   <trkpt lat="-8.050853" lon="-34.901242">
    <ele>12.5</ele>
    <time>2019-09-04T14:09:20.000Z</time>
   </trkpt>
   <trkpt lat="-8.050848" lon="-34.90129">
    <ele>12.6</ele>
    <time>2019-09-04T14:09:21.000Z</time>
   </trkpt>
   <trkpt lat="-8.050845" lon="-34.901337">
    <ele>12.6</ele>
    <time>2019-09-04T14:09:22.000Z</time>
   </trkpt>
   <trkpt lat="-8.050838" lon="-34.901385">
    <ele>12.7</ele>
    <time>2019-09-04T14:09:23.000Z</time>
   </trkpt>
   <trkpt lat="-8.050838" lon="-34.901433">
    <ele>12.7</ele>
    <time>2019-09-04T14:09:24.000Z</time>
   </trkpt>
   <trkpt lat="-8.050836" lon="-34.901476">
    <ele>12.8</ele>
    <time>2019-09-04T14:09:25.000Z</time>
   </trkpt>
   <trkpt lat="-8.050828" lon="-34.901526">
    <ele>12.8</ele>
    <time>2019-09-04T14:09:26.000Z</time>
   </trkpt>
   <trkpt lat="-8.050824" lon="-34.901577">
    <ele>12.8</ele>
    <time>2019-09-04T14:09:27.000Z</time>
   </trkpt>
   <trkpt lat="-8.050818" lon="-34.901637">
    <ele>12.9</ele>
    <time>2019-09-04T14:09:28.000Z</time>
   </trkpt>
   <trkpt lat="-8.050817" lon="-34.901675">
    <ele>13</ele>
    <time>2019-09-04T14:09:29.000Z</time>
   </trkpt>
   <trkpt lat="-8.050809" lon="-34.90171">
    <ele>13</ele>
    <time>2019-09-04T14:09:30.000Z</time>
   </trkpt>
   <trkpt lat="-8.050806" lon="-34.901752">
    <ele>13.1</ele>
    <time>2019-09-04T14:09:31.000Z</time>
   </trkpt>
   <trkpt lat="-8.050802" lon="-34.901789">
    <ele>13.1</ele>
    <time>2019-09-04T14:09:32.000Z</time>
   </trkpt>
   <trkpt lat="-8.050798" lon="-34.901827">
    <ele>13.6</ele>
    <time>2019-09-04T14:09:33.000Z</time>
   </trkpt>
   <trkpt lat="-8.050795" lon="-34.901869">
    <ele>14</ele>
    <time>2019-09-04T14:09:34.000Z</time>
   </trkpt>
   <trkpt lat="-8.050801" lon="-34.901913">
    <ele>14.4</ele>
    <time>2019-09-04T14:09:35.000Z</time>
   </trkpt>
   <trkpt lat="-8.050811" lon="-34.901944">
    <ele>15</ele>
    <time>2019-09-04T14:09:36.000Z</time>
   </trkpt>
   <trkpt lat="-8.050833" lon="-34.90198">
    <ele>14.9</ele>
    <time>2019-09-04T14:09:37.000Z</time>
   </trkpt>
   <trkpt lat="-8.050891" lon="-34.901998">
    <ele>14.9</ele>
    <time>2019-09-04T14:09:38.000Z</time>
   </trkpt>
   <trkpt lat="-8.050939" lon="-34.901991">
    <ele>14.8</ele>
    <time>2019-09-04T14:09:39.000Z</time>
   </trkpt>
   <trkpt lat="-8.050978" lon="-34.901999">
    <ele>14.7</ele>
    <time>2019-09-04T14:09:40.000Z</time>
   </trkpt>
   <trkpt lat="-8.051022" lon="-34.902008">
    <ele>14.7</ele>
    <time>2019-09-04T14:09:41.000Z</time>
   </trkpt>
   <trkpt lat="-8.051077" lon="-34.902011">
    <ele>14.6</ele>
    <time>2019-09-04T14:09:42.000Z</time>
   </trkpt>
   <trkpt lat="-8.051132" lon="-34.902015">
    <ele>14.5</ele>
    <time>2019-09-04T14:09:43.000Z</time>
   </trkpt>
   <trkpt lat="-8.051182" lon="-34.902029">
    <ele>14.4</ele>
    <time>2019-09-04T14:09:44.000Z</time>
   </trkpt>
   <trkpt lat="-8.051242" lon="-34.902039">
    <ele>14.3</ele>
    <time>2019-09-04T14:09:45.000Z</time>
   </trkpt>
   <trkpt lat="-8.05129" lon="-34.902048">
    <ele>14.2</ele>
    <time>2019-09-04T14:09:46.000Z</time>
   </trkpt>
   <trkpt lat="-8.051336" lon="-34.902055">
    <ele>14.2</ele>
    <time>2019-09-04T14:09:47.000Z</time>
   </trkpt>
   <trkpt lat="-8.051382" lon="-34.902063">
    <ele>14.1</ele>
    <time>2019-09-04T14:09:48.000Z</time>
   </trkpt>
   <trkpt lat="-8.051423" lon="-34.902073">
    <ele>14</ele>
    <time>2019-09-04T14:09:49.000Z</time>
   </trkpt>
   <trkpt lat="-8.051468" lon="-34.902091">
    <ele>14</ele>
    <time>2019-09-04T14:09:50.000Z</time>
   </trkpt>
   <trkpt lat="-8.051514" lon="-34.902105">
    <ele>13.9</ele>
    <time>2019-09-04T14:09:51.000Z</time>
   </trkpt>
   <trkpt lat="-8.051562" lon="-34.902111">
    <ele>13.7</ele>
    <time>2019-09-04T14:09:52.000Z</time>
   </trkpt>
   <trkpt lat="-8.051616" lon="-34.902127">
    <ele>13.5</ele>
    <time>2019-09-04T14:09:53.000Z</time>
   </trkpt>
   <trkpt lat="-8.051659" lon="-34.902138">
    <ele>13.3</ele>
    <time>2019-09-04T14:09:54.000Z</time>
   </trkpt>
   <trkpt lat="-8.051709" lon="-34.902148">
    <ele>13</ele>
    <time>2019-09-04T14:09:55.000Z</time>
   </trkpt>
   <trkpt lat="-8.051761" lon="-34.902156">
    <ele>12.7</ele>
    <time>2019-09-04T14:09:56.000Z</time>
   </trkpt>
   <trkpt lat="-8.051801" lon="-34.902174">
    <ele>12.4</ele>
    <time>2019-09-04T14:09:57.000Z</time>
   </trkpt>
   <trkpt lat="-8.051844" lon="-34.902171">
    <ele>12.2</ele>
    <time>2019-09-04T14:09:58.000Z</time>
   </trkpt>
   <trkpt lat="-8.051879" lon="-34.902169">
    <ele>12.1</ele>
    <time>2019-09-04T14:09:59.000Z</time>
   </trkpt>
   <trkpt lat="-8.051917" lon="-34.902168">
    <ele>11.9</ele>
    <time>2019-09-04T14:10:00.000Z</time>
   </trkpt>
   <trkpt lat="-8.051957" lon="-34.902168">
    <ele>11.8</ele>
    <time>2019-09-04T14:10:01.000Z</time>
   </trkpt>
   <trkpt lat="-8.05199" lon="-34.90217">
    <ele>11.7</ele>
    <time>2019-09-04T14:10:02.000Z</time>
   </trkpt>
   <trkpt lat="-8.052035" lon="-34.902172">
    <ele>11.6</ele>
    <time>2019-09-04T14:10:03.000Z</time>
   </trkpt>
   <trkpt lat="-8.05207" lon="-34.902171">
    <ele>11.5</ele>
    <time>2019-09-04T14:10:04.000Z</time>
   </trkpt>
   <trkpt lat="-8.052107" lon="-34.902175">
    <ele>11.5</ele>
    <time>2019-09-04T14:10:05.000Z</time>
   </trkpt>
   <trkpt lat="-8.052133" lon="-34.902186">
    <ele>11.4</ele>
    <time>2019-09-04T14:10:06.000Z</time>
   </trkpt>
   <trkpt lat="-8.052173" lon="-34.902187">
    <ele>11.4</ele>
    <time>2019-09-04T14:10:07.000Z</time>
   </trkpt>
   <trkpt lat="-8.052215" lon="-34.902186">
    <ele>11.3</ele>
    <time>2019-09-04T14:10:08.000Z</time>
   </trkpt>
   <trkpt lat="-8.052247" lon="-34.902188">
    <ele>11.2</ele>
    <time>2019-09-04T14:10:09.000Z</time>
   </trkpt>
   <trkpt lat="-8.052279" lon="-34.902188">
    <ele>11.2</ele>
    <time>2019-09-04T14:10:10.000Z</time>
   </trkpt>
   <trkpt lat="-8.05231" lon="-34.902199">
    <ele>11.1</ele>
    <time>2019-09-04T14:10:11.000Z</time>
   </trkpt>
   <trkpt lat="-8.052349" lon="-34.902206">
    <ele>11.1</ele>
    <time>2019-09-04T14:10:12.000Z</time>
   </trkpt>
   <trkpt lat="-8.052378" lon="-34.902209">
    <ele>11</ele>
    <time>2019-09-04T14:10:13.000Z</time>
   </trkpt>
   <trkpt lat="-8.052418" lon="-34.902216">
    <ele>11</ele>
    <time>2019-09-04T14:10:15.000Z</time>
   </trkpt>
   <trkpt lat="-8.052449" lon="-34.902222">
    <ele>11</ele>
    <time>2019-09-04T14:10:17.000Z</time>
   </trkpt>
   <trkpt lat="-8.052478" lon="-34.902244">
    <ele>11</ele>
    <time>2019-09-04T14:10:19.000Z</time>
   </trkpt>
   <trkpt lat="-8.052508" lon="-34.902252">
    <ele>11</ele>
    <time>2019-09-04T14:10:21.000Z</time>
   </trkpt>
   <trkpt lat="-8.052535" lon="-34.902266">
    <ele>11</ele>
    <time>2019-09-04T14:10:29.000Z</time>
   </trkpt>
   <trkpt lat="-8.052565" lon="-34.902266">
    <ele>11</ele>
    <time>2019-09-04T14:10:33.000Z</time>
   </trkpt>
   <trkpt lat="-8.052561" lon="-34.902232">
    <ele>11</ele>
    <time>2019-09-04T14:10:37.000Z</time>
   </trkpt>
   <trkpt lat="-8.052615" lon="-34.902243">
    <ele>11</ele>
    <time>2019-09-04T14:11:20.000Z</time>
   </trkpt>
   <trkpt lat="-8.052679" lon="-34.902257">
    <ele>11</ele>
    <time>2019-09-04T14:11:22.000Z</time>
   </trkpt>
   <trkpt lat="-8.052709" lon="-34.90226">
    <ele>11</ele>
    <time>2019-09-04T14:11:23.000Z</time>
   </trkpt>
   <trkpt lat="-8.052752" lon="-34.902269">
    <ele>11</ele>
    <time>2019-09-04T14:11:24.000Z</time>
   </trkpt>
   <trkpt lat="-8.052808" lon="-34.902275">
    <ele>11</ele>
    <time>2019-09-04T14:11:25.000Z</time>
   </trkpt>
   <trkpt lat="-8.052852" lon="-34.902276">
    <ele>11.2</ele>
    <time>2019-09-04T14:11:26.000Z</time>
   </trkpt>
   <trkpt lat="-8.052891" lon="-34.902278">
    <ele>11.8</ele>
    <time>2019-09-04T14:11:27.000Z</time>
   </trkpt>
   <trkpt lat="-8.052937" lon="-34.902273">
    <ele>12.3</ele>
    <time>2019-09-04T14:11:28.000Z</time>
   </trkpt>
   <trkpt lat="-8.052996" lon="-34.902273">
    <ele>12.9</ele>
    <time>2019-09-04T14:11:29.000Z</time>
   </trkpt>
   <trkpt lat="-8.05305" lon="-34.902262">
    <ele>13.7</ele>
    <time>2019-09-04T14:11:30.000Z</time>
   </trkpt>
   <trkpt lat="-8.053097" lon="-34.902248">
    <ele>13.9</ele>
    <time>2019-09-04T14:11:31.000Z</time>
   </trkpt>
   <trkpt lat="-8.053146" lon="-34.90223">
    <ele>14.3</ele>
    <time>2019-09-04T14:11:32.000Z</time>
   </trkpt>
   <trkpt lat="-8.053193" lon="-34.902205">
    <ele>14.8</ele>
    <time>2019-09-04T14:11:33.000Z</time>
   </trkpt>
   <trkpt lat="-8.053233" lon="-34.902179">
    <ele>14.9</ele>
    <time>2019-09-04T14:11:34.000Z</time>
   </trkpt>
   <trkpt lat="-8.053269" lon="-34.902159">
    <ele>14.9</ele>
    <time>2019-09-04T14:11:35.000Z</time>
   </trkpt>
   <trkpt lat="-8.053314" lon="-34.902143">
    <ele>15.3</ele>
    <time>2019-09-04T14:11:36.000Z</time>
   </trkpt>
   <trkpt lat="-8.053356" lon="-34.902134">
    <ele>15.4</ele>
    <time>2019-09-04T14:11:37.000Z</time>
   </trkpt>
   <trkpt lat="-8.053394" lon="-34.902127">
    <ele>15.6</ele>
    <time>2019-09-04T14:11:38.000Z</time>
   </trkpt>
   <trkpt lat="-8.053441" lon="-34.902115">
    <ele>15.8</ele>
    <time>2019-09-04T14:11:40.000Z</time>
   </trkpt>
   <trkpt lat="-8.053484" lon="-34.902093">
    <ele>15.9</ele>
    <time>2019-09-04T14:11:42.000Z</time>
   </trkpt>
   <trkpt lat="-8.053544" lon="-34.902073">
    <ele>16.2</ele>
    <time>2019-09-04T14:11:44.000Z</time>
   </trkpt>
   <trkpt lat="-8.053585" lon="-34.902059">
    <ele>16.3</ele>
    <time>2019-09-04T14:11:45.000Z</time>
   </trkpt>
   <trkpt lat="-8.05362" lon="-34.902047">
    <ele>16.4</ele>
    <time>2019-09-04T14:11:46.000Z</time>
   </trkpt>
   <trkpt lat="-8.053666" lon="-34.902038">
    <ele>16.6</ele>
    <time>2019-09-04T14:11:47.000Z</time>
   </trkpt>
   <trkpt lat="-8.053714" lon="-34.902016">
    <ele>16.7</ele>
    <time>2019-09-04T14:11:48.000Z</time>
   </trkpt>
   <trkpt lat="-8.053756" lon="-34.902">
    <ele>16.9</ele>
    <time>2019-09-04T14:11:49.000Z</time>
   </trkpt>
   <trkpt lat="-8.053797" lon="-34.901997">
    <ele>15.8</ele>
    <time>2019-09-04T14:11:50.000Z</time>
   </trkpt>
   <trkpt lat="-8.053848" lon="-34.901978">
    <ele>14.8</ele>
    <time>2019-09-04T14:11:51.000Z</time>
   </trkpt>
   <trkpt lat="-8.053902" lon="-34.901956">
    <ele>13.8</ele>
    <time>2019-09-04T14:11:52.000Z</time>
   </trkpt>
   <trkpt lat="-8.053957" lon="-34.901943">
    <ele>12.8</ele>
    <time>2019-09-04T14:11:53.000Z</time>
   </trkpt>
   <trkpt lat="-8.054018" lon="-34.901933">
    <ele>11.8</ele>
    <time>2019-09-04T14:11:54.000Z</time>
   </trkpt>
   <trkpt lat="-8.054071" lon="-34.901917">
    <ele>10.8</ele>
    <time>2019-09-04T14:11:55.000Z</time>
   </trkpt>
   <trkpt lat="-8.054124" lon="-34.901899">
    <ele>9.9</ele>
    <time>2019-09-04T14:11:56.000Z</time>
   </trkpt>
   <trkpt lat="-8.054178" lon="-34.901883">
    <ele>9.4</ele>
    <time>2019-09-04T14:11:57.000Z</time>
   </trkpt>
   <trkpt lat="-8.054225" lon="-34.901863">
    <ele>9.1</ele>
    <time>2019-09-04T14:11:58.000Z</time>
   </trkpt>
   <trkpt lat="-8.054273" lon="-34.901853">
    <ele>9.2</ele>
    <time>2019-09-04T14:11:59.000Z</time>
   </trkpt>
   <trkpt lat="-8.054324" lon="-34.901834">
    <ele>9.5</ele>
    <time>2019-09-04T14:12:00.000Z</time>
   </trkpt>
   <trkpt lat="-8.054368" lon="-34.90182">
    <ele>9.7</ele>
    <time>2019-09-04T14:12:01.000Z</time>
   </trkpt>
   <trkpt lat="-8.054401" lon="-34.901812">
    <ele>9.9</ele>
    <time>2019-09-04T14:12:02.000Z</time>
   </trkpt>
   <trkpt lat="-8.054432" lon="-34.901803">
    <ele>9.9</ele>
    <time>2019-09-04T14:12:03.000Z</time>
   </trkpt>
   <trkpt lat="-8.054469" lon="-34.901788">
    <ele>10.1</ele>
    <time>2019-09-04T14:12:04.000Z</time>
   </trkpt>
   <trkpt lat="-8.054509" lon="-34.901772">
    <ele>10</ele>
    <time>2019-09-04T14:12:05.000Z</time>
   </trkpt>
   <trkpt lat="-8.05454" lon="-34.901744">
    <ele>9.7</ele>
    <time>2019-09-04T14:12:06.000Z</time>
   </trkpt>
   <trkpt lat="-8.054559" lon="-34.90169">
    <ele>9.7</ele>
    <time>2019-09-04T14:12:07.000Z</time>
   </trkpt>
   <trkpt lat="-8.054564" lon="-34.901632">
    <ele>9.6</ele>
    <time>2019-09-04T14:12:08.000Z</time>
   </trkpt>
   <trkpt lat="-8.054558" lon="-34.901574">
    <ele>9.5</ele>
    <time>2019-09-04T14:12:09.000Z</time>
   </trkpt>
   <trkpt lat="-8.054542" lon="-34.901531">
    <ele>9.5</ele>
    <time>2019-09-04T14:12:10.000Z</time>
   </trkpt>
   <trkpt lat="-8.054554" lon="-34.901493">
    <ele>10.4</ele>
    <time>2019-09-04T14:12:11.000Z</time>
   </trkpt>
   <trkpt lat="-8.054567" lon="-34.901455">
    <ele>10.8</ele>
    <time>2019-09-04T14:12:12.000Z</time>
   </trkpt>
   <trkpt lat="-8.054595" lon="-34.901424">
    <ele>11.1</ele>
    <time>2019-09-04T14:12:13.000Z</time>
   </trkpt>
   <trkpt lat="-8.054628" lon="-34.901399">
    <ele>11.4</ele>
    <time>2019-09-04T14:12:14.000Z</time>
   </trkpt>
   <trkpt lat="-8.054649" lon="-34.901379">
    <ele>11.6</ele>
    <time>2019-09-04T14:12:15.000Z</time>
   </trkpt>
   <trkpt lat="-8.054674" lon="-34.901342">
    <ele>11.9</ele>
    <time>2019-09-04T14:12:16.000Z</time>
   </trkpt>
   <trkpt lat="-8.054699" lon="-34.901319">
    <ele>12.1</ele>
    <time>2019-09-04T14:12:17.000Z</time>
   </trkpt>
   <trkpt lat="-8.054734" lon="-34.901288">
    <ele>12.3</ele>
    <time>2019-09-04T14:12:18.000Z</time>
   </trkpt>
   <trkpt lat="-8.054759" lon="-34.901258">
    <ele>12.6</ele>
    <time>2019-09-04T14:12:19.000Z</time>
   </trkpt>
   <trkpt lat="-8.054785" lon="-34.901228">
    <ele>12.8</ele>
    <time>2019-09-04T14:12:20.000Z</time>
   </trkpt>
   <trkpt lat="-8.054812" lon="-34.901194">
    <ele>13.1</ele>
    <time>2019-09-04T14:12:21.000Z</time>
   </trkpt>
   <trkpt lat="-8.054853" lon="-34.901158">
    <ele>13.5</ele>
    <time>2019-09-04T14:12:23.000Z</time>
   </trkpt>
   <trkpt lat="-8.05489" lon="-34.901114">
    <ele>13.9</ele>
    <time>2019-09-04T14:12:24.000Z</time>
   </trkpt>
   <trkpt lat="-8.054918" lon="-34.90108">
    <ele>14.2</ele>
    <time>2019-09-04T14:12:25.000Z</time>
   </trkpt>
   <trkpt lat="-8.054947" lon="-34.901047">
    <ele>14.4</ele>
    <time>2019-09-04T14:12:26.000Z</time>
   </trkpt>
   <trkpt lat="-8.054973" lon="-34.901014">
    <ele>14.6</ele>
    <time>2019-09-04T14:12:27.000Z</time>
   </trkpt>
   <trkpt lat="-8.055" lon="-34.900976">
    <ele>14.7</ele>
    <time>2019-09-04T14:12:28.000Z</time>
   </trkpt>
   <trkpt lat="-8.055023" lon="-34.900952">
    <ele>14.8</ele>
    <time>2019-09-04T14:12:29.000Z</time>
   </trkpt>
   <trkpt lat="-8.055048" lon="-34.900926">
    <ele>14.8</ele>
    <time>2019-09-04T14:12:30.000Z</time>
   </trkpt>
   <trkpt lat="-8.055077" lon="-34.900899">
    <ele>14.8</ele>
    <time>2019-09-04T14:12:31.000Z</time>
   </trkpt>
   <trkpt lat="-8.055105" lon="-34.900883">
    <ele>14.7</ele>
    <time>2019-09-04T14:12:32.000Z</time>
   </trkpt>
   <trkpt lat="-8.055132" lon="-34.900848">
    <ele>14.6</ele>
    <time>2019-09-04T14:12:33.000Z</time>
   </trkpt>
   <trkpt lat="-8.055166" lon="-34.900817">
    <ele>14.5</ele>
    <time>2019-09-04T14:12:34.000Z</time>
   </trkpt>
   <trkpt lat="-8.055203" lon="-34.900788">
    <ele>14.4</ele>
    <time>2019-09-04T14:12:35.000Z</time>
   </trkpt>
   <trkpt lat="-8.05525" lon="-34.900735">
    <ele>14.2</ele>
    <time>2019-09-04T14:12:37.000Z</time>
   </trkpt>
   <trkpt lat="-8.055273" lon="-34.900702">
    <ele>14.2</ele>
    <time>2019-09-04T14:12:38.000Z</time>
   </trkpt>
   <trkpt lat="-8.055296" lon="-34.900663">
    <ele>14.2</ele>
    <time>2019-09-04T14:12:39.000Z</time>
   </trkpt>
   <trkpt lat="-8.05531" lon="-34.900627">
    <ele>13.9</ele>
    <time>2019-09-04T14:12:40.000Z</time>
   </trkpt>
   <trkpt lat="-8.055321" lon="-34.900586">
    <ele>13.7</ele>
    <time>2019-09-04T14:12:41.000Z</time>
   </trkpt>
   <trkpt lat="-8.055343" lon="-34.900546">
    <ele>13.6</ele>
    <time>2019-09-04T14:12:42.000Z</time>
   </trkpt>
   <trkpt lat="-8.055343" lon="-34.900508">
    <ele>13.4</ele>
    <time>2019-09-04T14:12:43.000Z</time>
   </trkpt>
   <trkpt lat="-8.055343" lon="-34.900469">
    <ele>13.3</ele>
    <time>2019-09-04T14:12:44.000Z</time>
   </trkpt>
   <trkpt lat="-8.055343" lon="-34.900435">
    <ele>13.2</ele>
    <time>2019-09-04T14:12:45.000Z</time>
   </trkpt>
   <trkpt lat="-8.055342" lon="-34.900403">
    <ele>13.1</ele>
    <time>2019-09-04T14:12:46.000Z</time>
   </trkpt>
   <trkpt lat="-8.055344" lon="-34.90037">
    <ele>13</ele>
    <time>2019-09-04T14:12:47.000Z</time>
   </trkpt>
   <trkpt lat="-8.05535" lon="-34.900338">
    <ele>12.9</ele>
    <time>2019-09-04T14:12:48.000Z</time>
   </trkpt>
   <trkpt lat="-8.055347" lon="-34.900301">
    <ele>12.7</ele>
    <time>2019-09-04T14:12:49.000Z</time>
   </trkpt>
   <trkpt lat="-8.055338" lon="-34.900264">
    <ele>12.6</ele>
    <time>2019-09-04T14:12:50.000Z</time>
   </trkpt>
   <trkpt lat="-8.055338" lon="-34.900231">
    <ele>12.5</ele>
    <time>2019-09-04T14:12:51.000Z</time>
   </trkpt>
   <trkpt lat="-8.055369" lon="-34.900208">
    <ele>12.4</ele>
    <time>2019-09-04T14:12:56.000Z</time>
   </trkpt>
   <trkpt lat="-8.055357" lon="-34.900173">
    <ele>12.5</ele>
    <time>2019-09-04T14:12:58.000Z</time>
   </trkpt>
   <trkpt lat="-8.055391" lon="-34.900151">
    <ele>12.6</ele>
    <time>2019-09-04T14:13:00.000Z</time>
   </trkpt>
   <trkpt lat="-8.055425" lon="-34.900151">
    <ele>12.7</ele>
    <time>2019-09-04T14:13:01.000Z</time>
   </trkpt>
   <trkpt lat="-8.055459" lon="-34.900153">
    <ele>12.8</ele>
    <time>2019-09-04T14:13:02.000Z</time>
   </trkpt>
   <trkpt lat="-8.055493" lon="-34.900157">
    <ele>12.9</ele>
    <time>2019-09-04T14:13:03.000Z</time>
   </trkpt>
   <trkpt lat="-8.055522" lon="-34.900155">
    <ele>13</ele>
    <time>2019-09-04T14:13:04.000Z</time>
   </trkpt>
   <trkpt lat="-8.055554" lon="-34.900149">
    <ele>13</ele>
    <time>2019-09-04T14:13:05.000Z</time>
   </trkpt>
   <trkpt lat="-8.055589" lon="-34.90014">
    <ele>13.1</ele>
    <time>2019-09-04T14:13:06.000Z</time>
   </trkpt>
   <trkpt lat="-8.055623" lon="-34.90013">
    <ele>13.2</ele>
    <time>2019-09-04T14:13:07.000Z</time>
   </trkpt>
   <trkpt lat="-8.055658" lon="-34.900132">
    <ele>13.3</ele>
    <time>2019-09-04T14:13:08.000Z</time>
   </trkpt>
   <trkpt lat="-8.055708" lon="-34.900129">
    <ele>13.5</ele>
    <time>2019-09-04T14:13:09.000Z</time>
   </trkpt>
   <trkpt lat="-8.055758" lon="-34.900128">
    <ele>13.6</ele>
    <time>2019-09-04T14:13:10.000Z</time>
   </trkpt>
   <trkpt lat="-8.055803" lon="-34.900117">
    <ele>13.7</ele>
    <time>2019-09-04T14:13:11.000Z</time>
   </trkpt>
   <trkpt lat="-8.055842" lon="-34.900106">
    <ele>13.8</ele>
    <time>2019-09-04T14:13:12.000Z</time>
   </trkpt>
   <trkpt lat="-8.055888" lon="-34.900106">
    <ele>13.9</ele>
    <time>2019-09-04T14:13:13.000Z</time>
   </trkpt>
   <trkpt lat="-8.055927" lon="-34.900102">
    <ele>14</ele>
    <time>2019-09-04T14:13:14.000Z</time>
   </trkpt>
   <trkpt lat="-8.055971" lon="-34.900101">
    <ele>13.9</ele>
    <time>2019-09-04T14:13:15.000Z</time>
   </trkpt>
   <trkpt lat="-8.05601" lon="-34.900103">
    <ele>13.6</ele>
    <time>2019-09-04T14:13:16.000Z</time>
   </trkpt>
   <trkpt lat="-8.056045" lon="-34.900099">
    <ele>13.4</ele>
    <time>2019-09-04T14:13:17.000Z</time>
   </trkpt>
   <trkpt lat="-8.056089" lon="-34.900096">
    <ele>13.1</ele>
    <time>2019-09-04T14:13:18.000Z</time>
   </trkpt>
   <trkpt lat="-8.056133" lon="-34.900094">
    <ele>12.9</ele>
    <time>2019-09-04T14:13:19.000Z</time>
   </trkpt>
   <trkpt lat="-8.056171" lon="-34.900089">
    <ele>12.7</ele>
    <time>2019-09-04T14:13:20.000Z</time>
   </trkpt>
   <trkpt lat="-8.056206" lon="-34.90009">
    <ele>12.5</ele>
    <time>2019-09-04T14:13:21.000Z</time>
   </trkpt>
   <trkpt lat="-8.056242" lon="-34.900087">
    <ele>12.3</ele>
    <time>2019-09-04T14:13:22.000Z</time>
   </trkpt>
   <trkpt lat="-8.056279" lon="-34.90009">
    <ele>12.1</ele>
    <time>2019-09-04T14:13:23.000Z</time>
   </trkpt>
   <trkpt lat="-8.05632" lon="-34.900094">
    <ele>11.9</ele>
    <time>2019-09-04T14:13:24.000Z</time>
   </trkpt>
   <trkpt lat="-8.056359" lon="-34.900093">
    <ele>11.7</ele>
    <time>2019-09-04T14:13:25.000Z</time>
   </trkpt>
   <trkpt lat="-8.056396" lon="-34.900087">
    <ele>11.6</ele>
    <time>2019-09-04T14:13:26.000Z</time>
   </trkpt>
   <trkpt lat="-8.056424" lon="-34.900079">
    <ele>11.4</ele>
    <time>2019-09-04T14:13:27.000Z</time>
   </trkpt>
   <trkpt lat="-8.056452" lon="-34.900086">
    <ele>11.3</ele>
    <time>2019-09-04T14:13:28.000Z</time>
   </trkpt>
   <trkpt lat="-8.056483" lon="-34.900085">
    <ele>11.2</ele>
    <time>2019-09-04T14:13:29.000Z</time>
   </trkpt>
   <trkpt lat="-8.056516" lon="-34.900078">
    <ele>11.1</ele>
    <time>2019-09-04T14:13:30.000Z</time>
   </trkpt>
   <trkpt lat="-8.056543" lon="-34.900067">
    <ele>11</ele>
    <time>2019-09-04T14:13:31.000Z</time>
   </trkpt>
   <trkpt lat="-8.056571" lon="-34.900069">
    <ele>10.9</ele>
    <time>2019-09-04T14:13:32.000Z</time>
   </trkpt>
   <trkpt lat="-8.056609" lon="-34.900078">
    <ele>10.8</ele>
    <time>2019-09-04T14:13:34.000Z</time>
   </trkpt>
   <trkpt lat="-8.056639" lon="-34.900099">
    <ele>10.6</ele>
    <time>2019-09-04T14:13:49.000Z</time>
   </trkpt>
   <trkpt lat="-8.056666" lon="-34.900106">
    <ele>10.6</ele>
    <time>2019-09-04T14:13:50.000Z</time>
   </trkpt>
   <trkpt lat="-8.056707" lon="-34.900094">
    <ele>10.4</ele>
    <time>2019-09-04T14:13:51.000Z</time>
   </trkpt>
   <trkpt lat="-8.056747" lon="-34.900091">
    <ele>10.3</ele>
    <time>2019-09-04T14:13:52.000Z</time>
   </trkpt>
   <trkpt lat="-8.056793" lon="-34.90009">
    <ele>10.1</ele>
    <time>2019-09-04T14:13:53.000Z</time>
   </trkpt>
   <trkpt lat="-8.056839" lon="-34.900093">
    <ele>9.9</ele>
    <time>2019-09-04T14:13:54.000Z</time>
   </trkpt>
   <trkpt lat="-8.056896" lon="-34.900089">
    <ele>9.7</ele>
    <time>2019-09-04T14:13:55.000Z</time>
   </trkpt>
   <trkpt lat="-8.056943" lon="-34.900095">
    <ele>9.5</ele>
    <time>2019-09-04T14:13:56.000Z</time>
   </trkpt>
   <trkpt lat="-8.056984" lon="-34.900095">
    <ele>9.4</ele>
    <time>2019-09-04T14:13:57.000Z</time>
   </trkpt>
   <trkpt lat="-8.057034" lon="-34.900098">
    <ele>9.4</ele>
    <time>2019-09-04T14:13:58.000Z</time>
   </trkpt>
   <trkpt lat="-8.057078" lon="-34.900097">
    <ele>9.4</ele>
    <time>2019-09-04T14:13:59.000Z</time>
   </trkpt>
   <trkpt lat="-8.057121" lon="-34.900097">
    <ele>9.4</ele>
    <time>2019-09-04T14:14:00.000Z</time>
   </trkpt>
   <trkpt lat="-8.05716" lon="-34.900099">
    <ele>9.5</ele>
    <time>2019-09-04T14:14:01.000Z</time>
   </trkpt>
   <trkpt lat="-8.057206" lon="-34.900094">
    <ele>9.6</ele>
    <time>2019-09-04T14:14:02.000Z</time>
   </trkpt>
   <trkpt lat="-8.057255" lon="-34.900088">
    <ele>9.8</ele>
    <time>2019-09-04T14:14:03.000Z</time>
   </trkpt>
   <trkpt lat="-8.057302" lon="-34.900087">
    <ele>9.9</ele>
    <time>2019-09-04T14:14:04.000Z</time>
   </trkpt>
   <trkpt lat="-8.057347" lon="-34.900082">
    <ele>10</ele>
    <time>2019-09-04T14:14:05.000Z</time>
   </trkpt>
   <trkpt lat="-8.057396" lon="-34.90008">
    <ele>10.2</ele>
    <time>2019-09-04T14:14:06.000Z</time>
   </trkpt>
   <trkpt lat="-8.057429" lon="-34.900077">
    <ele>10.3</ele>
    <time>2019-09-04T14:14:07.000Z</time>
   </trkpt>
   <trkpt lat="-8.057481" lon="-34.900068">
    <ele>10.3</ele>
    <time>2019-09-04T14:14:08.000Z</time>
   </trkpt>
   <trkpt lat="-8.057519" lon="-34.900011">
    <ele>9.7</ele>
    <time>2019-09-04T14:14:10.000Z</time>
   </trkpt>
   <trkpt lat="-8.057532" lon="-34.899979">
    <ele>9.5</ele>
    <time>2019-09-04T14:14:11.000Z</time>
   </trkpt>
   <trkpt lat="-8.057537" lon="-34.899951">
    <ele>9.3</ele>
    <time>2019-09-04T14:14:12.000Z</time>
   </trkpt>
   <trkpt lat="-8.057539" lon="-34.899921">
    <ele>9.1</ele>
    <time>2019-09-04T14:14:13.000Z</time>
   </trkpt>
   <trkpt lat="-8.057536" lon="-34.899888">
    <ele>8.9</ele>
    <time>2019-09-04T14:14:14.000Z</time>
   </trkpt>
   <trkpt lat="-8.05754" lon="-34.899854">
    <ele>8.7</ele>
    <time>2019-09-04T14:14:15.000Z</time>
   </trkpt>
   <trkpt lat="-8.05754" lon="-34.899811">
    <ele>8.5</ele>
    <time>2019-09-04T14:14:16.000Z</time>
   </trkpt>
   <trkpt lat="-8.057534" lon="-34.899765">
    <ele>8.3</ele>
    <time>2019-09-04T14:14:17.000Z</time>
   </trkpt>
   <trkpt lat="-8.05753" lon="-34.899721">
    <ele>8.1</ele>
    <time>2019-09-04T14:14:18.000Z</time>
   </trkpt>
   <trkpt lat="-8.057524" lon="-34.899681">
    <ele>7.8</ele>
    <time>2019-09-04T14:14:19.000Z</time>
   </trkpt>
   <trkpt lat="-8.057518" lon="-34.899647">
    <ele>7.6</ele>
    <time>2019-09-04T14:14:20.000Z</time>
   </trkpt>
   <trkpt lat="-8.057523" lon="-34.899619">
    <ele>7.4</ele>
    <time>2019-09-04T14:14:21.000Z</time>
   </trkpt>
   <trkpt lat="-8.057526" lon="-34.899562">
    <ele>7.2</ele>
    <time>2019-09-04T14:14:23.000Z</time>
   </trkpt>
   <trkpt lat="-8.057528" lon="-34.899535">
    <ele>7.2</ele>
    <time>2019-09-04T14:14:24.000Z</time>
   </trkpt>
   <trkpt lat="-8.057527" lon="-34.899498">
    <ele>7.2</ele>
    <time>2019-09-04T14:14:25.000Z</time>
   </trkpt>
   <trkpt lat="-8.057512" lon="-34.899469">
    <ele>7.1</ele>
    <time>2019-09-04T14:14:26.000Z</time>
   </trkpt>
   <trkpt lat="-8.057515" lon="-34.899427">
    <ele>7</ele>
    <time>2019-09-04T14:14:27.000Z</time>
   </trkpt>
   <trkpt lat="-8.05752" lon="-34.899392">
    <ele>7</ele>
    <time>2019-09-04T14:14:28.000Z</time>
   </trkpt>
   <trkpt lat="-8.05752" lon="-34.899347">
    <ele>6.9</ele>
    <time>2019-09-04T14:14:30.000Z</time>
   </trkpt>
   <trkpt lat="-8.057516" lon="-34.899301">
    <ele>6.8</ele>
    <time>2019-09-04T14:14:32.000Z</time>
   </trkpt>
   <trkpt lat="-8.057531" lon="-34.899235">
    <ele>6.8</ele>
    <time>2019-09-04T14:14:34.000Z</time>
   </trkpt>
   <trkpt lat="-8.057541" lon="-34.8992">
    <ele>6.7</ele>
    <time>2019-09-04T14:14:35.000Z</time>
   </trkpt>
   <trkpt lat="-8.057567" lon="-34.899172">
    <ele>6.6</ele>
    <time>2019-09-04T14:14:36.000Z</time>
   </trkpt>
   <trkpt lat="-8.0576" lon="-34.899159">
    <ele>6.6</ele>
    <time>2019-09-04T14:14:38.000Z</time>
   </trkpt>
   <trkpt lat="-8.057629" lon="-34.899163">
    <ele>6.6</ele>
    <time>2019-09-04T14:14:44.000Z</time>
   </trkpt>
   <trkpt lat="-8.057655" lon="-34.899184">
    <ele>6.5</ele>
    <time>2019-09-04T14:14:47.000Z</time>
   </trkpt>
   <trkpt lat="-8.057684" lon="-34.899199">
    <ele>6.5</ele>
    <time>2019-09-04T14:14:50.000Z</time>
   </trkpt>
   <trkpt lat="-8.057707" lon="-34.899184">
    <ele>6.4</ele>
    <time>2019-09-04T14:14:53.000Z</time>
   </trkpt>
   <trkpt lat="-8.057732" lon="-34.899164">
    <ele>6.4</ele>
    <time>2019-09-04T14:14:56.000Z</time>
   </trkpt>
   <trkpt lat="-8.057777" lon="-34.899151">
    <ele>6.3</ele>
    <time>2019-09-04T14:14:59.000Z</time>
   </trkpt>
   <trkpt lat="-8.057811" lon="-34.899145">
    <ele>6.3</ele>
    <time>2019-09-04T14:15:01.000Z</time>
   </trkpt>
   <trkpt lat="-8.057844" lon="-34.899139">
    <ele>6.3</ele>
    <time>2019-09-04T14:15:04.000Z</time>
   </trkpt>
   <trkpt lat="-8.057855" lon="-34.89911">
    <ele>6.4</ele>
    <time>2019-09-04T14:15:07.000Z</time>
   </trkpt>
   <trkpt lat="-8.057535" lon="-34.898531">
    <ele>10</ele>
    <time>2019-09-04T14:15:24.000Z</time>
   </trkpt>
   <trkpt lat="-8.057507" lon="-34.898494">
    <ele>10.1</ele>
    <time>2019-09-04T14:15:27.000Z</time>
   </trkpt>
   <trkpt lat="-8.057906" lon="-34.898717">
    <ele>11.1</ele>
    <time>2019-09-04T14:15:31.000Z</time>
   </trkpt>
   <trkpt lat="-8.057972" lon="-34.898679">
    <ele>10.7</ele>
    <time>2019-09-04T14:15:36.000Z</time>
   </trkpt>
   <trkpt lat="-8.057946" lon="-34.898672">
    <ele>10.6</ele>
    <time>2019-09-04T14:15:41.000Z</time>
   </trkpt>
  </trkseg>
 </trk>
</gpx>
