<?xml version="1.0" encoding="UTF-8"?>
<gpx creator="StravaGPX" version="1.1" xmlns="http://www.topografix.com/GPX/1/1">
 <metadata>
  <time>2025-07-14T19:14:24Z</time>
 </metadata>
 <trk>
  <name>Night Ride</name>
  <type>1</type>
  <trkseg>
   <trkpt lat="52.50359" lon="13.408327">
    <ele>38</ele>
    <time>2025-07-14T19:14:24.000Z</time>
   </trkpt>
   <trkpt lat="52.503579" lon="13.408322">
    <ele>38.2</ele>
    <time>2025-07-14T19:14:25.000Z</time>
   </trkpt>
   <trkpt lat="52.503586" lon="13.408308">
    <ele>38.8</ele>
    <time>2025-07-14T19:14:28.000Z</time>
   </trkpt>
   <trkpt lat="52.5036" lon="13.408277">
    <ele>38.4</ele>
    <time>2025-07-14T19:14:30.000Z</time>
   </trkpt>
   <trkpt lat="52.503597" lon="13.408257">
    <ele>38.2</ele>
    <time>2025-07-14T19:14:32.000Z</time>
   </trkpt>
   <trkpt lat="52.503585" lon="13.408254">
    <ele>38.4</ele>
    <time>2025-07-14T19:14:33.000Z</time>
   </trkpt>
   <trkpt lat="52.503584" lon="13.408251">
    <ele>38.2</ele>
    <time>2025-07-14T19:14:34.000Z</time>
   </trkpt>
   <trkpt lat="52.503584" lon="13.408251">
    <ele>38.4</ele>
    <time>2025-07-14T19:14:38.000Z</time>
   </trkpt>
   <trkpt lat="52.503406" lon="13.407177">
    <ele>38.4</ele>
    <time>2025-07-14T19:14:52.000Z</time>
   </trkpt>
   <trkpt lat="52.503523" lon="13.407254">
    <ele>38.4</ele>
    <time>2025-07-14T19:14:56.000Z</time>
   </trkpt>
   <trkpt lat="52.503753" lon="13.407491">
    <ele>38.4</ele>
    <time>2025-07-14T19:15:03.000Z</time>
   </trkpt>
   <trkpt lat="52.503826" lon="13.407562">
    <ele>38.4</ele>
    <time>2025-07-14T19:15:05.000Z</time>
   </trkpt>
   <trkpt lat="52.503971" lon="13.407692">
    <ele>38.2</ele>
    <time>2025-07-14T19:15:10.000Z</time>
   </trkpt>
   <trkpt lat="52.504024" lon="13.407757">
    <ele>38.2</ele>
    <time>2025-07-14T19:15:12.000Z</time>
   </trkpt>
   <trkpt lat="52.504094" lon="13.407841">
    <ele>38</ele>
    <time>2025-07-14T19:15:15.000Z</time>
   </trkpt>
   <trkpt lat="52.504234" lon="13.407973">
    <ele>38</ele>
    <time>2025-07-14T19:15:20.000Z</time>
   </trkpt>
   <trkpt lat="52.504249" lon="13.408007">
    <ele>38</ele>
    <time>2025-07-14T19:15:21.000Z</time>
   </trkpt>
   <trkpt lat="52.504258" lon="13.408079">
    <ele>38</ele>
    <time>2025-07-14T19:15:23.000Z</time>
   </trkpt>
   <trkpt lat="52.504193" lon="13.408365">
    <ele>37.8</ele>
    <time>2025-07-14T19:15:29.000Z</time>
   </trkpt>
   <trkpt lat="52.504103" lon="13.408718">
    <ele>38</ele>
    <time>2025-07-14T19:15:36.000Z</time>
   </trkpt>
   <trkpt lat="52.504099" lon="13.40877">
    <ele>38</ele>
    <time>2025-07-14T19:15:37.000Z</time>
   </trkpt>
   <trkpt lat="52.504135" lon="13.408868">
    <ele>38</ele>
    <time>2025-07-14T19:15:39.000Z</time>
   </trkpt>
   <trkpt lat="52.504163" lon="13.408923">
    <ele>38</ele>
    <time>2025-07-14T19:15:40.000Z</time>
   </trkpt>
   <trkpt lat="52.504168" lon="13.408981">
    <ele>38</ele>
    <time>2025-07-14T19:15:41.000Z</time>
   </trkpt>
   <trkpt lat="52.504171" lon="13.40908">
    <ele>38</ele>
    <time>2025-07-14T19:15:43.000Z</time>
   </trkpt>
   <trkpt lat="52.504108" lon="13.409326">
    <ele>38</ele>
    <time>2025-07-14T19:15:47.000Z</time>
   </trkpt>
   <trkpt lat="52.504058" lon="13.409529">
    <ele>38</ele>
    <time>2025-07-14T19:15:50.000Z</time>
   </trkpt>
   <trkpt lat="52.504041" lon="13.409655">
    <ele>38</ele>
    <time>2025-07-14T19:15:52.000Z</time>
   </trkpt>
   <trkpt lat="52.504014" lon="13.409773">
    <ele>38</ele>
    <time>2025-07-14T19:15:54.000Z</time>
   </trkpt>
   <trkpt lat="52.503884" lon="13.410057">
    <ele>37.8</ele>
    <time>2025-07-14T19:15:59.000Z</time>
   </trkpt>
   <trkpt lat="52.503768" lon="13.41019">
    <ele>37.6</ele>
    <time>2025-07-14T19:16:02.000Z</time>
   </trkpt>
   <trkpt lat="52.503689" lon="13.410253">
    <ele>37.6</ele>
    <time>2025-07-14T19:16:04.000Z</time>
   </trkpt>
   <trkpt lat="52.503449" lon="13.410395">
    <ele>37.4</ele>
    <time>2025-07-14T19:16:10.000Z</time>
   </trkpt>
   <trkpt lat="52.503388" lon="13.41047">
    <ele>37.4</ele>
    <time>2025-07-14T19:16:12.000Z</time>
   </trkpt>
   <trkpt lat="52.50338" lon="13.410601">
    <ele>37.4</ele>
    <time>2025-07-14T19:16:14.000Z</time>
   </trkpt>
   <trkpt lat="52.503401" lon="13.410739">
    <ele>37.4</ele>
    <time>2025-07-14T19:16:16.000Z</time>
   </trkpt>
   <trkpt lat="52.503445" lon="13.410941">
    <ele>37.4</ele>
    <time>2025-07-14T19:16:19.000Z</time>
   </trkpt>
   <trkpt lat="52.503456" lon="13.411012">
    <ele>37.4</ele>
    <time>2025-07-14T19:16:20.000Z</time>
   </trkpt>
   <trkpt lat="52.503457" lon="13.411162">
    <ele>37.6</ele>
    <time>2025-07-14T19:16:22.000Z</time>
   </trkpt>
   <trkpt lat="52.503445" lon="13.411229">
    <ele>37.8</ele>
    <time>2025-07-14T19:16:23.000Z</time>
   </trkpt>
   <trkpt lat="52.503431" lon="13.411303">
    <ele>37.8</ele>
    <time>2025-07-14T19:16:24.000Z</time>
   </trkpt>
   <trkpt lat="52.503403" lon="13.411431">
    <ele>37.8</ele>
    <time>2025-07-14T19:16:26.000Z</time>
   </trkpt>
   <trkpt lat="52.503367" lon="13.411582">
    <ele>37.8</ele>
    <time>2025-07-14T19:16:28.000Z</time>
   </trkpt>
   <trkpt lat="52.503325" lon="13.411774">
    <ele>38</ele>
    <time>2025-07-14T19:16:31.000Z</time>
   </trkpt>
   <trkpt lat="52.503252" lon="13.412056">
    <ele>38</ele>
    <time>2025-07-14T19:16:35.000Z</time>
   </trkpt>
   <trkpt lat="52.503095" lon="13.412564">
    <ele>38</ele>
    <time>2025-07-14T19:16:42.000Z</time>
   </trkpt>
   <trkpt lat="52.503006" lon="13.412946">
    <ele>37.8</ele>
    <time>2025-07-14T19:16:47.000Z</time>
   </trkpt>
   <trkpt lat="52.502964" lon="13.413096">
    <ele>37.8</ele>
    <time>2025-07-14T19:16:49.000Z</time>
   </trkpt>
   <trkpt lat="52.502879" lon="13.413385">
    <ele>38</ele>
    <time>2025-07-14T19:16:53.000Z</time>
   </trkpt>
   <trkpt lat="52.502817" lon="13.413504">
    <ele>38</ele>
    <time>2025-07-14T19:16:55.000Z</time>
   </trkpt>
   <trkpt lat="52.502719" lon="13.41377">
    <ele>38</ele>
    <time>2025-07-14T19:16:59.000Z</time>
   </trkpt>
   <trkpt lat="52.50265" lon="13.413949">
    <ele>38</ele>
    <time>2025-07-14T19:17:02.000Z</time>
   </trkpt>
   <trkpt lat="52.50263" lon="13.414027">
    <ele>38.2</ele>
    <time>2025-07-14T19:17:03.000Z</time>
   </trkpt>
   <trkpt lat="52.502535" lon="13.414309">
    <ele>38.2</ele>
    <time>2025-07-14T19:17:08.000Z</time>
   </trkpt>
   <trkpt lat="52.502521" lon="13.414366">
    <ele>38.2</ele>
    <time>2025-07-14T19:17:09.000Z</time>
   </trkpt>
   <trkpt lat="52.502471" lon="13.414451">
    <ele>38.2</ele>
    <time>2025-07-14T19:17:11.000Z</time>
   </trkpt>
   <trkpt lat="52.502483" lon="13.414492">
    <ele>38.2</ele>
    <time>2025-07-14T19:17:12.000Z</time>
   </trkpt>
   <trkpt lat="52.502427" lon="13.414604">
    <ele>38</ele>
    <time>2025-07-14T19:17:14.000Z</time>
   </trkpt>
   <trkpt lat="52.502338" lon="13.414784">
    <ele>38.2</ele>
    <time>2025-07-14T19:17:17.000Z</time>
   </trkpt>
   <trkpt lat="52.502321" lon="13.414819">
    <ele>38.2</ele>
    <time>2025-07-14T19:17:18.000Z</time>
   </trkpt>
   <trkpt lat="52.502297" lon="13.414867">
    <ele>38.2</ele>
    <time>2025-07-14T19:17:20.000Z</time>
   </trkpt>
   <trkpt lat="52.50225" lon="13.414957">
    <ele>38</ele>
    <time>2025-07-14T19:17:22.000Z</time>
   </trkpt>
   <trkpt lat="52.502221" lon="13.415086">
    <ele>38</ele>
    <time>2025-07-14T19:17:24.000Z</time>
   </trkpt>
   <trkpt lat="52.502124" lon="13.415456">
    <ele>38</ele>
    <time>2025-07-14T19:17:28.000Z</time>
   </trkpt>
   <trkpt lat="52.50201" lon="13.416082">
    <ele>37.8</ele>
    <time>2025-07-14T19:17:36.000Z</time>
   </trkpt>
   <trkpt lat="52.501985" lon="13.416238">
    <ele>37.8</ele>
    <time>2025-07-14T19:17:41.000Z</time>
   </trkpt>
   <trkpt lat="52.501981" lon="13.416265">
    <ele>38</ele>
    <time>2025-07-14T19:17:44.000Z</time>
   </trkpt>
   <trkpt lat="52.501976" lon="13.416278">
    <ele>38</ele>
    <time>2025-07-14T19:17:47.000Z</time>
   </trkpt>
   <trkpt lat="52.501979" lon="13.416365">
    <ele>38</ele>
    <time>2025-07-14T19:17:51.000Z</time>
   </trkpt>
   <trkpt lat="52.501994" lon="13.416522">
    <ele>37.8</ele>
    <time>2025-07-14T19:17:55.000Z</time>
   </trkpt>
   <trkpt lat="52.501986" lon="13.416562">
    <ele>37.8</ele>
    <time>2025-07-14T19:17:56.000Z</time>
   </trkpt>
   <trkpt lat="52.501973" lon="13.41667">
    <ele>37.8</ele>
    <time>2025-07-14T19:17:58.000Z</time>
   </trkpt>
   <trkpt lat="52.501941" lon="13.416786">
    <ele>37.8</ele>
    <time>2025-07-14T19:18:00.000Z</time>
   </trkpt>
   <trkpt lat="52.501923" lon="13.416854">
    <ele>37.8</ele>
    <time>2025-07-14T19:18:01.000Z</time>
   </trkpt>
   <trkpt lat="52.50188" lon="13.416989">
    <ele>37.8</ele>
    <time>2025-07-14T19:18:03.000Z</time>
   </trkpt>
   <trkpt lat="52.501861" lon="13.417061">
    <ele>37.6</ele>
    <time>2025-07-14T19:18:04.000Z</time>
   </trkpt>
   <trkpt lat="52.501746" lon="13.417508">
    <ele>37.6</ele>
    <time>2025-07-14T19:18:10.000Z</time>
   </trkpt>
   <trkpt lat="52.501728" lon="13.417576">
    <ele>37.6</ele>
    <time>2025-07-14T19:18:11.000Z</time>
   </trkpt>
   <trkpt lat="52.501676" lon="13.417769">
    <ele>37.6</ele>
    <time>2025-07-14T19:18:14.000Z</time>
   </trkpt>
   <trkpt lat="52.501622" lon="13.417935">
    <ele>37.4</ele>
    <time>2025-07-14T19:18:17.000Z</time>
   </trkpt>
   <trkpt lat="52.501565" lon="13.418225">
    <ele>37.6</ele>
    <time>2025-07-14T19:18:22.000Z</time>
   </trkpt>
   <trkpt lat="52.50154" lon="13.418331">
    <ele>37.4</ele>
    <time>2025-07-14T19:18:24.000Z</time>
   </trkpt>
   <trkpt lat="52.501501" lon="13.418467">
    <ele>37.6</ele>
    <time>2025-07-14T19:18:27.000Z</time>
   </trkpt>
   <trkpt lat="52.501495" lon="13.418522">
    <ele>37.6</ele>
    <time>2025-07-14T19:18:28.000Z</time>
   </trkpt>
   <trkpt lat="52.501467" lon="13.418642">
    <ele>37.6</ele>
    <time>2025-07-14T19:18:30.000Z</time>
   </trkpt>
   <trkpt lat="52.501396" lon="13.418829">
    <ele>37.6</ele>
    <time>2025-07-14T19:18:33.000Z</time>
   </trkpt>
   <trkpt lat="52.501375" lon="13.418983">
    <ele>37.6</ele>
    <time>2025-07-14T19:18:36.000Z</time>
   </trkpt>
   <trkpt lat="52.501335" lon="13.419116">
    <ele>37.6</ele>
    <time>2025-07-14T19:18:38.000Z</time>
   </trkpt>
   <trkpt lat="52.501272" lon="13.419318">
    <ele>37.4</ele>
    <time>2025-07-14T19:18:41.000Z</time>
   </trkpt>
   <trkpt lat="52.501265" lon="13.419453">
    <ele>37.4</ele>
    <time>2025-07-14T19:18:43.000Z</time>
   </trkpt>
   <trkpt lat="52.501227" lon="13.419602">
    <ele>37.4</ele>
    <time>2025-07-14T19:18:45.000Z</time>
   </trkpt>
   <trkpt lat="52.501178" lon="13.419761">
    <ele>37.4</ele>
    <time>2025-07-14T19:18:47.000Z</time>
   </trkpt>
   <trkpt lat="52.501082" lon="13.420091">
    <ele>37.4</ele>
    <time>2025-07-14T19:18:51.000Z</time>
   </trkpt>
   <trkpt lat="52.501028" lon="13.420258">
    <ele>37.4</ele>
    <time>2025-07-14T19:18:53.000Z</time>
   </trkpt>
   <trkpt lat="52.500977" lon="13.420429">
    <ele>37.2</ele>
    <time>2025-07-14T19:18:55.000Z</time>
   </trkpt>
   <trkpt lat="52.500901" lon="13.420681">
    <ele>37</ele>
    <time>2025-07-14T19:18:58.000Z</time>
   </trkpt>
   <trkpt lat="52.500805" lon="13.421021">
    <ele>37.6</ele>
    <time>2025-07-14T19:19:02.000Z</time>
   </trkpt>
   <trkpt lat="52.50078" lon="13.421105">
    <ele>37.6</ele>
    <time>2025-07-14T19:19:03.000Z</time>
   </trkpt>
   <trkpt lat="52.500766" lon="13.421193">
    <ele>37.6</ele>
    <time>2025-07-14T19:19:04.000Z</time>
   </trkpt>
   <trkpt lat="52.50068" lon="13.421544">
    <ele>37.6</ele>
    <time>2025-07-14T19:19:09.000Z</time>
   </trkpt>
   <trkpt lat="52.500609" lon="13.42193">
    <ele>37.2</ele>
    <time>2025-07-14T19:19:14.000Z</time>
   </trkpt>
   <trkpt lat="52.500559" lon="13.422091">
    <ele>37.2</ele>
    <time>2025-07-14T19:19:16.000Z</time>
   </trkpt>
   <trkpt lat="52.500446" lon="13.422332">
    <ele>37.4</ele>
    <time>2025-07-14T19:19:19.000Z</time>
   </trkpt>
   <trkpt lat="52.500405" lon="13.422509">
    <ele>37.4</ele>
    <time>2025-07-14T19:19:21.000Z</time>
   </trkpt>
   <trkpt lat="52.500295" lon="13.422714">
    <ele>37.6</ele>
    <time>2025-07-14T19:19:24.000Z</time>
   </trkpt>
   <trkpt lat="52.500276" lon="13.422794">
    <ele>37.6</ele>
    <time>2025-07-14T19:19:25.000Z</time>
   </trkpt>
   <trkpt lat="52.500176" lon="13.423189">
    <ele>37.8</ele>
    <time>2025-07-14T19:19:30.000Z</time>
   </trkpt>
   <trkpt lat="52.50015" lon="13.423272">
    <ele>37.8</ele>
    <time>2025-07-14T19:19:31.000Z</time>
   </trkpt>
   <trkpt lat="52.500078" lon="13.423577">
    <ele>37.8</ele>
    <time>2025-07-14T19:19:35.000Z</time>
   </trkpt>
   <trkpt lat="52.500024" lon="13.423704">
    <ele>37.8</ele>
    <time>2025-07-14T19:19:37.000Z</time>
   </trkpt>
   <trkpt lat="52.499984" lon="13.423876">
    <ele>37.8</ele>
    <time>2025-07-14T19:19:39.000Z</time>
   </trkpt>
   <trkpt lat="52.499839" lon="13.424433">
    <ele>37.8</ele>
    <time>2025-07-14T19:19:46.000Z</time>
   </trkpt>
   <trkpt lat="52.499786" lon="13.424667">
    <ele>37.8</ele>
    <time>2025-07-14T19:19:49.000Z</time>
   </trkpt>
   <trkpt lat="52.499718" lon="13.42493">
    <ele>37.8</ele>
    <time>2025-07-14T19:19:53.000Z</time>
   </trkpt>
   <trkpt lat="52.499621" lon="13.425333">
    <ele>37.8</ele>
    <time>2025-07-14T19:19:59.000Z</time>
   </trkpt>
   <trkpt lat="52.499566" lon="13.425522">
    <ele>37.8</ele>
    <time>2025-07-14T19:20:02.000Z</time>
   </trkpt>
   <trkpt lat="52.499505" lon="13.425742">
    <ele>37.8</ele>
    <time>2025-07-14T19:20:06.000Z</time>
   </trkpt>
   <trkpt lat="52.49944" lon="13.425921">
    <ele>37.8</ele>
    <time>2025-07-14T19:20:11.000Z</time>
   </trkpt>
   <trkpt lat="52.499426" lon="13.425999">
    <ele>37.8</ele>
    <time>2025-07-14T19:20:15.000Z</time>
   </trkpt>
   <trkpt lat="52.499421" lon="13.426024">
    <ele>37.8</ele>
    <time>2025-07-14T19:20:17.000Z</time>
   </trkpt>
   <trkpt lat="52.499408" lon="13.42604">
    <ele>37.8</ele>
    <time>2025-07-14T19:20:18.000Z</time>
   </trkpt>
   <trkpt lat="52.499363" lon="13.426194">
    <ele>38</ele>
    <time>2025-07-14T19:20:23.000Z</time>
   </trkpt>
   <trkpt lat="52.499281" lon="13.426374">
    <ele>38</ele>
    <time>2025-07-14T19:20:27.000Z</time>
   </trkpt>
   <trkpt lat="52.499273" lon="13.426416">
    <ele>38</ele>
    <time>2025-07-14T19:20:28.000Z</time>
   </trkpt>
   <trkpt lat="52.499262" lon="13.426449">
    <ele>38</ele>
    <time>2025-07-14T19:20:29.000Z</time>
   </trkpt>
   <trkpt lat="52.499244" lon="13.426494">
    <ele>38</ele>
    <time>2025-07-14T19:20:31.000Z</time>
   </trkpt>
   <trkpt lat="52.499238" lon="13.426531">
    <ele>38</ele>
    <time>2025-07-14T19:20:32.000Z</time>
   </trkpt>
   <trkpt lat="52.499217" lon="13.426598">
    <ele>38</ele>
    <time>2025-07-14T19:20:33.000Z</time>
   </trkpt>
   <trkpt lat="52.499149" lon="13.426772">
    <ele>38</ele>
    <time>2025-07-14T19:20:35.000Z</time>
   </trkpt>
   <trkpt lat="52.499026" lon="13.427163">
    <ele>38</ele>
    <time>2025-07-14T19:20:40.000Z</time>
   </trkpt>
   <trkpt lat="52.498979" lon="13.427299">
    <ele>38</ele>
    <time>2025-07-14T19:20:42.000Z</time>
   </trkpt>
   <trkpt lat="52.498913" lon="13.427421">
    <ele>38</ele>
    <time>2025-07-14T19:20:44.000Z</time>
   </trkpt>
   <trkpt lat="52.498862" lon="13.42758">
    <ele>38</ele>
    <time>2025-07-14T19:20:46.000Z</time>
   </trkpt>
   <trkpt lat="52.498796" lon="13.427885">
    <ele>38.4</ele>
    <time>2025-07-14T19:20:49.000Z</time>
   </trkpt>
   <trkpt lat="52.498774" lon="13.427988">
    <ele>38.4</ele>
    <time>2025-07-14T19:20:50.000Z</time>
   </trkpt>
   <trkpt lat="52.498747" lon="13.428088">
    <ele>38.4</ele>
    <time>2025-07-14T19:20:51.000Z</time>
   </trkpt>
   <trkpt lat="52.498694" lon="13.428301">
    <ele>38.4</ele>
    <time>2025-07-14T19:20:53.000Z</time>
   </trkpt>
   <trkpt lat="52.498663" lon="13.428379">
    <ele>38.4</ele>
    <time>2025-07-14T19:20:54.000Z</time>
   </trkpt>
   <trkpt lat="52.498632" lon="13.428467">
    <ele>38.4</ele>
    <time>2025-07-14T19:20:55.000Z</time>
   </trkpt>
   <trkpt lat="52.498544" lon="13.428671">
    <ele>38.4</ele>
    <time>2025-07-14T19:20:57.000Z</time>
   </trkpt>
   <trkpt lat="52.498472" lon="13.428879">
    <ele>38.2</ele>
    <time>2025-07-14T19:20:59.000Z</time>
   </trkpt>
   <trkpt lat="52.498407" lon="13.429086">
    <ele>38.2</ele>
    <time>2025-07-14T19:21:01.000Z</time>
   </trkpt>
   <trkpt lat="52.498343" lon="13.429261">
    <ele>38</ele>
    <time>2025-07-14T19:21:03.000Z</time>
   </trkpt>
   <trkpt lat="52.498279" lon="13.429454">
    <ele>38</ele>
    <time>2025-07-14T19:21:05.000Z</time>
   </trkpt>
   <trkpt lat="52.498247" lon="13.429547">
    <ele>38</ele>
    <time>2025-07-14T19:21:06.000Z</time>
   </trkpt>
   <trkpt lat="52.498001" lon="13.430213">
    <ele>37.8</ele>
    <time>2025-07-14T19:21:14.000Z</time>
   </trkpt>
   <trkpt lat="52.497921" lon="13.430423">
    <ele>37.8</ele>
    <time>2025-07-14T19:21:17.000Z</time>
   </trkpt>
   <trkpt lat="52.49788" lon="13.430557">
    <ele>38</ele>
    <time>2025-07-14T19:21:19.000Z</time>
   </trkpt>
   <trkpt lat="52.49786" lon="13.430606">
    <ele>38</ele>
    <time>2025-07-14T19:21:20.000Z</time>
   </trkpt>
   <trkpt lat="52.497767" lon="13.430833">
    <ele>38</ele>
    <time>2025-07-14T19:21:24.000Z</time>
   </trkpt>
   <trkpt lat="52.497707" lon="13.430999">
    <ele>38</ele>
    <time>2025-07-14T19:21:27.000Z</time>
   </trkpt>
   <trkpt lat="52.49766" lon="13.431115">
    <ele>38.2</ele>
    <time>2025-07-14T19:21:29.000Z</time>
   </trkpt>
   <trkpt lat="52.497637" lon="13.431183">
    <ele>38.2</ele>
    <time>2025-07-14T19:21:30.000Z</time>
   </trkpt>
   <trkpt lat="52.497439" lon="13.431648">
    <ele>38.2</ele>
    <time>2025-07-14T19:21:36.000Z</time>
   </trkpt>
   <trkpt lat="52.497351" lon="13.431959">
    <ele>38</ele>
    <time>2025-07-14T19:21:39.000Z</time>
   </trkpt>
   <trkpt lat="52.497265" lon="13.432276">
    <ele>38.2</ele>
    <time>2025-07-14T19:21:42.000Z</time>
   </trkpt>
   <trkpt lat="52.497128" lon="13.432707">
    <ele>38</ele>
    <time>2025-07-14T19:21:47.000Z</time>
   </trkpt>
   <trkpt lat="52.497091" lon="13.43281">
    <ele>38</ele>
    <time>2025-07-14T19:21:48.000Z</time>
   </trkpt>
   <trkpt lat="52.496822" lon="13.433634">
    <ele>37.8</ele>
    <time>2025-07-14T19:21:57.000Z</time>
   </trkpt>
   <trkpt lat="52.49676" lon="13.433821">
    <ele>37.8</ele>
    <time>2025-07-14T19:21:59.000Z</time>
   </trkpt>
   <trkpt lat="52.496653" lon="13.434193">
    <ele>37.6</ele>
    <time>2025-07-14T19:22:03.000Z</time>
   </trkpt>
   <trkpt lat="52.496623" lon="13.434284">
    <ele>37.6</ele>
    <time>2025-07-14T19:22:04.000Z</time>
   </trkpt>
   <trkpt lat="52.496546" lon="13.434449">
    <ele>37.6</ele>
    <time>2025-07-14T19:22:06.000Z</time>
   </trkpt>
   <trkpt lat="52.496472" lon="13.434611">
    <ele>37.6</ele>
    <time>2025-07-14T19:22:08.000Z</time>
   </trkpt>
   <trkpt lat="52.496425" lon="13.434785">
    <ele>37.6</ele>
    <time>2025-07-14T19:22:10.000Z</time>
   </trkpt>
   <trkpt lat="52.496341" lon="13.435042">
    <ele>37.6</ele>
    <time>2025-07-14T19:22:13.000Z</time>
   </trkpt>
   <trkpt lat="52.496278" lon="13.435209">
    <ele>37.6</ele>
    <time>2025-07-14T19:22:15.000Z</time>
   </trkpt>
   <trkpt lat="52.496211" lon="13.435382">
    <ele>37.8</ele>
    <time>2025-07-14T19:22:17.000Z</time>
   </trkpt>
   <trkpt lat="52.496163" lon="13.435548">
    <ele>37.8</ele>
    <time>2025-07-14T19:22:19.000Z</time>
   </trkpt>
   <trkpt lat="52.496135" lon="13.435623">
    <ele>37.8</ele>
    <time>2025-07-14T19:22:20.000Z</time>
   </trkpt>
   <trkpt lat="52.496007" lon="13.435929">
    <ele>38</ele>
    <time>2025-07-14T19:22:24.000Z</time>
   </trkpt>
   <trkpt lat="52.495835" lon="13.436427">
    <ele>38</ele>
    <time>2025-07-14T19:22:30.000Z</time>
   </trkpt>
   <trkpt lat="52.495808" lon="13.436516">
    <ele>38</ele>
    <time>2025-07-14T19:22:31.000Z</time>
   </trkpt>
   <trkpt lat="52.495691" lon="13.436931">
    <ele>38</ele>
    <time>2025-07-14T19:22:36.000Z</time>
   </trkpt>
   <trkpt lat="52.495637" lon="13.437184">
    <ele>38.2</ele>
    <time>2025-07-14T19:22:39.000Z</time>
   </trkpt>
   <trkpt lat="52.495599" lon="13.437371">
    <ele>38.2</ele>
    <time>2025-07-14T19:22:41.000Z</time>
   </trkpt>
   <trkpt lat="52.495548" lon="13.437531">
    <ele>38.2</ele>
    <time>2025-07-14T19:22:43.000Z</time>
   </trkpt>
   <trkpt lat="52.49547" lon="13.437807">
    <ele>38.2</ele>
    <time>2025-07-14T19:22:46.000Z</time>
   </trkpt>
   <trkpt lat="52.495433" lon="13.437955">
    <ele>38.2</ele>
    <time>2025-07-14T19:22:48.000Z</time>
   </trkpt>
   <trkpt lat="52.495268" lon="13.438344">
    <ele>38.4</ele>
    <time>2025-07-14T19:22:53.000Z</time>
   </trkpt>
   <trkpt lat="52.495229" lon="13.438513">
    <ele>38.4</ele>
    <time>2025-07-14T19:22:55.000Z</time>
   </trkpt>
   <trkpt lat="52.495204" lon="13.43864">
    <ele>38.2</ele>
    <time>2025-07-14T19:22:57.000Z</time>
   </trkpt>
   <trkpt lat="52.495153" lon="13.438776">
    <ele>38.2</ele>
    <time>2025-07-14T19:22:59.000Z</time>
   </trkpt>
   <trkpt lat="52.49503" lon="13.439065">
    <ele>38.2</ele>
    <time>2025-07-14T19:23:03.000Z</time>
   </trkpt>
   <trkpt lat="52.494834" lon="13.439541">
    <ele>38</ele>
    <time>2025-07-14T19:23:09.000Z</time>
   </trkpt>
   <trkpt lat="52.494651" lon="13.440015">
    <ele>37.8</ele>
    <time>2025-07-14T19:23:15.000Z</time>
   </trkpt>
   <trkpt lat="52.494575" lon="13.440183">
    <ele>37.8</ele>
    <time>2025-07-14T19:23:17.000Z</time>
   </trkpt>
   <trkpt lat="52.494474" lon="13.440512">
    <ele>37.8</ele>
    <time>2025-07-14T19:23:21.000Z</time>
   </trkpt>
   <trkpt lat="52.494443" lon="13.440603">
    <ele>37.8</ele>
    <time>2025-07-14T19:23:22.000Z</time>
   </trkpt>
   <trkpt lat="52.494292" lon="13.441067">
    <ele>37.6</ele>
    <time>2025-07-14T19:23:27.000Z</time>
   </trkpt>
   <trkpt lat="52.494169" lon="13.441482">
    <ele>37.6</ele>
    <time>2025-07-14T19:23:32.000Z</time>
   </trkpt>
   <trkpt lat="52.494006" lon="13.442012">
    <ele>37.6</ele>
    <time>2025-07-14T19:23:38.000Z</time>
   </trkpt>
   <trkpt lat="52.493973" lon="13.442105">
    <ele>37.6</ele>
    <time>2025-07-14T19:23:39.000Z</time>
   </trkpt>
   <trkpt lat="52.493809" lon="13.442558">
    <ele>37.4</ele>
    <time>2025-07-14T19:23:44.000Z</time>
   </trkpt>
   <trkpt lat="52.49379" lon="13.442643">
    <ele>37.4</ele>
    <time>2025-07-14T19:23:45.000Z</time>
   </trkpt>
   <trkpt lat="52.493777" lon="13.442844">
    <ele>37.4</ele>
    <time>2025-07-14T19:23:47.000Z</time>
   </trkpt>
   <trkpt lat="52.493801" lon="13.443069">
    <ele>37.4</ele>
    <time>2025-07-14T19:23:49.000Z</time>
   </trkpt>
   <trkpt lat="52.493855" lon="13.44326">
    <ele>37.2</ele>
    <time>2025-07-14T19:23:51.000Z</time>
   </trkpt>
   <trkpt lat="52.494027" lon="13.443558">
    <ele>37.2</ele>
    <time>2025-07-14T19:23:55.000Z</time>
   </trkpt>
   <trkpt lat="52.494268" lon="13.443923">
    <ele>36.8</ele>
    <time>2025-07-14T19:24:00.000Z</time>
   </trkpt>
   <trkpt lat="52.494307" lon="13.444012">
    <ele>36.8</ele>
    <time>2025-07-14T19:24:01.000Z</time>
   </trkpt>
   <trkpt lat="52.494407" lon="13.44415">
    <ele>36.8</ele>
    <time>2025-07-14T19:24:03.000Z</time>
   </trkpt>
   <trkpt lat="52.494678" lon="13.44451">
    <ele>36.2</ele>
    <time>2025-07-14T19:24:09.000Z</time>
   </trkpt>
   <trkpt lat="52.494852" lon="13.444743">
    <ele>36.2</ele>
    <time>2025-07-14T19:24:13.000Z</time>
   </trkpt>
   <trkpt lat="52.494982" lon="13.444903">
    <ele>36.4</ele>
    <time>2025-07-14T19:24:16.000Z</time>
   </trkpt>
   <trkpt lat="52.49514" lon="13.445089">
    <ele>36.8</ele>
    <time>2025-07-14T19:24:20.000Z</time>
   </trkpt>
   <trkpt lat="52.495251" lon="13.445219">
    <ele>37</ele>
    <time>2025-07-14T19:24:23.000Z</time>
   </trkpt>
   <trkpt lat="52.495473" lon="13.445488">
    <ele>37.2</ele>
    <time>2025-07-14T19:24:29.000Z</time>
   </trkpt>
   <trkpt lat="52.495578" lon="13.445627">
    <ele>37.2</ele>
    <time>2025-07-14T19:24:32.000Z</time>
   </trkpt>
   <trkpt lat="52.495633" lon="13.445721">
    <ele>37.2</ele>
    <time>2025-07-14T19:24:34.000Z</time>
   </trkpt>
   <trkpt lat="52.495662" lon="13.445764">
    <ele>37.2</ele>
    <time>2025-07-14T19:24:35.000Z</time>
   </trkpt>
   <trkpt lat="52.495813" lon="13.446022">
    <ele>37.2</ele>
    <time>2025-07-14T19:24:41.000Z</time>
   </trkpt>
   <trkpt lat="52.49588" lon="13.446209">
    <ele>37.6</ele>
    <time>2025-07-14T19:24:45.000Z</time>
   </trkpt>
   <trkpt lat="52.495898" lon="13.446251">
    <ele>37.6</ele>
    <time>2025-07-14T19:24:46.000Z</time>
   </trkpt>
   <trkpt lat="52.495915" lon="13.446297">
    <ele>37.6</ele>
    <time>2025-07-14T19:24:47.000Z</time>
   </trkpt>
   <trkpt lat="52.495962" lon="13.446399">
    <ele>37.6</ele>
    <time>2025-07-14T19:24:49.000Z</time>
   </trkpt>
   <trkpt lat="52.496027" lon="13.446491">
    <ele>37.6</ele>
    <time>2025-07-14T19:24:51.000Z</time>
   </trkpt>
   <trkpt lat="52.496091" lon="13.446584">
    <ele>37.6</ele>
    <time>2025-07-14T19:24:53.000Z</time>
   </trkpt>
   <trkpt lat="52.496242" lon="13.446765">
    <ele>37.6</ele>
    <time>2025-07-14T19:24:57.000Z</time>
   </trkpt>
   <trkpt lat="52.496329" lon="13.446879">
    <ele>37.6</ele>
    <time>2025-07-14T19:24:59.000Z</time>
   </trkpt>
   <trkpt lat="52.496408" lon="13.446984">
    <ele>37.6</ele>
    <time>2025-07-14T19:25:01.000Z</time>
   </trkpt>
   <trkpt lat="52.496446" lon="13.447028">
    <ele>37.6</ele>
    <time>2025-07-14T19:25:02.000Z</time>
   </trkpt>
   <trkpt lat="52.496483" lon="13.447073">
    <ele>37.6</ele>
    <time>2025-07-14T19:25:03.000Z</time>
   </trkpt>
   <trkpt lat="52.496548" lon="13.447157">
    <ele>37.8</ele>
    <time>2025-07-14T19:25:05.000Z</time>
   </trkpt>
   <trkpt lat="52.49661" lon="13.44724">
    <ele>37.8</ele>
    <time>2025-07-14T19:25:07.000Z</time>
   </trkpt>
   <trkpt lat="52.496647" lon="13.447289">
    <ele>37.8</ele>
    <time>2025-07-14T19:25:08.000Z</time>
   </trkpt>
   <trkpt lat="52.496728" lon="13.447382">
    <ele>37.8</ele>
    <time>2025-07-14T19:25:10.000Z</time>
   </trkpt>
   <trkpt lat="52.496769" lon="13.44742">
    <ele>37.8</ele>
    <time>2025-07-14T19:25:11.000Z</time>
   </trkpt>
   <trkpt lat="52.49684" lon="13.447513">
    <ele>38</ele>
    <time>2025-07-14T19:25:13.000Z</time>
   </trkpt>
   <trkpt lat="52.496953" lon="13.447675">
    <ele>38</ele>
    <time>2025-07-14T19:25:16.000Z</time>
   </trkpt>
   <trkpt lat="52.496987" lon="13.447725">
    <ele>38</ele>
    <time>2025-07-14T19:25:17.000Z</time>
   </trkpt>
   <trkpt lat="52.497052" lon="13.447819">
    <ele>38</ele>
    <time>2025-07-14T19:25:19.000Z</time>
   </trkpt>
   <trkpt lat="52.497143" lon="13.447911">
    <ele>38</ele>
    <time>2025-07-14T19:25:21.000Z</time>
   </trkpt>
   <trkpt lat="52.497297" lon="13.448125">
    <ele>38.2</ele>
    <time>2025-07-14T19:25:27.000Z</time>
   </trkpt>
   <trkpt lat="52.497395" lon="13.448255">
    <ele>38.4</ele>
    <time>2025-07-14T19:25:31.000Z</time>
   </trkpt>
   <trkpt lat="52.497432" lon="13.448313">
    <ele>38.4</ele>
    <time>2025-07-14T19:25:34.000Z</time>
   </trkpt>
   <trkpt lat="52.497431" lon="13.448338">
    <ele>38.4</ele>
    <time>2025-07-14T19:25:35.000Z</time>
   </trkpt>
   <trkpt lat="52.497428" lon="13.448364">
    <ele>38.4</ele>
    <time>2025-07-14T19:25:36.000Z</time>
   </trkpt>
   <trkpt lat="52.497424" lon="13.448396">
    <ele>38.4</ele>
    <time>2025-07-14T19:25:37.000Z</time>
   </trkpt>
   <trkpt lat="52.49738" lon="13.448473">
    <ele>38.4</ele>
    <time>2025-07-14T19:25:40.000Z</time>
   </trkpt>
   <trkpt lat="52.49723" lon="13.448766">
    <ele>38.6</ele>
    <time>2025-07-14T19:25:48.000Z</time>
   </trkpt>
   <trkpt lat="52.497056" lon="13.449072">
    <ele>38.6</ele>
    <time>2025-07-14T19:25:53.000Z</time>
   </trkpt>
   <trkpt lat="52.496824" lon="13.449475">
    <ele>37.8</ele>
    <time>2025-07-14T19:25:59.000Z</time>
   </trkpt>
   <trkpt lat="52.496604" lon="13.449826">
    <ele>37.4</ele>
    <time>2025-07-14T19:26:05.000Z</time>
   </trkpt>
   <trkpt lat="52.496571" lon="13.449881">
    <ele>37.4</ele>
    <time>2025-07-14T19:26:06.000Z</time>
   </trkpt>
   <trkpt lat="52.496334" lon="13.450294">
    <ele>37.6</ele>
    <time>2025-07-14T19:26:13.000Z</time>
   </trkpt>
   <trkpt lat="52.496038" lon="13.450804">
    <ele>37.4</ele>
    <time>2025-07-14T19:26:20.000Z</time>
   </trkpt>
   <trkpt lat="52.495785" lon="13.451222">
    <ele>36.8</ele>
    <time>2025-07-14T19:26:26.000Z</time>
   </trkpt>
   <trkpt lat="52.495755" lon="13.45128">
    <ele>36.8</ele>
    <time>2025-07-14T19:26:27.000Z</time>
   </trkpt>
   <trkpt lat="52.495572" lon="13.451608">
    <ele>36.6</ele>
    <time>2025-07-14T19:26:32.000Z</time>
   </trkpt>
   <trkpt lat="52.49541" lon="13.451873">
    <ele>36.6</ele>
    <time>2025-07-14T19:26:36.000Z</time>
   </trkpt>
   <trkpt lat="52.495248" lon="13.452114">
    <ele>36.8</ele>
    <time>2025-07-14T19:26:40.000Z</time>
   </trkpt>
   <trkpt lat="52.49517" lon="13.452243">
    <ele>36.8</ele>
    <time>2025-07-14T19:26:42.000Z</time>
   </trkpt>
   <trkpt lat="52.495138" lon="13.452293">
    <ele>36.8</ele>
    <time>2025-07-14T19:26:43.000Z</time>
   </trkpt>
   <trkpt lat="52.49503" lon="13.452431">
    <ele>36.8</ele>
    <time>2025-07-14T19:26:46.000Z</time>
   </trkpt>
   <trkpt lat="52.494999" lon="13.452473">
    <ele>36.8</ele>
    <time>2025-07-14T19:26:47.000Z</time>
   </trkpt>
   <trkpt lat="52.494869" lon="13.452712">
    <ele>37</ele>
    <time>2025-07-14T19:26:51.000Z</time>
   </trkpt>
   <trkpt lat="52.49476" lon="13.452893">
    <ele>37</ele>
    <time>2025-07-14T19:26:56.000Z</time>
   </trkpt>
   <trkpt lat="52.494631" lon="13.453094">
    <ele>36.8</ele>
    <time>2025-07-14T19:27:02.000Z</time>
   </trkpt>
   <trkpt lat="52.494553" lon="13.453211">
    <ele>36.8</ele>
    <time>2025-07-14T19:27:05.000Z</time>
   </trkpt>
   <trkpt lat="52.494471" lon="13.453349">
    <ele>36.8</ele>
    <time>2025-07-14T19:27:08.000Z</time>
   </trkpt>
   <trkpt lat="52.49424" lon="13.453731">
    <ele>36.6</ele>
    <time>2025-07-14T19:27:16.000Z</time>
   </trkpt>
   <trkpt lat="52.494138" lon="13.453883">
    <ele>36.6</ele>
    <time>2025-07-14T19:27:20.000Z</time>
   </trkpt>
   <trkpt lat="52.494029" lon="13.454043">
    <ele>36.6</ele>
    <time>2025-07-14T19:27:25.000Z</time>
   </trkpt>
   <trkpt lat="52.493914" lon="13.45404">
    <ele>36.6</ele>
    <time>2025-07-14T19:27:28.000Z</time>
   </trkpt>
   <trkpt lat="52.493877" lon="13.454012">
    <ele>36.6</ele>
    <time>2025-07-14T19:27:29.000Z</time>
   </trkpt>
   <trkpt lat="52.493629" lon="13.453706">
    <ele>36.6</ele>
    <time>2025-07-14T19:27:36.000Z</time>
   </trkpt>
   <trkpt lat="52.493386" lon="13.453344">
    <ele>36.6</ele>
    <time>2025-07-14T19:27:42.000Z</time>
   </trkpt>
   <trkpt lat="52.493061" lon="13.452844">
    <ele>36.8</ele>
    <time>2025-07-14T19:27:50.000Z</time>
   </trkpt>
   <trkpt lat="52.492948" lon="13.452671">
    <ele>36.8</ele>
    <time>2025-07-14T19:27:53.000Z</time>
   </trkpt>
   <trkpt lat="52.492827" lon="13.452481">
    <ele>36.8</ele>
    <time>2025-07-14T19:27:56.000Z</time>
   </trkpt>
   <trkpt lat="52.492624" lon="13.452146">
    <ele>37</ele>
    <time>2025-07-14T19:28:02.000Z</time>
   </trkpt>
   <trkpt lat="52.492563" lon="13.452053">
    <ele>36.8</ele>
    <time>2025-07-14T19:28:04.000Z</time>
   </trkpt>
   <trkpt lat="52.492507" lon="13.451979">
    <ele>36.8</ele>
    <time>2025-07-14T19:28:06.000Z</time>
   </trkpt>
   <trkpt lat="52.492422" lon="13.451852">
    <ele>36.8</ele>
    <time>2025-07-14T19:28:08.000Z</time>
   </trkpt>
   <trkpt lat="52.492328" lon="13.451716">
    <ele>36.8</ele>
    <time>2025-07-14T19:28:10.000Z</time>
   </trkpt>
   <trkpt lat="52.492189" lon="13.451515">
    <ele>36.8</ele>
    <time>2025-07-14T19:28:13.000Z</time>
   </trkpt>
   <trkpt lat="52.492148" lon="13.451444">
    <ele>36.8</ele>
    <time>2025-07-14T19:28:14.000Z</time>
   </trkpt>
   <trkpt lat="52.492093" lon="13.451392">
    <ele>36.8</ele>
    <time>2025-07-14T19:28:15.000Z</time>
   </trkpt>
   <trkpt lat="52.491969" lon="13.4512">
    <ele>36.8</ele>
    <time>2025-07-14T19:28:18.000Z</time>
   </trkpt>
   <trkpt lat="52.491889" lon="13.451033">
    <ele>36.8</ele>
    <time>2025-07-14T19:28:20.000Z</time>
   </trkpt>
   <trkpt lat="52.491793" lon="13.450864">
    <ele>36.6</ele>
    <time>2025-07-14T19:28:23.000Z</time>
   </trkpt>
   <trkpt lat="52.491547" lon="13.450555">
    <ele>36.4</ele>
    <time>2025-07-14T19:28:29.000Z</time>
   </trkpt>
   <trkpt lat="52.491485" lon="13.45049">
    <ele>36.4</ele>
    <time>2025-07-14T19:28:31.000Z</time>
   </trkpt>
   <trkpt lat="52.49145" lon="13.450486">
    <ele>36.4</ele>
    <time>2025-07-14T19:28:32.000Z</time>
   </trkpt>
   <trkpt lat="52.491416" lon="13.450501">
    <ele>36.4</ele>
    <time>2025-07-14T19:28:33.000Z</time>
   </trkpt>
   <trkpt lat="52.491345" lon="13.450564">
    <ele>36.4</ele>
    <time>2025-07-14T19:28:35.000Z</time>
   </trkpt>
   <trkpt lat="52.491311" lon="13.450609">
    <ele>36.4</ele>
    <time>2025-07-14T19:28:36.000Z</time>
   </trkpt>
   <trkpt lat="52.491283" lon="13.450663">
    <ele>36.4</ele>
    <time>2025-07-14T19:28:37.000Z</time>
   </trkpt>
   <trkpt lat="52.491216" lon="13.450774">
    <ele>36.4</ele>
    <time>2025-07-14T19:28:39.000Z</time>
   </trkpt>
   <trkpt lat="52.491146" lon="13.450877">
    <ele>36.4</ele>
    <time>2025-07-14T19:28:41.000Z</time>
   </trkpt>
   <trkpt lat="52.491084" lon="13.450946">
    <ele>36.4</ele>
    <time>2025-07-14T19:28:43.000Z</time>
   </trkpt>
   <trkpt lat="52.491058" lon="13.450987">
    <ele>36.4</ele>
    <time>2025-07-14T19:28:44.000Z</time>
   </trkpt>
   <trkpt lat="52.491031" lon="13.451038">
    <ele>36.4</ele>
    <time>2025-07-14T19:28:45.000Z</time>
   </trkpt>
   <trkpt lat="52.490976" lon="13.451142">
    <ele>36.4</ele>
    <time>2025-07-14T19:28:47.000Z</time>
   </trkpt>
   <trkpt lat="52.490937" lon="13.451197">
    <ele>36.4</ele>
    <time>2025-07-14T19:28:48.000Z</time>
   </trkpt>
   <trkpt lat="52.490852" lon="13.451319">
    <ele>36.2</ele>
    <time>2025-07-14T19:28:50.000Z</time>
   </trkpt>
   <trkpt lat="52.490776" lon="13.451432">
    <ele>36.2</ele>
    <time>2025-07-14T19:28:52.000Z</time>
   </trkpt>
   <trkpt lat="52.49074" lon="13.451484">
    <ele>36.2</ele>
    <time>2025-07-14T19:28:53.000Z</time>
   </trkpt>
   <trkpt lat="52.490686" lon="13.451543">
    <ele>36.2</ele>
    <time>2025-07-14T19:28:54.000Z</time>
   </trkpt>
   <trkpt lat="52.490517" lon="13.451771">
    <ele>36.2</ele>
    <time>2025-07-14T19:28:58.000Z</time>
   </trkpt>
   <trkpt lat="52.490432" lon="13.451905">
    <ele>36.2</ele>
    <time>2025-07-14T19:29:00.000Z</time>
   </trkpt>
   <trkpt lat="52.490347" lon="13.452023">
    <ele>36.2</ele>
    <time>2025-07-14T19:29:02.000Z</time>
   </trkpt>
   <trkpt lat="52.490255" lon="13.452118">
    <ele>36.2</ele>
    <time>2025-07-14T19:29:04.000Z</time>
   </trkpt>
   <trkpt lat="52.490182" lon="13.452274">
    <ele>36.4</ele>
    <time>2025-07-14T19:29:07.000Z</time>
   </trkpt>
   <trkpt lat="52.490122" lon="13.452361">
    <ele>36.4</ele>
    <time>2025-07-14T19:29:09.000Z</time>
   </trkpt>
   <trkpt lat="52.490068" lon="13.45248">
    <ele>36.4</ele>
    <time>2025-07-14T19:29:11.000Z</time>
   </trkpt>
   <trkpt lat="52.489993" lon="13.452585">
    <ele>36.4</ele>
    <time>2025-07-14T19:29:13.000Z</time>
   </trkpt>
   <trkpt lat="52.489871" lon="13.452727">
    <ele>36.6</ele>
    <time>2025-07-14T19:29:16.000Z</time>
   </trkpt>
   <trkpt lat="52.489784" lon="13.45286">
    <ele>36.6</ele>
    <time>2025-07-14T19:29:18.000Z</time>
   </trkpt>
   <trkpt lat="52.48974" lon="13.452903">
    <ele>36.6</ele>
    <time>2025-07-14T19:29:19.000Z</time>
   </trkpt>
   <trkpt lat="52.489629" lon="13.453096">
    <ele>36.6</ele>
    <time>2025-07-14T19:29:22.000Z</time>
   </trkpt>
   <trkpt lat="52.489589" lon="13.453146">
    <ele>36.6</ele>
    <time>2025-07-14T19:29:23.000Z</time>
   </trkpt>
   <trkpt lat="52.489554" lon="13.453178">
    <ele>36.6</ele>
    <time>2025-07-14T19:29:24.000Z</time>
   </trkpt>
   <trkpt lat="52.489461" lon="13.453259">
    <ele>36.6</ele>
    <time>2025-07-14T19:29:26.000Z</time>
   </trkpt>
   <trkpt lat="52.489416" lon="13.453345">
    <ele>36.6</ele>
    <time>2025-07-14T19:29:28.000Z</time>
   </trkpt>
   <trkpt lat="52.489278" lon="13.453497">
    <ele>36.6</ele>
    <time>2025-07-14T19:29:33.000Z</time>
   </trkpt>
   <trkpt lat="52.489161" lon="13.453615">
    <ele>36.6</ele>
    <time>2025-07-14T19:29:38.000Z</time>
   </trkpt>
   <trkpt lat="52.489078" lon="13.453789">
    <ele>36.6</ele>
    <time>2025-07-14T19:29:45.000Z</time>
   </trkpt>
   <trkpt lat="52.489074" lon="13.453804">
    <ele>36.6</ele>
    <time>2025-07-14T19:29:46.000Z</time>
   </trkpt>
   <trkpt lat="52.489064" lon="13.45384">
    <ele>36.6</ele>
    <time>2025-07-14T19:29:50.000Z</time>
   </trkpt>
   <trkpt lat="52.489064" lon="13.45384">
    <ele>36.6</ele>
    <time>2025-07-14T19:29:51.000Z</time>
   </trkpt>
   <trkpt lat="52.489056" lon="13.453858">
    <ele>36.6</ele>
    <time>2025-07-14T19:29:54.000Z</time>
   </trkpt>
   <trkpt lat="52.489044" lon="13.453871">
    <ele>37</ele>
    <time>2025-07-14T19:30:12.000Z</time>
   </trkpt>
   <trkpt lat="52.488988" lon="13.453935">
    <ele>37</ele>
    <time>2025-07-14T19:30:15.000Z</time>
   </trkpt>
   <trkpt lat="52.488913" lon="13.454036">
    <ele>37</ele>
    <time>2025-07-14T19:30:18.000Z</time>
   </trkpt>
   <trkpt lat="52.488873" lon="13.454095">
    <ele>37</ele>
    <time>2025-07-14T19:30:20.000Z</time>
   </trkpt>
   <trkpt lat="52.488829" lon="13.454162">
    <ele>36.8</ele>
    <time>2025-07-14T19:30:22.000Z</time>
   </trkpt>
   <trkpt lat="52.488744" lon="13.454262">
    <ele>36.8</ele>
    <time>2025-07-14T19:30:25.000Z</time>
   </trkpt>
   <trkpt lat="52.488621" lon="13.454434">
    <ele>36.2</ele>
    <time>2025-07-14T19:30:28.000Z</time>
   </trkpt>
   <trkpt lat="52.488533" lon="13.454548">
    <ele>36.2</ele>
    <time>2025-07-14T19:30:30.000Z</time>
   </trkpt>
   <trkpt lat="52.488349" lon="13.454792">
    <ele>36.2</ele>
    <time>2025-07-14T19:30:34.000Z</time>
   </trkpt>
   <trkpt lat="52.488298" lon="13.454832">
    <ele>36.2</ele>
    <time>2025-07-14T19:30:35.000Z</time>
   </trkpt>
   <trkpt lat="52.488029" lon="13.455219">
    <ele>36.2</ele>
    <time>2025-07-14T19:30:41.000Z</time>
   </trkpt>
   <trkpt lat="52.487805" lon="13.455492">
    <ele>36.2</ele>
    <time>2025-07-14T19:30:46.000Z</time>
   </trkpt>
   <trkpt lat="52.487629" lon="13.45572">
    <ele>36.2</ele>
    <time>2025-07-14T19:30:50.000Z</time>
   </trkpt>
   <trkpt lat="52.487537" lon="13.455881">
    <ele>36.2</ele>
    <time>2025-07-14T19:30:53.000Z</time>
   </trkpt>
   <trkpt lat="52.487333" lon="13.456103">
    <ele>36.2</ele>
    <time>2025-07-14T19:30:57.000Z</time>
   </trkpt>
   <trkpt lat="52.487279" lon="13.456178">
    <ele>36.2</ele>
    <time>2025-07-14T19:30:58.000Z</time>
   </trkpt>
   <trkpt lat="52.486962" lon="13.456706">
    <ele>36</ele>
    <time>2025-07-14T19:31:06.000Z</time>
   </trkpt>
   <trkpt lat="52.486754" lon="13.45698">
    <ele>35.8</ele>
    <time>2025-07-14T19:31:11.000Z</time>
   </trkpt>
   <trkpt lat="52.486635" lon="13.457154">
    <ele>36</ele>
    <time>2025-07-14T19:31:14.000Z</time>
   </trkpt>
   <trkpt lat="52.48655" lon="13.457285">
    <ele>36</ele>
    <time>2025-07-14T19:31:16.000Z</time>
   </trkpt>
   <trkpt lat="52.48636" lon="13.457556">
    <ele>36</ele>
    <time>2025-07-14T19:31:21.000Z</time>
   </trkpt>
   <trkpt lat="52.486279" lon="13.457663">
    <ele>35.8</ele>
    <time>2025-07-14T19:31:23.000Z</time>
   </trkpt>
   <trkpt lat="52.486193" lon="13.457799">
    <ele>36</ele>
    <time>2025-07-14T19:31:26.000Z</time>
   </trkpt>
   <trkpt lat="52.48601" lon="13.458038">
    <ele>36</ele>
    <time>2025-07-14T19:31:31.000Z</time>
   </trkpt>
   <trkpt lat="52.485968" lon="13.458093">
    <ele>36</ele>
    <time>2025-07-14T19:31:32.000Z</time>
   </trkpt>
   <trkpt lat="52.485735" lon="13.45842">
    <ele>35.8</ele>
    <time>2025-07-14T19:31:38.000Z</time>
   </trkpt>
   <trkpt lat="52.485691" lon="13.458485">
    <ele>35.8</ele>
    <time>2025-07-14T19:31:39.000Z</time>
   </trkpt>
   <trkpt lat="52.485532" lon="13.458705">
    <ele>35.8</ele>
    <time>2025-07-14T19:31:43.000Z</time>
   </trkpt>
   <trkpt lat="52.485202" lon="13.459186">
    <ele>35.6</ele>
    <time>2025-07-14T19:31:50.000Z</time>
   </trkpt>
   <trkpt lat="52.484786" lon="13.45982">
    <ele>35.6</ele>
    <time>2025-07-14T19:31:59.000Z</time>
   </trkpt>
   <trkpt lat="52.484469" lon="13.460289">
    <ele>35.8</ele>
    <time>2025-07-14T19:32:06.000Z</time>
   </trkpt>
   <trkpt lat="52.484193" lon="13.460679">
    <ele>36</ele>
    <time>2025-07-14T19:32:12.000Z</time>
   </trkpt>
   <trkpt lat="52.484059" lon="13.460872">
    <ele>36</ele>
    <time>2025-07-14T19:32:15.000Z</time>
   </trkpt>
   <trkpt lat="52.483781" lon="13.461267">
    <ele>36</ele>
    <time>2025-07-14T19:32:21.000Z</time>
   </trkpt>
   <trkpt lat="52.483596" lon="13.461533">
    <ele>36</ele>
    <time>2025-07-14T19:32:25.000Z</time>
   </trkpt>
   <trkpt lat="52.483278" lon="13.461991">
    <ele>36</ele>
    <time>2025-07-14T19:32:32.000Z</time>
   </trkpt>
   <trkpt lat="52.482921" lon="13.462518">
    <ele>36.6</ele>
    <time>2025-07-14T19:32:40.000Z</time>
   </trkpt>
   <trkpt lat="52.48252" lon="13.463091">
    <ele>36.6</ele>
    <time>2025-07-14T19:32:48.000Z</time>
   </trkpt>
   <trkpt lat="52.482323" lon="13.463372">
    <ele>36.6</ele>
    <time>2025-07-14T19:32:52.000Z</time>
   </trkpt>
   <trkpt lat="52.48217" lon="13.463591">
    <ele>36.8</ele>
    <time>2025-07-14T19:32:55.000Z</time>
   </trkpt>
   <trkpt lat="52.481782" lon="13.464142">
    <ele>37</ele>
    <time>2025-07-14T19:33:02.000Z</time>
   </trkpt>
   <trkpt lat="52.481491" lon="13.464566">
    <ele>37</ele>
    <time>2025-07-14T19:33:08.000Z</time>
   </trkpt>
   <trkpt lat="52.48138" lon="13.464694">
    <ele>37</ele>
    <time>2025-07-14T19:33:10.000Z</time>
   </trkpt>
   <trkpt lat="52.481197" lon="13.464934">
    <ele>36.8</ele>
    <time>2025-07-14T19:33:13.000Z</time>
   </trkpt>
   <trkpt lat="52.481064" lon="13.465115">
    <ele>36.6</ele>
    <time>2025-07-14T19:33:15.000Z</time>
   </trkpt>
   <trkpt lat="52.480854" lon="13.465407">
    <ele>36.6</ele>
    <time>2025-07-14T19:33:18.000Z</time>
   </trkpt>
   <trkpt lat="52.480539" lon="13.465872">
    <ele>36.2</ele>
    <time>2025-07-14T19:33:24.000Z</time>
   </trkpt>
   <trkpt lat="52.480177" lon="13.466401">
    <ele>36</ele>
    <time>2025-07-14T19:33:30.000Z</time>
   </trkpt>
   <trkpt lat="52.479786" lon="13.466972">
    <ele>36</ele>
    <time>2025-07-14T19:33:37.000Z</time>
   </trkpt>
   <trkpt lat="52.479392" lon="13.467534">
    <ele>36</ele>
    <time>2025-07-14T19:33:44.000Z</time>
   </trkpt>
   <trkpt lat="52.479336" lon="13.467612">
    <ele>36.2</ele>
    <time>2025-07-14T19:33:45.000Z</time>
   </trkpt>
   <trkpt lat="52.478964" lon="13.468133">
    <ele>36.4</ele>
    <time>2025-07-14T19:33:51.000Z</time>
   </trkpt>
   <trkpt lat="52.478569" lon="13.468655">
    <ele>36.4</ele>
    <time>2025-07-14T19:33:58.000Z</time>
   </trkpt>
   <trkpt lat="52.478228" lon="13.469094">
    <ele>36.4</ele>
    <time>2025-07-14T19:34:04.000Z</time>
   </trkpt>
   <trkpt lat="52.477915" lon="13.469499">
    <ele>36.4</ele>
    <time>2025-07-14T19:34:09.000Z</time>
   </trkpt>
   <trkpt lat="52.477587" lon="13.469974">
    <ele>36.2</ele>
    <time>2025-07-14T19:34:16.000Z</time>
   </trkpt>
   <trkpt lat="52.477323" lon="13.470362">
    <ele>36.2</ele>
    <time>2025-07-14T19:34:22.000Z</time>
   </trkpt>
   <trkpt lat="52.477059" lon="13.470734">
    <ele>35.8</ele>
    <time>2025-07-14T19:34:29.000Z</time>
   </trkpt>
   <trkpt lat="52.476892" lon="13.470994">
    <ele>36</ele>
    <time>2025-07-14T19:34:33.000Z</time>
   </trkpt>
   <trkpt lat="52.476789" lon="13.471138">
    <ele>35.8</ele>
    <time>2025-07-14T19:34:35.000Z</time>
   </trkpt>
   <trkpt lat="52.476425" lon="13.471655">
    <ele>35.4</ele>
    <time>2025-07-14T19:34:42.000Z</time>
   </trkpt>
   <trkpt lat="52.476163" lon="13.472026">
    <ele>35.2</ele>
    <time>2025-07-14T19:34:47.000Z</time>
   </trkpt>
   <trkpt lat="52.475995" lon="13.472339">
    <ele>35</ele>
    <time>2025-07-14T19:34:51.000Z</time>
   </trkpt>
   <trkpt lat="52.475936" lon="13.472456">
    <ele>35</ele>
    <time>2025-07-14T19:34:53.000Z</time>
   </trkpt>
   <trkpt lat="52.475822" lon="13.472642">
    <ele>35</ele>
    <time>2025-07-14T19:34:56.000Z</time>
   </trkpt>
   <trkpt lat="52.475744" lon="13.472752">
    <ele>35.2</ele>
    <time>2025-07-14T19:34:58.000Z</time>
   </trkpt>
   <trkpt lat="52.475703" lon="13.472794">
    <ele>35.2</ele>
    <time>2025-07-14T19:34:59.000Z</time>
   </trkpt>
   <trkpt lat="52.475648" lon="13.472873">
    <ele>35.2</ele>
    <time>2025-07-14T19:35:01.000Z</time>
   </trkpt>
   <trkpt lat="52.475564" lon="13.47299">
    <ele>35.4</ele>
    <time>2025-07-14T19:35:03.000Z</time>
   </trkpt>
   <trkpt lat="52.475461" lon="13.473111">
    <ele>35.4</ele>
    <time>2025-07-14T19:35:05.000Z</time>
   </trkpt>
   <trkpt lat="52.475407" lon="13.473197">
    <ele>35.4</ele>
    <time>2025-07-14T19:35:07.000Z</time>
   </trkpt>
   <trkpt lat="52.47534" lon="13.473294">
    <ele>35.4</ele>
    <time>2025-07-14T19:35:09.000Z</time>
   </trkpt>
   <trkpt lat="52.475264" lon="13.473398">
    <ele>35.4</ele>
    <time>2025-07-14T19:35:11.000Z</time>
   </trkpt>
   <trkpt lat="52.475122" lon="13.473608">
    <ele>35.4</ele>
    <time>2025-07-14T19:35:16.000Z</time>
   </trkpt>
   <trkpt lat="52.47506" lon="13.473789">
    <ele>35.4</ele>
    <time>2025-07-14T19:35:20.000Z</time>
   </trkpt>
   <trkpt lat="52.475063" lon="13.473962">
    <ele>35.4</ele>
    <time>2025-07-14T19:35:23.000Z</time>
   </trkpt>
   <trkpt lat="52.47508" lon="13.474012">
    <ele>35.4</ele>
    <time>2025-07-14T19:35:24.000Z</time>
   </trkpt>
   <trkpt lat="52.475152" lon="13.474177">
    <ele>35.4</ele>
    <time>2025-07-14T19:35:28.000Z</time>
   </trkpt>
   <trkpt lat="52.475175" lon="13.474224">
    <ele>35.4</ele>
    <time>2025-07-14T19:35:29.000Z</time>
   </trkpt>
   <trkpt lat="52.475199" lon="13.474273">
    <ele>35.6</ele>
    <time>2025-07-14T19:35:30.000Z</time>
   </trkpt>
   <trkpt lat="52.475251" lon="13.474366">
    <ele>35.6</ele>
    <time>2025-07-14T19:35:32.000Z</time>
   </trkpt>
   <trkpt lat="52.475295" lon="13.474454">
    <ele>35.6</ele>
    <time>2025-07-14T19:35:34.000Z</time>
   </trkpt>
   <trkpt lat="52.475359" lon="13.474561">
    <ele>35.6</ele>
    <time>2025-07-14T19:35:36.000Z</time>
   </trkpt>
   <trkpt lat="52.475417" lon="13.474677">
    <ele>35.6</ele>
    <time>2025-07-14T19:35:38.000Z</time>
   </trkpt>
   <trkpt lat="52.475553" lon="13.474966">
    <ele>35.6</ele>
    <time>2025-07-14T19:35:43.000Z</time>
   </trkpt>
   <trkpt lat="52.475615" lon="13.475091">
    <ele>35.6</ele>
    <time>2025-07-14T19:35:45.000Z</time>
   </trkpt>
   <trkpt lat="52.475705" lon="13.475256">
    <ele>35.6</ele>
    <time>2025-07-14T19:35:48.000Z</time>
   </trkpt>
   <trkpt lat="52.4758" lon="13.475434">
    <ele>35.8</ele>
    <time>2025-07-14T19:35:51.000Z</time>
   </trkpt>
   <trkpt lat="52.475889" lon="13.475646">
    <ele>35.8</ele>
    <time>2025-07-14T19:35:55.000Z</time>
   </trkpt>
   <trkpt lat="52.475886" lon="13.475699">
    <ele>35.8</ele>
    <time>2025-07-14T19:35:56.000Z</time>
   </trkpt>
   <trkpt lat="52.475809" lon="13.475877">
    <ele>35.8</ele>
    <time>2025-07-14T19:36:01.000Z</time>
   </trkpt>
   <trkpt lat="52.475686" lon="13.476068">
    <ele>35.8</ele>
    <time>2025-07-14T19:36:06.000Z</time>
   </trkpt>
   <trkpt lat="52.475546" lon="13.476272">
    <ele>36</ele>
    <time>2025-07-14T19:36:11.000Z</time>
   </trkpt>
   <trkpt lat="52.475459" lon="13.476431">
    <ele>36.2</ele>
    <time>2025-07-14T19:36:16.000Z</time>
   </trkpt>
   <trkpt lat="52.475383" lon="13.47649">
    <ele>36</ele>
    <time>2025-07-14T19:36:19.000Z</time>
   </trkpt>
   <trkpt lat="52.475375" lon="13.476493">
    <ele>36</ele>
    <time>2025-07-14T19:36:20.000Z</time>
   </trkpt>
   <trkpt lat="52.475375" lon="13.476493">
    <ele>36</ele>
    <time>2025-07-14T19:36:23.000Z</time>
   </trkpt>
   <trkpt lat="52.475375" lon="13.476493">
    <ele>36</ele>
    <time>2025-07-14T19:36:24.000Z</time>
   </trkpt>
  </trkseg>
 </trk>
</gpx>
