<?xml version="1.0" encoding="UTF-8"?>
<gpx creator="StravaGPX" version="1.1" xmlns="http://www.topografix.com/GPX/1/1">
 <metadata>
  <time>2026-06-26T16:22:17Z</time>
 </metadata>
 <trk>
  <name>Evening Ride</name>
  <type>1</type>
  <trkseg>
   <trkpt lat="52.475055" lon="13.473966">
    <ele>72.8</ele>
    <time>2026-06-26T16:22:17.000Z</time>
   </trkpt>
   <trkpt lat="52.475055" lon="13.473966">
    <ele>34.4</ele>
    <time>2026-06-26T16:22:33.000Z</time>
   </trkpt>
   <trkpt lat="52.475055" lon="13.473966">
    <ele>34.8</ele>
    <time>2026-06-26T16:22:50.000Z</time>
   </trkpt>
   <trkpt lat="52.475055" lon="13.473966">
    <ele>34.4</ele>
    <time>2026-06-26T16:23:05.000Z</time>
   </trkpt>
   <trkpt lat="52.475055" lon="13.473966">
    <ele>34.2</ele>
    <time>2026-06-26T16:23:20.000Z</time>
   </trkpt>
   <trkpt lat="52.475055" lon="13.473966">
    <ele>34</ele>
    <time>2026-06-26T16:24:38.000Z</time>
   </trkpt>
   <trkpt lat="52.47511" lon="13.473741">
    <ele>34.2</ele>
    <time>2026-06-26T16:24:42.000Z</time>
   </trkpt>
   <trkpt lat="52.475295" lon="13.473454">
    <ele>34</ele>
    <time>2026-06-26T16:24:48.000Z</time>
   </trkpt>
   <trkpt lat="52.475332" lon="13.473407">
    <ele>34</ele>
    <time>2026-06-26T16:24:49.000Z</time>
   </trkpt>
   <trkpt lat="52.475401" lon="13.473315">
    <ele>34</ele>
    <time>2026-06-26T16:24:51.000Z</time>
   </trkpt>
   <trkpt lat="52.475501" lon="13.473158">
    <ele>34</ele>
    <time>2026-06-26T16:24:54.000Z</time>
   </trkpt>
   <trkpt lat="52.475605" lon="13.472995">
    <ele>33.8</ele>
    <time>2026-06-26T16:24:57.000Z</time>
   </trkpt>
   <trkpt lat="52.47567" lon="13.472876">
    <ele>33.8</ele>
    <time>2026-06-26T16:24:59.000Z</time>
   </trkpt>
   <trkpt lat="52.475708" lon="13.472818">
    <ele>33.8</ele>
    <time>2026-06-26T16:25:00.000Z</time>
   </trkpt>
   <trkpt lat="52.475778" lon="13.472711">
    <ele>33.8</ele>
    <time>2026-06-26T16:25:02.000Z</time>
   </trkpt>
   <trkpt lat="52.475842" lon="13.472603">
    <ele>33.8</ele>
    <time>2026-06-26T16:25:04.000Z</time>
   </trkpt>
   <trkpt lat="52.475917" lon="13.472494">
    <ele>33.8</ele>
    <time>2026-06-26T16:25:06.000Z</time>
   </trkpt>
   <trkpt lat="52.475951" lon="13.472437">
    <ele>33.8</ele>
    <time>2026-06-26T16:25:07.000Z</time>
   </trkpt>
   <trkpt lat="52.476049" lon="13.472265">
    <ele>33.8</ele>
    <time>2026-06-26T16:25:10.000Z</time>
   </trkpt>
   <trkpt lat="52.476124" lon="13.472166">
    <ele>33.6</ele>
    <time>2026-06-26T16:25:12.000Z</time>
   </trkpt>
   <trkpt lat="52.476436" lon="13.471738">
    <ele>33.8</ele>
    <time>2026-06-26T16:25:20.000Z</time>
   </trkpt>
   <trkpt lat="52.476586" lon="13.471519">
    <ele>34</ele>
    <time>2026-06-26T16:25:24.000Z</time>
   </trkpt>
   <trkpt lat="52.476659" lon="13.471423">
    <ele>34</ele>
    <time>2026-06-26T16:25:26.000Z</time>
   </trkpt>
   <trkpt lat="52.476986" lon="13.470978">
    <ele>33.8</ele>
    <time>2026-06-26T16:25:35.000Z</time>
   </trkpt>
   <trkpt lat="52.477111" lon="13.47078">
    <ele>34</ele>
    <time>2026-06-26T16:25:39.000Z</time>
   </trkpt>
   <trkpt lat="52.477222" lon="13.470633">
    <ele>34.4</ele>
    <time>2026-06-26T16:25:42.000Z</time>
   </trkpt>
   <trkpt lat="52.477622" lon="13.470076">
    <ele>35</ele>
    <time>2026-06-26T16:25:53.000Z</time>
   </trkpt>
   <trkpt lat="52.477953" lon="13.469617">
    <ele>35</ele>
    <time>2026-06-26T16:26:02.000Z</time>
   </trkpt>
   <trkpt lat="52.478279" lon="13.469189">
    <ele>35</ele>
    <time>2026-06-26T16:26:10.000Z</time>
   </trkpt>
   <trkpt lat="52.478655" lon="13.468698">
    <ele>34.8</ele>
    <time>2026-06-26T16:26:19.000Z</time>
   </trkpt>
   <trkpt lat="52.478997" lon="13.46822">
    <ele>35</ele>
    <time>2026-06-26T16:26:27.000Z</time>
   </trkpt>
   <trkpt lat="52.479346" lon="13.467719">
    <ele>35</ele>
    <time>2026-06-26T16:26:35.000Z</time>
   </trkpt>
   <trkpt lat="52.479439" lon="13.467589">
    <ele>35</ele>
    <time>2026-06-26T16:26:37.000Z</time>
   </trkpt>
   <trkpt lat="52.479764" lon="13.467129">
    <ele>35</ele>
    <time>2026-06-26T16:26:44.000Z</time>
   </trkpt>
   <trkpt lat="52.48013" lon="13.466614">
    <ele>35</ele>
    <time>2026-06-26T16:26:52.000Z</time>
   </trkpt>
   <trkpt lat="52.480554" lon="13.466021">
    <ele>34.8</ele>
    <time>2026-06-26T16:27:02.000Z</time>
   </trkpt>
   <trkpt lat="52.480919" lon="13.465501">
    <ele>34.8</ele>
    <time>2026-06-26T16:27:11.000Z</time>
   </trkpt>
   <trkpt lat="52.481167" lon="13.465159">
    <ele>35</ele>
    <time>2026-06-26T16:27:17.000Z</time>
   </trkpt>
   <trkpt lat="52.481531" lon="13.464636">
    <ele>35.4</ele>
    <time>2026-06-26T16:27:26.000Z</time>
   </trkpt>
   <trkpt lat="52.481614" lon="13.464521">
    <ele>35.4</ele>
    <time>2026-06-26T16:27:28.000Z</time>
   </trkpt>
   <trkpt lat="52.482039" lon="13.463927">
    <ele>35.6</ele>
    <time>2026-06-26T16:27:38.000Z</time>
   </trkpt>
   <trkpt lat="52.482129" lon="13.463802">
    <ele>35.6</ele>
    <time>2026-06-26T16:27:40.000Z</time>
   </trkpt>
   <trkpt lat="52.482521" lon="13.463234">
    <ele>35.6</ele>
    <time>2026-06-26T16:27:49.000Z</time>
   </trkpt>
   <trkpt lat="52.482885" lon="13.462714">
    <ele>35.2</ele>
    <time>2026-06-26T16:27:57.000Z</time>
   </trkpt>
   <trkpt lat="52.483338" lon="13.46207">
    <ele>35.2</ele>
    <time>2026-06-26T16:28:07.000Z</time>
   </trkpt>
   <trkpt lat="52.483426" lon="13.461939">
    <ele>35.2</ele>
    <time>2026-06-26T16:28:09.000Z</time>
   </trkpt>
   <trkpt lat="52.483875" lon="13.461311">
    <ele>34.6</ele>
    <time>2026-06-26T16:28:19.000Z</time>
   </trkpt>
   <trkpt lat="52.484002" lon="13.461125">
    <ele>34.6</ele>
    <time>2026-06-26T16:28:22.000Z</time>
   </trkpt>
   <trkpt lat="52.484315" lon="13.460671">
    <ele>34.4</ele>
    <time>2026-06-26T16:28:29.000Z</time>
   </trkpt>
   <trkpt lat="52.484757" lon="13.46004">
    <ele>34.4</ele>
    <time>2026-06-26T16:28:38.000Z</time>
   </trkpt>
   <trkpt lat="52.485236" lon="13.459278">
    <ele>34.4</ele>
    <time>2026-06-26T16:28:48.000Z</time>
   </trkpt>
   <trkpt lat="52.485286" lon="13.459204">
    <ele>34.4</ele>
    <time>2026-06-26T16:28:49.000Z</time>
   </trkpt>
   <trkpt lat="52.485337" lon="13.459134">
    <ele>34.4</ele>
    <time>2026-06-26T16:28:50.000Z</time>
   </trkpt>
   <trkpt lat="52.485708" lon="13.458624">
    <ele>34</ele>
    <time>2026-06-26T16:28:57.000Z</time>
   </trkpt>
   <trkpt lat="52.486076" lon="13.458141">
    <ele>34</ele>
    <time>2026-06-26T16:29:04.000Z</time>
   </trkpt>
   <trkpt lat="52.486377" lon="13.457713">
    <ele>34.2</ele>
    <time>2026-06-26T16:29:10.000Z</time>
   </trkpt>
   <trkpt lat="52.486657" lon="13.457315">
    <ele>34.4</ele>
    <time>2026-06-26T16:29:16.000Z</time>
   </trkpt>
   <trkpt lat="52.48698" lon="13.456841">
    <ele>34.6</ele>
    <time>2026-06-26T16:29:23.000Z</time>
   </trkpt>
   <trkpt lat="52.487412" lon="13.456244">
    <ele>35</ele>
    <time>2026-06-26T16:29:32.000Z</time>
   </trkpt>
   <trkpt lat="52.487458" lon="13.456179">
    <ele>35</ele>
    <time>2026-06-26T16:29:33.000Z</time>
   </trkpt>
   <trkpt lat="52.487503" lon="13.456111">
    <ele>35</ele>
    <time>2026-06-26T16:29:34.000Z</time>
   </trkpt>
   <trkpt lat="52.487697" lon="13.455856">
    <ele>35</ele>
    <time>2026-06-26T16:29:38.000Z</time>
   </trkpt>
   <trkpt lat="52.488008" lon="13.455405">
    <ele>35</ele>
    <time>2026-06-26T16:29:45.000Z</time>
   </trkpt>
   <trkpt lat="52.488385" lon="13.454874">
    <ele>35</ele>
    <time>2026-06-26T16:29:54.000Z</time>
   </trkpt>
   <trkpt lat="52.488541" lon="13.454664">
    <ele>35</ele>
    <time>2026-06-26T16:29:58.000Z</time>
   </trkpt>
   <trkpt lat="52.488614" lon="13.454578">
    <ele>35</ele>
    <time>2026-06-26T16:30:00.000Z</time>
   </trkpt>
   <trkpt lat="52.488649" lon="13.454536">
    <ele>35</ele>
    <time>2026-06-26T16:30:01.000Z</time>
   </trkpt>
   <trkpt lat="52.488757" lon="13.454358">
    <ele>35</ele>
    <time>2026-06-26T16:30:05.000Z</time>
   </trkpt>
   <trkpt lat="52.488824" lon="13.454267">
    <ele>35</ele>
    <time>2026-06-26T16:30:09.000Z</time>
   </trkpt>
   <trkpt lat="52.488848" lon="13.454214">
    <ele>35</ele>
    <time>2026-06-26T16:30:12.000Z</time>
   </trkpt>
   <trkpt lat="52.488849" lon="13.454208">
    <ele>35</ele>
    <time>2026-06-26T16:30:13.000Z</time>
   </trkpt>
   <trkpt lat="52.488869" lon="13.454176">
    <ele>35</ele>
    <time>2026-06-26T16:31:11.000Z</time>
   </trkpt>
   <trkpt lat="52.488882" lon="13.454155">
    <ele>35</ele>
    <time>2026-06-26T16:31:12.000Z</time>
   </trkpt>
   <trkpt lat="52.48899" lon="13.454026">
    <ele>35</ele>
    <time>2026-06-26T16:31:15.000Z</time>
   </trkpt>
   <trkpt lat="52.489086" lon="13.453859">
    <ele>35</ele>
    <time>2026-06-26T16:31:18.000Z</time>
   </trkpt>
   <trkpt lat="52.489155" lon="13.453758">
    <ele>35</ele>
    <time>2026-06-26T16:31:20.000Z</time>
   </trkpt>
   <trkpt lat="52.489374" lon="13.453376">
    <ele>35</ele>
    <time>2026-06-26T16:31:26.000Z</time>
   </trkpt>
   <trkpt lat="52.489741" lon="13.45302">
    <ele>34.8</ele>
    <time>2026-06-26T16:31:32.000Z</time>
   </trkpt>
   <trkpt lat="52.489833" lon="13.452891">
    <ele>34.8</ele>
    <time>2026-06-26T16:31:34.000Z</time>
   </trkpt>
   <trkpt lat="52.489933" lon="13.452723">
    <ele>34.8</ele>
    <time>2026-06-26T16:31:36.000Z</time>
   </trkpt>
   <trkpt lat="52.489976" lon="13.452646">
    <ele>34.8</ele>
    <time>2026-06-26T16:31:37.000Z</time>
   </trkpt>
   <trkpt lat="52.490034" lon="13.452568">
    <ele>34.8</ele>
    <time>2026-06-26T16:31:38.000Z</time>
   </trkpt>
   <trkpt lat="52.49022" lon="13.452238">
    <ele>34.8</ele>
    <time>2026-06-26T16:31:43.000Z</time>
   </trkpt>
   <trkpt lat="52.490456" lon="13.451867">
    <ele>34.6</ele>
    <time>2026-06-26T16:31:48.000Z</time>
   </trkpt>
   <trkpt lat="52.490551" lon="13.451722">
    <ele>34.6</ele>
    <time>2026-06-26T16:31:50.000Z</time>
   </trkpt>
   <trkpt lat="52.490698" lon="13.451496">
    <ele>34.6</ele>
    <time>2026-06-26T16:31:53.000Z</time>
   </trkpt>
   <trkpt lat="52.490752" lon="13.451427">
    <ele>34.6</ele>
    <time>2026-06-26T16:31:54.000Z</time>
   </trkpt>
   <trkpt lat="52.490907" lon="13.451213">
    <ele>34.6</ele>
    <time>2026-06-26T16:31:57.000Z</time>
   </trkpt>
   <trkpt lat="52.490996" lon="13.45108">
    <ele>34.6</ele>
    <time>2026-06-26T16:31:59.000Z</time>
   </trkpt>
   <trkpt lat="52.49107" lon="13.450944">
    <ele>34.6</ele>
    <time>2026-06-26T16:32:01.000Z</time>
   </trkpt>
   <trkpt lat="52.491155" lon="13.450814">
    <ele>34.6</ele>
    <time>2026-06-26T16:32:03.000Z</time>
   </trkpt>
   <trkpt lat="52.491213" lon="13.450742">
    <ele>34.6</ele>
    <time>2026-06-26T16:32:04.000Z</time>
   </trkpt>
   <trkpt lat="52.491368" lon="13.450566">
    <ele>34.8</ele>
    <time>2026-06-26T16:32:07.000Z</time>
   </trkpt>
   <trkpt lat="52.491479" lon="13.450563">
    <ele>34.8</ele>
    <time>2026-06-26T16:32:09.000Z</time>
   </trkpt>
   <trkpt lat="52.491589" lon="13.450672">
    <ele>34.6</ele>
    <time>2026-06-26T16:32:11.000Z</time>
   </trkpt>
   <trkpt lat="52.491672" lon="13.450792">
    <ele>34.6</ele>
    <time>2026-06-26T16:32:13.000Z</time>
   </trkpt>
   <trkpt lat="52.491751" lon="13.450914">
    <ele>34.6</ele>
    <time>2026-06-26T16:32:15.000Z</time>
   </trkpt>
   <trkpt lat="52.491803" lon="13.451">
    <ele>34.6</ele>
    <time>2026-06-26T16:32:17.000Z</time>
   </trkpt>
   <trkpt lat="52.491862" lon="13.450942">
    <ele>34.6</ele>
    <time>2026-06-26T16:32:19.000Z</time>
   </trkpt>
   <trkpt lat="52.491904" lon="13.450891">
    <ele>34.6</ele>
    <time>2026-06-26T16:32:20.000Z</time>
   </trkpt>
   <trkpt lat="52.492002" lon="13.450779">
    <ele>34.6</ele>
    <time>2026-06-26T16:32:22.000Z</time>
   </trkpt>
   <trkpt lat="52.492035" lon="13.450715">
    <ele>34.8</ele>
    <time>2026-06-26T16:32:23.000Z</time>
   </trkpt>
   <trkpt lat="52.49221" lon="13.450327">
    <ele>35</ele>
    <time>2026-06-26T16:32:28.000Z</time>
   </trkpt>
   <trkpt lat="52.492241" lon="13.450247">
    <ele>35</ele>
    <time>2026-06-26T16:32:29.000Z</time>
   </trkpt>
   <trkpt lat="52.492276" lon="13.450176">
    <ele>35</ele>
    <time>2026-06-26T16:32:30.000Z</time>
   </trkpt>
   <trkpt lat="52.492347" lon="13.450063">
    <ele>35.2</ele>
    <time>2026-06-26T16:32:32.000Z</time>
   </trkpt>
   <trkpt lat="52.492382" lon="13.44999">
    <ele>35.2</ele>
    <time>2026-06-26T16:32:33.000Z</time>
   </trkpt>
   <trkpt lat="52.492467" lon="13.449735">
    <ele>35.2</ele>
    <time>2026-06-26T16:32:36.000Z</time>
   </trkpt>
   <trkpt lat="52.492542" lon="13.449583">
    <ele>35</ele>
    <time>2026-06-26T16:32:38.000Z</time>
   </trkpt>
   <trkpt lat="52.492776" lon="13.449062">
    <ele>34.8</ele>
    <time>2026-06-26T16:32:44.000Z</time>
   </trkpt>
   <trkpt lat="52.493037" lon="13.448465">
    <ele>34.8</ele>
    <time>2026-06-26T16:32:51.000Z</time>
   </trkpt>
   <trkpt lat="52.493157" lon="13.448135">
    <ele>34.6</ele>
    <time>2026-06-26T16:32:55.000Z</time>
   </trkpt>
   <trkpt lat="52.493195" lon="13.44806">
    <ele>34.6</ele>
    <time>2026-06-26T16:32:56.000Z</time>
   </trkpt>
   <trkpt lat="52.493443" lon="13.447663">
    <ele>34.6</ele>
    <time>2026-06-26T16:33:02.000Z</time>
   </trkpt>
   <trkpt lat="52.493548" lon="13.447518">
    <ele>34.6</ele>
    <time>2026-06-26T16:33:04.000Z</time>
   </trkpt>
   <trkpt lat="52.49364" lon="13.447398">
    <ele>34.6</ele>
    <time>2026-06-26T16:33:06.000Z</time>
   </trkpt>
   <trkpt lat="52.49374" lon="13.447228">
    <ele>34.6</ele>
    <time>2026-06-26T16:33:09.000Z</time>
   </trkpt>
   <trkpt lat="52.493948" lon="13.447021">
    <ele>34.6</ele>
    <time>2026-06-26T16:33:13.000Z</time>
   </trkpt>
   <trkpt lat="52.493985" lon="13.446972">
    <ele>34.6</ele>
    <time>2026-06-26T16:33:14.000Z</time>
   </trkpt>
   <trkpt lat="52.494241" lon="13.446644">
    <ele>34.6</ele>
    <time>2026-06-26T16:33:21.000Z</time>
   </trkpt>
   <trkpt lat="52.494285" lon="13.446577">
    <ele>34.6</ele>
    <time>2026-06-26T16:33:23.000Z</time>
   </trkpt>
   <trkpt lat="52.494345" lon="13.446499">
    <ele>34.6</ele>
    <time>2026-06-26T16:33:25.000Z</time>
   </trkpt>
   <trkpt lat="52.494404" lon="13.446338">
    <ele>34.6</ele>
    <time>2026-06-26T16:33:29.000Z</time>
   </trkpt>
   <trkpt lat="52.494408" lon="13.446285">
    <ele>34.6</ele>
    <time>2026-06-26T16:33:30.000Z</time>
   </trkpt>
   <trkpt lat="52.494376" lon="13.446188">
    <ele>34.6</ele>
    <time>2026-06-26T16:33:32.000Z</time>
   </trkpt>
   <trkpt lat="52.494348" lon="13.446143">
    <ele>34.8</ele>
    <time>2026-06-26T16:33:33.000Z</time>
   </trkpt>
   <trkpt lat="52.494185" lon="13.44583">
    <ele>35.2</ele>
    <time>2026-06-26T16:33:39.000Z</time>
   </trkpt>
   <trkpt lat="52.494104" lon="13.445457">
    <ele>35.4</ele>
    <time>2026-06-26T16:33:46.000Z</time>
   </trkpt>
   <trkpt lat="52.494093" lon="13.445326">
    <ele>36</ele>
    <time>2026-06-26T16:33:49.000Z</time>
   </trkpt>
   <trkpt lat="52.494075" lon="13.445148">
    <ele>36.4</ele>
    <time>2026-06-26T16:33:53.000Z</time>
   </trkpt>
   <trkpt lat="52.494095" lon="13.44497">
    <ele>37</ele>
    <time>2026-06-26T16:33:57.000Z</time>
   </trkpt>
   <trkpt lat="52.494126" lon="13.444767">
    <ele>37.6</ele>
    <time>2026-06-26T16:34:01.000Z</time>
   </trkpt>
   <trkpt lat="52.494138" lon="13.444643">
    <ele>37.8</ele>
    <time>2026-06-26T16:34:04.000Z</time>
   </trkpt>
   <trkpt lat="52.494153" lon="13.444602">
    <ele>37.8</ele>
    <time>2026-06-26T16:34:05.000Z</time>
   </trkpt>
   <trkpt lat="52.494255" lon="13.444293">
    <ele>37.8</ele>
    <time>2026-06-26T16:34:11.000Z</time>
   </trkpt>
   <trkpt lat="52.494357" lon="13.443998">
    <ele>37.8</ele>
    <time>2026-06-26T16:34:18.000Z</time>
   </trkpt>
   <trkpt lat="52.494432" lon="13.443817">
    <ele>38.2</ele>
    <time>2026-06-26T16:34:23.000Z</time>
   </trkpt>
   <trkpt lat="52.494522" lon="13.443712">
    <ele>38</ele>
    <time>2026-06-26T16:34:28.000Z</time>
   </trkpt>
   <trkpt lat="52.494601" lon="13.443486">
    <ele>38</ele>
    <time>2026-06-26T16:34:32.000Z</time>
   </trkpt>
   <trkpt lat="52.494775" lon="13.443">
    <ele>38</ele>
    <time>2026-06-26T16:34:40.000Z</time>
   </trkpt>
   <trkpt lat="52.494981" lon="13.442418">
    <ele>38</ele>
    <time>2026-06-26T16:34:50.000Z</time>
   </trkpt>
   <trkpt lat="52.495121" lon="13.442002">
    <ele>38</ele>
    <time>2026-06-26T16:34:56.000Z</time>
   </trkpt>
   <trkpt lat="52.495244" lon="13.441676">
    <ele>37.8</ele>
    <time>2026-06-26T16:35:01.000Z</time>
   </trkpt>
   <trkpt lat="52.495342" lon="13.441396">
    <ele>37.8</ele>
    <time>2026-06-26T16:35:05.000Z</time>
   </trkpt>
   <trkpt lat="52.495502" lon="13.440907">
    <ele>37.4</ele>
    <time>2026-06-26T16:35:12.000Z</time>
   </trkpt>
   <trkpt lat="52.495619" lon="13.440574">
    <ele>37.4</ele>
    <time>2026-06-26T16:35:17.000Z</time>
   </trkpt>
   <trkpt lat="52.495646" lon="13.440521">
    <ele>37.2</ele>
    <time>2026-06-26T16:35:18.000Z</time>
   </trkpt>
   <trkpt lat="52.49567" lon="13.440465">
    <ele>37.2</ele>
    <time>2026-06-26T16:35:19.000Z</time>
   </trkpt>
   <trkpt lat="52.495739" lon="13.440258">
    <ele>37.2</ele>
    <time>2026-06-26T16:35:23.000Z</time>
   </trkpt>
   <trkpt lat="52.49584" lon="13.439963">
    <ele>37.2</ele>
    <time>2026-06-26T16:35:29.000Z</time>
   </trkpt>
   <trkpt lat="52.495843" lon="13.439899">
    <ele>37.2</ele>
    <time>2026-06-26T16:35:30.000Z</time>
   </trkpt>
   <trkpt lat="52.495826" lon="13.439802">
    <ele>37.2</ele>
    <time>2026-06-26T16:35:32.000Z</time>
   </trkpt>
   <trkpt lat="52.495703" lon="13.439648">
    <ele>37.2</ele>
    <time>2026-06-26T16:35:37.000Z</time>
   </trkpt>
   <trkpt lat="52.495647" lon="13.439572">
    <ele>37</ele>
    <time>2026-06-26T16:35:39.000Z</time>
   </trkpt>
   <trkpt lat="52.495532" lon="13.439445">
    <ele>37.2</ele>
    <time>2026-06-26T16:35:42.000Z</time>
   </trkpt>
   <trkpt lat="52.49539" lon="13.439311">
    <ele>37</ele>
    <time>2026-06-26T16:35:46.000Z</time>
   </trkpt>
   <trkpt lat="52.49533" lon="13.439246">
    <ele>37</ele>
    <time>2026-06-26T16:35:48.000Z</time>
   </trkpt>
   <trkpt lat="52.495221" lon="13.439153">
    <ele>37</ele>
    <time>2026-06-26T16:35:52.000Z</time>
   </trkpt>
   <trkpt lat="52.495183" lon="13.439115">
    <ele>37</ele>
    <time>2026-06-26T16:35:54.000Z</time>
   </trkpt>
   <trkpt lat="52.495165" lon="13.439073">
    <ele>36.8</ele>
    <time>2026-06-26T16:35:56.000Z</time>
   </trkpt>
   <trkpt lat="52.495174" lon="13.439019">
    <ele>36.8</ele>
    <time>2026-06-26T16:35:58.000Z</time>
   </trkpt>
   <trkpt lat="52.495204" lon="13.43893">
    <ele>36.4</ele>
    <time>2026-06-26T16:36:00.000Z</time>
   </trkpt>
   <trkpt lat="52.495264" lon="13.438755">
    <ele>36.2</ele>
    <time>2026-06-26T16:36:03.000Z</time>
   </trkpt>
   <trkpt lat="52.495283" lon="13.438694">
    <ele>36.2</ele>
    <time>2026-06-26T16:36:04.000Z</time>
   </trkpt>
   <trkpt lat="52.495324" lon="13.438562">
    <ele>36.2</ele>
    <time>2026-06-26T16:36:06.000Z</time>
   </trkpt>
   <trkpt lat="52.495359" lon="13.438439">
    <ele>36.2</ele>
    <time>2026-06-26T16:36:08.000Z</time>
   </trkpt>
   <trkpt lat="52.495433" lon="13.438252">
    <ele>36.2</ele>
    <time>2026-06-26T16:36:11.000Z</time>
   </trkpt>
   <trkpt lat="52.495464" lon="13.438146">
    <ele>36.2</ele>
    <time>2026-06-26T16:36:13.000Z</time>
   </trkpt>
   <trkpt lat="52.495486" lon="13.438041">
    <ele>36</ele>
    <time>2026-06-26T16:36:15.000Z</time>
   </trkpt>
   <trkpt lat="52.495529" lon="13.43791">
    <ele>36</ele>
    <time>2026-06-26T16:36:17.000Z</time>
   </trkpt>
   <trkpt lat="52.495605" lon="13.437611">
    <ele>35.8</ele>
    <time>2026-06-26T16:36:22.000Z</time>
   </trkpt>
   <trkpt lat="52.495724" lon="13.437301">
    <ele>35.8</ele>
    <time>2026-06-26T16:36:27.000Z</time>
   </trkpt>
   <trkpt lat="52.495865" lon="13.436992">
    <ele>35.8</ele>
    <time>2026-06-26T16:36:33.000Z</time>
   </trkpt>
   <trkpt lat="52.495898" lon="13.436852">
    <ele>35.8</ele>
    <time>2026-06-26T16:36:35.000Z</time>
   </trkpt>
   <trkpt lat="52.49592" lon="13.436684">
    <ele>35.8</ele>
    <time>2026-06-26T16:36:38.000Z</time>
   </trkpt>
   <trkpt lat="52.495937" lon="13.436638">
    <ele>35.8</ele>
    <time>2026-06-26T16:36:39.000Z</time>
   </trkpt>
   <trkpt lat="52.496018" lon="13.436422">
    <ele>35.8</ele>
    <time>2026-06-26T16:36:43.000Z</time>
   </trkpt>
   <trkpt lat="52.496131" lon="13.436108">
    <ele>35.8</ele>
    <time>2026-06-26T16:36:48.000Z</time>
   </trkpt>
   <trkpt lat="52.496154" lon="13.43605">
    <ele>35.8</ele>
    <time>2026-06-26T16:36:49.000Z</time>
   </trkpt>
   <trkpt lat="52.496286" lon="13.435663">
    <ele>35.8</ele>
    <time>2026-06-26T16:36:55.000Z</time>
   </trkpt>
   <trkpt lat="52.496303" lon="13.435609">
    <ele>35.8</ele>
    <time>2026-06-26T16:36:56.000Z</time>
   </trkpt>
   <trkpt lat="52.496412" lon="13.435248">
    <ele>35.8</ele>
    <time>2026-06-26T16:37:02.000Z</time>
   </trkpt>
   <trkpt lat="52.496464" lon="13.435116">
    <ele>35.6</ele>
    <time>2026-06-26T16:37:04.000Z</time>
   </trkpt>
   <trkpt lat="52.496571" lon="13.434874">
    <ele>35.6</ele>
    <time>2026-06-26T16:37:08.000Z</time>
   </trkpt>
   <trkpt lat="52.496635" lon="13.434706">
    <ele>35.4</ele>
    <time>2026-06-26T16:37:11.000Z</time>
   </trkpt>
   <trkpt lat="52.496708" lon="13.434496">
    <ele>35.4</ele>
    <time>2026-06-26T16:37:15.000Z</time>
   </trkpt>
   <trkpt lat="52.496848" lon="13.434101">
    <ele>35.6</ele>
    <time>2026-06-26T16:37:22.000Z</time>
   </trkpt>
   <trkpt lat="52.496909" lon="13.433907">
    <ele>35.6</ele>
    <time>2026-06-26T16:37:25.000Z</time>
   </trkpt>
   <trkpt lat="52.496957" lon="13.433775">
    <ele>35.6</ele>
    <time>2026-06-26T16:37:27.000Z</time>
   </trkpt>
   <trkpt lat="52.49698" lon="13.433708">
    <ele>35.6</ele>
    <time>2026-06-26T16:37:28.000Z</time>
   </trkpt>
   <trkpt lat="52.497042" lon="13.433531">
    <ele>35.6</ele>
    <time>2026-06-26T16:37:31.000Z</time>
   </trkpt>
   <trkpt lat="52.497068" lon="13.433386">
    <ele>35.6</ele>
    <time>2026-06-26T16:37:33.000Z</time>
   </trkpt>
   <trkpt lat="52.497084" lon="13.433318">
    <ele>35.6</ele>
    <time>2026-06-26T16:37:34.000Z</time>
   </trkpt>
   <trkpt lat="52.497177" lon="13.433027">
    <ele>35.4</ele>
    <time>2026-06-26T16:37:39.000Z</time>
   </trkpt>
   <trkpt lat="52.4973" lon="13.432633">
    <ele>35.8</ele>
    <time>2026-06-26T16:37:46.000Z</time>
   </trkpt>
   <trkpt lat="52.49737" lon="13.432329">
    <ele>36</ele>
    <time>2026-06-26T16:37:52.000Z</time>
   </trkpt>
   <trkpt lat="52.497411" lon="13.432046">
    <ele>36</ele>
    <time>2026-06-26T16:37:57.000Z</time>
   </trkpt>
   <trkpt lat="52.497526" lon="13.431772">
    <ele>36</ele>
    <time>2026-06-26T16:38:02.000Z</time>
   </trkpt>
   <trkpt lat="52.497595" lon="13.4316">
    <ele>36</ele>
    <time>2026-06-26T16:38:05.000Z</time>
   </trkpt>
   <trkpt lat="52.497746" lon="13.431269">
    <ele>35.8</ele>
    <time>2026-06-26T16:38:10.000Z</time>
   </trkpt>
   <trkpt lat="52.497854" lon="13.431042">
    <ele>35.6</ele>
    <time>2026-06-26T16:38:14.000Z</time>
   </trkpt>
   <trkpt lat="52.497906" lon="13.430912">
    <ele>35.6</ele>
    <time>2026-06-26T16:38:16.000Z</time>
   </trkpt>
   <trkpt lat="52.498007" lon="13.430672">
    <ele>35.6</ele>
    <time>2026-06-26T16:38:20.000Z</time>
   </trkpt>
   <trkpt lat="52.49803" lon="13.430615">
    <ele>35.6</ele>
    <time>2026-06-26T16:38:21.000Z</time>
   </trkpt>
   <trkpt lat="52.498109" lon="13.430465">
    <ele>35.6</ele>
    <time>2026-06-26T16:38:24.000Z</time>
   </trkpt>
   <trkpt lat="52.498137" lon="13.430418">
    <ele>35.6</ele>
    <time>2026-06-26T16:38:25.000Z</time>
   </trkpt>
   <trkpt lat="52.498165" lon="13.430365">
    <ele>35.6</ele>
    <time>2026-06-26T16:38:26.000Z</time>
   </trkpt>
   <trkpt lat="52.498231" lon="13.430179">
    <ele>35.8</ele>
    <time>2026-06-26T16:38:29.000Z</time>
   </trkpt>
   <trkpt lat="52.498389" lon="13.429695">
    <ele>35.6</ele>
    <time>2026-06-26T16:38:37.000Z</time>
   </trkpt>
   <trkpt lat="52.498413" lon="13.429638">
    <ele>35.6</ele>
    <time>2026-06-26T16:38:38.000Z</time>
   </trkpt>
   <trkpt lat="52.498458" lon="13.429528">
    <ele>35.6</ele>
    <time>2026-06-26T16:38:40.000Z</time>
   </trkpt>
   <trkpt lat="52.498582" lon="13.429199">
    <ele>35.6</ele>
    <time>2026-06-26T16:38:45.000Z</time>
   </trkpt>
   <trkpt lat="52.498717" lon="13.428721">
    <ele>35.8</ele>
    <time>2026-06-26T16:38:52.000Z</time>
   </trkpt>
   <trkpt lat="52.498823" lon="13.428357">
    <ele>36</ele>
    <time>2026-06-26T16:38:58.000Z</time>
   </trkpt>
   <trkpt lat="52.498929" lon="13.428105">
    <ele>35.8</ele>
    <time>2026-06-26T16:39:04.000Z</time>
   </trkpt>
   <trkpt lat="52.498973" lon="13.427976">
    <ele>35.8</ele>
    <time>2026-06-26T16:39:08.000Z</time>
   </trkpt>
   <trkpt lat="52.499038" lon="13.427724">
    <ele>35.8</ele>
    <time>2026-06-26T16:39:14.000Z</time>
   </trkpt>
   <trkpt lat="52.499042" lon="13.427714">
    <ele>35.8</ele>
    <time>2026-06-26T16:39:15.000Z</time>
   </trkpt>
   <trkpt lat="52.499073" lon="13.427636">
    <ele>35.8</ele>
    <time>2026-06-26T16:39:28.000Z</time>
   </trkpt>
   <trkpt lat="52.499122" lon="13.427418">
    <ele>35.8</ele>
    <time>2026-06-26T16:39:32.000Z</time>
   </trkpt>
   <trkpt lat="52.49915" lon="13.427277">
    <ele>35.8</ele>
    <time>2026-06-26T16:39:34.000Z</time>
   </trkpt>
   <trkpt lat="52.499178" lon="13.427074">
    <ele>35.8</ele>
    <time>2026-06-26T16:39:38.000Z</time>
   </trkpt>
   <trkpt lat="52.499207" lon="13.426973">
    <ele>35.8</ele>
    <time>2026-06-26T16:39:40.000Z</time>
   </trkpt>
   <trkpt lat="52.499212" lon="13.426926">
    <ele>35.8</ele>
    <time>2026-06-26T16:39:41.000Z</time>
   </trkpt>
   <trkpt lat="52.499223" lon="13.426887">
    <ele>35.8</ele>
    <time>2026-06-26T16:39:42.000Z</time>
   </trkpt>
   <trkpt lat="52.499248" lon="13.426829">
    <ele>35.8</ele>
    <time>2026-06-26T16:39:44.000Z</time>
   </trkpt>
   <trkpt lat="52.499257" lon="13.426804">
    <ele>35.8</ele>
    <time>2026-06-26T16:39:47.000Z</time>
   </trkpt>
   <trkpt lat="52.499263" lon="13.426682">
    <ele>35.6</ele>
    <time>2026-06-26T16:39:57.000Z</time>
   </trkpt>
   <trkpt lat="52.499271" lon="13.426315">
    <ele>35.4</ele>
    <time>2026-06-26T16:40:02.000Z</time>
   </trkpt>
   <trkpt lat="52.499261" lon="13.425679">
    <ele>35.4</ele>
    <time>2026-06-26T16:40:09.000Z</time>
   </trkpt>
   <trkpt lat="52.49925" lon="13.424935">
    <ele>35.4</ele>
    <time>2026-06-26T16:40:16.000Z</time>
   </trkpt>
   <trkpt lat="52.499257" lon="13.424455">
    <ele>35.6</ele>
    <time>2026-06-26T16:40:21.000Z</time>
   </trkpt>
   <trkpt lat="52.499251" lon="13.424283">
    <ele>35.6</ele>
    <time>2026-06-26T16:40:23.000Z</time>
   </trkpt>
   <trkpt lat="52.499257" lon="13.423894">
    <ele>35.4</ele>
    <time>2026-06-26T16:40:27.000Z</time>
   </trkpt>
   <trkpt lat="52.499256" lon="13.423077">
    <ele>35.6</ele>
    <time>2026-06-26T16:40:36.000Z</time>
   </trkpt>
   <trkpt lat="52.499251" lon="13.422722">
    <ele>35.6</ele>
    <time>2026-06-26T16:40:41.000Z</time>
   </trkpt>
   <trkpt lat="52.499247" lon="13.422647">
    <ele>35.4</ele>
    <time>2026-06-26T16:40:44.000Z</time>
   </trkpt>
   <trkpt lat="52.499247" lon="13.422647">
    <ele>35.4</ele>
    <time>2026-06-26T16:40:45.000Z</time>
   </trkpt>
   <trkpt lat="52.499247" lon="13.422647">
    <ele>35.2</ele>
    <time>2026-06-26T16:40:47.000Z</time>
   </trkpt>
   <trkpt lat="52.49925" lon="13.422595">
    <ele>35.2</ele>
    <time>2026-06-26T16:41:14.000Z</time>
   </trkpt>
   <trkpt lat="52.499253" lon="13.422488">
    <ele>35.4</ele>
    <time>2026-06-26T16:41:16.000Z</time>
   </trkpt>
   <trkpt lat="52.499255" lon="13.422131">
    <ele>35.6</ele>
    <time>2026-06-26T16:41:21.000Z</time>
   </trkpt>
   <trkpt lat="52.499255" lon="13.421972">
    <ele>35.6</ele>
    <time>2026-06-26T16:41:23.000Z</time>
   </trkpt>
   <trkpt lat="52.499253" lon="13.421721">
    <ele>35.6</ele>
    <time>2026-06-26T16:41:26.000Z</time>
   </trkpt>
   <trkpt lat="52.499232" lon="13.42136">
    <ele>35.4</ele>
    <time>2026-06-26T16:41:30.000Z</time>
   </trkpt>
   <trkpt lat="52.499217" lon="13.420751">
    <ele>35.4</ele>
    <time>2026-06-26T16:41:36.000Z</time>
   </trkpt>
   <trkpt lat="52.499211" lon="13.420104">
    <ele>36</ele>
    <time>2026-06-26T16:41:43.000Z</time>
   </trkpt>
   <trkpt lat="52.499208" lon="13.42002">
    <ele>36</ele>
    <time>2026-06-26T16:41:44.000Z</time>
   </trkpt>
   <trkpt lat="52.499213" lon="13.419936">
    <ele>36</ele>
    <time>2026-06-26T16:41:45.000Z</time>
   </trkpt>
   <trkpt lat="52.499212" lon="13.419693">
    <ele>36</ele>
    <time>2026-06-26T16:41:48.000Z</time>
   </trkpt>
   <trkpt lat="52.499201" lon="13.419528">
    <ele>35.8</ele>
    <time>2026-06-26T16:41:52.000Z</time>
   </trkpt>
   <trkpt lat="52.499184" lon="13.419367">
    <ele>35.6</ele>
    <time>2026-06-26T16:41:59.000Z</time>
   </trkpt>
   <trkpt lat="52.499173" lon="13.419168">
    <ele>35.4</ele>
    <time>2026-06-26T16:42:03.000Z</time>
   </trkpt>
   <trkpt lat="52.499164" lon="13.418948">
    <ele>35.4</ele>
    <time>2026-06-26T16:42:10.000Z</time>
   </trkpt>
   <trkpt lat="52.499182" lon="13.418747">
    <ele>35.2</ele>
    <time>2026-06-26T16:42:17.000Z</time>
   </trkpt>
   <trkpt lat="52.4992" lon="13.4187">
    <ele>35.2</ele>
    <time>2026-06-26T16:42:18.000Z</time>
   </trkpt>
   <trkpt lat="52.499256" lon="13.418603">
    <ele>35.2</ele>
    <time>2026-06-26T16:42:20.000Z</time>
   </trkpt>
   <trkpt lat="52.499366" lon="13.418387">
    <ele>34.8</ele>
    <time>2026-06-26T16:42:26.000Z</time>
   </trkpt>
   <trkpt lat="52.499374" lon="13.41837">
    <ele>34.8</ele>
    <time>2026-06-26T16:42:28.000Z</time>
   </trkpt>
   <trkpt lat="52.499392" lon="13.418342">
    <ele>34.8</ele>
    <time>2026-06-26T16:42:30.000Z</time>
   </trkpt>
   <trkpt lat="52.499394" lon="13.418335">
    <ele>34.8</ele>
    <time>2026-06-26T16:42:31.000Z</time>
   </trkpt>
   <trkpt lat="52.499407" lon="13.418273">
    <ele>34.8</ele>
    <time>2026-06-26T16:42:39.000Z</time>
   </trkpt>
   <trkpt lat="52.499401" lon="13.418162">
    <ele>34.8</ele>
    <time>2026-06-26T16:42:41.000Z</time>
   </trkpt>
   <trkpt lat="52.49939" lon="13.418099">
    <ele>34.8</ele>
    <time>2026-06-26T16:42:42.000Z</time>
   </trkpt>
   <trkpt lat="52.499329" lon="13.417923">
    <ele>35</ele>
    <time>2026-06-26T16:42:45.000Z</time>
   </trkpt>
   <trkpt lat="52.499287" lon="13.417815">
    <ele>35</ele>
    <time>2026-06-26T16:42:49.000Z</time>
   </trkpt>
   <trkpt lat="52.499286" lon="13.417785">
    <ele>35</ele>
    <time>2026-06-26T16:42:50.000Z</time>
   </trkpt>
   <trkpt lat="52.499293" lon="13.417635">
    <ele>34.8</ele>
    <time>2026-06-26T16:42:53.000Z</time>
   </trkpt>
   <trkpt lat="52.499348" lon="13.417387">
    <ele>34.8</ele>
    <time>2026-06-26T16:42:57.000Z</time>
   </trkpt>
   <trkpt lat="52.499374" lon="13.417326">
    <ele>34.8</ele>
    <time>2026-06-26T16:42:58.000Z</time>
   </trkpt>
   <trkpt lat="52.499401" lon="13.417267">
    <ele>34.8</ele>
    <time>2026-06-26T16:42:59.000Z</time>
   </trkpt>
   <trkpt lat="52.499462" lon="13.417123">
    <ele>34.8</ele>
    <time>2026-06-26T16:43:02.000Z</time>
   </trkpt>
   <trkpt lat="52.499466" lon="13.417082">
    <ele>35</ele>
    <time>2026-06-26T16:43:03.000Z</time>
   </trkpt>
   <trkpt lat="52.499494" lon="13.416953">
    <ele>35.2</ele>
    <time>2026-06-26T16:43:05.000Z</time>
   </trkpt>
   <trkpt lat="52.499526" lon="13.416821">
    <ele>35.2</ele>
    <time>2026-06-26T16:43:07.000Z</time>
   </trkpt>
   <trkpt lat="52.499614" lon="13.416514">
    <ele>35.2</ele>
    <time>2026-06-26T16:43:12.000Z</time>
   </trkpt>
   <trkpt lat="52.499701" lon="13.416305">
    <ele>35.2</ele>
    <time>2026-06-26T16:43:16.000Z</time>
   </trkpt>
   <trkpt lat="52.499832" lon="13.415947">
    <ele>35.2</ele>
    <time>2026-06-26T16:43:22.000Z</time>
   </trkpt>
   <trkpt lat="52.49986" lon="13.415871">
    <ele>35.2</ele>
    <time>2026-06-26T16:43:23.000Z</time>
   </trkpt>
   <trkpt lat="52.499935" lon="13.415684">
    <ele>35.2</ele>
    <time>2026-06-26T16:43:26.000Z</time>
   </trkpt>
   <trkpt lat="52.499958" lon="13.415601">
    <ele>35.2</ele>
    <time>2026-06-26T16:43:27.000Z</time>
   </trkpt>
   <trkpt lat="52.500044" lon="13.415332">
    <ele>35</ele>
    <time>2026-06-26T16:43:31.000Z</time>
   </trkpt>
   <trkpt lat="52.500065" lon="13.415262">
    <ele>35</ele>
    <time>2026-06-26T16:43:32.000Z</time>
   </trkpt>
   <trkpt lat="52.500122" lon="13.415047">
    <ele>35.2</ele>
    <time>2026-06-26T16:43:35.000Z</time>
   </trkpt>
   <trkpt lat="52.500174" lon="13.414851">
    <ele>35.2</ele>
    <time>2026-06-26T16:43:38.000Z</time>
   </trkpt>
   <trkpt lat="52.500224" lon="13.414632">
    <ele>35.2</ele>
    <time>2026-06-26T16:43:42.000Z</time>
   </trkpt>
   <trkpt lat="52.500334" lon="13.414233">
    <ele>35.2</ele>
    <time>2026-06-26T16:43:49.000Z</time>
   </trkpt>
   <trkpt lat="52.500406" lon="13.413893">
    <ele>35.2</ele>
    <time>2026-06-26T16:43:55.000Z</time>
   </trkpt>
   <trkpt lat="52.500426" lon="13.413758">
    <ele>35.2</ele>
    <time>2026-06-26T16:43:57.000Z</time>
   </trkpt>
   <trkpt lat="52.500518" lon="13.413514">
    <ele>35.2</ele>
    <time>2026-06-26T16:44:01.000Z</time>
   </trkpt>
   <trkpt lat="52.500671" lon="13.412995">
    <ele>34.8</ele>
    <time>2026-06-26T16:44:09.000Z</time>
   </trkpt>
   <trkpt lat="52.500869" lon="13.412399">
    <ele>34.6</ele>
    <time>2026-06-26T16:44:17.000Z</time>
   </trkpt>
   <trkpt lat="52.500944" lon="13.41217">
    <ele>34.6</ele>
    <time>2026-06-26T16:44:20.000Z</time>
   </trkpt>
   <trkpt lat="52.501019" lon="13.411938">
    <ele>34.6</ele>
    <time>2026-06-26T16:44:23.000Z</time>
   </trkpt>
   <trkpt lat="52.501057" lon="13.411779">
    <ele>34.8</ele>
    <time>2026-06-26T16:44:25.000Z</time>
   </trkpt>
   <trkpt lat="52.501108" lon="13.411553">
    <ele>34.8</ele>
    <time>2026-06-26T16:44:28.000Z</time>
   </trkpt>
   <trkpt lat="52.501244" lon="13.411107">
    <ele>35</ele>
    <time>2026-06-26T16:44:35.000Z</time>
   </trkpt>
   <trkpt lat="52.501262" lon="13.411043">
    <ele>35</ele>
    <time>2026-06-26T16:44:36.000Z</time>
   </trkpt>
   <trkpt lat="52.50134" lon="13.410871">
    <ele>34.8</ele>
    <time>2026-06-26T16:44:39.000Z</time>
   </trkpt>
   <trkpt lat="52.501368" lon="13.410812">
    <ele>34.8</ele>
    <time>2026-06-26T16:44:40.000Z</time>
   </trkpt>
   <trkpt lat="52.501518" lon="13.410477">
    <ele>34.6</ele>
    <time>2026-06-26T16:44:46.000Z</time>
   </trkpt>
   <trkpt lat="52.501633" lon="13.410145">
    <ele>35</ele>
    <time>2026-06-26T16:44:53.000Z</time>
   </trkpt>
   <trkpt lat="52.50174" lon="13.409881">
    <ele>34.8</ele>
    <time>2026-06-26T16:45:00.000Z</time>
   </trkpt>
   <trkpt lat="52.501784" lon="13.409645">
    <ele>35</ele>
    <time>2026-06-26T16:45:06.000Z</time>
   </trkpt>
   <trkpt lat="52.501804" lon="13.409521">
    <ele>34.8</ele>
    <time>2026-06-26T16:45:10.000Z</time>
   </trkpt>
   <trkpt lat="52.501819" lon="13.409453">
    <ele>34.4</ele>
    <time>2026-06-26T16:45:41.000Z</time>
   </trkpt>
   <trkpt lat="52.501875" lon="13.40928">
    <ele>34.4</ele>
    <time>2026-06-26T16:45:46.000Z</time>
   </trkpt>
   <trkpt lat="52.501888" lon="13.409043">
    <ele>34.4</ele>
    <time>2026-06-26T16:45:50.000Z</time>
   </trkpt>
   <trkpt lat="52.501964" lon="13.408729">
    <ele>34.8</ele>
    <time>2026-06-26T16:45:56.000Z</time>
   </trkpt>
   <trkpt lat="52.502004" lon="13.408604">
    <ele>34.8</ele>
    <time>2026-06-26T16:45:58.000Z</time>
   </trkpt>
   <trkpt lat="52.50206" lon="13.408459">
    <ele>34.6</ele>
    <time>2026-06-26T16:46:00.000Z</time>
   </trkpt>
   <trkpt lat="52.502108" lon="13.408342">
    <ele>34.8</ele>
    <time>2026-06-26T16:46:02.000Z</time>
   </trkpt>
   <trkpt lat="52.502159" lon="13.408193">
    <ele>34.6</ele>
    <time>2026-06-26T16:46:04.000Z</time>
   </trkpt>
   <trkpt lat="52.502274" lon="13.407745">
    <ele>35</ele>
    <time>2026-06-26T16:46:11.000Z</time>
   </trkpt>
   <trkpt lat="52.502293" lon="13.40768">
    <ele>35</ele>
    <time>2026-06-26T16:46:12.000Z</time>
   </trkpt>
   <trkpt lat="52.502304" lon="13.407613">
    <ele>35</ele>
    <time>2026-06-26T16:46:13.000Z</time>
   </trkpt>
   <trkpt lat="52.502342" lon="13.407414">
    <ele>35</ele>
    <time>2026-06-26T16:46:16.000Z</time>
   </trkpt>
   <trkpt lat="52.502424" lon="13.40709">
    <ele>35.2</ele>
    <time>2026-06-26T16:46:21.000Z</time>
   </trkpt>
   <trkpt lat="52.502441" lon="13.407027">
    <ele>35</ele>
    <time>2026-06-26T16:46:22.000Z</time>
   </trkpt>
   <trkpt lat="52.502494" lon="13.406915">
    <ele>35.2</ele>
    <time>2026-06-26T16:46:24.000Z</time>
   </trkpt>
   <trkpt lat="52.502554" lon="13.406808">
    <ele>35.2</ele>
    <time>2026-06-26T16:46:26.000Z</time>
   </trkpt>
   <trkpt lat="52.50258" lon="13.406698">
    <ele>35.2</ele>
    <time>2026-06-26T16:46:28.000Z</time>
   </trkpt>
   <trkpt lat="52.502607" lon="13.406665">
    <ele>35.4</ele>
    <time>2026-06-26T16:46:29.000Z</time>
   </trkpt>
   <trkpt lat="52.502687" lon="13.406658">
    <ele>35.4</ele>
    <time>2026-06-26T16:46:31.000Z</time>
   </trkpt>
   <trkpt lat="52.502768" lon="13.406701">
    <ele>35.6</ele>
    <time>2026-06-26T16:46:33.000Z</time>
   </trkpt>
   <trkpt lat="52.503161" lon="13.407024">
    <ele>35.4</ele>
    <time>2026-06-26T16:46:42.000Z</time>
   </trkpt>
   <trkpt lat="52.503423" lon="13.40725">
    <ele>35.2</ele>
    <time>2026-06-26T16:46:49.000Z</time>
   </trkpt>
   <trkpt lat="52.503445" lon="13.407284">
    <ele>35.2</ele>
    <time>2026-06-26T16:46:50.000Z</time>
   </trkpt>
   <trkpt lat="52.503461" lon="13.407319">
    <ele>35.4</ele>
    <time>2026-06-26T16:46:52.000Z</time>
   </trkpt>
   <trkpt lat="52.503461" lon="13.407319">
    <ele>35.2</ele>
    <time>2026-06-26T16:47:07.000Z</time>
   </trkpt>
   <trkpt lat="52.503345" lon="13.408191">
    <ele>35.6</ele>
    <time>2026-06-26T16:47:13.000Z</time>
   </trkpt>
   <trkpt lat="52.503294" lon="13.408325">
    <ele>35.8</ele>
    <time>2026-06-26T16:47:16.000Z</time>
   </trkpt>
   <trkpt lat="52.503338" lon="13.408517">
    <ele>36</ele>
    <time>2026-06-26T16:47:19.000Z</time>
   </trkpt>
   <trkpt lat="52.503333" lon="13.408515">
    <ele>36</ele>
    <time>2026-06-26T16:47:20.000Z</time>
   </trkpt>
   <trkpt lat="52.503333" lon="13.408515">
    <ele>36</ele>
    <time>2026-06-26T16:47:23.000Z</time>
   </trkpt>
   <trkpt lat="52.503333" lon="13.408515">
    <ele>36</ele>
    <time>2026-06-26T16:47:24.000Z</time>
   </trkpt>
  </trkseg>
 </trk>
</gpx>
