<?xml version="1.0" encoding="UTF-8"?>
<gpx creator="StravaGPX" version="1.1" xmlns="http://www.topografix.com/GPX/1/1">
 <metadata>
  <time>2019-09-16T15:05:25Z</time>
 </metadata>
 <trk>
  <name>Lunch Ride</name>
  <type>1</type>
  <trkseg>
   <trkpt lat="-8.036932" lon="-34.892574">
    <ele>9.9</ele>
    <time>2019-09-16T15:05:25.000Z</time>
   </trkpt>
   <trkpt lat="-8.036847" lon="-34.892649">
    <ele>10</ele>
    <time>2019-09-16T15:06:28.000Z</time>
   </trkpt>
   <trkpt lat="-8.03689" lon="-34.892647">
    <ele>10</ele>
    <time>2019-09-16T15:06:31.000Z</time>
   </trkpt>
   <trkpt lat="-8.036918" lon="-34.892664">
    <ele>10</ele>
    <time>2019-09-16T15:06:33.000Z</time>
   </trkpt>
   <trkpt lat="-8.036948" lon="-34.892678">
    <ele>10</ele>
    <time>2019-09-16T15:06:34.000Z</time>
   </trkpt>
   <trkpt lat="-8.037003" lon="-34.89271">
    <ele>10</ele>
    <time>2019-09-16T15:06:36.000Z</time>
   </trkpt>
   <trkpt lat="-8.037036" lon="-34.892735">
    <ele>10</ele>
    <time>2019-09-16T15:06:37.000Z</time>
   </trkpt>
   <trkpt lat="-8.037066" lon="-34.892753">
    <ele>10</ele>
    <time>2019-09-16T15:06:38.000Z</time>
   </trkpt>
   <trkpt lat="-8.037099" lon="-34.892776">
    <ele>10</ele>
    <time>2019-09-16T15:06:39.000Z</time>
   </trkpt>
   <trkpt lat="-8.037137" lon="-34.892792">
    <ele>10</ele>
    <time>2019-09-16T15:06:40.000Z</time>
   </trkpt>
   <trkpt lat="-8.037164" lon="-34.892803">
    <ele>10</ele>
    <time>2019-09-16T15:06:41.000Z</time>
   </trkpt>
   <trkpt lat="-8.03722" lon="-34.892821">
    <ele>10</ele>
    <time>2019-09-16T15:06:43.000Z</time>
   </trkpt>
   <trkpt lat="-8.037249" lon="-34.892826">
    <ele>10</ele>
    <time>2019-09-16T15:06:44.000Z</time>
   </trkpt>
   <trkpt lat="-8.037276" lon="-34.892841">
    <ele>10</ele>
    <time>2019-09-16T15:06:45.000Z</time>
   </trkpt>
   <trkpt lat="-8.037305" lon="-34.892845">
    <ele>10</ele>
    <time>2019-09-16T15:06:46.000Z</time>
   </trkpt>
   <trkpt lat="-8.037334" lon="-34.89286">
    <ele>10</ele>
    <time>2019-09-16T15:06:47.000Z</time>
   </trkpt>
   <trkpt lat="-8.037368" lon="-34.892888">
    <ele>10</ele>
    <time>2019-09-16T15:06:49.000Z</time>
   </trkpt>
   <trkpt lat="-8.037348" lon="-34.892936">
    <ele>10</ele>
    <time>2019-09-16T15:06:51.000Z</time>
   </trkpt>
   <trkpt lat="-8.037333" lon="-34.892967">
    <ele>10</ele>
    <time>2019-09-16T15:06:52.000Z</time>
   </trkpt>
   <trkpt lat="-8.037321" lon="-34.893007">
    <ele>10</ele>
    <time>2019-09-16T15:06:53.000Z</time>
   </trkpt>
   <trkpt lat="-8.037301" lon="-34.893035">
    <ele>10</ele>
    <time>2019-09-16T15:06:54.000Z</time>
   </trkpt>
   <trkpt lat="-8.037281" lon="-34.893075">
    <ele>10</ele>
    <time>2019-09-16T15:06:55.000Z</time>
   </trkpt>
   <trkpt lat="-8.037266" lon="-34.893109">
    <ele>10</ele>
    <time>2019-09-16T15:06:56.000Z</time>
   </trkpt>
   <trkpt lat="-8.037246" lon="-34.893138">
    <ele>10</ele>
    <time>2019-09-16T15:06:57.000Z</time>
   </trkpt>
   <trkpt lat="-8.037229" lon="-34.893172">
    <ele>10</ele>
    <time>2019-09-16T15:06:58.000Z</time>
   </trkpt>
   <trkpt lat="-8.037213" lon="-34.893209">
    <ele>10</ele>
    <time>2019-09-16T15:06:59.000Z</time>
   </trkpt>
   <trkpt lat="-8.037193" lon="-34.893243">
    <ele>10</ele>
    <time>2019-09-16T15:07:00.000Z</time>
   </trkpt>
   <trkpt lat="-8.037179" lon="-34.893276">
    <ele>9.9</ele>
    <time>2019-09-16T15:07:01.000Z</time>
   </trkpt>
   <trkpt lat="-8.037157" lon="-34.893327">
    <ele>9.8</ele>
    <time>2019-09-16T15:07:02.000Z</time>
   </trkpt>
   <trkpt lat="-8.037137" lon="-34.893372">
    <ele>9.6</ele>
    <time>2019-09-16T15:07:03.000Z</time>
   </trkpt>
   <trkpt lat="-8.03711" lon="-34.893415">
    <ele>9.2</ele>
    <time>2019-09-16T15:07:04.000Z</time>
   </trkpt>
   <trkpt lat="-8.037105" lon="-34.893459">
    <ele>8.9</ele>
    <time>2019-09-16T15:07:05.000Z</time>
   </trkpt>
   <trkpt lat="-8.0371" lon="-34.893499">
    <ele>8.6</ele>
    <time>2019-09-16T15:07:06.000Z</time>
   </trkpt>
   <trkpt lat="-8.037088" lon="-34.893537">
    <ele>8.5</ele>
    <time>2019-09-16T15:07:07.000Z</time>
   </trkpt>
   <trkpt lat="-8.037084" lon="-34.893581">
    <ele>8.3</ele>
    <time>2019-09-16T15:07:08.000Z</time>
   </trkpt>
   <trkpt lat="-8.037076" lon="-34.89362">
    <ele>8.2</ele>
    <time>2019-09-16T15:07:09.000Z</time>
   </trkpt>
   <trkpt lat="-8.037062" lon="-34.893657">
    <ele>8.1</ele>
    <time>2019-09-16T15:07:10.000Z</time>
   </trkpt>
   <trkpt lat="-8.037048" lon="-34.893688">
    <ele>8.3</ele>
    <time>2019-09-16T15:07:11.000Z</time>
   </trkpt>
   <trkpt lat="-8.03704" lon="-34.893721">
    <ele>8.5</ele>
    <time>2019-09-16T15:07:12.000Z</time>
   </trkpt>
   <trkpt lat="-8.037031" lon="-34.893758">
    <ele>8.8</ele>
    <time>2019-09-16T15:07:13.000Z</time>
   </trkpt>
   <trkpt lat="-8.03702" lon="-34.893797">
    <ele>9.1</ele>
    <time>2019-09-16T15:07:14.000Z</time>
   </trkpt>
   <trkpt lat="-8.037022" lon="-34.893837">
    <ele>9.4</ele>
    <time>2019-09-16T15:07:15.000Z</time>
   </trkpt>
   <trkpt lat="-8.037011" lon="-34.89388">
    <ele>9.5</ele>
    <time>2019-09-16T15:07:16.000Z</time>
   </trkpt>
   <trkpt lat="-8.037" lon="-34.893924">
    <ele>9.5</ele>
    <time>2019-09-16T15:07:17.000Z</time>
   </trkpt>
   <trkpt lat="-8.036987" lon="-34.893963">
    <ele>9.6</ele>
    <time>2019-09-16T15:07:18.000Z</time>
   </trkpt>
   <trkpt lat="-8.036982" lon="-34.89399">
    <ele>9.7</ele>
    <time>2019-09-16T15:07:19.000Z</time>
   </trkpt>
   <trkpt lat="-8.036977" lon="-34.894019">
    <ele>9.8</ele>
    <time>2019-09-16T15:07:20.000Z</time>
   </trkpt>
   <trkpt lat="-8.036968" lon="-34.894046">
    <ele>9.8</ele>
    <time>2019-09-16T15:07:21.000Z</time>
   </trkpt>
   <trkpt lat="-8.036966" lon="-34.894079">
    <ele>9.5</ele>
    <time>2019-09-16T15:07:22.000Z</time>
   </trkpt>
   <trkpt lat="-8.036949" lon="-34.894101">
    <ele>9.3</ele>
    <time>2019-09-16T15:07:23.000Z</time>
   </trkpt>
   <trkpt lat="-8.036941" lon="-34.894129">
    <ele>9.2</ele>
    <time>2019-09-16T15:07:24.000Z</time>
   </trkpt>
   <trkpt lat="-8.036944" lon="-34.894166">
    <ele>9</ele>
    <time>2019-09-16T15:07:26.000Z</time>
   </trkpt>
   <trkpt lat="-8.03695" lon="-34.894197">
    <ele>8.3</ele>
    <time>2019-09-16T15:07:28.000Z</time>
   </trkpt>
   <trkpt lat="-8.036949" lon="-34.894235">
    <ele>8.3</ele>
    <time>2019-09-16T15:07:30.000Z</time>
   </trkpt>
   <trkpt lat="-8.03696" lon="-34.894262">
    <ele>8.3</ele>
    <time>2019-09-16T15:07:32.000Z</time>
   </trkpt>
   <trkpt lat="-8.036983" lon="-34.894279">
    <ele>8.3</ele>
    <time>2019-09-16T15:07:33.000Z</time>
   </trkpt>
   <trkpt lat="-8.037028" lon="-34.894304">
    <ele>8</ele>
    <time>2019-09-16T15:07:35.000Z</time>
   </trkpt>
   <trkpt lat="-8.037071" lon="-34.894308">
    <ele>7.8</ele>
    <time>2019-09-16T15:07:36.000Z</time>
   </trkpt>
   <trkpt lat="-8.037106" lon="-34.894303">
    <ele>7.6</ele>
    <time>2019-09-16T15:07:37.000Z</time>
   </trkpt>
   <trkpt lat="-8.037134" lon="-34.894287">
    <ele>7.5</ele>
    <time>2019-09-16T15:07:38.000Z</time>
   </trkpt>
   <trkpt lat="-8.037167" lon="-34.894258">
    <ele>7.3</ele>
    <time>2019-09-16T15:07:39.000Z</time>
   </trkpt>
   <trkpt lat="-8.037189" lon="-34.894236">
    <ele>7.3</ele>
    <time>2019-09-16T15:07:40.000Z</time>
   </trkpt>
   <trkpt lat="-8.037227" lon="-34.894219">
    <ele>7.2</ele>
    <time>2019-09-16T15:07:41.000Z</time>
   </trkpt>
   <trkpt lat="-8.037249" lon="-34.894198">
    <ele>7.1</ele>
    <time>2019-09-16T15:07:42.000Z</time>
   </trkpt>
   <trkpt lat="-8.03727" lon="-34.894173">
    <ele>7</ele>
    <time>2019-09-16T15:07:43.000Z</time>
   </trkpt>
   <trkpt lat="-8.037297" lon="-34.894145">
    <ele>6.9</ele>
    <time>2019-09-16T15:07:44.000Z</time>
   </trkpt>
   <trkpt lat="-8.037322" lon="-34.894118">
    <ele>6.8</ele>
    <time>2019-09-16T15:07:45.000Z</time>
   </trkpt>
   <trkpt lat="-8.037344" lon="-34.894092">
    <ele>6.7</ele>
    <time>2019-09-16T15:07:46.000Z</time>
   </trkpt>
   <trkpt lat="-8.037367" lon="-34.894059">
    <ele>6.6</ele>
    <time>2019-09-16T15:07:47.000Z</time>
   </trkpt>
   <trkpt lat="-8.037388" lon="-34.894019">
    <ele>6.5</ele>
    <time>2019-09-16T15:07:48.000Z</time>
   </trkpt>
   <trkpt lat="-8.037418" lon="-34.893995">
    <ele>6.3</ele>
    <time>2019-09-16T15:07:49.000Z</time>
   </trkpt>
   <trkpt lat="-8.037443" lon="-34.89398">
    <ele>6.2</ele>
    <time>2019-09-16T15:07:50.000Z</time>
   </trkpt>
   <trkpt lat="-8.037506" lon="-34.893978">
    <ele>6</ele>
    <time>2019-09-16T15:07:52.000Z</time>
   </trkpt>
   <trkpt lat="-8.037544" lon="-34.893984">
    <ele>5.9</ele>
    <time>2019-09-16T15:07:53.000Z</time>
   </trkpt>
   <trkpt lat="-8.037571" lon="-34.893998">
    <ele>5.7</ele>
    <time>2019-09-16T15:07:54.000Z</time>
   </trkpt>
   <trkpt lat="-8.037595" lon="-34.894021">
    <ele>5.6</ele>
    <time>2019-09-16T15:07:55.000Z</time>
   </trkpt>
   <trkpt lat="-8.037625" lon="-34.894039">
    <ele>5.5</ele>
    <time>2019-09-16T15:07:56.000Z</time>
   </trkpt>
   <trkpt lat="-8.037661" lon="-34.894058">
    <ele>5.4</ele>
    <time>2019-09-16T15:07:57.000Z</time>
   </trkpt>
   <trkpt lat="-8.0377" lon="-34.894063">
    <ele>5.2</ele>
    <time>2019-09-16T15:07:58.000Z</time>
   </trkpt>
   <trkpt lat="-8.037737" lon="-34.894069">
    <ele>5.4</ele>
    <time>2019-09-16T15:07:59.000Z</time>
   </trkpt>
   <trkpt lat="-8.037773" lon="-34.894085">
    <ele>5.5</ele>
    <time>2019-09-16T15:08:00.000Z</time>
   </trkpt>
   <trkpt lat="-8.03781" lon="-34.894097">
    <ele>5.7</ele>
    <time>2019-09-16T15:08:01.000Z</time>
   </trkpt>
   <trkpt lat="-8.037848" lon="-34.894108">
    <ele>5.9</ele>
    <time>2019-09-16T15:08:02.000Z</time>
   </trkpt>
   <trkpt lat="-8.037887" lon="-34.894116">
    <ele>6.1</ele>
    <time>2019-09-16T15:08:03.000Z</time>
   </trkpt>
   <trkpt lat="-8.037923" lon="-34.894128">
    <ele>6.3</ele>
    <time>2019-09-16T15:08:04.000Z</time>
   </trkpt>
   <trkpt lat="-8.03796" lon="-34.894142">
    <ele>6.5</ele>
    <time>2019-09-16T15:08:05.000Z</time>
   </trkpt>
   <trkpt lat="-8.037997" lon="-34.894153">
    <ele>6.8</ele>
    <time>2019-09-16T15:08:06.000Z</time>
   </trkpt>
   <trkpt lat="-8.038031" lon="-34.894165">
    <ele>7</ele>
    <time>2019-09-16T15:08:07.000Z</time>
   </trkpt>
   <trkpt lat="-8.038064" lon="-34.894183">
    <ele>7.2</ele>
    <time>2019-09-16T15:08:08.000Z</time>
   </trkpt>
   <trkpt lat="-8.038095" lon="-34.894199">
    <ele>7.4</ele>
    <time>2019-09-16T15:08:09.000Z</time>
   </trkpt>
   <trkpt lat="-8.03813" lon="-34.894207">
    <ele>7.6</ele>
    <time>2019-09-16T15:08:10.000Z</time>
   </trkpt>
   <trkpt lat="-8.03817" lon="-34.894219">
    <ele>7.9</ele>
    <time>2019-09-16T15:08:11.000Z</time>
   </trkpt>
   <trkpt lat="-8.038207" lon="-34.894231">
    <ele>8.1</ele>
    <time>2019-09-16T15:08:12.000Z</time>
   </trkpt>
   <trkpt lat="-8.038236" lon="-34.894236">
    <ele>8.3</ele>
    <time>2019-09-16T15:08:13.000Z</time>
   </trkpt>
   <trkpt lat="-8.038271" lon="-34.894251">
    <ele>8.5</ele>
    <time>2019-09-16T15:08:14.000Z</time>
   </trkpt>
   <trkpt lat="-8.038304" lon="-34.894265">
    <ele>8.8</ele>
    <time>2019-09-16T15:08:15.000Z</time>
   </trkpt>
   <trkpt lat="-8.038338" lon="-34.894285">
    <ele>8.8</ele>
    <time>2019-09-16T15:08:16.000Z</time>
   </trkpt>
   <trkpt lat="-8.038371" lon="-34.894299">
    <ele>8.9</ele>
    <time>2019-09-16T15:08:17.000Z</time>
   </trkpt>
   <trkpt lat="-8.038407" lon="-34.894311">
    <ele>9</ele>
    <time>2019-09-16T15:08:18.000Z</time>
   </trkpt>
   <trkpt lat="-8.038441" lon="-34.894323">
    <ele>9.2</ele>
    <time>2019-09-16T15:08:19.000Z</time>
   </trkpt>
   <trkpt lat="-8.03848" lon="-34.894338">
    <ele>9.3</ele>
    <time>2019-09-16T15:08:20.000Z</time>
   </trkpt>
   <trkpt lat="-8.03852" lon="-34.894343">
    <ele>9.5</ele>
    <time>2019-09-16T15:08:21.000Z</time>
   </trkpt>
   <trkpt lat="-8.038557" lon="-34.894356">
    <ele>9.7</ele>
    <time>2019-09-16T15:08:22.000Z</time>
   </trkpt>
   <trkpt lat="-8.038588" lon="-34.89438">
    <ele>9.7</ele>
    <time>2019-09-16T15:08:23.000Z</time>
   </trkpt>
   <trkpt lat="-8.038622" lon="-34.894401">
    <ele>9.6</ele>
    <time>2019-09-16T15:08:24.000Z</time>
   </trkpt>
   <trkpt lat="-8.038654" lon="-34.894416">
    <ele>9.6</ele>
    <time>2019-09-16T15:08:25.000Z</time>
   </trkpt>
   <trkpt lat="-8.038688" lon="-34.894426">
    <ele>9.6</ele>
    <time>2019-09-16T15:08:26.000Z</time>
   </trkpt>
   <trkpt lat="-8.038722" lon="-34.894438">
    <ele>9.6</ele>
    <time>2019-09-16T15:08:27.000Z</time>
   </trkpt>
   <trkpt lat="-8.038759" lon="-34.89445">
    <ele>9.5</ele>
    <time>2019-09-16T15:08:28.000Z</time>
   </trkpt>
   <trkpt lat="-8.038792" lon="-34.894468">
    <ele>9.5</ele>
    <time>2019-09-16T15:08:29.000Z</time>
   </trkpt>
   <trkpt lat="-8.038831" lon="-34.894481">
    <ele>9.5</ele>
    <time>2019-09-16T15:08:30.000Z</time>
   </trkpt>
   <trkpt lat="-8.038861" lon="-34.894492">
    <ele>9.5</ele>
    <time>2019-09-16T15:08:31.000Z</time>
   </trkpt>
   <trkpt lat="-8.038894" lon="-34.894501">
    <ele>9.6</ele>
    <time>2019-09-16T15:08:32.000Z</time>
   </trkpt>
   <trkpt lat="-8.038926" lon="-34.894508">
    <ele>9.7</ele>
    <time>2019-09-16T15:08:33.000Z</time>
   </trkpt>
   <trkpt lat="-8.038957" lon="-34.894521">
    <ele>9.9</ele>
    <time>2019-09-16T15:08:34.000Z</time>
   </trkpt>
   <trkpt lat="-8.038992" lon="-34.894527">
    <ele>10.2</ele>
    <time>2019-09-16T15:08:35.000Z</time>
   </trkpt>
   <trkpt lat="-8.039029" lon="-34.894537">
    <ele>10.3</ele>
    <time>2019-09-16T15:08:36.000Z</time>
   </trkpt>
   <trkpt lat="-8.039065" lon="-34.894545">
    <ele>10.5</ele>
    <time>2019-09-16T15:08:37.000Z</time>
   </trkpt>
   <trkpt lat="-8.039095" lon="-34.894555">
    <ele>10.4</ele>
    <time>2019-09-16T15:08:38.000Z</time>
   </trkpt>
   <trkpt lat="-8.039129" lon="-34.894558">
    <ele>10.2</ele>
    <time>2019-09-16T15:08:39.000Z</time>
   </trkpt>
   <trkpt lat="-8.039162" lon="-34.894561">
    <ele>9.9</ele>
    <time>2019-09-16T15:08:40.000Z</time>
   </trkpt>
   <trkpt lat="-8.039199" lon="-34.894562">
    <ele>9.7</ele>
    <time>2019-09-16T15:08:41.000Z</time>
   </trkpt>
   <trkpt lat="-8.039239" lon="-34.894577">
    <ele>9.5</ele>
    <time>2019-09-16T15:08:42.000Z</time>
   </trkpt>
   <trkpt lat="-8.039272" lon="-34.894595">
    <ele>9.3</ele>
    <time>2019-09-16T15:08:43.000Z</time>
   </trkpt>
   <trkpt lat="-8.039308" lon="-34.894613">
    <ele>9.3</ele>
    <time>2019-09-16T15:08:44.000Z</time>
   </trkpt>
   <trkpt lat="-8.039346" lon="-34.894625">
    <ele>9.3</ele>
    <time>2019-09-16T15:08:45.000Z</time>
   </trkpt>
   <trkpt lat="-8.039375" lon="-34.894643">
    <ele>10.1</ele>
    <time>2019-09-16T15:08:46.000Z</time>
   </trkpt>
   <trkpt lat="-8.039403" lon="-34.89466">
    <ele>10.5</ele>
    <time>2019-09-16T15:08:47.000Z</time>
   </trkpt>
   <trkpt lat="-8.03944" lon="-34.894677">
    <ele>10.9</ele>
    <time>2019-09-16T15:08:48.000Z</time>
   </trkpt>
   <trkpt lat="-8.03948" lon="-34.894688">
    <ele>11.4</ele>
    <time>2019-09-16T15:08:49.000Z</time>
   </trkpt>
   <trkpt lat="-8.039526" lon="-34.894697">
    <ele>11.9</ele>
    <time>2019-09-16T15:08:50.000Z</time>
   </trkpt>
   <trkpt lat="-8.039563" lon="-34.894699">
    <ele>12.3</ele>
    <time>2019-09-16T15:08:51.000Z</time>
   </trkpt>
   <trkpt lat="-8.039601" lon="-34.894705">
    <ele>12.7</ele>
    <time>2019-09-16T15:08:52.000Z</time>
   </trkpt>
   <trkpt lat="-8.039637" lon="-34.894708">
    <ele>13.1</ele>
    <time>2019-09-16T15:08:53.000Z</time>
   </trkpt>
   <trkpt lat="-8.039671" lon="-34.894718">
    <ele>13.5</ele>
    <time>2019-09-16T15:08:54.000Z</time>
   </trkpt>
   <trkpt lat="-8.039706" lon="-34.894734">
    <ele>13.9</ele>
    <time>2019-09-16T15:08:55.000Z</time>
   </trkpt>
   <trkpt lat="-8.03974" lon="-34.894747">
    <ele>14.3</ele>
    <time>2019-09-16T15:08:56.000Z</time>
   </trkpt>
   <trkpt lat="-8.039774" lon="-34.894765">
    <ele>14.7</ele>
    <time>2019-09-16T15:08:57.000Z</time>
   </trkpt>
   <trkpt lat="-8.039809" lon="-34.894787">
    <ele>15.2</ele>
    <time>2019-09-16T15:08:58.000Z</time>
   </trkpt>
   <trkpt lat="-8.039849" lon="-34.894801">
    <ele>15.6</ele>
    <time>2019-09-16T15:08:59.000Z</time>
   </trkpt>
   <trkpt lat="-8.039888" lon="-34.894816">
    <ele>16.1</ele>
    <time>2019-09-16T15:09:00.000Z</time>
   </trkpt>
   <trkpt lat="-8.03993" lon="-34.89483">
    <ele>16.6</ele>
    <time>2019-09-16T15:09:01.000Z</time>
   </trkpt>
   <trkpt lat="-8.03997" lon="-34.894842">
    <ele>17.1</ele>
    <time>2019-09-16T15:09:02.000Z</time>
   </trkpt>
   <trkpt lat="-8.040004" lon="-34.894849">
    <ele>17.5</ele>
    <time>2019-09-16T15:09:03.000Z</time>
   </trkpt>
   <trkpt lat="-8.040037" lon="-34.894846">
    <ele>17.8</ele>
    <time>2019-09-16T15:09:04.000Z</time>
   </trkpt>
   <trkpt lat="-8.04007" lon="-34.894841">
    <ele>18</ele>
    <time>2019-09-16T15:09:05.000Z</time>
   </trkpt>
   <trkpt lat="-8.040109" lon="-34.894839">
    <ele>18.2</ele>
    <time>2019-09-16T15:09:06.000Z</time>
   </trkpt>
   <trkpt lat="-8.040143" lon="-34.894836">
    <ele>18.4</ele>
    <time>2019-09-16T15:09:07.000Z</time>
   </trkpt>
   <trkpt lat="-8.040174" lon="-34.894829">
    <ele>18.6</ele>
    <time>2019-09-16T15:09:08.000Z</time>
   </trkpt>
   <trkpt lat="-8.040204" lon="-34.894817">
    <ele>18.7</ele>
    <time>2019-09-16T15:09:09.000Z</time>
   </trkpt>
   <trkpt lat="-8.040233" lon="-34.894804">
    <ele>18.9</ele>
    <time>2019-09-16T15:09:10.000Z</time>
   </trkpt>
   <trkpt lat="-8.040281" lon="-34.89478">
    <ele>19.2</ele>
    <time>2019-09-16T15:09:12.000Z</time>
   </trkpt>
   <trkpt lat="-8.040333" lon="-34.894775">
    <ele>19.4</ele>
    <time>2019-09-16T15:09:14.000Z</time>
   </trkpt>
   <trkpt lat="-8.040362" lon="-34.894767">
    <ele>19.3</ele>
    <time>2019-09-16T15:09:15.000Z</time>
   </trkpt>
   <trkpt lat="-8.040394" lon="-34.894752">
    <ele>19.2</ele>
    <time>2019-09-16T15:09:16.000Z</time>
   </trkpt>
   <trkpt lat="-8.040434" lon="-34.894728">
    <ele>19.1</ele>
    <time>2019-09-16T15:09:17.000Z</time>
   </trkpt>
   <trkpt lat="-8.040471" lon="-34.894701">
    <ele>19</ele>
    <time>2019-09-16T15:09:18.000Z</time>
   </trkpt>
   <trkpt lat="-8.040507" lon="-34.894685">
    <ele>18.8</ele>
    <time>2019-09-16T15:09:19.000Z</time>
   </trkpt>
   <trkpt lat="-8.040536" lon="-34.894665">
    <ele>18.7</ele>
    <time>2019-09-16T15:09:20.000Z</time>
   </trkpt>
   <trkpt lat="-8.040566" lon="-34.894642">
    <ele>18.6</ele>
    <time>2019-09-16T15:09:21.000Z</time>
   </trkpt>
   <trkpt lat="-8.040602" lon="-34.894621">
    <ele>18.5</ele>
    <time>2019-09-16T15:09:22.000Z</time>
   </trkpt>
   <trkpt lat="-8.040639" lon="-34.894615">
    <ele>18.4</ele>
    <time>2019-09-16T15:09:23.000Z</time>
   </trkpt>
   <trkpt lat="-8.040673" lon="-34.894607">
    <ele>18.3</ele>
    <time>2019-09-16T15:09:24.000Z</time>
   </trkpt>
   <trkpt lat="-8.040712" lon="-34.894592">
    <ele>18.2</ele>
    <time>2019-09-16T15:09:25.000Z</time>
   </trkpt>
   <trkpt lat="-8.040751" lon="-34.894584">
    <ele>18.1</ele>
    <time>2019-09-16T15:09:26.000Z</time>
   </trkpt>
   <trkpt lat="-8.040793" lon="-34.894568">
    <ele>18</ele>
    <time>2019-09-16T15:09:27.000Z</time>
   </trkpt>
   <trkpt lat="-8.040825" lon="-34.894555">
    <ele>17.9</ele>
    <time>2019-09-16T15:09:28.000Z</time>
   </trkpt>
   <trkpt lat="-8.04085" lon="-34.894542">
    <ele>17.8</ele>
    <time>2019-09-16T15:09:29.000Z</time>
   </trkpt>
   <trkpt lat="-8.040884" lon="-34.894528">
    <ele>17.7</ele>
    <time>2019-09-16T15:09:30.000Z</time>
   </trkpt>
   <trkpt lat="-8.040914" lon="-34.894515">
    <ele>17.6</ele>
    <time>2019-09-16T15:09:31.000Z</time>
   </trkpt>
   <trkpt lat="-8.040937" lon="-34.89449">
    <ele>17.5</ele>
    <time>2019-09-16T15:09:32.000Z</time>
   </trkpt>
   <trkpt lat="-8.040954" lon="-34.894466">
    <ele>17.4</ele>
    <time>2019-09-16T15:09:33.000Z</time>
   </trkpt>
   <trkpt lat="-8.040979" lon="-34.89445">
    <ele>17.3</ele>
    <time>2019-09-16T15:09:34.000Z</time>
   </trkpt>
   <trkpt lat="-8.041007" lon="-34.894435">
    <ele>17.5</ele>
    <time>2019-09-16T15:09:35.000Z</time>
   </trkpt>
   <trkpt lat="-8.041042" lon="-34.894418">
    <ele>17.8</ele>
    <time>2019-09-16T15:09:36.000Z</time>
   </trkpt>
   <trkpt lat="-8.041076" lon="-34.894419">
    <ele>17.9</ele>
    <time>2019-09-16T15:09:37.000Z</time>
   </trkpt>
   <trkpt lat="-8.041103" lon="-34.894376">
    <ele>18.1</ele>
    <time>2019-09-16T15:09:39.000Z</time>
   </trkpt>
   <trkpt lat="-8.041096" lon="-34.894344">
    <ele>18.3</ele>
    <time>2019-09-16T15:09:40.000Z</time>
   </trkpt>
   <trkpt lat="-8.041104" lon="-34.894313">
    <ele>18.4</ele>
    <time>2019-09-16T15:09:41.000Z</time>
   </trkpt>
   <trkpt lat="-8.04111" lon="-34.894284">
    <ele>18.5</ele>
    <time>2019-09-16T15:09:42.000Z</time>
   </trkpt>
   <trkpt lat="-8.041125" lon="-34.894251">
    <ele>18.7</ele>
    <time>2019-09-16T15:09:43.000Z</time>
   </trkpt>
   <trkpt lat="-8.041132" lon="-34.894217">
    <ele>18.8</ele>
    <time>2019-09-16T15:09:44.000Z</time>
   </trkpt>
   <trkpt lat="-8.041147" lon="-34.894163">
    <ele>19</ele>
    <time>2019-09-16T15:09:46.000Z</time>
   </trkpt>
   <trkpt lat="-8.041161" lon="-34.894138">
    <ele>19.1</ele>
    <time>2019-09-16T15:09:47.000Z</time>
   </trkpt>
   <trkpt lat="-8.041184" lon="-34.894102">
    <ele>19.1</ele>
    <time>2019-09-16T15:09:49.000Z</time>
   </trkpt>
   <trkpt lat="-8.041198" lon="-34.894077">
    <ele>19.1</ele>
    <time>2019-09-16T15:09:51.000Z</time>
   </trkpt>
   <trkpt lat="-8.041208" lon="-34.894051">
    <ele>19</ele>
    <time>2019-09-16T15:09:54.000Z</time>
   </trkpt>
   <trkpt lat="-8.04122" lon="-34.894017">
    <ele>19</ele>
    <time>2019-09-16T15:09:57.000Z</time>
   </trkpt>
   <trkpt lat="-8.041241" lon="-34.893996">
    <ele>18.9</ele>
    <time>2019-09-16T15:10:02.000Z</time>
   </trkpt>
   <trkpt lat="-8.041214" lon="-34.894011">
    <ele>18.9</ele>
    <time>2019-09-16T15:10:05.000Z</time>
   </trkpt>
   <trkpt lat="-8.041265" lon="-34.893992">
    <ele>18.8</ele>
    <time>2019-09-16T15:10:07.000Z</time>
   </trkpt>
   <trkpt lat="-8.041295" lon="-34.893971">
    <ele>18.7</ele>
    <time>2019-09-16T15:10:08.000Z</time>
   </trkpt>
   <trkpt lat="-8.041325" lon="-34.893949">
    <ele>18.6</ele>
    <time>2019-09-16T15:10:09.000Z</time>
   </trkpt>
   <trkpt lat="-8.041355" lon="-34.893932">
    <ele>18.6</ele>
    <time>2019-09-16T15:10:10.000Z</time>
   </trkpt>
   <trkpt lat="-8.041382" lon="-34.893914">
    <ele>18.5</ele>
    <time>2019-09-16T15:10:11.000Z</time>
   </trkpt>
   <trkpt lat="-8.041404" lon="-34.893892">
    <ele>18.4</ele>
    <time>2019-09-16T15:10:12.000Z</time>
   </trkpt>
   <trkpt lat="-8.04142" lon="-34.893859">
    <ele>18.3</ele>
    <time>2019-09-16T15:10:13.000Z</time>
   </trkpt>
   <trkpt lat="-8.041445" lon="-34.893832">
    <ele>18.2</ele>
    <time>2019-09-16T15:10:14.000Z</time>
   </trkpt>
   <trkpt lat="-8.041492" lon="-34.893844">
    <ele>17.8</ele>
    <time>2019-09-16T15:10:16.000Z</time>
   </trkpt>
   <trkpt lat="-8.041541" lon="-34.893863">
    <ele>17.4</ele>
    <time>2019-09-16T15:10:18.000Z</time>
   </trkpt>
   <trkpt lat="-8.041568" lon="-34.893888">
    <ele>17.2</ele>
    <time>2019-09-16T15:10:19.000Z</time>
   </trkpt>
   <trkpt lat="-8.041609" lon="-34.893916">
    <ele>16.7</ele>
    <time>2019-09-16T15:10:20.000Z</time>
   </trkpt>
   <trkpt lat="-8.041644" lon="-34.89393">
    <ele>16.4</ele>
    <time>2019-09-16T15:10:21.000Z</time>
   </trkpt>
   <trkpt lat="-8.041674" lon="-34.893955">
    <ele>16.2</ele>
    <time>2019-09-16T15:10:22.000Z</time>
   </trkpt>
   <trkpt lat="-8.041705" lon="-34.893973">
    <ele>15.9</ele>
    <time>2019-09-16T15:10:23.000Z</time>
   </trkpt>
   <trkpt lat="-8.041741" lon="-34.893995">
    <ele>15.7</ele>
    <time>2019-09-16T15:10:24.000Z</time>
   </trkpt>
   <trkpt lat="-8.041775" lon="-34.894031">
    <ele>15.4</ele>
    <time>2019-09-16T15:10:25.000Z</time>
   </trkpt>
   <trkpt lat="-8.041808" lon="-34.894065">
    <ele>15.2</ele>
    <time>2019-09-16T15:10:26.000Z</time>
   </trkpt>
   <trkpt lat="-8.041836" lon="-34.894082">
    <ele>15.1</ele>
    <time>2019-09-16T15:10:27.000Z</time>
   </trkpt>
   <trkpt lat="-8.041863" lon="-34.894103">
    <ele>15</ele>
    <time>2019-09-16T15:10:28.000Z</time>
   </trkpt>
   <trkpt lat="-8.041892" lon="-34.894126">
    <ele>14.8</ele>
    <time>2019-09-16T15:10:29.000Z</time>
   </trkpt>
   <trkpt lat="-8.041922" lon="-34.894143">
    <ele>14.7</ele>
    <time>2019-09-16T15:10:30.000Z</time>
   </trkpt>
   <trkpt lat="-8.041945" lon="-34.894164">
    <ele>14.6</ele>
    <time>2019-09-16T15:10:31.000Z</time>
   </trkpt>
   <trkpt lat="-8.04197" lon="-34.894183">
    <ele>14.5</ele>
    <time>2019-09-16T15:10:32.000Z</time>
   </trkpt>
   <trkpt lat="-8.042005" lon="-34.894204">
    <ele>14.4</ele>
    <time>2019-09-16T15:10:33.000Z</time>
   </trkpt>
   <trkpt lat="-8.042043" lon="-34.894207">
    <ele>14.3</ele>
    <time>2019-09-16T15:10:34.000Z</time>
   </trkpt>
   <trkpt lat="-8.042078" lon="-34.894221">
    <ele>14.2</ele>
    <time>2019-09-16T15:10:35.000Z</time>
   </trkpt>
   <trkpt lat="-8.042108" lon="-34.894241">
    <ele>14.1</ele>
    <time>2019-09-16T15:10:36.000Z</time>
   </trkpt>
   <trkpt lat="-8.042137" lon="-34.894266">
    <ele>14</ele>
    <time>2019-09-16T15:10:37.000Z</time>
   </trkpt>
   <trkpt lat="-8.042166" lon="-34.894292">
    <ele>13.9</ele>
    <time>2019-09-16T15:10:38.000Z</time>
   </trkpt>
   <trkpt lat="-8.042188" lon="-34.894315">
    <ele>13.8</ele>
    <time>2019-09-16T15:10:39.000Z</time>
   </trkpt>
   <trkpt lat="-8.04221" lon="-34.894344">
    <ele>13.7</ele>
    <time>2019-09-16T15:10:40.000Z</time>
   </trkpt>
   <trkpt lat="-8.04223" lon="-34.894367">
    <ele>13.6</ele>
    <time>2019-09-16T15:10:41.000Z</time>
   </trkpt>
   <trkpt lat="-8.04227" lon="-34.894384">
    <ele>13.7</ele>
    <time>2019-09-16T15:10:43.000Z</time>
   </trkpt>
   <trkpt lat="-8.042304" lon="-34.894398">
    <ele>13.9</ele>
    <time>2019-09-16T15:10:45.000Z</time>
   </trkpt>
   <trkpt lat="-8.042345" lon="-34.894437">
    <ele>14.3</ele>
    <time>2019-09-16T15:10:48.000Z</time>
   </trkpt>
   <trkpt lat="-8.042379" lon="-34.894475">
    <ele>14.6</ele>
    <time>2019-09-16T15:10:50.000Z</time>
   </trkpt>
   <trkpt lat="-8.042427" lon="-34.89451">
    <ele>15</ele>
    <time>2019-09-16T15:10:52.000Z</time>
   </trkpt>
   <trkpt lat="-8.042458" lon="-34.894537">
    <ele>15.3</ele>
    <time>2019-09-16T15:10:53.000Z</time>
   </trkpt>
   <trkpt lat="-8.042483" lon="-34.894557">
    <ele>15.5</ele>
    <time>2019-09-16T15:10:54.000Z</time>
   </trkpt>
   <trkpt lat="-8.042509" lon="-34.894587">
    <ele>15.7</ele>
    <time>2019-09-16T15:10:55.000Z</time>
   </trkpt>
   <trkpt lat="-8.042537" lon="-34.894622">
    <ele>16</ele>
    <time>2019-09-16T15:10:56.000Z</time>
   </trkpt>
   <trkpt lat="-8.042557" lon="-34.894668">
    <ele>16.4</ele>
    <time>2019-09-16T15:10:57.000Z</time>
   </trkpt>
   <trkpt lat="-8.042591" lon="-34.894715">
    <ele>16.7</ele>
    <time>2019-09-16T15:10:58.000Z</time>
   </trkpt>
   <trkpt lat="-8.042621" lon="-34.894764">
    <ele>17.1</ele>
    <time>2019-09-16T15:10:59.000Z</time>
   </trkpt>
   <trkpt lat="-8.042648" lon="-34.894812">
    <ele>17.5</ele>
    <time>2019-09-16T15:11:00.000Z</time>
   </trkpt>
   <trkpt lat="-8.042669" lon="-34.894845">
    <ele>17.8</ele>
    <time>2019-09-16T15:11:01.000Z</time>
   </trkpt>
   <trkpt lat="-8.0427" lon="-34.894881">
    <ele>18</ele>
    <time>2019-09-16T15:11:02.000Z</time>
   </trkpt>
   <trkpt lat="-8.042723" lon="-34.894925">
    <ele>18.4</ele>
    <time>2019-09-16T15:11:03.000Z</time>
   </trkpt>
   <trkpt lat="-8.042754" lon="-34.89497">
    <ele>18.8</ele>
    <time>2019-09-16T15:11:04.000Z</time>
   </trkpt>
   <trkpt lat="-8.042782" lon="-34.895011">
    <ele>19.2</ele>
    <time>2019-09-16T15:11:05.000Z</time>
   </trkpt>
   <trkpt lat="-8.042809" lon="-34.895054">
    <ele>19.5</ele>
    <time>2019-09-16T15:11:06.000Z</time>
   </trkpt>
   <trkpt lat="-8.042841" lon="-34.895098">
    <ele>19.8</ele>
    <time>2019-09-16T15:11:07.000Z</time>
   </trkpt>
   <trkpt lat="-8.042873" lon="-34.895139">
    <ele>20</ele>
    <time>2019-09-16T15:11:08.000Z</time>
   </trkpt>
   <trkpt lat="-8.042901" lon="-34.895176">
    <ele>20.1</ele>
    <time>2019-09-16T15:11:09.000Z</time>
   </trkpt>
   <trkpt lat="-8.042929" lon="-34.895207">
    <ele>20.2</ele>
    <time>2019-09-16T15:11:10.000Z</time>
   </trkpt>
   <trkpt lat="-8.042947" lon="-34.895247">
    <ele>20.3</ele>
    <time>2019-09-16T15:11:11.000Z</time>
   </trkpt>
   <trkpt lat="-8.042955" lon="-34.895294">
    <ele>20.4</ele>
    <time>2019-09-16T15:11:12.000Z</time>
   </trkpt>
   <trkpt lat="-8.042977" lon="-34.895327">
    <ele>20.5</ele>
    <time>2019-09-16T15:11:13.000Z</time>
   </trkpt>
   <trkpt lat="-8.042995" lon="-34.895366">
    <ele>20.6</ele>
    <time>2019-09-16T15:11:14.000Z</time>
   </trkpt>
   <trkpt lat="-8.043011" lon="-34.895397">
    <ele>20.7</ele>
    <time>2019-09-16T15:11:15.000Z</time>
   </trkpt>
   <trkpt lat="-8.043026" lon="-34.895428">
    <ele>20.7</ele>
    <time>2019-09-16T15:11:16.000Z</time>
   </trkpt>
   <trkpt lat="-8.043036" lon="-34.895463">
    <ele>20.7</ele>
    <time>2019-09-16T15:11:17.000Z</time>
   </trkpt>
   <trkpt lat="-8.043053" lon="-34.895494">
    <ele>20.8</ele>
    <time>2019-09-16T15:11:18.000Z</time>
   </trkpt>
   <trkpt lat="-8.043063" lon="-34.895535">
    <ele>20.8</ele>
    <time>2019-09-16T15:11:19.000Z</time>
   </trkpt>
   <trkpt lat="-8.043078" lon="-34.895576">
    <ele>20.9</ele>
    <time>2019-09-16T15:11:20.000Z</time>
   </trkpt>
   <trkpt lat="-8.043097" lon="-34.895615">
    <ele>20.9</ele>
    <time>2019-09-16T15:11:21.000Z</time>
   </trkpt>
   <trkpt lat="-8.04311" lon="-34.895644">
    <ele>21</ele>
    <time>2019-09-16T15:11:22.000Z</time>
   </trkpt>
   <trkpt lat="-8.04312" lon="-34.895678">
    <ele>21</ele>
    <time>2019-09-16T15:11:23.000Z</time>
   </trkpt>
   <trkpt lat="-8.043132" lon="-34.89571">
    <ele>21</ele>
    <time>2019-09-16T15:11:24.000Z</time>
   </trkpt>
   <trkpt lat="-8.043142" lon="-34.895743">
    <ele>21.1</ele>
    <time>2019-09-16T15:11:25.000Z</time>
   </trkpt>
   <trkpt lat="-8.043157" lon="-34.895776">
    <ele>21.2</ele>
    <time>2019-09-16T15:11:26.000Z</time>
   </trkpt>
   <trkpt lat="-8.043181" lon="-34.895826">
    <ele>21.1</ele>
    <time>2019-09-16T15:11:28.000Z</time>
   </trkpt>
   <trkpt lat="-8.043215" lon="-34.895831">
    <ele>21.1</ele>
    <time>2019-09-16T15:11:32.000Z</time>
   </trkpt>
   <trkpt lat="-8.04325" lon="-34.895854">
    <ele>21</ele>
    <time>2019-09-16T15:11:37.000Z</time>
   </trkpt>
   <trkpt lat="-8.043275" lon="-34.895875">
    <ele>21</ele>
    <time>2019-09-16T15:11:39.000Z</time>
   </trkpt>
   <trkpt lat="-8.043275" lon="-34.895908">
    <ele>21</ele>
    <time>2019-09-16T15:11:49.000Z</time>
   </trkpt>
   <trkpt lat="-8.043269" lon="-34.896">
    <ele>20.9</ele>
    <time>2019-09-16T15:12:38.000Z</time>
   </trkpt>
   <trkpt lat="-8.043274" lon="-34.896048">
    <ele>20.8</ele>
    <time>2019-09-16T15:12:40.000Z</time>
   </trkpt>
   <trkpt lat="-8.043283" lon="-34.896102">
    <ele>20.8</ele>
    <time>2019-09-16T15:12:42.000Z</time>
   </trkpt>
   <trkpt lat="-8.043291" lon="-34.896135">
    <ele>20.7</ele>
    <time>2019-09-16T15:12:43.000Z</time>
   </trkpt>
   <trkpt lat="-8.043302" lon="-34.896173">
    <ele>20.7</ele>
    <time>2019-09-16T15:12:44.000Z</time>
   </trkpt>
   <trkpt lat="-8.043315" lon="-34.896208">
    <ele>20.7</ele>
    <time>2019-09-16T15:12:45.000Z</time>
   </trkpt>
   <trkpt lat="-8.043363" lon="-34.896249">
    <ele>20.6</ele>
    <time>2019-09-16T15:12:46.000Z</time>
   </trkpt>
   <trkpt lat="-8.043398" lon="-34.896286">
    <ele>20.5</ele>
    <time>2019-09-16T15:12:48.000Z</time>
   </trkpt>
   <trkpt lat="-8.043421" lon="-34.896324">
    <ele>20.5</ele>
    <time>2019-09-16T15:12:49.000Z</time>
   </trkpt>
   <trkpt lat="-8.043441" lon="-34.896364">
    <ele>20.4</ele>
    <time>2019-09-16T15:12:50.000Z</time>
   </trkpt>
   <trkpt lat="-8.043454" lon="-34.896396">
    <ele>20.4</ele>
    <time>2019-09-16T15:12:51.000Z</time>
   </trkpt>
   <trkpt lat="-8.043464" lon="-34.896426">
    <ele>20.3</ele>
    <time>2019-09-16T15:12:52.000Z</time>
   </trkpt>
   <trkpt lat="-8.043489" lon="-34.896465">
    <ele>20.2</ele>
    <time>2019-09-16T15:12:53.000Z</time>
   </trkpt>
   <trkpt lat="-8.043511" lon="-34.896504">
    <ele>20.1</ele>
    <time>2019-09-16T15:12:54.000Z</time>
   </trkpt>
   <trkpt lat="-8.043525" lon="-34.896533">
    <ele>20</ele>
    <time>2019-09-16T15:12:55.000Z</time>
   </trkpt>
   <trkpt lat="-8.043541" lon="-34.896571">
    <ele>19.7</ele>
    <time>2019-09-16T15:12:57.000Z</time>
   </trkpt>
   <trkpt lat="-8.043542" lon="-34.896615">
    <ele>19.4</ele>
    <time>2019-09-16T15:12:59.000Z</time>
   </trkpt>
   <trkpt lat="-8.04354" lon="-34.896644">
    <ele>19.3</ele>
    <time>2019-09-16T15:13:00.000Z</time>
   </trkpt>
   <trkpt lat="-8.043539" lon="-34.896673">
    <ele>19.1</ele>
    <time>2019-09-16T15:13:01.000Z</time>
   </trkpt>
   <trkpt lat="-8.043534" lon="-34.896712">
    <ele>18.8</ele>
    <time>2019-09-16T15:13:03.000Z</time>
   </trkpt>
   <trkpt lat="-8.043524" lon="-34.896749">
    <ele>18.6</ele>
    <time>2019-09-16T15:13:05.000Z</time>
   </trkpt>
   <trkpt lat="-8.043493" lon="-34.896751">
    <ele>18.4</ele>
    <time>2019-09-16T15:13:06.000Z</time>
   </trkpt>
   <trkpt lat="-8.043489" lon="-34.896782">
    <ele>18.2</ele>
    <time>2019-09-16T15:13:08.000Z</time>
   </trkpt>
   <trkpt lat="-8.043487" lon="-34.896818">
    <ele>18</ele>
    <time>2019-09-16T15:13:11.000Z</time>
   </trkpt>
   <trkpt lat="-8.043479" lon="-34.896852">
    <ele>17.7</ele>
    <time>2019-09-16T15:13:13.000Z</time>
   </trkpt>
   <trkpt lat="-8.043471" lon="-34.896897">
    <ele>17.4</ele>
    <time>2019-09-16T15:13:15.000Z</time>
   </trkpt>
   <trkpt lat="-8.043468" lon="-34.896931">
    <ele>17.1</ele>
    <time>2019-09-16T15:13:16.000Z</time>
   </trkpt>
   <trkpt lat="-8.043466" lon="-34.896964">
    <ele>16.8</ele>
    <time>2019-09-16T15:13:17.000Z</time>
   </trkpt>
   <trkpt lat="-8.043475" lon="-34.897007">
    <ele>16.4</ele>
    <time>2019-09-16T15:13:19.000Z</time>
   </trkpt>
   <trkpt lat="-8.043516" lon="-34.89704">
    <ele>15.9</ele>
    <time>2019-09-16T15:13:21.000Z</time>
   </trkpt>
   <trkpt lat="-8.043557" lon="-34.897072">
    <ele>15.6</ele>
    <time>2019-09-16T15:13:22.000Z</time>
   </trkpt>
   <trkpt lat="-8.043593" lon="-34.897091">
    <ele>15.3</ele>
    <time>2019-09-16T15:13:24.000Z</time>
   </trkpt>
   <trkpt lat="-8.043626" lon="-34.897103">
    <ele>15.1</ele>
    <time>2019-09-16T15:13:26.000Z</time>
   </trkpt>
   <trkpt lat="-8.04365" lon="-34.897115">
    <ele>14.9</ele>
    <time>2019-09-16T15:13:28.000Z</time>
   </trkpt>
   <trkpt lat="-8.043682" lon="-34.897121">
    <ele>14.7</ele>
    <time>2019-09-16T15:13:30.000Z</time>
   </trkpt>
   <trkpt lat="-8.043699" lon="-34.897184">
    <ele>14.3</ele>
    <time>2019-09-16T15:13:49.000Z</time>
   </trkpt>
   <trkpt lat="-8.043687" lon="-34.897234">
    <ele>13.8</ele>
    <time>2019-09-16T15:13:51.000Z</time>
   </trkpt>
   <trkpt lat="-8.043674" lon="-34.897279">
    <ele>13.3</ele>
    <time>2019-09-16T15:13:52.000Z</time>
   </trkpt>
   <trkpt lat="-8.043683" lon="-34.897324">
    <ele>12.2</ele>
    <time>2019-09-16T15:13:53.000Z</time>
   </trkpt>
   <trkpt lat="-8.043697" lon="-34.897385">
    <ele>12.6</ele>
    <time>2019-09-16T15:13:54.000Z</time>
   </trkpt>
   <trkpt lat="-8.043713" lon="-34.897447">
    <ele>13</ele>
    <time>2019-09-16T15:13:55.000Z</time>
   </trkpt>
   <trkpt lat="-8.043736" lon="-34.897525">
    <ele>13.5</ele>
    <time>2019-09-16T15:13:56.000Z</time>
   </trkpt>
   <trkpt lat="-8.043752" lon="-34.897593">
    <ele>13.8</ele>
    <time>2019-09-16T15:13:57.000Z</time>
   </trkpt>
   <trkpt lat="-8.043761" lon="-34.897653">
    <ele>13.9</ele>
    <time>2019-09-16T15:13:58.000Z</time>
   </trkpt>
   <trkpt lat="-8.043766" lon="-34.89771">
    <ele>14</ele>
    <time>2019-09-16T15:13:59.000Z</time>
   </trkpt>
   <trkpt lat="-8.043774" lon="-34.897762">
    <ele>14.1</ele>
    <time>2019-09-16T15:14:00.000Z</time>
   </trkpt>
   <trkpt lat="-8.043784" lon="-34.8978">
    <ele>14.1</ele>
    <time>2019-09-16T15:14:01.000Z</time>
   </trkpt>
   <trkpt lat="-8.043792" lon="-34.89785">
    <ele>14.2</ele>
    <time>2019-09-16T15:14:02.000Z</time>
   </trkpt>
   <trkpt lat="-8.043788" lon="-34.897897">
    <ele>14.2</ele>
    <time>2019-09-16T15:14:03.000Z</time>
   </trkpt>
   <trkpt lat="-8.043799" lon="-34.897945">
    <ele>14.3</ele>
    <time>2019-09-16T15:14:04.000Z</time>
   </trkpt>
   <trkpt lat="-8.043808" lon="-34.897995">
    <ele>14.3</ele>
    <time>2019-09-16T15:14:05.000Z</time>
   </trkpt>
   <trkpt lat="-8.043817" lon="-34.89804">
    <ele>14.3</ele>
    <time>2019-09-16T15:14:06.000Z</time>
   </trkpt>
   <trkpt lat="-8.043873" lon="-34.898084">
    <ele>14.3</ele>
    <time>2019-09-16T15:14:07.000Z</time>
   </trkpt>
   <trkpt lat="-8.043898" lon="-34.898139">
    <ele>14.4</ele>
    <time>2019-09-16T15:14:08.000Z</time>
   </trkpt>
   <trkpt lat="-8.043926" lon="-34.898187">
    <ele>14.4</ele>
    <time>2019-09-16T15:14:09.000Z</time>
   </trkpt>
   <trkpt lat="-8.043943" lon="-34.898224">
    <ele>14.4</ele>
    <time>2019-09-16T15:14:10.000Z</time>
   </trkpt>
   <trkpt lat="-8.043976" lon="-34.898261">
    <ele>14.4</ele>
    <time>2019-09-16T15:14:11.000Z</time>
   </trkpt>
   <trkpt lat="-8.044028" lon="-34.898252">
    <ele>14.4</ele>
    <time>2019-09-16T15:14:13.000Z</time>
   </trkpt>
   <trkpt lat="-8.044071" lon="-34.898229">
    <ele>14.4</ele>
    <time>2019-09-16T15:14:14.000Z</time>
   </trkpt>
   <trkpt lat="-8.044106" lon="-34.898216">
    <ele>14.3</ele>
    <time>2019-09-16T15:14:15.000Z</time>
   </trkpt>
   <trkpt lat="-8.044141" lon="-34.89821">
    <ele>14.2</ele>
    <time>2019-09-16T15:14:16.000Z</time>
   </trkpt>
   <trkpt lat="-8.044175" lon="-34.898198">
    <ele>14.1</ele>
    <time>2019-09-16T15:14:17.000Z</time>
   </trkpt>
   <trkpt lat="-8.044217" lon="-34.898183">
    <ele>13.9</ele>
    <time>2019-09-16T15:14:18.000Z</time>
   </trkpt>
   <trkpt lat="-8.044258" lon="-34.89817">
    <ele>13.7</ele>
    <time>2019-09-16T15:14:19.000Z</time>
   </trkpt>
   <trkpt lat="-8.044298" lon="-34.898169">
    <ele>13.6</ele>
    <time>2019-09-16T15:14:20.000Z</time>
   </trkpt>
   <trkpt lat="-8.044342" lon="-34.898175">
    <ele>13.5</ele>
    <time>2019-09-16T15:14:21.000Z</time>
   </trkpt>
   <trkpt lat="-8.044386" lon="-34.898183">
    <ele>13.4</ele>
    <time>2019-09-16T15:14:22.000Z</time>
   </trkpt>
   <trkpt lat="-8.044427" lon="-34.898193">
    <ele>13.4</ele>
    <time>2019-09-16T15:14:23.000Z</time>
   </trkpt>
   <trkpt lat="-8.044479" lon="-34.898202">
    <ele>13.5</ele>
    <time>2019-09-16T15:14:24.000Z</time>
   </trkpt>
   <trkpt lat="-8.044531" lon="-34.898212">
    <ele>13.6</ele>
    <time>2019-09-16T15:14:25.000Z</time>
   </trkpt>
   <trkpt lat="-8.044572" lon="-34.898213">
    <ele>13.8</ele>
    <time>2019-09-16T15:14:26.000Z</time>
   </trkpt>
   <trkpt lat="-8.04462" lon="-34.898213">
    <ele>13.9</ele>
    <time>2019-09-16T15:14:27.000Z</time>
   </trkpt>
   <trkpt lat="-8.044669" lon="-34.898213">
    <ele>14.1</ele>
    <time>2019-09-16T15:14:28.000Z</time>
   </trkpt>
   <trkpt lat="-8.044709" lon="-34.898222">
    <ele>14.3</ele>
    <time>2019-09-16T15:14:29.000Z</time>
   </trkpt>
   <trkpt lat="-8.04475" lon="-34.89823">
    <ele>14.6</ele>
    <time>2019-09-16T15:14:30.000Z</time>
   </trkpt>
   <trkpt lat="-8.044796" lon="-34.898246">
    <ele>14.9</ele>
    <time>2019-09-16T15:14:31.000Z</time>
   </trkpt>
   <trkpt lat="-8.044845" lon="-34.898263">
    <ele>15.4</ele>
    <time>2019-09-16T15:14:32.000Z</time>
   </trkpt>
   <trkpt lat="-8.044898" lon="-34.898264">
    <ele>15.8</ele>
    <time>2019-09-16T15:14:33.000Z</time>
   </trkpt>
   <trkpt lat="-8.044943" lon="-34.898268">
    <ele>16.2</ele>
    <time>2019-09-16T15:14:34.000Z</time>
   </trkpt>
   <trkpt lat="-8.044988" lon="-34.89828">
    <ele>16.5</ele>
    <time>2019-09-16T15:14:35.000Z</time>
   </trkpt>
   <trkpt lat="-8.045034" lon="-34.898294">
    <ele>16.7</ele>
    <time>2019-09-16T15:14:36.000Z</time>
   </trkpt>
   <trkpt lat="-8.045077" lon="-34.898296">
    <ele>16.9</ele>
    <time>2019-09-16T15:14:37.000Z</time>
   </trkpt>
   <trkpt lat="-8.045124" lon="-34.898303">
    <ele>17.1</ele>
    <time>2019-09-16T15:14:38.000Z</time>
   </trkpt>
   <trkpt lat="-8.045152" lon="-34.898296">
    <ele>17.3</ele>
    <time>2019-09-16T15:14:39.000Z</time>
   </trkpt>
   <trkpt lat="-8.045183" lon="-34.898281">
    <ele>17.3</ele>
    <time>2019-09-16T15:14:40.000Z</time>
   </trkpt>
   <trkpt lat="-8.045211" lon="-34.898241">
    <ele>17.3</ele>
    <time>2019-09-16T15:14:41.000Z</time>
   </trkpt>
   <trkpt lat="-8.045212" lon="-34.898195">
    <ele>17.3</ele>
    <time>2019-09-16T15:14:42.000Z</time>
   </trkpt>
   <trkpt lat="-8.045213" lon="-34.898154">
    <ele>17.3</ele>
    <time>2019-09-16T15:14:43.000Z</time>
   </trkpt>
   <trkpt lat="-8.045211" lon="-34.898114">
    <ele>17.3</ele>
    <time>2019-09-16T15:14:44.000Z</time>
   </trkpt>
   <trkpt lat="-8.045223" lon="-34.898066">
    <ele>17.3</ele>
    <time>2019-09-16T15:14:45.000Z</time>
   </trkpt>
   <trkpt lat="-8.045228" lon="-34.898017">
    <ele>17.2</ele>
    <time>2019-09-16T15:14:46.000Z</time>
   </trkpt>
   <trkpt lat="-8.045235" lon="-34.89797">
    <ele>17.2</ele>
    <time>2019-09-16T15:14:47.000Z</time>
   </trkpt>
   <trkpt lat="-8.045241" lon="-34.897935">
    <ele>17.2</ele>
    <time>2019-09-16T15:14:48.000Z</time>
   </trkpt>
   <trkpt lat="-8.045272" lon="-34.897925">
    <ele>17.2</ele>
    <time>2019-09-16T15:14:49.000Z</time>
   </trkpt>
   <trkpt lat="-8.045284" lon="-34.897895">
    <ele>17.2</ele>
    <time>2019-09-16T15:14:50.000Z</time>
   </trkpt>
   <trkpt lat="-8.045294" lon="-34.897841">
    <ele>17.2</ele>
    <time>2019-09-16T15:14:52.000Z</time>
   </trkpt>
   <trkpt lat="-8.045313" lon="-34.897785">
    <ele>17.2</ele>
    <time>2019-09-16T15:14:54.000Z</time>
   </trkpt>
   <trkpt lat="-8.045334" lon="-34.89775">
    <ele>17.2</ele>
    <time>2019-09-16T15:14:55.000Z</time>
   </trkpt>
   <trkpt lat="-8.04536" lon="-34.897735">
    <ele>17.2</ele>
    <time>2019-09-16T15:14:56.000Z</time>
   </trkpt>
   <trkpt lat="-8.045398" lon="-34.897735">
    <ele>17</ele>
    <time>2019-09-16T15:14:57.000Z</time>
   </trkpt>
   <trkpt lat="-8.045442" lon="-34.897751">
    <ele>16.9</ele>
    <time>2019-09-16T15:14:58.000Z</time>
   </trkpt>
   <trkpt lat="-8.045489" lon="-34.897738">
    <ele>16.9</ele>
    <time>2019-09-16T15:14:59.000Z</time>
   </trkpt>
   <trkpt lat="-8.045535" lon="-34.897742">
    <ele>16.8</ele>
    <time>2019-09-16T15:15:00.000Z</time>
   </trkpt>
   <trkpt lat="-8.045582" lon="-34.897749">
    <ele>16.6</ele>
    <time>2019-09-16T15:15:01.000Z</time>
   </trkpt>
   <trkpt lat="-8.045626" lon="-34.897764">
    <ele>16.5</ele>
    <time>2019-09-16T15:15:02.000Z</time>
   </trkpt>
   <trkpt lat="-8.045671" lon="-34.897782">
    <ele>16.4</ele>
    <time>2019-09-16T15:15:03.000Z</time>
   </trkpt>
   <trkpt lat="-8.045719" lon="-34.897797">
    <ele>16.2</ele>
    <time>2019-09-16T15:15:04.000Z</time>
   </trkpt>
   <trkpt lat="-8.045758" lon="-34.897807">
    <ele>16.1</ele>
    <time>2019-09-16T15:15:05.000Z</time>
   </trkpt>
   <trkpt lat="-8.045797" lon="-34.897807">
    <ele>16</ele>
    <time>2019-09-16T15:15:06.000Z</time>
   </trkpt>
   <trkpt lat="-8.045837" lon="-34.897823">
    <ele>15.9</ele>
    <time>2019-09-16T15:15:07.000Z</time>
   </trkpt>
   <trkpt lat="-8.045882" lon="-34.897829">
    <ele>15.8</ele>
    <time>2019-09-16T15:15:08.000Z</time>
   </trkpt>
   <trkpt lat="-8.045918" lon="-34.897831">
    <ele>15.6</ele>
    <time>2019-09-16T15:15:09.000Z</time>
   </trkpt>
   <trkpt lat="-8.045952" lon="-34.897842">
    <ele>15.4</ele>
    <time>2019-09-16T15:15:10.000Z</time>
   </trkpt>
   <trkpt lat="-8.04599" lon="-34.897848">
    <ele>15.3</ele>
    <time>2019-09-16T15:15:11.000Z</time>
   </trkpt>
   <trkpt lat="-8.046026" lon="-34.89785">
    <ele>15.1</ele>
    <time>2019-09-16T15:15:12.000Z</time>
   </trkpt>
   <trkpt lat="-8.046083" lon="-34.897867">
    <ele>14.9</ele>
    <time>2019-09-16T15:15:14.000Z</time>
   </trkpt>
   <trkpt lat="-8.046146" lon="-34.897886">
    <ele>14.7</ele>
    <time>2019-09-16T15:15:16.000Z</time>
   </trkpt>
   <trkpt lat="-8.046192" lon="-34.897895">
    <ele>14.7</ele>
    <time>2019-09-16T15:15:17.000Z</time>
   </trkpt>
   <trkpt lat="-8.046236" lon="-34.897903">
    <ele>14.7</ele>
    <time>2019-09-16T15:15:18.000Z</time>
   </trkpt>
   <trkpt lat="-8.046275" lon="-34.897914">
    <ele>14.7</ele>
    <time>2019-09-16T15:15:19.000Z</time>
   </trkpt>
   <trkpt lat="-8.046309" lon="-34.897926">
    <ele>14.7</ele>
    <time>2019-09-16T15:15:20.000Z</time>
   </trkpt>
   <trkpt lat="-8.046351" lon="-34.897939">
    <ele>14.7</ele>
    <time>2019-09-16T15:15:21.000Z</time>
   </trkpt>
   <trkpt lat="-8.046396" lon="-34.897947">
    <ele>14.8</ele>
    <time>2019-09-16T15:15:22.000Z</time>
   </trkpt>
   <trkpt lat="-8.046448" lon="-34.897946">
    <ele>14.8</ele>
    <time>2019-09-16T15:15:23.000Z</time>
   </trkpt>
   <trkpt lat="-8.046494" lon="-34.897952">
    <ele>14.8</ele>
    <time>2019-09-16T15:15:24.000Z</time>
   </trkpt>
   <trkpt lat="-8.046537" lon="-34.897964">
    <ele>14.8</ele>
    <time>2019-09-16T15:15:25.000Z</time>
   </trkpt>
   <trkpt lat="-8.046585" lon="-34.897979">
    <ele>14.8</ele>
    <time>2019-09-16T15:15:26.000Z</time>
   </trkpt>
   <trkpt lat="-8.04663" lon="-34.897992">
    <ele>14.8</ele>
    <time>2019-09-16T15:15:27.000Z</time>
   </trkpt>
   <trkpt lat="-8.046674" lon="-34.898006">
    <ele>14.8</ele>
    <time>2019-09-16T15:15:28.000Z</time>
   </trkpt>
   <trkpt lat="-8.046721" lon="-34.898017">
    <ele>14.7</ele>
    <time>2019-09-16T15:15:29.000Z</time>
   </trkpt>
   <trkpt lat="-8.046765" lon="-34.898021">
    <ele>14.7</ele>
    <time>2019-09-16T15:15:30.000Z</time>
   </trkpt>
   <trkpt lat="-8.046808" lon="-34.898031">
    <ele>14.6</ele>
    <time>2019-09-16T15:15:31.000Z</time>
   </trkpt>
   <trkpt lat="-8.04685" lon="-34.898043">
    <ele>14.5</ele>
    <time>2019-09-16T15:15:32.000Z</time>
   </trkpt>
   <trkpt lat="-8.046884" lon="-34.898058">
    <ele>14.5</ele>
    <time>2019-09-16T15:15:33.000Z</time>
   </trkpt>
   <trkpt lat="-8.046923" lon="-34.898071">
    <ele>14.4</ele>
    <time>2019-09-16T15:15:34.000Z</time>
   </trkpt>
   <trkpt lat="-8.046957" lon="-34.898085">
    <ele>14.3</ele>
    <time>2019-09-16T15:15:35.000Z</time>
   </trkpt>
   <trkpt lat="-8.046993" lon="-34.898094">
    <ele>14.3</ele>
    <time>2019-09-16T15:15:36.000Z</time>
   </trkpt>
   <trkpt lat="-8.047021" lon="-34.898103">
    <ele>14.2</ele>
    <time>2019-09-16T15:15:37.000Z</time>
   </trkpt>
   <trkpt lat="-8.047052" lon="-34.898109">
    <ele>14.1</ele>
    <time>2019-09-16T15:15:38.000Z</time>
   </trkpt>
   <trkpt lat="-8.047089" lon="-34.89811">
    <ele>14.1</ele>
    <time>2019-09-16T15:15:39.000Z</time>
   </trkpt>
   <trkpt lat="-8.047118" lon="-34.89813">
    <ele>13.9</ele>
    <time>2019-09-16T15:15:40.000Z</time>
   </trkpt>
   <trkpt lat="-8.04714" lon="-34.898157">
    <ele>14.3</ele>
    <time>2019-09-16T15:15:42.000Z</time>
   </trkpt>
   <trkpt lat="-8.047147" lon="-34.898184">
    <ele>14.5</ele>
    <time>2019-09-16T15:15:43.000Z</time>
   </trkpt>
   <trkpt lat="-8.047149" lon="-34.898234">
    <ele>15</ele>
    <time>2019-09-16T15:15:45.000Z</time>
   </trkpt>
   <trkpt lat="-8.047149" lon="-34.898268">
    <ele>15.3</ele>
    <time>2019-09-16T15:15:46.000Z</time>
   </trkpt>
   <trkpt lat="-8.047153" lon="-34.898305">
    <ele>15.5</ele>
    <time>2019-09-16T15:15:47.000Z</time>
   </trkpt>
   <trkpt lat="-8.047147" lon="-34.898337">
    <ele>15.6</ele>
    <time>2019-09-16T15:15:48.000Z</time>
   </trkpt>
   <trkpt lat="-8.047147" lon="-34.898368">
    <ele>15.8</ele>
    <time>2019-09-16T15:15:49.000Z</time>
   </trkpt>
   <trkpt lat="-8.047148" lon="-34.898419">
    <ele>15.9</ele>
    <time>2019-09-16T15:15:51.000Z</time>
   </trkpt>
   <trkpt lat="-8.047127" lon="-34.898443">
    <ele>16</ele>
    <time>2019-09-16T15:15:52.000Z</time>
   </trkpt>
   <trkpt lat="-8.047138" lon="-34.898483">
    <ele>16</ele>
    <time>2019-09-16T15:15:54.000Z</time>
   </trkpt>
   <trkpt lat="-8.047142" lon="-34.898541">
    <ele>16</ele>
    <time>2019-09-16T15:15:56.000Z</time>
   </trkpt>
   <trkpt lat="-8.047156" lon="-34.898605">
    <ele>15.9</ele>
    <time>2019-09-16T15:15:57.000Z</time>
   </trkpt>
   <trkpt lat="-8.047168" lon="-34.898658">
    <ele>15.8</ele>
    <time>2019-09-16T15:15:58.000Z</time>
   </trkpt>
   <trkpt lat="-8.047179" lon="-34.898711">
    <ele>15.8</ele>
    <time>2019-09-16T15:15:59.000Z</time>
   </trkpt>
   <trkpt lat="-8.047175" lon="-34.89875">
    <ele>15.8</ele>
    <time>2019-09-16T15:16:00.000Z</time>
   </trkpt>
   <trkpt lat="-8.047182" lon="-34.898784">
    <ele>15.8</ele>
    <time>2019-09-16T15:16:01.000Z</time>
   </trkpt>
   <trkpt lat="-8.047184" lon="-34.898832">
    <ele>15.7</ele>
    <time>2019-09-16T15:16:03.000Z</time>
   </trkpt>
   <trkpt lat="-8.047188" lon="-34.89886">
    <ele>15.7</ele>
    <time>2019-09-16T15:16:04.000Z</time>
   </trkpt>
   <trkpt lat="-8.047204" lon="-34.898897">
    <ele>15.6</ele>
    <time>2019-09-16T15:16:06.000Z</time>
   </trkpt>
   <trkpt lat="-8.047182" lon="-34.898919">
    <ele>15.5</ele>
    <time>2019-09-16T15:16:11.000Z</time>
   </trkpt>
   <trkpt lat="-8.047158" lon="-34.898955">
    <ele>15.5</ele>
    <time>2019-09-16T15:16:13.000Z</time>
   </trkpt>
   <trkpt lat="-8.047154" lon="-34.898983">
    <ele>15.4</ele>
    <time>2019-09-16T15:16:15.000Z</time>
   </trkpt>
   <trkpt lat="-8.047145" lon="-34.899031">
    <ele>15.3</ele>
    <time>2019-09-16T15:16:17.000Z</time>
   </trkpt>
   <trkpt lat="-8.047154" lon="-34.899071">
    <ele>15.2</ele>
    <time>2019-09-16T15:16:19.000Z</time>
   </trkpt>
   <trkpt lat="-8.047167" lon="-34.899114">
    <ele>15.1</ele>
    <time>2019-09-16T15:16:20.000Z</time>
   </trkpt>
   <trkpt lat="-8.047172" lon="-34.899143">
    <ele>15.1</ele>
    <time>2019-09-16T15:16:21.000Z</time>
   </trkpt>
   <trkpt lat="-8.04719" lon="-34.899187">
    <ele>15</ele>
    <time>2019-09-16T15:16:23.000Z</time>
   </trkpt>
   <trkpt lat="-8.047199" lon="-34.89922">
    <ele>14.9</ele>
    <time>2019-09-16T15:16:25.000Z</time>
   </trkpt>
   <trkpt lat="-8.047187" lon="-34.899252">
    <ele>14.8</ele>
    <time>2019-09-16T15:16:27.000Z</time>
   </trkpt>
   <trkpt lat="-8.047194" lon="-34.899306">
    <ele>14.7</ele>
    <time>2019-09-16T15:16:29.000Z</time>
   </trkpt>
   <trkpt lat="-8.047207" lon="-34.899335">
    <ele>14.6</ele>
    <time>2019-09-16T15:16:30.000Z</time>
   </trkpt>
   <trkpt lat="-8.047218" lon="-34.899364">
    <ele>14.6</ele>
    <time>2019-09-16T15:16:31.000Z</time>
   </trkpt>
   <trkpt lat="-8.047205" lon="-34.899401">
    <ele>14.5</ele>
    <time>2019-09-16T15:16:33.000Z</time>
   </trkpt>
   <trkpt lat="-8.047186" lon="-34.899446">
    <ele>14.5</ele>
    <time>2019-09-16T15:16:35.000Z</time>
   </trkpt>
   <trkpt lat="-8.047197" lon="-34.899484">
    <ele>14.4</ele>
    <time>2019-09-16T15:16:37.000Z</time>
   </trkpt>
   <trkpt lat="-8.047215" lon="-34.899523">
    <ele>14.3</ele>
    <time>2019-09-16T15:16:39.000Z</time>
   </trkpt>
   <trkpt lat="-8.047207" lon="-34.899552">
    <ele>14.3</ele>
    <time>2019-09-16T15:16:42.000Z</time>
   </trkpt>
   <trkpt lat="-8.047212" lon="-34.899582">
    <ele>14.2</ele>
    <time>2019-09-16T15:16:44.000Z</time>
   </trkpt>
   <trkpt lat="-8.047226" lon="-34.89963">
    <ele>14.1</ele>
    <time>2019-09-16T15:16:46.000Z</time>
   </trkpt>
   <trkpt lat="-8.047236" lon="-34.899672">
    <ele>14.1</ele>
    <time>2019-09-16T15:16:48.000Z</time>
   </trkpt>
   <trkpt lat="-8.047252" lon="-34.899701">
    <ele>13.9</ele>
    <time>2019-09-16T15:16:52.000Z</time>
   </trkpt>
   <trkpt lat="-8.047289" lon="-34.899714">
    <ele>13.8</ele>
    <time>2019-09-16T15:16:56.000Z</time>
   </trkpt>
   <trkpt lat="-8.047334" lon="-34.89973">
    <ele>13.7</ele>
    <time>2019-09-16T15:16:58.000Z</time>
   </trkpt>
   <trkpt lat="-8.04736" lon="-34.899741">
    <ele>13.7</ele>
    <time>2019-09-16T15:17:01.000Z</time>
   </trkpt>
   <trkpt lat="-8.047383" lon="-34.899764">
    <ele>13.6</ele>
    <time>2019-09-16T15:17:06.000Z</time>
   </trkpt>
   <trkpt lat="-8.047412" lon="-34.899769">
    <ele>13.6</ele>
    <time>2019-09-16T15:17:08.000Z</time>
   </trkpt>
   <trkpt lat="-8.047446" lon="-34.899788">
    <ele>13.5</ele>
    <time>2019-09-16T15:17:11.000Z</time>
   </trkpt>
   <trkpt lat="-8.047482" lon="-34.899801">
    <ele>13.4</ele>
    <time>2019-09-16T15:17:14.000Z</time>
   </trkpt>
   <trkpt lat="-8.047511" lon="-34.899793">
    <ele>13.4</ele>
    <time>2019-09-16T15:17:17.000Z</time>
   </trkpt>
   <trkpt lat="-8.047529" lon="-34.899769">
    <ele>13.3</ele>
    <time>2019-09-16T15:17:21.000Z</time>
   </trkpt>
   <trkpt lat="-8.047569" lon="-34.89978">
    <ele>13.3</ele>
    <time>2019-09-16T15:17:34.000Z</time>
   </trkpt>
   <trkpt lat="-8.047597" lon="-34.899781">
    <ele>13.2</ele>
    <time>2019-09-16T15:17:35.000Z</time>
   </trkpt>
   <trkpt lat="-8.04765" lon="-34.899803">
    <ele>13.1</ele>
    <time>2019-09-16T15:17:37.000Z</time>
   </trkpt>
   <trkpt lat="-8.047691" lon="-34.899817">
    <ele>13.2</ele>
    <time>2019-09-16T15:17:38.000Z</time>
   </trkpt>
   <trkpt lat="-8.047736" lon="-34.899849">
    <ele>13.2</ele>
    <time>2019-09-16T15:17:39.000Z</time>
   </trkpt>
   <trkpt lat="-8.047786" lon="-34.899891">
    <ele>13.3</ele>
    <time>2019-09-16T15:17:40.000Z</time>
   </trkpt>
   <trkpt lat="-8.047842" lon="-34.899918">
    <ele>13.4</ele>
    <time>2019-09-16T15:17:41.000Z</time>
   </trkpt>
   <trkpt lat="-8.04789" lon="-34.899954">
    <ele>13.5</ele>
    <time>2019-09-16T15:17:42.000Z</time>
   </trkpt>
   <trkpt lat="-8.047933" lon="-34.900002">
    <ele>13.6</ele>
    <time>2019-09-16T15:17:43.000Z</time>
   </trkpt>
   <trkpt lat="-8.04797" lon="-34.900043">
    <ele>13.6</ele>
    <time>2019-09-16T15:17:44.000Z</time>
   </trkpt>
   <trkpt lat="-8.048014" lon="-34.900083">
    <ele>13.7</ele>
    <time>2019-09-16T15:17:45.000Z</time>
   </trkpt>
   <trkpt lat="-8.048064" lon="-34.900132">
    <ele>13.8</ele>
    <time>2019-09-16T15:17:46.000Z</time>
   </trkpt>
   <trkpt lat="-8.048118" lon="-34.900169">
    <ele>13.9</ele>
    <time>2019-09-16T15:17:47.000Z</time>
   </trkpt>
   <trkpt lat="-8.04817" lon="-34.9002">
    <ele>13.9</ele>
    <time>2019-09-16T15:17:48.000Z</time>
   </trkpt>
   <trkpt lat="-8.048218" lon="-34.900232">
    <ele>14</ele>
    <time>2019-09-16T15:17:49.000Z</time>
   </trkpt>
   <trkpt lat="-8.048274" lon="-34.900259">
    <ele>14.1</ele>
    <time>2019-09-16T15:17:50.000Z</time>
   </trkpt>
   <trkpt lat="-8.048329" lon="-34.900294">
    <ele>14.2</ele>
    <time>2019-09-16T15:17:51.000Z</time>
   </trkpt>
   <trkpt lat="-8.048377" lon="-34.900323">
    <ele>14.2</ele>
    <time>2019-09-16T15:17:52.000Z</time>
   </trkpt>
   <trkpt lat="-8.048422" lon="-34.900353">
    <ele>14.3</ele>
    <time>2019-09-16T15:17:53.000Z</time>
   </trkpt>
   <trkpt lat="-8.048472" lon="-34.90038">
    <ele>14.4</ele>
    <time>2019-09-16T15:17:54.000Z</time>
   </trkpt>
   <trkpt lat="-8.048525" lon="-34.900396">
    <ele>14.4</ele>
    <time>2019-09-16T15:17:55.000Z</time>
   </trkpt>
   <trkpt lat="-8.048579" lon="-34.900424">
    <ele>14.5</ele>
    <time>2019-09-16T15:17:56.000Z</time>
   </trkpt>
   <trkpt lat="-8.048635" lon="-34.90045">
    <ele>14.6</ele>
    <time>2019-09-16T15:17:57.000Z</time>
   </trkpt>
   <trkpt lat="-8.048678" lon="-34.900477">
    <ele>14.7</ele>
    <time>2019-09-16T15:17:58.000Z</time>
   </trkpt>
   <trkpt lat="-8.048718" lon="-34.900505">
    <ele>14.7</ele>
    <time>2019-09-16T15:17:59.000Z</time>
   </trkpt>
   <trkpt lat="-8.048761" lon="-34.900533">
    <ele>14.8</ele>
    <time>2019-09-16T15:18:00.000Z</time>
   </trkpt>
   <trkpt lat="-8.048803" lon="-34.900555">
    <ele>14.8</ele>
    <time>2019-09-16T15:18:01.000Z</time>
   </trkpt>
   <trkpt lat="-8.048841" lon="-34.900582">
    <ele>14.9</ele>
    <time>2019-09-16T15:18:02.000Z</time>
   </trkpt>
   <trkpt lat="-8.048869" lon="-34.900593">
    <ele>14.9</ele>
    <time>2019-09-16T15:18:03.000Z</time>
   </trkpt>
   <trkpt lat="-8.048907" lon="-34.900614">
    <ele>15</ele>
    <time>2019-09-16T15:18:04.000Z</time>
   </trkpt>
   <trkpt lat="-8.048953" lon="-34.900635">
    <ele>15</ele>
    <time>2019-09-16T15:18:05.000Z</time>
   </trkpt>
   <trkpt lat="-8.048992" lon="-34.900653">
    <ele>14.9</ele>
    <time>2019-09-16T15:18:06.000Z</time>
   </trkpt>
   <trkpt lat="-8.049036" lon="-34.900671">
    <ele>14.9</ele>
    <time>2019-09-16T15:18:07.000Z</time>
   </trkpt>
   <trkpt lat="-8.049076" lon="-34.900692">
    <ele>14.9</ele>
    <time>2019-09-16T15:18:08.000Z</time>
   </trkpt>
   <trkpt lat="-8.049118" lon="-34.90071">
    <ele>14.9</ele>
    <time>2019-09-16T15:18:09.000Z</time>
   </trkpt>
   <trkpt lat="-8.049167" lon="-34.900744">
    <ele>14.8</ele>
    <time>2019-09-16T15:18:10.000Z</time>
   </trkpt>
   <trkpt lat="-8.049209" lon="-34.900768">
    <ele>14.7</ele>
    <time>2019-09-16T15:18:11.000Z</time>
   </trkpt>
   <trkpt lat="-8.049248" lon="-34.900793">
    <ele>14.6</ele>
    <time>2019-09-16T15:18:12.000Z</time>
   </trkpt>
   <trkpt lat="-8.049288" lon="-34.900817">
    <ele>14.4</ele>
    <time>2019-09-16T15:18:13.000Z</time>
   </trkpt>
   <trkpt lat="-8.049322" lon="-34.900836">
    <ele>14.2</ele>
    <time>2019-09-16T15:18:14.000Z</time>
   </trkpt>
   <trkpt lat="-8.049363" lon="-34.900866">
    <ele>13.9</ele>
    <time>2019-09-16T15:18:15.000Z</time>
   </trkpt>
   <trkpt lat="-8.049407" lon="-34.900893">
    <ele>13.7</ele>
    <time>2019-09-16T15:18:16.000Z</time>
   </trkpt>
   <trkpt lat="-8.049457" lon="-34.900913">
    <ele>13.4</ele>
    <time>2019-09-16T15:18:17.000Z</time>
   </trkpt>
   <trkpt lat="-8.049501" lon="-34.900945">
    <ele>13.3</ele>
    <time>2019-09-16T15:18:18.000Z</time>
   </trkpt>
   <trkpt lat="-8.049542" lon="-34.900965">
    <ele>13.2</ele>
    <time>2019-09-16T15:18:19.000Z</time>
   </trkpt>
   <trkpt lat="-8.049581" lon="-34.900986">
    <ele>13.1</ele>
    <time>2019-09-16T15:18:20.000Z</time>
   </trkpt>
   <trkpt lat="-8.049616" lon="-34.901011">
    <ele>13</ele>
    <time>2019-09-16T15:18:21.000Z</time>
   </trkpt>
   <trkpt lat="-8.049643" lon="-34.901036">
    <ele>13</ele>
    <time>2019-09-16T15:18:22.000Z</time>
   </trkpt>
   <trkpt lat="-8.049685" lon="-34.901046">
    <ele>13</ele>
    <time>2019-09-16T15:18:23.000Z</time>
   </trkpt>
   <trkpt lat="-8.049727" lon="-34.901033">
    <ele>13</ele>
    <time>2019-09-16T15:18:24.000Z</time>
   </trkpt>
   <trkpt lat="-8.049767" lon="-34.901041">
    <ele>12.9</ele>
    <time>2019-09-16T15:18:25.000Z</time>
   </trkpt>
   <trkpt lat="-8.049814" lon="-34.901048">
    <ele>12.9</ele>
    <time>2019-09-16T15:18:26.000Z</time>
   </trkpt>
   <trkpt lat="-8.049862" lon="-34.901049">
    <ele>12.9</ele>
    <time>2019-09-16T15:18:27.000Z</time>
   </trkpt>
   <trkpt lat="-8.049905" lon="-34.901052">
    <ele>12.9</ele>
    <time>2019-09-16T15:18:28.000Z</time>
   </trkpt>
   <trkpt lat="-8.04995" lon="-34.901048">
    <ele>12.8</ele>
    <time>2019-09-16T15:18:29.000Z</time>
   </trkpt>
   <trkpt lat="-8.049992" lon="-34.901053">
    <ele>12.8</ele>
    <time>2019-09-16T15:18:30.000Z</time>
   </trkpt>
   <trkpt lat="-8.050036" lon="-34.901052">
    <ele>12.8</ele>
    <time>2019-09-16T15:18:31.000Z</time>
   </trkpt>
   <trkpt lat="-8.050085" lon="-34.901052">
    <ele>12.8</ele>
    <time>2019-09-16T15:18:32.000Z</time>
   </trkpt>
   <trkpt lat="-8.050137" lon="-34.901055">
    <ele>12.7</ele>
    <time>2019-09-16T15:18:33.000Z</time>
   </trkpt>
   <trkpt lat="-8.050188" lon="-34.901049">
    <ele>12.7</ele>
    <time>2019-09-16T15:18:34.000Z</time>
   </trkpt>
   <trkpt lat="-8.050237" lon="-34.901033">
    <ele>12.7</ele>
    <time>2019-09-16T15:18:35.000Z</time>
   </trkpt>
   <trkpt lat="-8.05028" lon="-34.901028">
    <ele>12.7</ele>
    <time>2019-09-16T15:18:36.000Z</time>
   </trkpt>
   <trkpt lat="-8.050321" lon="-34.901035">
    <ele>12.6</ele>
    <time>2019-09-16T15:18:37.000Z</time>
   </trkpt>
   <trkpt lat="-8.050363" lon="-34.901027">
    <ele>12.6</ele>
    <time>2019-09-16T15:18:38.000Z</time>
   </trkpt>
   <trkpt lat="-8.050401" lon="-34.901028">
    <ele>12.6</ele>
    <time>2019-09-16T15:18:39.000Z</time>
   </trkpt>
   <trkpt lat="-8.050441" lon="-34.901039">
    <ele>12.6</ele>
    <time>2019-09-16T15:18:40.000Z</time>
   </trkpt>
   <trkpt lat="-8.050482" lon="-34.901056">
    <ele>12.6</ele>
    <time>2019-09-16T15:18:41.000Z</time>
   </trkpt>
   <trkpt lat="-8.050523" lon="-34.901059">
    <ele>12.5</ele>
    <time>2019-09-16T15:18:42.000Z</time>
   </trkpt>
   <trkpt lat="-8.050566" lon="-34.901065">
    <ele>12.5</ele>
    <time>2019-09-16T15:18:43.000Z</time>
   </trkpt>
   <trkpt lat="-8.050606" lon="-34.90107">
    <ele>12.5</ele>
    <time>2019-09-16T15:18:44.000Z</time>
   </trkpt>
   <trkpt lat="-8.05064" lon="-34.901066">
    <ele>12.5</ele>
    <time>2019-09-16T15:18:45.000Z</time>
   </trkpt>
   <trkpt lat="-8.050698" lon="-34.901083">
    <ele>12.5</ele>
    <time>2019-09-16T15:18:47.000Z</time>
   </trkpt>
   <trkpt lat="-8.050727" lon="-34.90109">
    <ele>12.4</ele>
    <time>2019-09-16T15:18:48.000Z</time>
   </trkpt>
   <trkpt lat="-8.050766" lon="-34.901095">
    <ele>12.4</ele>
    <time>2019-09-16T15:18:51.000Z</time>
   </trkpt>
   <trkpt lat="-8.050789" lon="-34.901126">
    <ele>12.4</ele>
    <time>2019-09-16T15:18:56.000Z</time>
   </trkpt>
   <trkpt lat="-8.050819" lon="-34.901139">
    <ele>12.4</ele>
    <time>2019-09-16T15:18:59.000Z</time>
   </trkpt>
   <trkpt lat="-8.05084" lon="-34.901181">
    <ele>12.5</ele>
    <time>2019-09-16T15:19:01.000Z</time>
   </trkpt>
   <trkpt lat="-8.050832" lon="-34.901251">
    <ele>12.6</ele>
    <time>2019-09-16T15:19:03.000Z</time>
   </trkpt>
   <trkpt lat="-8.050838" lon="-34.90132">
    <ele>12.6</ele>
    <time>2019-09-16T15:19:04.000Z</time>
   </trkpt>
   <trkpt lat="-8.050853" lon="-34.901377">
    <ele>12.7</ele>
    <time>2019-09-16T15:19:05.000Z</time>
   </trkpt>
   <trkpt lat="-8.05086" lon="-34.901422">
    <ele>12.7</ele>
    <time>2019-09-16T15:19:06.000Z</time>
   </trkpt>
   <trkpt lat="-8.05087" lon="-34.901471">
    <ele>12.7</ele>
    <time>2019-09-16T15:19:07.000Z</time>
   </trkpt>
   <trkpt lat="-8.050883" lon="-34.901509">
    <ele>12.8</ele>
    <time>2019-09-16T15:19:08.000Z</time>
   </trkpt>
   <trkpt lat="-8.050899" lon="-34.901551">
    <ele>12.8</ele>
    <time>2019-09-16T15:19:09.000Z</time>
   </trkpt>
   <trkpt lat="-8.050902" lon="-34.901588">
    <ele>12.9</ele>
    <time>2019-09-16T15:19:10.000Z</time>
   </trkpt>
   <trkpt lat="-8.050905" lon="-34.901632">
    <ele>12.9</ele>
    <time>2019-09-16T15:19:11.000Z</time>
   </trkpt>
   <trkpt lat="-8.050894" lon="-34.901671">
    <ele>13</ele>
    <time>2019-09-16T15:19:12.000Z</time>
   </trkpt>
   <trkpt lat="-8.05089" lon="-34.901702">
    <ele>13</ele>
    <time>2019-09-16T15:19:13.000Z</time>
   </trkpt>
   <trkpt lat="-8.050883" lon="-34.901734">
    <ele>13</ele>
    <time>2019-09-16T15:19:14.000Z</time>
   </trkpt>
   <trkpt lat="-8.050878" lon="-34.901764">
    <ele>13.1</ele>
    <time>2019-09-16T15:19:15.000Z</time>
   </trkpt>
   <trkpt lat="-8.05087" lon="-34.901797">
    <ele>13.4</ele>
    <time>2019-09-16T15:19:16.000Z</time>
   </trkpt>
   <trkpt lat="-8.050868" lon="-34.901831">
    <ele>13.7</ele>
    <time>2019-09-16T15:19:17.000Z</time>
   </trkpt>
   <trkpt lat="-8.050864" lon="-34.901863">
    <ele>14</ele>
    <time>2019-09-16T15:19:18.000Z</time>
   </trkpt>
   <trkpt lat="-8.050856" lon="-34.901892">
    <ele>14.2</ele>
    <time>2019-09-16T15:19:19.000Z</time>
   </trkpt>
   <trkpt lat="-8.050853" lon="-34.901923">
    <ele>14.5</ele>
    <time>2019-09-16T15:19:20.000Z</time>
   </trkpt>
   <trkpt lat="-8.050884" lon="-34.901972">
    <ele>14.9</ele>
    <time>2019-09-16T15:19:22.000Z</time>
   </trkpt>
   <trkpt lat="-8.050919" lon="-34.901982">
    <ele>14.8</ele>
    <time>2019-09-16T15:19:23.000Z</time>
   </trkpt>
   <trkpt lat="-8.050955" lon="-34.901984">
    <ele>14.8</ele>
    <time>2019-09-16T15:19:24.000Z</time>
   </trkpt>
   <trkpt lat="-8.050994" lon="-34.901987">
    <ele>14.7</ele>
    <time>2019-09-16T15:19:25.000Z</time>
   </trkpt>
   <trkpt lat="-8.051032" lon="-34.901983">
    <ele>14.7</ele>
    <time>2019-09-16T15:19:26.000Z</time>
   </trkpt>
   <trkpt lat="-8.051078" lon="-34.901983">
    <ele>14.6</ele>
    <time>2019-09-16T15:19:27.000Z</time>
   </trkpt>
   <trkpt lat="-8.051116" lon="-34.901982">
    <ele>14.5</ele>
    <time>2019-09-16T15:19:28.000Z</time>
   </trkpt>
   <trkpt lat="-8.051154" lon="-34.901979">
    <ele>14.5</ele>
    <time>2019-09-16T15:19:29.000Z</time>
   </trkpt>
   <trkpt lat="-8.051184" lon="-34.901982">
    <ele>14.4</ele>
    <time>2019-09-16T15:19:30.000Z</time>
   </trkpt>
   <trkpt lat="-8.051217" lon="-34.901979">
    <ele>14.4</ele>
    <time>2019-09-16T15:19:31.000Z</time>
   </trkpt>
   <trkpt lat="-8.051252" lon="-34.901995">
    <ele>14.3</ele>
    <time>2019-09-16T15:19:32.000Z</time>
   </trkpt>
   <trkpt lat="-8.051289" lon="-34.902021">
    <ele>14.3</ele>
    <time>2019-09-16T15:19:33.000Z</time>
   </trkpt>
   <trkpt lat="-8.051319" lon="-34.902046">
    <ele>14.2</ele>
    <time>2019-09-16T15:19:34.000Z</time>
   </trkpt>
   <trkpt lat="-8.051364" lon="-34.902047">
    <ele>14.1</ele>
    <time>2019-09-16T15:19:35.000Z</time>
   </trkpt>
   <trkpt lat="-8.051418" lon="-34.902048">
    <ele>14.1</ele>
    <time>2019-09-16T15:19:37.000Z</time>
   </trkpt>
   <trkpt lat="-8.051452" lon="-34.902053">
    <ele>14</ele>
    <time>2019-09-16T15:19:38.000Z</time>
   </trkpt>
   <trkpt lat="-8.051479" lon="-34.902061">
    <ele>14</ele>
    <time>2019-09-16T15:19:39.000Z</time>
   </trkpt>
   <trkpt lat="-8.051523" lon="-34.902056">
    <ele>13.9</ele>
    <time>2019-09-16T15:19:40.000Z</time>
   </trkpt>
   <trkpt lat="-8.051568" lon="-34.902066">
    <ele>13.7</ele>
    <time>2019-09-16T15:19:41.000Z</time>
   </trkpt>
   <trkpt lat="-8.051617" lon="-34.902072">
    <ele>13.5</ele>
    <time>2019-09-16T15:19:42.000Z</time>
   </trkpt>
   <trkpt lat="-8.05166" lon="-34.90208">
    <ele>13.3</ele>
    <time>2019-09-16T15:19:43.000Z</time>
   </trkpt>
   <trkpt lat="-8.051697" lon="-34.902089">
    <ele>13.1</ele>
    <time>2019-09-16T15:19:44.000Z</time>
   </trkpt>
   <trkpt lat="-8.051726" lon="-34.902097">
    <ele>12.9</ele>
    <time>2019-09-16T15:19:45.000Z</time>
   </trkpt>
   <trkpt lat="-8.05177" lon="-34.902097">
    <ele>12.7</ele>
    <time>2019-09-16T15:19:46.000Z</time>
   </trkpt>
   <trkpt lat="-8.051805" lon="-34.902095">
    <ele>12.5</ele>
    <time>2019-09-16T15:19:47.000Z</time>
   </trkpt>
   <trkpt lat="-8.051844" lon="-34.902098">
    <ele>12.3</ele>
    <time>2019-09-16T15:19:48.000Z</time>
   </trkpt>
   <trkpt lat="-8.051886" lon="-34.902109">
    <ele>12.1</ele>
    <time>2019-09-16T15:19:49.000Z</time>
   </trkpt>
   <trkpt lat="-8.051918" lon="-34.90211">
    <ele>11.9</ele>
    <time>2019-09-16T15:19:50.000Z</time>
   </trkpt>
   <trkpt lat="-8.051958" lon="-34.902115">
    <ele>11.8</ele>
    <time>2019-09-16T15:19:51.000Z</time>
   </trkpt>
   <trkpt lat="-8.051992" lon="-34.902114">
    <ele>11.7</ele>
    <time>2019-09-16T15:19:52.000Z</time>
   </trkpt>
   <trkpt lat="-8.052037" lon="-34.902117">
    <ele>11.6</ele>
    <time>2019-09-16T15:19:53.000Z</time>
   </trkpt>
   <trkpt lat="-8.052088" lon="-34.902132">
    <ele>11.5</ele>
    <time>2019-09-16T15:19:54.000Z</time>
   </trkpt>
   <trkpt lat="-8.052122" lon="-34.902141">
    <ele>11.4</ele>
    <time>2019-09-16T15:19:55.000Z</time>
   </trkpt>
   <trkpt lat="-8.05216" lon="-34.902144">
    <ele>11.4</ele>
    <time>2019-09-16T15:19:56.000Z</time>
   </trkpt>
   <trkpt lat="-8.052198" lon="-34.902147">
    <ele>11.3</ele>
    <time>2019-09-16T15:19:57.000Z</time>
   </trkpt>
   <trkpt lat="-8.052241" lon="-34.902146">
    <ele>11.3</ele>
    <time>2019-09-16T15:19:58.000Z</time>
   </trkpt>
   <trkpt lat="-8.052275" lon="-34.902148">
    <ele>11.2</ele>
    <time>2019-09-16T15:19:59.000Z</time>
   </trkpt>
   <trkpt lat="-8.052315" lon="-34.902151">
    <ele>11.1</ele>
    <time>2019-09-16T15:20:00.000Z</time>
   </trkpt>
   <trkpt lat="-8.052355" lon="-34.902157">
    <ele>11.1</ele>
    <time>2019-09-16T15:20:01.000Z</time>
   </trkpt>
   <trkpt lat="-8.052394" lon="-34.902158">
    <ele>11</ele>
    <time>2019-09-16T15:20:02.000Z</time>
   </trkpt>
   <trkpt lat="-8.052427" lon="-34.902159">
    <ele>11</ele>
    <time>2019-09-16T15:20:03.000Z</time>
   </trkpt>
   <trkpt lat="-8.052461" lon="-34.902171">
    <ele>11</ele>
    <time>2019-09-16T15:20:04.000Z</time>
   </trkpt>
   <trkpt lat="-8.052491" lon="-34.902171">
    <ele>11</ele>
    <time>2019-09-16T15:20:05.000Z</time>
   </trkpt>
   <trkpt lat="-8.052542" lon="-34.902177">
    <ele>11</ele>
    <time>2019-09-16T15:20:07.000Z</time>
   </trkpt>
   <trkpt lat="-8.052596" lon="-34.902183">
    <ele>11</ele>
    <time>2019-09-16T15:20:09.000Z</time>
   </trkpt>
   <trkpt lat="-8.052646" lon="-34.902182">
    <ele>11</ele>
    <time>2019-09-16T15:20:11.000Z</time>
   </trkpt>
   <trkpt lat="-8.052684" lon="-34.902179">
    <ele>11</ele>
    <time>2019-09-16T15:20:13.000Z</time>
   </trkpt>
   <trkpt lat="-8.052705" lon="-34.9022">
    <ele>11</ele>
    <time>2019-09-16T15:20:18.000Z</time>
   </trkpt>
   <trkpt lat="-8.052734" lon="-34.902228">
    <ele>11</ele>
    <time>2019-09-16T15:20:25.000Z</time>
   </trkpt>
   <trkpt lat="-8.052773" lon="-34.902221">
    <ele>11</ele>
    <time>2019-09-16T15:20:35.000Z</time>
   </trkpt>
   <trkpt lat="-8.052838" lon="-34.902232">
    <ele>11.1</ele>
    <time>2019-09-16T15:20:38.000Z</time>
   </trkpt>
   <trkpt lat="-8.052871" lon="-34.902242">
    <ele>11.5</ele>
    <time>2019-09-16T15:20:39.000Z</time>
   </trkpt>
   <trkpt lat="-8.052908" lon="-34.902244">
    <ele>12.1</ele>
    <time>2019-09-16T15:20:40.000Z</time>
   </trkpt>
   <trkpt lat="-8.052953" lon="-34.902244">
    <ele>12.5</ele>
    <time>2019-09-16T15:20:41.000Z</time>
   </trkpt>
   <trkpt lat="-8.052991" lon="-34.902237">
    <ele>13.1</ele>
    <time>2019-09-16T15:20:42.000Z</time>
   </trkpt>
   <trkpt lat="-8.053038" lon="-34.902238">
    <ele>13.7</ele>
    <time>2019-09-16T15:20:43.000Z</time>
   </trkpt>
   <trkpt lat="-8.053088" lon="-34.902227">
    <ele>14</ele>
    <time>2019-09-16T15:20:44.000Z</time>
   </trkpt>
   <trkpt lat="-8.053136" lon="-34.902215">
    <ele>14.4</ele>
    <time>2019-09-16T15:20:45.000Z</time>
   </trkpt>
   <trkpt lat="-8.053195" lon="-34.902193">
    <ele>14.9</ele>
    <time>2019-09-16T15:20:46.000Z</time>
   </trkpt>
   <trkpt lat="-8.053245" lon="-34.902178">
    <ele>14.9</ele>
    <time>2019-09-16T15:20:47.000Z</time>
   </trkpt>
   <trkpt lat="-8.053297" lon="-34.902156">
    <ele>15.2</ele>
    <time>2019-09-16T15:20:48.000Z</time>
   </trkpt>
   <trkpt lat="-8.05336" lon="-34.902124">
    <ele>15.4</ele>
    <time>2019-09-16T15:20:49.000Z</time>
   </trkpt>
   <trkpt lat="-8.053419" lon="-34.9021">
    <ele>15.7</ele>
    <time>2019-09-16T15:20:50.000Z</time>
   </trkpt>
   <trkpt lat="-8.053467" lon="-34.902084">
    <ele>15.9</ele>
    <time>2019-09-16T15:20:51.000Z</time>
   </trkpt>
   <trkpt lat="-8.053516" lon="-34.902069">
    <ele>16.1</ele>
    <time>2019-09-16T15:20:52.000Z</time>
   </trkpt>
   <trkpt lat="-8.053558" lon="-34.90206">
    <ele>16.2</ele>
    <time>2019-09-16T15:20:53.000Z</time>
   </trkpt>
   <trkpt lat="-8.053607" lon="-34.902061">
    <ele>16.4</ele>
    <time>2019-09-16T15:20:54.000Z</time>
   </trkpt>
   <trkpt lat="-8.053654" lon="-34.902054">
    <ele>16.5</ele>
    <time>2019-09-16T15:20:55.000Z</time>
   </trkpt>
   <trkpt lat="-8.053711" lon="-34.902033">
    <ele>16.7</ele>
    <time>2019-09-16T15:20:56.000Z</time>
   </trkpt>
   <trkpt lat="-8.053756" lon="-34.902016">
    <ele>16.9</ele>
    <time>2019-09-16T15:20:57.000Z</time>
   </trkpt>
   <trkpt lat="-8.053801" lon="-34.901995">
    <ele>15.7</ele>
    <time>2019-09-16T15:20:58.000Z</time>
   </trkpt>
   <trkpt lat="-8.053843" lon="-34.901983">
    <ele>14.8</ele>
    <time>2019-09-16T15:20:59.000Z</time>
   </trkpt>
   <trkpt lat="-8.053886" lon="-34.901979">
    <ele>13.9</ele>
    <time>2019-09-16T15:21:00.000Z</time>
   </trkpt>
   <trkpt lat="-8.053929" lon="-34.901968">
    <ele>13.1</ele>
    <time>2019-09-16T15:21:01.000Z</time>
   </trkpt>
   <trkpt lat="-8.05398" lon="-34.901949">
    <ele>12</ele>
    <time>2019-09-16T15:21:02.000Z</time>
   </trkpt>
   <trkpt lat="-8.054029" lon="-34.901928">
    <ele>10.9</ele>
    <time>2019-09-16T15:21:03.000Z</time>
   </trkpt>
   <trkpt lat="-8.054067" lon="-34.901909">
    <ele>10.1</ele>
    <time>2019-09-16T15:21:04.000Z</time>
   </trkpt>
   <trkpt lat="-8.054106" lon="-34.901894">
    <ele>9.8</ele>
    <time>2019-09-16T15:21:05.000Z</time>
   </trkpt>
   <trkpt lat="-8.054146" lon="-34.901889">
    <ele>9.6</ele>
    <time>2019-09-16T15:21:06.000Z</time>
   </trkpt>
   <trkpt lat="-8.054188" lon="-34.901883">
    <ele>9.4</ele>
    <time>2019-09-16T15:21:07.000Z</time>
   </trkpt>
   <trkpt lat="-8.054232" lon="-34.901867">
    <ele>9</ele>
    <time>2019-09-16T15:21:08.000Z</time>
   </trkpt>
   <trkpt lat="-8.054289" lon="-34.901856">
    <ele>9.3</ele>
    <time>2019-09-16T15:21:09.000Z</time>
   </trkpt>
   <trkpt lat="-8.054342" lon="-34.901833">
    <ele>9.6</ele>
    <time>2019-09-16T15:21:10.000Z</time>
   </trkpt>
   <trkpt lat="-8.054387" lon="-34.901826">
    <ele>9.8</ele>
    <time>2019-09-16T15:21:11.000Z</time>
   </trkpt>
   <trkpt lat="-8.054438" lon="-34.90182">
    <ele>9.9</ele>
    <time>2019-09-16T15:21:12.000Z</time>
   </trkpt>
   <trkpt lat="-8.054481" lon="-34.901812">
    <ele>10.1</ele>
    <time>2019-09-16T15:21:13.000Z</time>
   </trkpt>
   <trkpt lat="-8.054522" lon="-34.901784">
    <ele>10</ele>
    <time>2019-09-16T15:21:14.000Z</time>
   </trkpt>
   <trkpt lat="-8.054564" lon="-34.901759">
    <ele>9.9</ele>
    <time>2019-09-16T15:21:15.000Z</time>
   </trkpt>
   <trkpt lat="-8.054578" lon="-34.901718">
    <ele>9.7</ele>
    <time>2019-09-16T15:21:16.000Z</time>
   </trkpt>
   <trkpt lat="-8.054554" lon="-34.901676">
    <ele>9.7</ele>
    <time>2019-09-16T15:21:17.000Z</time>
   </trkpt>
   <trkpt lat="-8.054525" lon="-34.901651">
    <ele>9.6</ele>
    <time>2019-09-16T15:21:18.000Z</time>
   </trkpt>
   <trkpt lat="-8.054514" lon="-34.901616">
    <ele>9.6</ele>
    <time>2019-09-16T15:21:19.000Z</time>
   </trkpt>
   <trkpt lat="-8.054507" lon="-34.901579">
    <ele>9.5</ele>
    <time>2019-09-16T15:21:20.000Z</time>
   </trkpt>
   <trkpt lat="-8.054501" lon="-34.901544">
    <ele>9.9</ele>
    <time>2019-09-16T15:21:21.000Z</time>
   </trkpt>
   <trkpt lat="-8.054511" lon="-34.901513">
    <ele>10.2</ele>
    <time>2019-09-16T15:21:22.000Z</time>
   </trkpt>
   <trkpt lat="-8.054536" lon="-34.901479">
    <ele>10.7</ele>
    <time>2019-09-16T15:21:23.000Z</time>
   </trkpt>
   <trkpt lat="-8.054557" lon="-34.901449">
    <ele>11</ele>
    <time>2019-09-16T15:21:24.000Z</time>
   </trkpt>
   <trkpt lat="-8.054587" lon="-34.901415">
    <ele>11.3</ele>
    <time>2019-09-16T15:21:25.000Z</time>
   </trkpt>
   <trkpt lat="-8.054614" lon="-34.901383">
    <ele>11.6</ele>
    <time>2019-09-16T15:21:26.000Z</time>
   </trkpt>
   <trkpt lat="-8.054636" lon="-34.901358">
    <ele>11.8</ele>
    <time>2019-09-16T15:21:27.000Z</time>
   </trkpt>
   <trkpt lat="-8.054665" lon="-34.90133">
    <ele>12</ele>
    <time>2019-09-16T15:21:28.000Z</time>
   </trkpt>
   <trkpt lat="-8.054685" lon="-34.901308">
    <ele>12.2</ele>
    <time>2019-09-16T15:21:29.000Z</time>
   </trkpt>
   <trkpt lat="-8.054703" lon="-34.901282">
    <ele>12.4</ele>
    <time>2019-09-16T15:21:30.000Z</time>
   </trkpt>
   <trkpt lat="-8.054731" lon="-34.901255">
    <ele>12.6</ele>
    <time>2019-09-16T15:21:31.000Z</time>
   </trkpt>
   <trkpt lat="-8.054757" lon="-34.901228">
    <ele>12.9</ele>
    <time>2019-09-16T15:21:32.000Z</time>
   </trkpt>
   <trkpt lat="-8.054786" lon="-34.901192">
    <ele>13.2</ele>
    <time>2019-09-16T15:21:33.000Z</time>
   </trkpt>
   <trkpt lat="-8.054825" lon="-34.901164">
    <ele>13.5</ele>
    <time>2019-09-16T15:21:34.000Z</time>
   </trkpt>
   <trkpt lat="-8.054847" lon="-34.901139">
    <ele>13.8</ele>
    <time>2019-09-16T15:21:35.000Z</time>
   </trkpt>
   <trkpt lat="-8.054868" lon="-34.90112">
    <ele>13.9</ele>
    <time>2019-09-16T15:21:36.000Z</time>
   </trkpt>
   <trkpt lat="-8.054894" lon="-34.901095">
    <ele>14.2</ele>
    <time>2019-09-16T15:21:37.000Z</time>
   </trkpt>
   <trkpt lat="-8.054914" lon="-34.901063">
    <ele>14.3</ele>
    <time>2019-09-16T15:21:38.000Z</time>
   </trkpt>
   <trkpt lat="-8.054956" lon="-34.901025">
    <ele>14.6</ele>
    <time>2019-09-16T15:21:40.000Z</time>
   </trkpt>
   <trkpt lat="-8.054978" lon="-34.901001">
    <ele>14.7</ele>
    <time>2019-09-16T15:21:41.000Z</time>
   </trkpt>
   <trkpt lat="-8.055001" lon="-34.900976">
    <ele>14.7</ele>
    <time>2019-09-16T15:21:42.000Z</time>
   </trkpt>
   <trkpt lat="-8.055027" lon="-34.900952">
    <ele>14.8</ele>
    <time>2019-09-16T15:21:43.000Z</time>
   </trkpt>
   <trkpt lat="-8.055052" lon="-34.900928">
    <ele>14.8</ele>
    <time>2019-09-16T15:21:44.000Z</time>
   </trkpt>
   <trkpt lat="-8.055069" lon="-34.900903">
    <ele>14.8</ele>
    <time>2019-09-16T15:21:45.000Z</time>
   </trkpt>
   <trkpt lat="-8.055091" lon="-34.900877">
    <ele>14.7</ele>
    <time>2019-09-16T15:21:46.000Z</time>
   </trkpt>
   <trkpt lat="-8.055116" lon="-34.90085">
    <ele>14.6</ele>
    <time>2019-09-16T15:21:47.000Z</time>
   </trkpt>
   <trkpt lat="-8.055142" lon="-34.900813">
    <ele>14.5</ele>
    <time>2019-09-16T15:21:48.000Z</time>
   </trkpt>
   <trkpt lat="-8.055174" lon="-34.900773">
    <ele>14.4</ele>
    <time>2019-09-16T15:21:49.000Z</time>
   </trkpt>
   <trkpt lat="-8.055209" lon="-34.900731">
    <ele>14.3</ele>
    <time>2019-09-16T15:21:50.000Z</time>
   </trkpt>
   <trkpt lat="-8.055241" lon="-34.900699">
    <ele>14.2</ele>
    <time>2019-09-16T15:21:51.000Z</time>
   </trkpt>
   <trkpt lat="-8.055273" lon="-34.90067">
    <ele>14.2</ele>
    <time>2019-09-16T15:21:52.000Z</time>
   </trkpt>
   <trkpt lat="-8.055292" lon="-34.900634">
    <ele>13.9</ele>
    <time>2019-09-16T15:21:53.000Z</time>
   </trkpt>
   <trkpt lat="-8.055296" lon="-34.900598">
    <ele>13.8</ele>
    <time>2019-09-16T15:21:54.000Z</time>
   </trkpt>
   <trkpt lat="-8.055293" lon="-34.900553">
    <ele>13.6</ele>
    <time>2019-09-16T15:21:55.000Z</time>
   </trkpt>
   <trkpt lat="-8.055289" lon="-34.900515">
    <ele>13.5</ele>
    <time>2019-09-16T15:21:56.000Z</time>
   </trkpt>
   <trkpt lat="-8.05528" lon="-34.900476">
    <ele>13.3</ele>
    <time>2019-09-16T15:21:57.000Z</time>
   </trkpt>
   <trkpt lat="-8.055284" lon="-34.900442">
    <ele>13.2</ele>
    <time>2019-09-16T15:21:58.000Z</time>
   </trkpt>
   <trkpt lat="-8.055284" lon="-34.900404">
    <ele>13.1</ele>
    <time>2019-09-16T15:21:59.000Z</time>
   </trkpt>
   <trkpt lat="-8.055269" lon="-34.900358">
    <ele>12.9</ele>
    <time>2019-09-16T15:22:00.000Z</time>
   </trkpt>
   <trkpt lat="-8.05526" lon="-34.900317">
    <ele>12.8</ele>
    <time>2019-09-16T15:22:01.000Z</time>
   </trkpt>
   <trkpt lat="-8.055254" lon="-34.90028">
    <ele>12.7</ele>
    <time>2019-09-16T15:22:02.000Z</time>
   </trkpt>
   <trkpt lat="-8.055239" lon="-34.900257">
    <ele>12.6</ele>
    <time>2019-09-16T15:22:03.000Z</time>
   </trkpt>
   <trkpt lat="-8.05524" lon="-34.900227">
    <ele>12.5</ele>
    <time>2019-09-16T15:22:04.000Z</time>
   </trkpt>
   <trkpt lat="-8.055251" lon="-34.900172">
    <ele>12.1</ele>
    <time>2019-09-16T15:22:06.000Z</time>
   </trkpt>
   <trkpt lat="-8.055291" lon="-34.900133">
    <ele>11.9</ele>
    <time>2019-09-16T15:22:08.000Z</time>
   </trkpt>
   <trkpt lat="-8.055327" lon="-34.900115">
    <ele>11.7</ele>
    <time>2019-09-16T15:22:09.000Z</time>
   </trkpt>
   <trkpt lat="-8.055376" lon="-34.900108">
    <ele>11.5</ele>
    <time>2019-09-16T15:22:10.000Z</time>
   </trkpt>
   <trkpt lat="-8.055427" lon="-34.9001">
    <ele>11.6</ele>
    <time>2019-09-16T15:22:11.000Z</time>
   </trkpt>
   <trkpt lat="-8.055461" lon="-34.900098">
    <ele>11.7</ele>
    <time>2019-09-16T15:22:12.000Z</time>
   </trkpt>
   <trkpt lat="-8.0555" lon="-34.900098">
    <ele>11.8</ele>
    <time>2019-09-16T15:22:13.000Z</time>
   </trkpt>
   <trkpt lat="-8.055537" lon="-34.900094">
    <ele>11.9</ele>
    <time>2019-09-16T15:22:14.000Z</time>
   </trkpt>
   <trkpt lat="-8.05558" lon="-34.900096">
    <ele>12</ele>
    <time>2019-09-16T15:22:15.000Z</time>
   </trkpt>
   <trkpt lat="-8.055621" lon="-34.900096">
    <ele>12.1</ele>
    <time>2019-09-16T15:22:16.000Z</time>
   </trkpt>
   <trkpt lat="-8.055662" lon="-34.900094">
    <ele>12.2</ele>
    <time>2019-09-16T15:22:17.000Z</time>
   </trkpt>
   <trkpt lat="-8.055702" lon="-34.900099">
    <ele>12.3</ele>
    <time>2019-09-16T15:22:18.000Z</time>
   </trkpt>
   <trkpt lat="-8.055748" lon="-34.900088">
    <ele>12.5</ele>
    <time>2019-09-16T15:22:19.000Z</time>
   </trkpt>
   <trkpt lat="-8.055792" lon="-34.900088">
    <ele>12.6</ele>
    <time>2019-09-16T15:22:20.000Z</time>
   </trkpt>
   <trkpt lat="-8.055827" lon="-34.900087">
    <ele>12.7</ele>
    <time>2019-09-16T15:22:21.000Z</time>
   </trkpt>
   <trkpt lat="-8.055869" lon="-34.900072">
    <ele>12.9</ele>
    <time>2019-09-16T15:22:22.000Z</time>
   </trkpt>
   <trkpt lat="-8.055904" lon="-34.90007">
    <ele>13</ele>
    <time>2019-09-16T15:22:23.000Z</time>
   </trkpt>
   <trkpt lat="-8.055941" lon="-34.900064">
    <ele>13.1</ele>
    <time>2019-09-16T15:22:24.000Z</time>
   </trkpt>
   <trkpt lat="-8.055986" lon="-34.900061">
    <ele>12.9</ele>
    <time>2019-09-16T15:22:25.000Z</time>
   </trkpt>
   <trkpt lat="-8.056022" lon="-34.900056">
    <ele>12.7</ele>
    <time>2019-09-16T15:22:26.000Z</time>
   </trkpt>
   <trkpt lat="-8.056059" lon="-34.900055">
    <ele>12.6</ele>
    <time>2019-09-16T15:22:27.000Z</time>
   </trkpt>
   <trkpt lat="-8.056098" lon="-34.900056">
    <ele>12.4</ele>
    <time>2019-09-16T15:22:28.000Z</time>
   </trkpt>
   <trkpt lat="-8.05613" lon="-34.900048">
    <ele>12.3</ele>
    <time>2019-09-16T15:22:29.000Z</time>
   </trkpt>
   <trkpt lat="-8.056167" lon="-34.900041">
    <ele>12.1</ele>
    <time>2019-09-16T15:22:30.000Z</time>
   </trkpt>
   <trkpt lat="-8.056201" lon="-34.900035">
    <ele>12</ele>
    <time>2019-09-16T15:22:31.000Z</time>
   </trkpt>
   <trkpt lat="-8.056233" lon="-34.900028">
    <ele>11.9</ele>
    <time>2019-09-16T15:22:32.000Z</time>
   </trkpt>
   <trkpt lat="-8.056276" lon="-34.900029">
    <ele>11.7</ele>
    <time>2019-09-16T15:22:34.000Z</time>
   </trkpt>
   <trkpt lat="-8.056321" lon="-34.900037">
    <ele>11.5</ele>
    <time>2019-09-16T15:22:36.000Z</time>
   </trkpt>
   <trkpt lat="-8.056348" lon="-34.900039">
    <ele>11.4</ele>
    <time>2019-09-16T15:22:37.000Z</time>
   </trkpt>
   <trkpt lat="-8.056397" lon="-34.900042">
    <ele>11.2</ele>
    <time>2019-09-16T15:22:39.000Z</time>
   </trkpt>
   <trkpt lat="-8.056423" lon="-34.90005">
    <ele>11.1</ele>
    <time>2019-09-16T15:22:40.000Z</time>
   </trkpt>
   <trkpt lat="-8.056466" lon="-34.900066">
    <ele>11.1</ele>
    <time>2019-09-16T15:22:42.000Z</time>
   </trkpt>
   <trkpt lat="-8.056508" lon="-34.900064">
    <ele>11</ele>
    <time>2019-09-16T15:22:44.000Z</time>
   </trkpt>
   <trkpt lat="-8.056547" lon="-34.900072">
    <ele>10.9</ele>
    <time>2019-09-16T15:22:46.000Z</time>
   </trkpt>
   <trkpt lat="-8.056583" lon="-34.90006">
    <ele>10.7</ele>
    <time>2019-09-16T15:22:48.000Z</time>
   </trkpt>
   <trkpt lat="-8.056611" lon="-34.900056">
    <ele>10.6</ele>
    <time>2019-09-16T15:22:50.000Z</time>
   </trkpt>
   <trkpt lat="-8.056648" lon="-34.900051">
    <ele>10.4</ele>
    <time>2019-09-16T15:22:52.000Z</time>
   </trkpt>
   <trkpt lat="-8.056688" lon="-34.900051">
    <ele>10.2</ele>
    <time>2019-09-16T15:22:54.000Z</time>
   </trkpt>
   <trkpt lat="-8.056718" lon="-34.900052">
    <ele>10.1</ele>
    <time>2019-09-16T15:22:56.000Z</time>
   </trkpt>
   <trkpt lat="-8.056741" lon="-34.900067">
    <ele>10</ele>
    <time>2019-09-16T15:22:59.000Z</time>
   </trkpt>
   <trkpt lat="-8.056715" lon="-34.900076">
    <ele>9.9</ele>
    <time>2019-09-16T15:23:07.000Z</time>
   </trkpt>
   <trkpt lat="-8.056778" lon="-34.900079">
    <ele>9.6</ele>
    <time>2019-09-16T15:23:34.000Z</time>
   </trkpt>
   <trkpt lat="-8.056807" lon="-34.900076">
    <ele>9.5</ele>
    <time>2019-09-16T15:23:35.000Z</time>
   </trkpt>
   <trkpt lat="-8.056844" lon="-34.900068">
    <ele>9.3</ele>
    <time>2019-09-16T15:23:36.000Z</time>
   </trkpt>
   <trkpt lat="-8.056881" lon="-34.900064">
    <ele>9.2</ele>
    <time>2019-09-16T15:23:37.000Z</time>
   </trkpt>
   <trkpt lat="-8.056922" lon="-34.900071">
    <ele>9</ele>
    <time>2019-09-16T15:23:38.000Z</time>
   </trkpt>
   <trkpt lat="-8.056963" lon="-34.900071">
    <ele>8.8</ele>
    <time>2019-09-16T15:23:39.000Z</time>
   </trkpt>
   <trkpt lat="-8.057005" lon="-34.900072">
    <ele>8.8</ele>
    <time>2019-09-16T15:23:40.000Z</time>
   </trkpt>
   <trkpt lat="-8.057043" lon="-34.900071">
    <ele>8.8</ele>
    <time>2019-09-16T15:23:41.000Z</time>
   </trkpt>
   <trkpt lat="-8.057074" lon="-34.900069">
    <ele>8.8</ele>
    <time>2019-09-16T15:23:42.000Z</time>
   </trkpt>
   <trkpt lat="-8.057104" lon="-34.900067">
    <ele>8.9</ele>
    <time>2019-09-16T15:23:43.000Z</time>
   </trkpt>
   <trkpt lat="-8.057142" lon="-34.900065">
    <ele>9</ele>
    <time>2019-09-16T15:23:45.000Z</time>
   </trkpt>
   <trkpt lat="-8.057173" lon="-34.900061">
    <ele>9.1</ele>
    <time>2019-09-16T15:23:47.000Z</time>
   </trkpt>
   <trkpt lat="-8.057193" lon="-34.90008">
    <ele>9.2</ele>
    <time>2019-09-16T15:23:55.000Z</time>
   </trkpt>
   <trkpt lat="-8.057249" lon="-34.900072">
    <ele>9.3</ele>
    <time>2019-09-16T15:23:57.000Z</time>
   </trkpt>
   <trkpt lat="-8.057276" lon="-34.900069">
    <ele>9.4</ele>
    <time>2019-09-16T15:23:58.000Z</time>
   </trkpt>
   <trkpt lat="-8.057307" lon="-34.90007">
    <ele>9.4</ele>
    <time>2019-09-16T15:23:59.000Z</time>
   </trkpt>
   <trkpt lat="-8.057336" lon="-34.900053">
    <ele>9.5</ele>
    <time>2019-09-16T15:24:00.000Z</time>
   </trkpt>
   <trkpt lat="-8.057365" lon="-34.900048">
    <ele>9.6</ele>
    <time>2019-09-16T15:24:01.000Z</time>
   </trkpt>
   <trkpt lat="-8.057406" lon="-34.900035">
    <ele>9.7</ele>
    <time>2019-09-16T15:24:03.000Z</time>
   </trkpt>
   <trkpt lat="-8.057441" lon="-34.900026">
    <ele>9.8</ele>
    <time>2019-09-16T15:24:07.000Z</time>
   </trkpt>
   <trkpt lat="-8.057469" lon="-34.9">
    <ele>9.7</ele>
    <time>2019-09-16T15:24:09.000Z</time>
   </trkpt>
   <trkpt lat="-8.057495" lon="-34.89995">
    <ele>9.3</ele>
    <time>2019-09-16T15:24:11.000Z</time>
   </trkpt>
   <trkpt lat="-8.057493" lon="-34.899911">
    <ele>9.1</ele>
    <time>2019-09-16T15:24:12.000Z</time>
   </trkpt>
   <trkpt lat="-8.057488" lon="-34.899881">
    <ele>8.9</ele>
    <time>2019-09-16T15:24:13.000Z</time>
   </trkpt>
   <trkpt lat="-8.05749" lon="-34.899846">
    <ele>8.7</ele>
    <time>2019-09-16T15:24:14.000Z</time>
   </trkpt>
   <trkpt lat="-8.057496" lon="-34.899805">
    <ele>8.5</ele>
    <time>2019-09-16T15:24:15.000Z</time>
   </trkpt>
   <trkpt lat="-8.0575" lon="-34.899769">
    <ele>8.3</ele>
    <time>2019-09-16T15:24:16.000Z</time>
   </trkpt>
   <trkpt lat="-8.057491" lon="-34.899726">
    <ele>8.1</ele>
    <time>2019-09-16T15:24:17.000Z</time>
   </trkpt>
   <trkpt lat="-8.057488" lon="-34.899685">
    <ele>7.9</ele>
    <time>2019-09-16T15:24:18.000Z</time>
   </trkpt>
   <trkpt lat="-8.057491" lon="-34.89963">
    <ele>7.5</ele>
    <time>2019-09-16T15:24:20.000Z</time>
   </trkpt>
   <trkpt lat="-8.057484" lon="-34.899597">
    <ele>7.3</ele>
    <time>2019-09-16T15:24:21.000Z</time>
   </trkpt>
   <trkpt lat="-8.057489" lon="-34.89957">
    <ele>7.2</ele>
    <time>2019-09-16T15:24:22.000Z</time>
   </trkpt>
   <trkpt lat="-8.05749" lon="-34.899535">
    <ele>7.2</ele>
    <time>2019-09-16T15:24:23.000Z</time>
   </trkpt>
   <trkpt lat="-8.057479" lon="-34.899492">
    <ele>7.2</ele>
    <time>2019-09-16T15:24:24.000Z</time>
   </trkpt>
   <trkpt lat="-8.057485" lon="-34.899463">
    <ele>7.1</ele>
    <time>2019-09-16T15:24:25.000Z</time>
   </trkpt>
   <trkpt lat="-8.057493" lon="-34.899433">
    <ele>7</ele>
    <time>2019-09-16T15:24:26.000Z</time>
   </trkpt>
   <trkpt lat="-8.057494" lon="-34.899394">
    <ele>7</ele>
    <time>2019-09-16T15:24:27.000Z</time>
   </trkpt>
   <trkpt lat="-8.057504" lon="-34.899361">
    <ele>6.9</ele>
    <time>2019-09-16T15:24:28.000Z</time>
   </trkpt>
   <trkpt lat="-8.05751" lon="-34.899329">
    <ele>6.9</ele>
    <time>2019-09-16T15:24:29.000Z</time>
   </trkpt>
   <trkpt lat="-8.057513" lon="-34.899293">
    <ele>6.8</ele>
    <time>2019-09-16T15:24:30.000Z</time>
   </trkpt>
   <trkpt lat="-8.057497" lon="-34.899246">
    <ele>6.8</ele>
    <time>2019-09-16T15:24:32.000Z</time>
   </trkpt>
   <trkpt lat="-8.057507" lon="-34.899214">
    <ele>6.7</ele>
    <time>2019-09-16T15:24:36.000Z</time>
   </trkpt>
   <trkpt lat="-8.057518" lon="-34.899186">
    <ele>6.7</ele>
    <time>2019-09-16T15:24:38.000Z</time>
   </trkpt>
   <trkpt lat="-8.057549" lon="-34.899178">
    <ele>6.6</ele>
    <time>2019-09-16T15:24:40.000Z</time>
   </trkpt>
   <trkpt lat="-8.057576" lon="-34.899162">
    <ele>6.6</ele>
    <time>2019-09-16T15:24:42.000Z</time>
   </trkpt>
   <trkpt lat="-8.057607" lon="-34.89916">
    <ele>6.5</ele>
    <time>2019-09-16T15:24:45.000Z</time>
   </trkpt>
   <trkpt lat="-8.057641" lon="-34.899145">
    <ele>6.5</ele>
    <time>2019-09-16T15:24:48.000Z</time>
   </trkpt>
   <trkpt lat="-8.057687" lon="-34.899154">
    <ele>6.4</ele>
    <time>2019-09-16T15:24:50.000Z</time>
   </trkpt>
   <trkpt lat="-8.057717" lon="-34.899171">
    <ele>6.4</ele>
    <time>2019-09-16T15:24:52.000Z</time>
   </trkpt>
   <trkpt lat="-8.057744" lon="-34.899164">
    <ele>6.3</ele>
    <time>2019-09-16T15:25:01.000Z</time>
   </trkpt>
   <trkpt lat="-8.057631" lon="-34.899046">
    <ele>6.5</ele>
    <time>2019-09-16T15:25:17.000Z</time>
   </trkpt>
   <trkpt lat="-8.057656" lon="-34.899029">
    <ele>6.5</ele>
    <time>2019-09-16T15:25:22.000Z</time>
   </trkpt>
   <trkpt lat="-8.057664" lon="-34.899062">
    <ele>6.4</ele>
    <time>2019-09-16T15:25:29.000Z</time>
   </trkpt>
   <trkpt lat="-8.057659" lon="-34.899097">
    <ele>6.4</ele>
    <time>2019-09-16T15:25:31.000Z</time>
   </trkpt>
   <trkpt lat="-8.057662" lon="-34.899126">
    <ele>6.4</ele>
    <time>2019-09-16T15:25:40.000Z</time>
   </trkpt>
   <trkpt lat="-8.057688" lon="-34.899135">
    <ele>6.4</ele>
    <time>2019-09-16T15:25:44.000Z</time>
   </trkpt>
   <trkpt lat="-8.057744" lon="-34.899139">
    <ele>6.4</ele>
    <time>2019-09-16T15:25:54.000Z</time>
   </trkpt>
   <trkpt lat="-8.057769" lon="-34.899155">
    <ele>6.3</ele>
    <time>2019-09-16T15:26:05.000Z</time>
   </trkpt>
   <trkpt lat="-8.05779" lon="-34.899177">
    <ele>6.3</ele>
    <time>2019-09-16T15:26:19.000Z</time>
   </trkpt>
   <trkpt lat="-8.057783" lon="-34.899208">
    <ele>6.3</ele>
    <time>2019-09-16T15:26:23.000Z</time>
   </trkpt>
  </trkseg>
 </trk>
</gpx>
