<?xml version="1.0" encoding="UTF-8"?>
<gpx creator="StravaGPX" version="1.1" xmlns="http://www.topografix.com/GPX/1/1">
 <metadata>
  <time>2019-08-30T15:01:41Z</time>
 </metadata>
 <trk>
  <name>Lunch ride</name>
  <type>1</type>
  <trkseg>
   <trkpt lat="-8.036656" lon="-34.892778">
    <ele>8.7</ele>
    <time>2019-08-30T15:01:41.000Z</time>
   </trkpt>
   <trkpt lat="-8.036903" lon="-34.892909">
    <ele>9.9</ele>
    <time>2019-08-30T15:02:01.000Z</time>
   </trkpt>
   <trkpt lat="-8.036868" lon="-34.892901">
    <ele>10</ele>
    <time>2019-08-30T15:02:04.000Z</time>
   </trkpt>
   <trkpt lat="-8.03693" lon="-34.892725">
    <ele>10</ele>
    <time>2019-08-30T15:03:03.000Z</time>
   </trkpt>
   <trkpt lat="-8.036961" lon="-34.892731">
    <ele>10</ele>
    <time>2019-08-30T15:03:04.000Z</time>
   </trkpt>
   <trkpt lat="-8.036992" lon="-34.892734">
    <ele>10</ele>
    <time>2019-08-30T15:03:05.000Z</time>
   </trkpt>
   <trkpt lat="-8.03705" lon="-34.892752">
    <ele>10</ele>
    <time>2019-08-30T15:03:07.000Z</time>
   </trkpt>
   <trkpt lat="-8.037088" lon="-34.892764">
    <ele>10</ele>
    <time>2019-08-30T15:03:08.000Z</time>
   </trkpt>
   <trkpt lat="-8.037123" lon="-34.892775">
    <ele>10</ele>
    <time>2019-08-30T15:03:09.000Z</time>
   </trkpt>
   <trkpt lat="-8.037148" lon="-34.892787">
    <ele>10</ele>
    <time>2019-08-30T15:03:10.000Z</time>
   </trkpt>
   <trkpt lat="-8.037189" lon="-34.892802">
    <ele>10</ele>
    <time>2019-08-30T15:03:12.000Z</time>
   </trkpt>
   <trkpt lat="-8.037235" lon="-34.892817">
    <ele>10</ele>
    <time>2019-08-30T15:03:14.000Z</time>
   </trkpt>
   <trkpt lat="-8.037274" lon="-34.892829">
    <ele>10</ele>
    <time>2019-08-30T15:03:16.000Z</time>
   </trkpt>
   <trkpt lat="-8.037269" lon="-34.892865">
    <ele>10</ele>
    <time>2019-08-30T15:03:20.000Z</time>
   </trkpt>
   <trkpt lat="-8.037247" lon="-34.89291">
    <ele>10</ele>
    <time>2019-08-30T15:03:22.000Z</time>
   </trkpt>
   <trkpt lat="-8.03723" lon="-34.892959">
    <ele>10</ele>
    <time>2019-08-30T15:03:24.000Z</time>
   </trkpt>
   <trkpt lat="-8.037218" lon="-34.892983">
    <ele>10</ele>
    <time>2019-08-30T15:03:25.000Z</time>
   </trkpt>
   <trkpt lat="-8.037198" lon="-34.893026">
    <ele>10</ele>
    <time>2019-08-30T15:03:27.000Z</time>
   </trkpt>
   <trkpt lat="-8.037183" lon="-34.893064">
    <ele>10</ele>
    <time>2019-08-30T15:03:29.000Z</time>
   </trkpt>
   <trkpt lat="-8.037174" lon="-34.893102">
    <ele>10</ele>
    <time>2019-08-30T15:03:31.000Z</time>
   </trkpt>
   <trkpt lat="-8.037169" lon="-34.89313">
    <ele>10</ele>
    <time>2019-08-30T15:03:32.000Z</time>
   </trkpt>
   <trkpt lat="-8.037164" lon="-34.893169">
    <ele>10</ele>
    <time>2019-08-30T15:03:33.000Z</time>
   </trkpt>
   <trkpt lat="-8.037173" lon="-34.8932">
    <ele>10</ele>
    <time>2019-08-30T15:03:34.000Z</time>
   </trkpt>
   <trkpt lat="-8.037187" lon="-34.893295">
    <ele>10</ele>
    <time>2019-08-30T15:03:36.000Z</time>
   </trkpt>
   <trkpt lat="-8.037169" lon="-34.893339">
    <ele>9.9</ele>
    <time>2019-08-30T15:03:38.000Z</time>
   </trkpt>
   <trkpt lat="-8.037172" lon="-34.893394">
    <ele>9.8</ele>
    <time>2019-08-30T15:03:40.000Z</time>
   </trkpt>
   <trkpt lat="-8.03718" lon="-34.893439">
    <ele>9.7</ele>
    <time>2019-08-30T15:03:41.000Z</time>
   </trkpt>
   <trkpt lat="-8.037171" lon="-34.893485">
    <ele>9.5</ele>
    <time>2019-08-30T15:03:43.000Z</time>
   </trkpt>
   <trkpt lat="-8.037171" lon="-34.893526">
    <ele>9.2</ele>
    <time>2019-08-30T15:03:45.000Z</time>
   </trkpt>
   <trkpt lat="-8.037206" lon="-34.893577">
    <ele>8.8</ele>
    <time>2019-08-30T15:03:47.000Z</time>
   </trkpt>
   <trkpt lat="-8.037141" lon="-34.893597">
    <ele>8.5</ele>
    <time>2019-08-30T15:03:50.000Z</time>
   </trkpt>
   <trkpt lat="-8.037114" lon="-34.893601">
    <ele>8.4</ele>
    <time>2019-08-30T15:03:51.000Z</time>
   </trkpt>
   <trkpt lat="-8.037078" lon="-34.893618">
    <ele>8.3</ele>
    <time>2019-08-30T15:03:52.000Z</time>
   </trkpt>
   <trkpt lat="-8.037054" lon="-34.893633">
    <ele>8.3</ele>
    <time>2019-08-30T15:03:54.000Z</time>
   </trkpt>
   <trkpt lat="-8.037034" lon="-34.893668">
    <ele>8.2</ele>
    <time>2019-08-30T15:03:55.000Z</time>
   </trkpt>
   <trkpt lat="-8.03703" lon="-34.893705">
    <ele>8.2</ele>
    <time>2019-08-30T15:03:57.000Z</time>
   </trkpt>
   <trkpt lat="-8.037044" lon="-34.893762">
    <ele>8.5</ele>
    <time>2019-08-30T15:03:59.000Z</time>
   </trkpt>
   <trkpt lat="-8.037074" lon="-34.893841">
    <ele>9</ele>
    <time>2019-08-30T15:04:01.000Z</time>
   </trkpt>
   <trkpt lat="-8.037099" lon="-34.893893">
    <ele>9.4</ele>
    <time>2019-08-30T15:04:03.000Z</time>
   </trkpt>
   <trkpt lat="-8.037123" lon="-34.893944">
    <ele>9.5</ele>
    <time>2019-08-30T15:04:24.000Z</time>
   </trkpt>
   <trkpt lat="-8.037148" lon="-34.893996">
    <ele>9.5</ele>
    <time>2019-08-30T15:04:25.000Z</time>
   </trkpt>
   <trkpt lat="-8.037177" lon="-34.894036">
    <ele>8.3</ele>
    <time>2019-08-30T15:04:26.000Z</time>
   </trkpt>
   <trkpt lat="-8.037196" lon="-34.894064">
    <ele>8.3</ele>
    <time>2019-08-30T15:04:27.000Z</time>
   </trkpt>
   <trkpt lat="-8.037163" lon="-34.8941">
    <ele>8.3</ele>
    <time>2019-08-30T15:04:28.000Z</time>
   </trkpt>
   <trkpt lat="-8.037117" lon="-34.89414">
    <ele>8.3</ele>
    <time>2019-08-30T15:04:29.000Z</time>
   </trkpt>
   <trkpt lat="-8.0371" lon="-34.894165">
    <ele>8.3</ele>
    <time>2019-08-30T15:04:30.000Z</time>
   </trkpt>
   <trkpt lat="-8.037135" lon="-34.894177">
    <ele>8.3</ele>
    <time>2019-08-30T15:04:32.000Z</time>
   </trkpt>
   <trkpt lat="-8.037189" lon="-34.894158">
    <ele>7.1</ele>
    <time>2019-08-30T15:04:34.000Z</time>
   </trkpt>
   <trkpt lat="-8.037212" lon="-34.894143">
    <ele>7.1</ele>
    <time>2019-08-30T15:04:35.000Z</time>
   </trkpt>
   <trkpt lat="-8.03724" lon="-34.894125">
    <ele>7</ele>
    <time>2019-08-30T15:04:36.000Z</time>
   </trkpt>
   <trkpt lat="-8.037293" lon="-34.894092">
    <ele>6.9</ele>
    <time>2019-08-30T15:04:38.000Z</time>
   </trkpt>
   <trkpt lat="-8.037339" lon="-34.894077">
    <ele>6.8</ele>
    <time>2019-08-30T15:04:39.000Z</time>
   </trkpt>
   <trkpt lat="-8.037369" lon="-34.894075">
    <ele>6.7</ele>
    <time>2019-08-30T15:04:40.000Z</time>
   </trkpt>
   <trkpt lat="-8.037403" lon="-34.894076">
    <ele>6.6</ele>
    <time>2019-08-30T15:04:41.000Z</time>
   </trkpt>
   <trkpt lat="-8.037446" lon="-34.894075">
    <ele>6.5</ele>
    <time>2019-08-30T15:04:42.000Z</time>
   </trkpt>
   <trkpt lat="-8.037489" lon="-34.89408">
    <ele>6</ele>
    <time>2019-08-30T15:04:43.000Z</time>
   </trkpt>
   <trkpt lat="-8.037533" lon="-34.894085">
    <ele>5.8</ele>
    <time>2019-08-30T15:04:44.000Z</time>
   </trkpt>
   <trkpt lat="-8.037566" lon="-34.894097">
    <ele>5.7</ele>
    <time>2019-08-30T15:04:45.000Z</time>
   </trkpt>
   <trkpt lat="-8.037598" lon="-34.894103">
    <ele>5.6</ele>
    <time>2019-08-30T15:04:46.000Z</time>
   </trkpt>
   <trkpt lat="-8.03763" lon="-34.894102">
    <ele>5.4</ele>
    <time>2019-08-30T15:04:47.000Z</time>
   </trkpt>
   <trkpt lat="-8.037666" lon="-34.89411">
    <ele>5.3</ele>
    <time>2019-08-30T15:04:48.000Z</time>
   </trkpt>
   <trkpt lat="-8.037695" lon="-34.894124">
    <ele>5.2</ele>
    <time>2019-08-30T15:04:49.000Z</time>
   </trkpt>
   <trkpt lat="-8.037731" lon="-34.894135">
    <ele>5.4</ele>
    <time>2019-08-30T15:04:50.000Z</time>
   </trkpt>
   <trkpt lat="-8.037771" lon="-34.894147">
    <ele>5.6</ele>
    <time>2019-08-30T15:04:51.000Z</time>
   </trkpt>
   <trkpt lat="-8.037805" lon="-34.894156">
    <ele>5.7</ele>
    <time>2019-08-30T15:04:52.000Z</time>
   </trkpt>
   <trkpt lat="-8.037842" lon="-34.894168">
    <ele>5.9</ele>
    <time>2019-08-30T15:04:53.000Z</time>
   </trkpt>
   <trkpt lat="-8.037879" lon="-34.894174">
    <ele>6.1</ele>
    <time>2019-08-30T15:04:54.000Z</time>
   </trkpt>
   <trkpt lat="-8.037921" lon="-34.894179">
    <ele>6.4</ele>
    <time>2019-08-30T15:04:55.000Z</time>
   </trkpt>
   <trkpt lat="-8.037959" lon="-34.894196">
    <ele>6.6</ele>
    <time>2019-08-30T15:04:56.000Z</time>
   </trkpt>
   <trkpt lat="-8.038017" lon="-34.894213">
    <ele>7</ele>
    <time>2019-08-30T15:04:57.000Z</time>
   </trkpt>
   <trkpt lat="-8.038057" lon="-34.894225">
    <ele>7.3</ele>
    <time>2019-08-30T15:04:58.000Z</time>
   </trkpt>
   <trkpt lat="-8.038098" lon="-34.894235">
    <ele>7.5</ele>
    <time>2019-08-30T15:04:59.000Z</time>
   </trkpt>
   <trkpt lat="-8.038145" lon="-34.894245">
    <ele>7.8</ele>
    <time>2019-08-30T15:05:00.000Z</time>
   </trkpt>
   <trkpt lat="-8.038176" lon="-34.894255">
    <ele>8</ele>
    <time>2019-08-30T15:05:01.000Z</time>
   </trkpt>
   <trkpt lat="-8.038201" lon="-34.894275">
    <ele>8.2</ele>
    <time>2019-08-30T15:05:02.000Z</time>
   </trkpt>
   <trkpt lat="-8.038235" lon="-34.89429">
    <ele>8.4</ele>
    <time>2019-08-30T15:05:04.000Z</time>
   </trkpt>
   <trkpt lat="-8.03827" lon="-34.894307">
    <ele>8.6</ele>
    <time>2019-08-30T15:05:05.000Z</time>
   </trkpt>
   <trkpt lat="-8.038313" lon="-34.894325">
    <ele>8.8</ele>
    <time>2019-08-30T15:05:06.000Z</time>
   </trkpt>
   <trkpt lat="-8.038355" lon="-34.894332">
    <ele>8.9</ele>
    <time>2019-08-30T15:05:07.000Z</time>
   </trkpt>
   <trkpt lat="-8.038395" lon="-34.894338">
    <ele>9</ele>
    <time>2019-08-30T15:05:08.000Z</time>
   </trkpt>
   <trkpt lat="-8.038429" lon="-34.894348">
    <ele>9.2</ele>
    <time>2019-08-30T15:05:09.000Z</time>
   </trkpt>
   <trkpt lat="-8.038462" lon="-34.894357">
    <ele>9.3</ele>
    <time>2019-08-30T15:05:10.000Z</time>
   </trkpt>
   <trkpt lat="-8.038502" lon="-34.894366">
    <ele>9.5</ele>
    <time>2019-08-30T15:05:11.000Z</time>
   </trkpt>
   <trkpt lat="-8.038538" lon="-34.894378">
    <ele>9.7</ele>
    <time>2019-08-30T15:05:12.000Z</time>
   </trkpt>
   <trkpt lat="-8.038569" lon="-34.894388">
    <ele>9.7</ele>
    <time>2019-08-30T15:05:13.000Z</time>
   </trkpt>
   <trkpt lat="-8.038601" lon="-34.894398">
    <ele>9.7</ele>
    <time>2019-08-30T15:05:14.000Z</time>
   </trkpt>
   <trkpt lat="-8.038638" lon="-34.894411">
    <ele>9.6</ele>
    <time>2019-08-30T15:05:15.000Z</time>
   </trkpt>
   <trkpt lat="-8.038679" lon="-34.894425">
    <ele>9.6</ele>
    <time>2019-08-30T15:05:16.000Z</time>
   </trkpt>
   <trkpt lat="-8.038709" lon="-34.894434">
    <ele>9.6</ele>
    <time>2019-08-30T15:05:17.000Z</time>
   </trkpt>
   <trkpt lat="-8.038737" lon="-34.894442">
    <ele>9.5</ele>
    <time>2019-08-30T15:05:18.000Z</time>
   </trkpt>
   <trkpt lat="-8.038782" lon="-34.894456">
    <ele>9.5</ele>
    <time>2019-08-30T15:05:20.000Z</time>
   </trkpt>
   <trkpt lat="-8.038827" lon="-34.894472">
    <ele>9.5</ele>
    <time>2019-08-30T15:05:22.000Z</time>
   </trkpt>
   <trkpt lat="-8.038855" lon="-34.894484">
    <ele>9.5</ele>
    <time>2019-08-30T15:05:23.000Z</time>
   </trkpt>
   <trkpt lat="-8.038905" lon="-34.894504">
    <ele>9.7</ele>
    <time>2019-08-30T15:05:25.000Z</time>
   </trkpt>
   <trkpt lat="-8.038935" lon="-34.894518">
    <ele>9.9</ele>
    <time>2019-08-30T15:05:26.000Z</time>
   </trkpt>
   <trkpt lat="-8.03897" lon="-34.89453">
    <ele>10.2</ele>
    <time>2019-08-30T15:05:27.000Z</time>
   </trkpt>
   <trkpt lat="-8.039018" lon="-34.894538">
    <ele>10.4</ele>
    <time>2019-08-30T15:05:30.000Z</time>
   </trkpt>
   <trkpt lat="-8.039047" lon="-34.894535">
    <ele>10.5</ele>
    <time>2019-08-30T15:05:31.000Z</time>
   </trkpt>
   <trkpt lat="-8.03908" lon="-34.894532">
    <ele>10.4</ele>
    <time>2019-08-30T15:05:32.000Z</time>
   </trkpt>
   <trkpt lat="-8.039143" lon="-34.894536">
    <ele>9.9</ele>
    <time>2019-08-30T15:05:34.000Z</time>
   </trkpt>
   <trkpt lat="-8.039179" lon="-34.894543">
    <ele>9.6</ele>
    <time>2019-08-30T15:05:35.000Z</time>
   </trkpt>
   <trkpt lat="-8.039213" lon="-34.894557">
    <ele>9.5</ele>
    <time>2019-08-30T15:05:36.000Z</time>
   </trkpt>
   <trkpt lat="-8.039253" lon="-34.894572">
    <ele>9.3</ele>
    <time>2019-08-30T15:05:37.000Z</time>
   </trkpt>
   <trkpt lat="-8.039293" lon="-34.894583">
    <ele>9.3</ele>
    <time>2019-08-30T15:05:38.000Z</time>
   </trkpt>
   <trkpt lat="-8.039338" lon="-34.894585">
    <ele>9.5</ele>
    <time>2019-08-30T15:05:39.000Z</time>
   </trkpt>
   <trkpt lat="-8.039386" lon="-34.894588">
    <ele>10</ele>
    <time>2019-08-30T15:05:40.000Z</time>
   </trkpt>
   <trkpt lat="-8.039437" lon="-34.894595">
    <ele>10.6</ele>
    <time>2019-08-30T15:05:41.000Z</time>
   </trkpt>
   <trkpt lat="-8.039477" lon="-34.894615">
    <ele>11.1</ele>
    <time>2019-08-30T15:05:42.000Z</time>
   </trkpt>
   <trkpt lat="-8.039507" lon="-34.894633">
    <ele>11.5</ele>
    <time>2019-08-30T15:05:43.000Z</time>
   </trkpt>
   <trkpt lat="-8.039544" lon="-34.894648">
    <ele>11.9</ele>
    <time>2019-08-30T15:05:44.000Z</time>
   </trkpt>
   <trkpt lat="-8.039581" lon="-34.894669">
    <ele>12.4</ele>
    <time>2019-08-30T15:05:46.000Z</time>
   </trkpt>
   <trkpt lat="-8.039627" lon="-34.89469">
    <ele>12.9</ele>
    <time>2019-08-30T15:05:48.000Z</time>
   </trkpt>
   <trkpt lat="-8.039653" lon="-34.894703">
    <ele>13.2</ele>
    <time>2019-08-30T15:05:49.000Z</time>
   </trkpt>
   <trkpt lat="-8.039688" lon="-34.89472">
    <ele>13.6</ele>
    <time>2019-08-30T15:05:50.000Z</time>
   </trkpt>
   <trkpt lat="-8.039723" lon="-34.894737">
    <ele>14.1</ele>
    <time>2019-08-30T15:05:51.000Z</time>
   </trkpt>
   <trkpt lat="-8.039767" lon="-34.894751">
    <ele>14.6</ele>
    <time>2019-08-30T15:05:52.000Z</time>
   </trkpt>
   <trkpt lat="-8.039831" lon="-34.894749">
    <ele>15.2</ele>
    <time>2019-08-30T15:05:53.000Z</time>
   </trkpt>
   <trkpt lat="-8.03988" lon="-34.894754">
    <ele>15.7</ele>
    <time>2019-08-30T15:05:54.000Z</time>
   </trkpt>
   <trkpt lat="-8.039913" lon="-34.894759">
    <ele>16.1</ele>
    <time>2019-08-30T15:05:55.000Z</time>
   </trkpt>
   <trkpt lat="-8.039954" lon="-34.894763">
    <ele>16.6</ele>
    <time>2019-08-30T15:05:56.000Z</time>
   </trkpt>
   <trkpt lat="-8.039993" lon="-34.894756">
    <ele>17.1</ele>
    <time>2019-08-30T15:05:57.000Z</time>
   </trkpt>
   <trkpt lat="-8.04003" lon="-34.894751">
    <ele>17.9</ele>
    <time>2019-08-30T15:05:58.000Z</time>
   </trkpt>
   <trkpt lat="-8.040064" lon="-34.894761">
    <ele>18.1</ele>
    <time>2019-08-30T15:05:59.000Z</time>
   </trkpt>
   <trkpt lat="-8.040096" lon="-34.894746">
    <ele>18.3</ele>
    <time>2019-08-30T15:06:00.000Z</time>
   </trkpt>
   <trkpt lat="-8.040141" lon="-34.894737">
    <ele>18.5</ele>
    <time>2019-08-30T15:06:01.000Z</time>
   </trkpt>
   <trkpt lat="-8.040174" lon="-34.894727">
    <ele>18.6</ele>
    <time>2019-08-30T15:06:02.000Z</time>
   </trkpt>
   <trkpt lat="-8.04021" lon="-34.894725">
    <ele>18.8</ele>
    <time>2019-08-30T15:06:03.000Z</time>
   </trkpt>
   <trkpt lat="-8.040251" lon="-34.894708">
    <ele>19</ele>
    <time>2019-08-30T15:06:04.000Z</time>
   </trkpt>
   <trkpt lat="-8.0403" lon="-34.894694">
    <ele>19.2</ele>
    <time>2019-08-30T15:06:05.000Z</time>
   </trkpt>
   <trkpt lat="-8.040343" lon="-34.894677">
    <ele>19.4</ele>
    <time>2019-08-30T15:06:06.000Z</time>
   </trkpt>
   <trkpt lat="-8.040401" lon="-34.894667">
    <ele>19.1</ele>
    <time>2019-08-30T15:06:07.000Z</time>
   </trkpt>
   <trkpt lat="-8.040429" lon="-34.894653">
    <ele>19</ele>
    <time>2019-08-30T15:06:08.000Z</time>
   </trkpt>
   <trkpt lat="-8.040456" lon="-34.894629">
    <ele>18.9</ele>
    <time>2019-08-30T15:06:09.000Z</time>
   </trkpt>
   <trkpt lat="-8.040481" lon="-34.894599">
    <ele>18.8</ele>
    <time>2019-08-30T15:06:10.000Z</time>
   </trkpt>
   <trkpt lat="-8.040522" lon="-34.894581">
    <ele>18.7</ele>
    <time>2019-08-30T15:06:11.000Z</time>
   </trkpt>
   <trkpt lat="-8.040557" lon="-34.894569">
    <ele>18.6</ele>
    <time>2019-08-30T15:06:12.000Z</time>
   </trkpt>
   <trkpt lat="-8.040589" lon="-34.894555">
    <ele>18.5</ele>
    <time>2019-08-30T15:06:13.000Z</time>
   </trkpt>
   <trkpt lat="-8.040645" lon="-34.894562">
    <ele>18.4</ele>
    <time>2019-08-30T15:06:14.000Z</time>
   </trkpt>
   <trkpt lat="-8.040701" lon="-34.894558">
    <ele>18.2</ele>
    <time>2019-08-30T15:06:15.000Z</time>
   </trkpt>
   <trkpt lat="-8.040743" lon="-34.894539">
    <ele>18.1</ele>
    <time>2019-08-30T15:06:16.000Z</time>
   </trkpt>
   <trkpt lat="-8.040778" lon="-34.894504">
    <ele>18</ele>
    <time>2019-08-30T15:06:17.000Z</time>
   </trkpt>
   <trkpt lat="-8.040816" lon="-34.894474">
    <ele>17.8</ele>
    <time>2019-08-30T15:06:18.000Z</time>
   </trkpt>
   <trkpt lat="-8.040859" lon="-34.894463">
    <ele>17.7</ele>
    <time>2019-08-30T15:06:19.000Z</time>
   </trkpt>
   <trkpt lat="-8.040887" lon="-34.894477">
    <ele>17.6</ele>
    <time>2019-08-30T15:06:20.000Z</time>
   </trkpt>
   <trkpt lat="-8.040935" lon="-34.894466">
    <ele>17.5</ele>
    <time>2019-08-30T15:06:22.000Z</time>
   </trkpt>
   <trkpt lat="-8.04098" lon="-34.894441">
    <ele>17.4</ele>
    <time>2019-08-30T15:06:24.000Z</time>
   </trkpt>
   <trkpt lat="-8.041022" lon="-34.894437">
    <ele>17.3</ele>
    <time>2019-08-30T15:06:26.000Z</time>
   </trkpt>
   <trkpt lat="-8.041047" lon="-34.894412">
    <ele>17.8</ele>
    <time>2019-08-30T15:06:29.000Z</time>
   </trkpt>
   <trkpt lat="-8.041052" lon="-34.89437">
    <ele>18</ele>
    <time>2019-08-30T15:06:30.000Z</time>
   </trkpt>
   <trkpt lat="-8.041049" lon="-34.894321">
    <ele>18.2</ele>
    <time>2019-08-30T15:06:31.000Z</time>
   </trkpt>
   <trkpt lat="-8.041045" lon="-34.894281">
    <ele>18.4</ele>
    <time>2019-08-30T15:06:32.000Z</time>
   </trkpt>
   <trkpt lat="-8.041077" lon="-34.894248">
    <ele>18.6</ele>
    <time>2019-08-30T15:06:34.000Z</time>
   </trkpt>
   <trkpt lat="-8.041107" lon="-34.894231">
    <ele>18.8</ele>
    <time>2019-08-30T15:06:36.000Z</time>
   </trkpt>
   <trkpt lat="-8.041137" lon="-34.894228">
    <ele>18.9</ele>
    <time>2019-08-30T15:06:38.000Z</time>
   </trkpt>
   <trkpt lat="-8.041154" lon="-34.894206">
    <ele>19</ele>
    <time>2019-08-30T15:06:40.000Z</time>
   </trkpt>
   <trkpt lat="-8.041193" lon="-34.894182">
    <ele>19.1</ele>
    <time>2019-08-30T15:06:42.000Z</time>
   </trkpt>
   <trkpt lat="-8.041222" lon="-34.894141">
    <ele>19.1</ele>
    <time>2019-08-30T15:06:44.000Z</time>
   </trkpt>
   <trkpt lat="-8.041251" lon="-34.894121">
    <ele>19</ele>
    <time>2019-08-30T15:06:45.000Z</time>
   </trkpt>
   <trkpt lat="-8.041272" lon="-34.894084">
    <ele>18.9</ele>
    <time>2019-08-30T15:06:46.000Z</time>
   </trkpt>
   <trkpt lat="-8.041297" lon="-34.894035">
    <ele>18.8</ele>
    <time>2019-08-30T15:06:47.000Z</time>
   </trkpt>
   <trkpt lat="-8.041327" lon="-34.893979">
    <ele>18.7</ele>
    <time>2019-08-30T15:06:48.000Z</time>
   </trkpt>
   <trkpt lat="-8.041344" lon="-34.893938">
    <ele>18.6</ele>
    <time>2019-08-30T15:06:49.000Z</time>
   </trkpt>
   <trkpt lat="-8.04137" lon="-34.893909">
    <ele>18.5</ele>
    <time>2019-08-30T15:06:50.000Z</time>
   </trkpt>
   <trkpt lat="-8.0414" lon="-34.89387">
    <ele>18.4</ele>
    <time>2019-08-30T15:06:51.000Z</time>
   </trkpt>
   <trkpt lat="-8.041444" lon="-34.893846">
    <ele>18.2</ele>
    <time>2019-08-30T15:06:52.000Z</time>
   </trkpt>
   <trkpt lat="-8.04148" lon="-34.893819">
    <ele>18.2</ele>
    <time>2019-08-30T15:06:53.000Z</time>
   </trkpt>
   <trkpt lat="-8.041518" lon="-34.893787">
    <ele>18.2</ele>
    <time>2019-08-30T15:06:54.000Z</time>
   </trkpt>
   <trkpt lat="-8.04155" lon="-34.893765">
    <ele>18.2</ele>
    <time>2019-08-30T15:06:55.000Z</time>
   </trkpt>
   <trkpt lat="-8.041556" lon="-34.89373">
    <ele>18.2</ele>
    <time>2019-08-30T15:06:56.000Z</time>
   </trkpt>
   <trkpt lat="-8.041586" lon="-34.893669">
    <ele>18.2</ele>
    <time>2019-08-30T15:06:58.000Z</time>
   </trkpt>
   <trkpt lat="-8.041613" lon="-34.893633">
    <ele>18.2</ele>
    <time>2019-08-30T15:06:59.000Z</time>
   </trkpt>
   <trkpt lat="-8.041653" lon="-34.893586">
    <ele>18.2</ele>
    <time>2019-08-30T15:07:00.000Z</time>
   </trkpt>
   <trkpt lat="-8.041682" lon="-34.893541">
    <ele>18.2</ele>
    <time>2019-08-30T15:07:01.000Z</time>
   </trkpt>
   <trkpt lat="-8.041708" lon="-34.893503">
    <ele>18.2</ele>
    <time>2019-08-30T15:07:02.000Z</time>
   </trkpt>
   <trkpt lat="-8.041728" lon="-34.893473">
    <ele>18.2</ele>
    <time>2019-08-30T15:07:03.000Z</time>
   </trkpt>
   <trkpt lat="-8.041756" lon="-34.893443">
    <ele>18.2</ele>
    <time>2019-08-30T15:07:05.000Z</time>
   </trkpt>
   <trkpt lat="-8.04178" lon="-34.893401">
    <ele>18.2</ele>
    <time>2019-08-30T15:07:08.000Z</time>
   </trkpt>
   <trkpt lat="-8.041796" lon="-34.89336">
    <ele>18.2</ele>
    <time>2019-08-30T15:07:09.000Z</time>
   </trkpt>
   <trkpt lat="-8.041806" lon="-34.893328">
    <ele>18.2</ele>
    <time>2019-08-30T15:07:10.000Z</time>
   </trkpt>
   <trkpt lat="-8.041843" lon="-34.893286">
    <ele>18.2</ele>
    <time>2019-08-30T15:07:11.000Z</time>
   </trkpt>
   <trkpt lat="-8.041888" lon="-34.893248">
    <ele>18.2</ele>
    <time>2019-08-30T15:07:12.000Z</time>
   </trkpt>
   <trkpt lat="-8.041923" lon="-34.893213">
    <ele>18.2</ele>
    <time>2019-08-30T15:07:13.000Z</time>
   </trkpt>
   <trkpt lat="-8.041942" lon="-34.893191">
    <ele>18.2</ele>
    <time>2019-08-30T15:07:14.000Z</time>
   </trkpt>
   <trkpt lat="-8.041971" lon="-34.893156">
    <ele>18.1</ele>
    <time>2019-08-30T15:07:16.000Z</time>
   </trkpt>
   <trkpt lat="-8.04197" lon="-34.893106">
    <ele>18.1</ele>
    <time>2019-08-30T15:07:18.000Z</time>
   </trkpt>
   <trkpt lat="-8.04197" lon="-34.893079">
    <ele>18.1</ele>
    <time>2019-08-30T15:07:19.000Z</time>
   </trkpt>
   <trkpt lat="-8.04198" lon="-34.893041">
    <ele>18.1</ele>
    <time>2019-08-30T15:07:21.000Z</time>
   </trkpt>
   <trkpt lat="-8.041984" lon="-34.892991">
    <ele>18</ele>
    <time>2019-08-30T15:07:22.000Z</time>
   </trkpt>
   <trkpt lat="-8.042002" lon="-34.892963">
    <ele>17.9</ele>
    <time>2019-08-30T15:07:23.000Z</time>
   </trkpt>
   <trkpt lat="-8.042024" lon="-34.892912">
    <ele>17.8</ele>
    <time>2019-08-30T15:07:24.000Z</time>
   </trkpt>
   <trkpt lat="-8.042048" lon="-34.892889">
    <ele>17.8</ele>
    <time>2019-08-30T15:07:25.000Z</time>
   </trkpt>
   <trkpt lat="-8.042076" lon="-34.892873">
    <ele>17.7</ele>
    <time>2019-08-30T15:07:26.000Z</time>
   </trkpt>
   <trkpt lat="-8.0421" lon="-34.892851">
    <ele>17.7</ele>
    <time>2019-08-30T15:07:27.000Z</time>
   </trkpt>
   <trkpt lat="-8.042124" lon="-34.892835">
    <ele>17.6</ele>
    <time>2019-08-30T15:07:28.000Z</time>
   </trkpt>
   <trkpt lat="-8.042151" lon="-34.892802">
    <ele>17.5</ele>
    <time>2019-08-30T15:07:30.000Z</time>
   </trkpt>
   <trkpt lat="-8.042128" lon="-34.892775">
    <ele>17.4</ele>
    <time>2019-08-30T15:07:32.000Z</time>
   </trkpt>
   <trkpt lat="-8.0421" lon="-34.892755">
    <ele>17.4</ele>
    <time>2019-08-30T15:07:34.000Z</time>
   </trkpt>
   <trkpt lat="-8.04211" lon="-34.892727">
    <ele>17.3</ele>
    <time>2019-08-30T15:07:38.000Z</time>
   </trkpt>
   <trkpt lat="-8.042152" lon="-34.892679">
    <ele>17.2</ele>
    <time>2019-08-30T15:07:40.000Z</time>
   </trkpt>
   <trkpt lat="-8.042186" lon="-34.89266">
    <ele>17.1</ele>
    <time>2019-08-30T15:07:41.000Z</time>
   </trkpt>
   <trkpt lat="-8.042212" lon="-34.892609">
    <ele>17.1</ele>
    <time>2019-08-30T15:07:42.000Z</time>
   </trkpt>
   <trkpt lat="-8.042223" lon="-34.892583">
    <ele>17</ele>
    <time>2019-08-30T15:07:43.000Z</time>
   </trkpt>
   <trkpt lat="-8.042227" lon="-34.892555">
    <ele>17</ele>
    <time>2019-08-30T15:07:44.000Z</time>
   </trkpt>
   <trkpt lat="-8.04224" lon="-34.892526">
    <ele>17</ele>
    <time>2019-08-30T15:07:45.000Z</time>
   </trkpt>
   <trkpt lat="-8.042259" lon="-34.8925">
    <ele>17</ele>
    <time>2019-08-30T15:07:46.000Z</time>
   </trkpt>
   <trkpt lat="-8.042275" lon="-34.892464">
    <ele>17</ele>
    <time>2019-08-30T15:07:47.000Z</time>
   </trkpt>
   <trkpt lat="-8.04229" lon="-34.892429">
    <ele>16.8</ele>
    <time>2019-08-30T15:07:48.000Z</time>
   </trkpt>
   <trkpt lat="-8.042298" lon="-34.8924">
    <ele>16.7</ele>
    <time>2019-08-30T15:07:49.000Z</time>
   </trkpt>
   <trkpt lat="-8.042344" lon="-34.892386">
    <ele>16.5</ele>
    <time>2019-08-30T15:07:50.000Z</time>
   </trkpt>
   <trkpt lat="-8.04236" lon="-34.892346">
    <ele>16.4</ele>
    <time>2019-08-30T15:07:51.000Z</time>
   </trkpt>
   <trkpt lat="-8.042382" lon="-34.892317">
    <ele>16.2</ele>
    <time>2019-08-30T15:07:52.000Z</time>
   </trkpt>
   <trkpt lat="-8.042408" lon="-34.892289">
    <ele>16.1</ele>
    <time>2019-08-30T15:07:53.000Z</time>
   </trkpt>
   <trkpt lat="-8.042446" lon="-34.892266">
    <ele>15.9</ele>
    <time>2019-08-30T15:07:54.000Z</time>
   </trkpt>
   <trkpt lat="-8.042477" lon="-34.892219">
    <ele>15.7</ele>
    <time>2019-08-30T15:07:55.000Z</time>
   </trkpt>
   <trkpt lat="-8.042518" lon="-34.892182">
    <ele>15.5</ele>
    <time>2019-08-30T15:07:56.000Z</time>
   </trkpt>
   <trkpt lat="-8.042559" lon="-34.892137">
    <ele>15.4</ele>
    <time>2019-08-30T15:07:57.000Z</time>
   </trkpt>
   <trkpt lat="-8.042594" lon="-34.892096">
    <ele>15.3</ele>
    <time>2019-08-30T15:07:58.000Z</time>
   </trkpt>
   <trkpt lat="-8.042632" lon="-34.892045">
    <ele>15.1</ele>
    <time>2019-08-30T15:07:59.000Z</time>
   </trkpt>
   <trkpt lat="-8.042668" lon="-34.892006">
    <ele>15.1</ele>
    <time>2019-08-30T15:08:00.000Z</time>
   </trkpt>
   <trkpt lat="-8.042727" lon="-34.891951">
    <ele>14.9</ele>
    <time>2019-08-30T15:08:01.000Z</time>
   </trkpt>
   <trkpt lat="-8.042789" lon="-34.891891">
    <ele>14.8</ele>
    <time>2019-08-30T15:08:02.000Z</time>
   </trkpt>
   <trkpt lat="-8.042855" lon="-34.891835">
    <ele>14.7</ele>
    <time>2019-08-30T15:08:03.000Z</time>
   </trkpt>
   <trkpt lat="-8.04293" lon="-34.891786">
    <ele>14.6</ele>
    <time>2019-08-30T15:08:04.000Z</time>
   </trkpt>
   <trkpt lat="-8.043004" lon="-34.891714">
    <ele>14.6</ele>
    <time>2019-08-30T15:08:05.000Z</time>
   </trkpt>
   <trkpt lat="-8.043062" lon="-34.891658">
    <ele>14.6</ele>
    <time>2019-08-30T15:08:06.000Z</time>
   </trkpt>
   <trkpt lat="-8.043119" lon="-34.891617">
    <ele>14.5</ele>
    <time>2019-08-30T15:08:07.000Z</time>
   </trkpt>
   <trkpt lat="-8.043163" lon="-34.891579">
    <ele>14.5</ele>
    <time>2019-08-30T15:08:08.000Z</time>
   </trkpt>
   <trkpt lat="-8.043199" lon="-34.891548">
    <ele>14.5</ele>
    <time>2019-08-30T15:08:09.000Z</time>
   </trkpt>
   <trkpt lat="-8.043225" lon="-34.89153">
    <ele>14.5</ele>
    <time>2019-08-30T15:08:10.000Z</time>
   </trkpt>
   <trkpt lat="-8.043272" lon="-34.891509">
    <ele>14.5</ele>
    <time>2019-08-30T15:08:12.000Z</time>
   </trkpt>
   <trkpt lat="-8.043299" lon="-34.891501">
    <ele>14.5</ele>
    <time>2019-08-30T15:08:13.000Z</time>
   </trkpt>
   <trkpt lat="-8.043327" lon="-34.891495">
    <ele>14.4</ele>
    <time>2019-08-30T15:08:14.000Z</time>
   </trkpt>
   <trkpt lat="-8.043373" lon="-34.891481">
    <ele>14.4</ele>
    <time>2019-08-30T15:08:16.000Z</time>
   </trkpt>
   <trkpt lat="-8.043422" lon="-34.891466">
    <ele>14.4</ele>
    <time>2019-08-30T15:08:18.000Z</time>
   </trkpt>
   <trkpt lat="-8.043435" lon="-34.891441">
    <ele>14.4</ele>
    <time>2019-08-30T15:08:19.000Z</time>
   </trkpt>
   <trkpt lat="-8.043461" lon="-34.891404">
    <ele>14.4</ele>
    <time>2019-08-30T15:08:21.000Z</time>
   </trkpt>
   <trkpt lat="-8.043485" lon="-34.891376">
    <ele>14.4</ele>
    <time>2019-08-30T15:08:22.000Z</time>
   </trkpt>
   <trkpt lat="-8.043507" lon="-34.891346">
    <ele>14.3</ele>
    <time>2019-08-30T15:08:23.000Z</time>
   </trkpt>
   <trkpt lat="-8.043534" lon="-34.891318">
    <ele>14.3</ele>
    <time>2019-08-30T15:08:24.000Z</time>
   </trkpt>
   <trkpt lat="-8.043566" lon="-34.891256">
    <ele>14.3</ele>
    <time>2019-08-30T15:08:25.000Z</time>
   </trkpt>
   <trkpt lat="-8.043633" lon="-34.891184">
    <ele>14.2</ele>
    <time>2019-08-30T15:08:26.000Z</time>
   </trkpt>
   <trkpt lat="-8.043712" lon="-34.891101">
    <ele>14.2</ele>
    <time>2019-08-30T15:08:27.000Z</time>
   </trkpt>
   <trkpt lat="-8.043767" lon="-34.891029">
    <ele>14.1</ele>
    <time>2019-08-30T15:08:28.000Z</time>
   </trkpt>
   <trkpt lat="-8.043816" lon="-34.890983">
    <ele>14</ele>
    <time>2019-08-30T15:08:29.000Z</time>
   </trkpt>
   <trkpt lat="-8.043855" lon="-34.890933">
    <ele>13.8</ele>
    <time>2019-08-30T15:08:30.000Z</time>
   </trkpt>
   <trkpt lat="-8.043895" lon="-34.8909">
    <ele>13.7</ele>
    <time>2019-08-30T15:08:31.000Z</time>
   </trkpt>
   <trkpt lat="-8.04394" lon="-34.890866">
    <ele>13.6</ele>
    <time>2019-08-30T15:08:32.000Z</time>
   </trkpt>
   <trkpt lat="-8.043989" lon="-34.890828">
    <ele>13.5</ele>
    <time>2019-08-30T15:08:33.000Z</time>
   </trkpt>
   <trkpt lat="-8.044026" lon="-34.890778">
    <ele>13.3</ele>
    <time>2019-08-30T15:08:34.000Z</time>
   </trkpt>
   <trkpt lat="-8.044072" lon="-34.890716">
    <ele>13</ele>
    <time>2019-08-30T15:08:35.000Z</time>
   </trkpt>
   <trkpt lat="-8.04412" lon="-34.890659">
    <ele>12.8</ele>
    <time>2019-08-30T15:08:36.000Z</time>
   </trkpt>
   <trkpt lat="-8.044186" lon="-34.890593">
    <ele>12.3</ele>
    <time>2019-08-30T15:08:37.000Z</time>
   </trkpt>
   <trkpt lat="-8.044246" lon="-34.89053">
    <ele>11.4</ele>
    <time>2019-08-30T15:08:38.000Z</time>
   </trkpt>
   <trkpt lat="-8.044296" lon="-34.890471">
    <ele>11.1</ele>
    <time>2019-08-30T15:08:39.000Z</time>
   </trkpt>
   <trkpt lat="-8.044363" lon="-34.890409">
    <ele>10.7</ele>
    <time>2019-08-30T15:08:40.000Z</time>
   </trkpt>
   <trkpt lat="-8.044417" lon="-34.890361">
    <ele>10.2</ele>
    <time>2019-08-30T15:08:41.000Z</time>
   </trkpt>
   <trkpt lat="-8.044459" lon="-34.89032">
    <ele>9.8</ele>
    <time>2019-08-30T15:08:42.000Z</time>
   </trkpt>
   <trkpt lat="-8.044507" lon="-34.890258">
    <ele>9.3</ele>
    <time>2019-08-30T15:08:43.000Z</time>
   </trkpt>
   <trkpt lat="-8.044563" lon="-34.890211">
    <ele>8.9</ele>
    <time>2019-08-30T15:08:44.000Z</time>
   </trkpt>
   <trkpt lat="-8.044626" lon="-34.890169">
    <ele>8.4</ele>
    <time>2019-08-30T15:08:45.000Z</time>
   </trkpt>
   <trkpt lat="-8.044659" lon="-34.890156">
    <ele>8.2</ele>
    <time>2019-08-30T15:08:46.000Z</time>
   </trkpt>
   <trkpt lat="-8.044707" lon="-34.890154">
    <ele>8</ele>
    <time>2019-08-30T15:08:47.000Z</time>
   </trkpt>
   <trkpt lat="-8.044752" lon="-34.890146">
    <ele>7.7</ele>
    <time>2019-08-30T15:08:48.000Z</time>
   </trkpt>
   <trkpt lat="-8.044787" lon="-34.890145">
    <ele>7.5</ele>
    <time>2019-08-30T15:08:49.000Z</time>
   </trkpt>
   <trkpt lat="-8.04483" lon="-34.890137">
    <ele>7.3</ele>
    <time>2019-08-30T15:08:50.000Z</time>
   </trkpt>
   <trkpt lat="-8.04488" lon="-34.89012">
    <ele>7</ele>
    <time>2019-08-30T15:08:51.000Z</time>
   </trkpt>
   <trkpt lat="-8.044931" lon="-34.890118">
    <ele>6.8</ele>
    <time>2019-08-30T15:08:52.000Z</time>
   </trkpt>
   <trkpt lat="-8.044979" lon="-34.890109">
    <ele>6.5</ele>
    <time>2019-08-30T15:08:53.000Z</time>
   </trkpt>
   <trkpt lat="-8.045027" lon="-34.890111">
    <ele>6.3</ele>
    <time>2019-08-30T15:08:54.000Z</time>
   </trkpt>
   <trkpt lat="-8.045072" lon="-34.89011">
    <ele>6.3</ele>
    <time>2019-08-30T15:08:55.000Z</time>
   </trkpt>
   <trkpt lat="-8.045119" lon="-34.890112">
    <ele>6.2</ele>
    <time>2019-08-30T15:08:57.000Z</time>
   </trkpt>
   <trkpt lat="-8.045157" lon="-34.890112">
    <ele>6.2</ele>
    <time>2019-08-30T15:08:58.000Z</time>
   </trkpt>
   <trkpt lat="-8.045197" lon="-34.890108">
    <ele>6.1</ele>
    <time>2019-08-30T15:08:59.000Z</time>
   </trkpt>
   <trkpt lat="-8.045243" lon="-34.8901">
    <ele>6</ele>
    <time>2019-08-30T15:09:00.000Z</time>
   </trkpt>
   <trkpt lat="-8.045292" lon="-34.890093">
    <ele>6.5</ele>
    <time>2019-08-30T15:09:01.000Z</time>
   </trkpt>
   <trkpt lat="-8.045348" lon="-34.890083">
    <ele>6.8</ele>
    <time>2019-08-30T15:09:02.000Z</time>
   </trkpt>
   <trkpt lat="-8.0454" lon="-34.890076">
    <ele>7</ele>
    <time>2019-08-30T15:09:03.000Z</time>
   </trkpt>
   <trkpt lat="-8.045471" lon="-34.890065">
    <ele>7.4</ele>
    <time>2019-08-30T15:09:04.000Z</time>
   </trkpt>
   <trkpt lat="-8.045527" lon="-34.890029">
    <ele>7.8</ele>
    <time>2019-08-30T15:09:05.000Z</time>
   </trkpt>
   <trkpt lat="-8.045589" lon="-34.89002">
    <ele>8.1</ele>
    <time>2019-08-30T15:09:06.000Z</time>
   </trkpt>
   <trkpt lat="-8.045656" lon="-34.890018">
    <ele>8.4</ele>
    <time>2019-08-30T15:09:07.000Z</time>
   </trkpt>
   <trkpt lat="-8.04572" lon="-34.890008">
    <ele>8.8</ele>
    <time>2019-08-30T15:09:08.000Z</time>
   </trkpt>
   <trkpt lat="-8.045791" lon="-34.889994">
    <ele>9.1</ele>
    <time>2019-08-30T15:09:09.000Z</time>
   </trkpt>
   <trkpt lat="-8.045847" lon="-34.889992">
    <ele>9.2</ele>
    <time>2019-08-30T15:09:10.000Z</time>
   </trkpt>
   <trkpt lat="-8.045904" lon="-34.889995">
    <ele>9.3</ele>
    <time>2019-08-30T15:09:11.000Z</time>
   </trkpt>
   <trkpt lat="-8.045958" lon="-34.889993">
    <ele>9.4</ele>
    <time>2019-08-30T15:09:12.000Z</time>
   </trkpt>
   <trkpt lat="-8.046016" lon="-34.889979">
    <ele>9.5</ele>
    <time>2019-08-30T15:09:13.000Z</time>
   </trkpt>
   <trkpt lat="-8.046056" lon="-34.889974">
    <ele>9.5</ele>
    <time>2019-08-30T15:09:14.000Z</time>
   </trkpt>
   <trkpt lat="-8.046123" lon="-34.88997">
    <ele>9.6</ele>
    <time>2019-08-30T15:09:15.000Z</time>
   </trkpt>
   <trkpt lat="-8.04618" lon="-34.889966">
    <ele>9.6</ele>
    <time>2019-08-30T15:09:16.000Z</time>
   </trkpt>
   <trkpt lat="-8.046232" lon="-34.889966">
    <ele>9.7</ele>
    <time>2019-08-30T15:09:17.000Z</time>
   </trkpt>
   <trkpt lat="-8.046292" lon="-34.889966">
    <ele>9.7</ele>
    <time>2019-08-30T15:09:18.000Z</time>
   </trkpt>
   <trkpt lat="-8.046338" lon="-34.889969">
    <ele>9.8</ele>
    <time>2019-08-30T15:09:19.000Z</time>
   </trkpt>
   <trkpt lat="-8.046387" lon="-34.889971">
    <ele>9.8</ele>
    <time>2019-08-30T15:09:20.000Z</time>
   </trkpt>
   <trkpt lat="-8.046429" lon="-34.889977">
    <ele>9.8</ele>
    <time>2019-08-30T15:09:21.000Z</time>
   </trkpt>
   <trkpt lat="-8.046482" lon="-34.889974">
    <ele>9.8</ele>
    <time>2019-08-30T15:09:22.000Z</time>
   </trkpt>
   <trkpt lat="-8.046534" lon="-34.889963">
    <ele>9.9</ele>
    <time>2019-08-30T15:09:23.000Z</time>
   </trkpt>
   <trkpt lat="-8.04659" lon="-34.889953">
    <ele>9.9</ele>
    <time>2019-08-30T15:09:24.000Z</time>
   </trkpt>
   <trkpt lat="-8.046634" lon="-34.889934">
    <ele>9.9</ele>
    <time>2019-08-30T15:09:25.000Z</time>
   </trkpt>
   <trkpt lat="-8.046686" lon="-34.889917">
    <ele>10</ele>
    <time>2019-08-30T15:09:26.000Z</time>
   </trkpt>
   <trkpt lat="-8.046744" lon="-34.889915">
    <ele>10</ele>
    <time>2019-08-30T15:09:27.000Z</time>
   </trkpt>
   <trkpt lat="-8.046798" lon="-34.889912">
    <ele>10</ele>
    <time>2019-08-30T15:09:28.000Z</time>
   </trkpt>
   <trkpt lat="-8.046854" lon="-34.8899">
    <ele>10</ele>
    <time>2019-08-30T15:09:29.000Z</time>
   </trkpt>
   <trkpt lat="-8.046915" lon="-34.889889">
    <ele>10.1</ele>
    <time>2019-08-30T15:09:30.000Z</time>
   </trkpt>
   <trkpt lat="-8.046973" lon="-34.889875">
    <ele>10.1</ele>
    <time>2019-08-30T15:09:31.000Z</time>
   </trkpt>
   <trkpt lat="-8.047026" lon="-34.889863">
    <ele>10.1</ele>
    <time>2019-08-30T15:09:32.000Z</time>
   </trkpt>
   <trkpt lat="-8.047077" lon="-34.889867">
    <ele>10.1</ele>
    <time>2019-08-30T15:09:33.000Z</time>
   </trkpt>
   <trkpt lat="-8.04713" lon="-34.889856">
    <ele>10.1</ele>
    <time>2019-08-30T15:09:34.000Z</time>
   </trkpt>
   <trkpt lat="-8.047183" lon="-34.889848">
    <ele>10.1</ele>
    <time>2019-08-30T15:09:35.000Z</time>
   </trkpt>
   <trkpt lat="-8.047241" lon="-34.88984">
    <ele>10.1</ele>
    <time>2019-08-30T15:09:36.000Z</time>
   </trkpt>
   <trkpt lat="-8.047293" lon="-34.88984">
    <ele>10.1</ele>
    <time>2019-08-30T15:09:37.000Z</time>
   </trkpt>
   <trkpt lat="-8.047353" lon="-34.889835">
    <ele>10.1</ele>
    <time>2019-08-30T15:09:38.000Z</time>
   </trkpt>
   <trkpt lat="-8.047401" lon="-34.889834">
    <ele>10.1</ele>
    <time>2019-08-30T15:09:39.000Z</time>
   </trkpt>
   <trkpt lat="-8.047439" lon="-34.889836">
    <ele>10.2</ele>
    <time>2019-08-30T15:09:40.000Z</time>
   </trkpt>
   <trkpt lat="-8.047483" lon="-34.889831">
    <ele>10.2</ele>
    <time>2019-08-30T15:09:41.000Z</time>
   </trkpt>
   <trkpt lat="-8.047525" lon="-34.889827">
    <ele>10.2</ele>
    <time>2019-08-30T15:09:42.000Z</time>
   </trkpt>
   <trkpt lat="-8.04756" lon="-34.88983">
    <ele>10.2</ele>
    <time>2019-08-30T15:09:43.000Z</time>
   </trkpt>
   <trkpt lat="-8.047594" lon="-34.889829">
    <ele>10.3</ele>
    <time>2019-08-30T15:09:44.000Z</time>
   </trkpt>
   <trkpt lat="-8.047624" lon="-34.889826">
    <ele>10.3</ele>
    <time>2019-08-30T15:09:45.000Z</time>
   </trkpt>
   <trkpt lat="-8.047656" lon="-34.88982">
    <ele>10.3</ele>
    <time>2019-08-30T15:09:46.000Z</time>
   </trkpt>
   <trkpt lat="-8.047702" lon="-34.889819">
    <ele>10.3</ele>
    <time>2019-08-30T15:09:48.000Z</time>
   </trkpt>
   <trkpt lat="-8.047734" lon="-34.889818">
    <ele>10.4</ele>
    <time>2019-08-30T15:09:53.000Z</time>
   </trkpt>
   <trkpt lat="-8.047764" lon="-34.889817">
    <ele>10.4</ele>
    <time>2019-08-30T15:09:55.000Z</time>
   </trkpt>
   <trkpt lat="-8.047758" lon="-34.889786">
    <ele>10.4</ele>
    <time>2019-08-30T15:10:00.000Z</time>
   </trkpt>
   <trkpt lat="-8.047785" lon="-34.889774">
    <ele>10.5</ele>
    <time>2019-08-30T15:10:04.000Z</time>
   </trkpt>
   <trkpt lat="-8.04782" lon="-34.889769">
    <ele>10.5</ele>
    <time>2019-08-30T15:10:06.000Z</time>
   </trkpt>
   <trkpt lat="-8.04785" lon="-34.889761">
    <ele>10.5</ele>
    <time>2019-08-30T15:10:07.000Z</time>
   </trkpt>
   <trkpt lat="-8.047893" lon="-34.889765">
    <ele>10.6</ele>
    <time>2019-08-30T15:10:08.000Z</time>
   </trkpt>
   <trkpt lat="-8.047921" lon="-34.889762">
    <ele>10.6</ele>
    <time>2019-08-30T15:10:09.000Z</time>
   </trkpt>
   <trkpt lat="-8.047953" lon="-34.889763">
    <ele>10.6</ele>
    <time>2019-08-30T15:10:11.000Z</time>
   </trkpt>
   <trkpt lat="-8.04798" lon="-34.889752">
    <ele>10.6</ele>
    <time>2019-08-30T15:10:12.000Z</time>
   </trkpt>
   <trkpt lat="-8.048032" lon="-34.889743">
    <ele>10.6</ele>
    <time>2019-08-30T15:10:14.000Z</time>
   </trkpt>
   <trkpt lat="-8.048076" lon="-34.889738">
    <ele>10.7</ele>
    <time>2019-08-30T15:10:16.000Z</time>
   </trkpt>
   <trkpt lat="-8.048113" lon="-34.88975">
    <ele>10.7</ele>
    <time>2019-08-30T15:10:17.000Z</time>
   </trkpt>
   <trkpt lat="-8.048146" lon="-34.889762">
    <ele>10.7</ele>
    <time>2019-08-30T15:10:18.000Z</time>
   </trkpt>
   <trkpt lat="-8.048195" lon="-34.889769">
    <ele>10.7</ele>
    <time>2019-08-30T15:10:20.000Z</time>
   </trkpt>
   <trkpt lat="-8.048226" lon="-34.889774">
    <ele>10.7</ele>
    <time>2019-08-30T15:10:21.000Z</time>
   </trkpt>
   <trkpt lat="-8.048264" lon="-34.889781">
    <ele>10.7</ele>
    <time>2019-08-30T15:10:22.000Z</time>
   </trkpt>
   <trkpt lat="-8.04832" lon="-34.889804">
    <ele>10.8</ele>
    <time>2019-08-30T15:10:24.000Z</time>
   </trkpt>
   <trkpt lat="-8.048358" lon="-34.889811">
    <ele>10.8</ele>
    <time>2019-08-30T15:10:25.000Z</time>
   </trkpt>
   <trkpt lat="-8.048391" lon="-34.88981">
    <ele>10.8</ele>
    <time>2019-08-30T15:10:26.000Z</time>
   </trkpt>
   <trkpt lat="-8.048445" lon="-34.889804">
    <ele>11.1</ele>
    <time>2019-08-30T15:10:28.000Z</time>
   </trkpt>
   <trkpt lat="-8.048479" lon="-34.889804">
    <ele>11.1</ele>
    <time>2019-08-30T15:10:29.000Z</time>
   </trkpt>
   <trkpt lat="-8.048506" lon="-34.889796">
    <ele>11.2</ele>
    <time>2019-08-30T15:10:30.000Z</time>
   </trkpt>
   <trkpt lat="-8.048557" lon="-34.889789">
    <ele>11.2</ele>
    <time>2019-08-30T15:10:32.000Z</time>
   </trkpt>
   <trkpt lat="-8.048597" lon="-34.889808">
    <ele>11.3</ele>
    <time>2019-08-30T15:10:33.000Z</time>
   </trkpt>
   <trkpt lat="-8.048628" lon="-34.889815">
    <ele>11.3</ele>
    <time>2019-08-30T15:10:34.000Z</time>
   </trkpt>
   <trkpt lat="-8.048677" lon="-34.889774">
    <ele>11.4</ele>
    <time>2019-08-30T15:10:35.000Z</time>
   </trkpt>
   <trkpt lat="-8.048702" lon="-34.889759">
    <ele>11.4</ele>
    <time>2019-08-30T15:10:36.000Z</time>
   </trkpt>
   <trkpt lat="-8.048771" lon="-34.889769">
    <ele>11.4</ele>
    <time>2019-08-30T15:10:38.000Z</time>
   </trkpt>
   <trkpt lat="-8.048826" lon="-34.889836">
    <ele>11.4</ele>
    <time>2019-08-30T15:10:39.000Z</time>
   </trkpt>
   <trkpt lat="-8.048873" lon="-34.88985">
    <ele>11.4</ele>
    <time>2019-08-30T15:10:40.000Z</time>
   </trkpt>
   <trkpt lat="-8.048913" lon="-34.889854">
    <ele>11.3</ele>
    <time>2019-08-30T15:10:41.000Z</time>
   </trkpt>
   <trkpt lat="-8.048956" lon="-34.889863">
    <ele>11.3</ele>
    <time>2019-08-30T15:10:42.000Z</time>
   </trkpt>
   <trkpt lat="-8.048992" lon="-34.889868">
    <ele>11.4</ele>
    <time>2019-08-30T15:10:43.000Z</time>
   </trkpt>
   <trkpt lat="-8.049045" lon="-34.889872">
    <ele>11.4</ele>
    <time>2019-08-30T15:10:44.000Z</time>
   </trkpt>
   <trkpt lat="-8.049108" lon="-34.889901">
    <ele>11.4</ele>
    <time>2019-08-30T15:10:45.000Z</time>
   </trkpt>
   <trkpt lat="-8.04916" lon="-34.889902">
    <ele>11.4</ele>
    <time>2019-08-30T15:10:46.000Z</time>
   </trkpt>
   <trkpt lat="-8.049214" lon="-34.889909">
    <ele>11.5</ele>
    <time>2019-08-30T15:10:47.000Z</time>
   </trkpt>
   <trkpt lat="-8.049262" lon="-34.889914">
    <ele>11.5</ele>
    <time>2019-08-30T15:10:48.000Z</time>
   </trkpt>
   <trkpt lat="-8.049322" lon="-34.889905">
    <ele>11.6</ele>
    <time>2019-08-30T15:10:49.000Z</time>
   </trkpt>
   <trkpt lat="-8.049387" lon="-34.889907">
    <ele>11.6</ele>
    <time>2019-08-30T15:10:50.000Z</time>
   </trkpt>
   <trkpt lat="-8.049451" lon="-34.889949">
    <ele>11.7</ele>
    <time>2019-08-30T15:10:51.000Z</time>
   </trkpt>
   <trkpt lat="-8.049496" lon="-34.889952">
    <ele>11.7</ele>
    <time>2019-08-30T15:10:52.000Z</time>
   </trkpt>
   <trkpt lat="-8.049552" lon="-34.889944">
    <ele>11.8</ele>
    <time>2019-08-30T15:10:53.000Z</time>
   </trkpt>
   <trkpt lat="-8.049604" lon="-34.889933">
    <ele>11.8</ele>
    <time>2019-08-30T15:10:54.000Z</time>
   </trkpt>
   <trkpt lat="-8.049667" lon="-34.889918">
    <ele>11.8</ele>
    <time>2019-08-30T15:10:55.000Z</time>
   </trkpt>
   <trkpt lat="-8.04972" lon="-34.889918">
    <ele>11.8</ele>
    <time>2019-08-30T15:10:56.000Z</time>
   </trkpt>
   <trkpt lat="-8.049774" lon="-34.889935">
    <ele>10.4</ele>
    <time>2019-08-30T15:10:57.000Z</time>
   </trkpt>
   <trkpt lat="-8.049825" lon="-34.88994">
    <ele>10.2</ele>
    <time>2019-08-30T15:10:58.000Z</time>
   </trkpt>
   <trkpt lat="-8.049873" lon="-34.88994">
    <ele>10.1</ele>
    <time>2019-08-30T15:10:59.000Z</time>
   </trkpt>
   <trkpt lat="-8.049921" lon="-34.889946">
    <ele>10</ele>
    <time>2019-08-30T15:11:00.000Z</time>
   </trkpt>
   <trkpt lat="-8.049953" lon="-34.88996">
    <ele>9.9</ele>
    <time>2019-08-30T15:11:01.000Z</time>
   </trkpt>
   <trkpt lat="-8.049994" lon="-34.889965">
    <ele>10</ele>
    <time>2019-08-30T15:11:02.000Z</time>
   </trkpt>
   <trkpt lat="-8.050032" lon="-34.889971">
    <ele>10.1</ele>
    <time>2019-08-30T15:11:03.000Z</time>
   </trkpt>
   <trkpt lat="-8.050072" lon="-34.889978">
    <ele>10.3</ele>
    <time>2019-08-30T15:11:04.000Z</time>
   </trkpt>
   <trkpt lat="-8.050104" lon="-34.889989">
    <ele>10.4</ele>
    <time>2019-08-30T15:11:05.000Z</time>
   </trkpt>
   <trkpt lat="-8.050126" lon="-34.890046">
    <ele>10.5</ele>
    <time>2019-08-30T15:11:07.000Z</time>
   </trkpt>
   <trkpt lat="-8.050141" lon="-34.89008">
    <ele>10.5</ele>
    <time>2019-08-30T15:11:08.000Z</time>
   </trkpt>
   <trkpt lat="-8.050148" lon="-34.890114">
    <ele>10.6</ele>
    <time>2019-08-30T15:11:09.000Z</time>
   </trkpt>
   <trkpt lat="-8.050143" lon="-34.890164">
    <ele>10.6</ele>
    <time>2019-08-30T15:11:10.000Z</time>
   </trkpt>
   <trkpt lat="-8.050139" lon="-34.890216">
    <ele>10.6</ele>
    <time>2019-08-30T15:11:11.000Z</time>
   </trkpt>
   <trkpt lat="-8.050135" lon="-34.890265">
    <ele>10.7</ele>
    <time>2019-08-30T15:11:12.000Z</time>
   </trkpt>
   <trkpt lat="-8.050127" lon="-34.890317">
    <ele>10.8</ele>
    <time>2019-08-30T15:11:13.000Z</time>
   </trkpt>
   <trkpt lat="-8.05011" lon="-34.890356">
    <ele>10.9</ele>
    <time>2019-08-30T15:11:14.000Z</time>
   </trkpt>
   <trkpt lat="-8.050102" lon="-34.890408">
    <ele>11</ele>
    <time>2019-08-30T15:11:15.000Z</time>
   </trkpt>
   <trkpt lat="-8.050086" lon="-34.89046">
    <ele>11.2</ele>
    <time>2019-08-30T15:11:16.000Z</time>
   </trkpt>
   <trkpt lat="-8.050062" lon="-34.890512">
    <ele>11.5</ele>
    <time>2019-08-30T15:11:17.000Z</time>
   </trkpt>
   <trkpt lat="-8.050049" lon="-34.890567">
    <ele>11.8</ele>
    <time>2019-08-30T15:11:18.000Z</time>
   </trkpt>
   <trkpt lat="-8.050036" lon="-34.890624">
    <ele>12</ele>
    <time>2019-08-30T15:11:19.000Z</time>
   </trkpt>
   <trkpt lat="-8.050044" lon="-34.890679">
    <ele>12.3</ele>
    <time>2019-08-30T15:11:20.000Z</time>
   </trkpt>
   <trkpt lat="-8.050051" lon="-34.890724">
    <ele>12.5</ele>
    <time>2019-08-30T15:11:21.000Z</time>
   </trkpt>
   <trkpt lat="-8.050055" lon="-34.89077">
    <ele>12.7</ele>
    <time>2019-08-30T15:11:22.000Z</time>
   </trkpt>
   <trkpt lat="-8.050072" lon="-34.890832">
    <ele>12.8</ele>
    <time>2019-08-30T15:11:23.000Z</time>
   </trkpt>
   <trkpt lat="-8.050075" lon="-34.890899">
    <ele>13</ele>
    <time>2019-08-30T15:11:24.000Z</time>
   </trkpt>
   <trkpt lat="-8.050078" lon="-34.890957">
    <ele>13.1</ele>
    <time>2019-08-30T15:11:25.000Z</time>
   </trkpt>
   <trkpt lat="-8.050072" lon="-34.891022">
    <ele>13.2</ele>
    <time>2019-08-30T15:11:26.000Z</time>
   </trkpt>
   <trkpt lat="-8.050062" lon="-34.891078">
    <ele>13.2</ele>
    <time>2019-08-30T15:11:27.000Z</time>
   </trkpt>
   <trkpt lat="-8.050062" lon="-34.891131">
    <ele>13.3</ele>
    <time>2019-08-30T15:11:28.000Z</time>
   </trkpt>
   <trkpt lat="-8.050056" lon="-34.89118">
    <ele>13.3</ele>
    <time>2019-08-30T15:11:29.000Z</time>
   </trkpt>
   <trkpt lat="-8.050049" lon="-34.891245">
    <ele>13.4</ele>
    <time>2019-08-30T15:11:30.000Z</time>
   </trkpt>
   <trkpt lat="-8.050044" lon="-34.891299">
    <ele>13.4</ele>
    <time>2019-08-30T15:11:31.000Z</time>
   </trkpt>
   <trkpt lat="-8.050031" lon="-34.891354">
    <ele>13.4</ele>
    <time>2019-08-30T15:11:32.000Z</time>
   </trkpt>
   <trkpt lat="-8.050016" lon="-34.8914">
    <ele>13.5</ele>
    <time>2019-08-30T15:11:33.000Z</time>
   </trkpt>
   <trkpt lat="-8.050003" lon="-34.891436">
    <ele>13.5</ele>
    <time>2019-08-30T15:11:34.000Z</time>
   </trkpt>
   <trkpt lat="-8.050007" lon="-34.891484">
    <ele>13.5</ele>
    <time>2019-08-30T15:11:35.000Z</time>
   </trkpt>
   <trkpt lat="-8.050004" lon="-34.891534">
    <ele>13.6</ele>
    <time>2019-08-30T15:11:36.000Z</time>
   </trkpt>
   <trkpt lat="-8.05" lon="-34.891583">
    <ele>13.6</ele>
    <time>2019-08-30T15:11:37.000Z</time>
   </trkpt>
   <trkpt lat="-8.050002" lon="-34.891645">
    <ele>13.7</ele>
    <time>2019-08-30T15:11:38.000Z</time>
   </trkpt>
   <trkpt lat="-8.049989" lon="-34.891702">
    <ele>13.7</ele>
    <time>2019-08-30T15:11:39.000Z</time>
   </trkpt>
   <trkpt lat="-8.049988" lon="-34.891756">
    <ele>13.7</ele>
    <time>2019-08-30T15:11:40.000Z</time>
   </trkpt>
   <trkpt lat="-8.04998" lon="-34.891806">
    <ele>13.8</ele>
    <time>2019-08-30T15:11:41.000Z</time>
   </trkpt>
   <trkpt lat="-8.049979" lon="-34.89186">
    <ele>13.8</ele>
    <time>2019-08-30T15:11:42.000Z</time>
   </trkpt>
   <trkpt lat="-8.049981" lon="-34.891933">
    <ele>13.8</ele>
    <time>2019-08-30T15:11:43.000Z</time>
   </trkpt>
   <trkpt lat="-8.04997" lon="-34.891997">
    <ele>13.8</ele>
    <time>2019-08-30T15:11:44.000Z</time>
   </trkpt>
   <trkpt lat="-8.049955" lon="-34.892062">
    <ele>13.7</ele>
    <time>2019-08-30T15:11:45.000Z</time>
   </trkpt>
   <trkpt lat="-8.049928" lon="-34.892096">
    <ele>13.5</ele>
    <time>2019-08-30T15:11:46.000Z</time>
   </trkpt>
   <trkpt lat="-8.049886" lon="-34.892123">
    <ele>13.4</ele>
    <time>2019-08-30T15:11:47.000Z</time>
   </trkpt>
   <trkpt lat="-8.049847" lon="-34.892153">
    <ele>13.2</ele>
    <time>2019-08-30T15:11:48.000Z</time>
   </trkpt>
   <trkpt lat="-8.049809" lon="-34.89219">
    <ele>13</ele>
    <time>2019-08-30T15:11:49.000Z</time>
   </trkpt>
   <trkpt lat="-8.049783" lon="-34.892225">
    <ele>12.8</ele>
    <time>2019-08-30T15:11:50.000Z</time>
   </trkpt>
   <trkpt lat="-8.049754" lon="-34.892268">
    <ele>12.6</ele>
    <time>2019-08-30T15:11:51.000Z</time>
   </trkpt>
   <trkpt lat="-8.049712" lon="-34.892322">
    <ele>12.4</ele>
    <time>2019-08-30T15:11:52.000Z</time>
   </trkpt>
   <trkpt lat="-8.049684" lon="-34.892369">
    <ele>12.4</ele>
    <time>2019-08-30T15:11:53.000Z</time>
   </trkpt>
   <trkpt lat="-8.04966" lon="-34.892399">
    <ele>12.4</ele>
    <time>2019-08-30T15:11:54.000Z</time>
   </trkpt>
   <trkpt lat="-8.049638" lon="-34.89243">
    <ele>12.4</ele>
    <time>2019-08-30T15:11:55.000Z</time>
   </trkpt>
   <trkpt lat="-8.049631" lon="-34.892463">
    <ele>12.4</ele>
    <time>2019-08-30T15:11:56.000Z</time>
   </trkpt>
   <trkpt lat="-8.049607" lon="-34.892486">
    <ele>12.4</ele>
    <time>2019-08-30T15:11:57.000Z</time>
   </trkpt>
   <trkpt lat="-8.049571" lon="-34.892489">
    <ele>12.4</ele>
    <time>2019-08-30T15:11:58.000Z</time>
   </trkpt>
   <trkpt lat="-8.04953" lon="-34.892489">
    <ele>12.4</ele>
    <time>2019-08-30T15:11:59.000Z</time>
   </trkpt>
   <trkpt lat="-8.049498" lon="-34.892515">
    <ele>12.5</ele>
    <time>2019-08-30T15:12:00.000Z</time>
   </trkpt>
   <trkpt lat="-8.04946" lon="-34.892551">
    <ele>12.5</ele>
    <time>2019-08-30T15:12:01.000Z</time>
   </trkpt>
   <trkpt lat="-8.049428" lon="-34.892584">
    <ele>12.5</ele>
    <time>2019-08-30T15:12:02.000Z</time>
   </trkpt>
   <trkpt lat="-8.049399" lon="-34.892624">
    <ele>12.6</ele>
    <time>2019-08-30T15:12:03.000Z</time>
   </trkpt>
   <trkpt lat="-8.049369" lon="-34.892669">
    <ele>12.6</ele>
    <time>2019-08-30T15:12:04.000Z</time>
   </trkpt>
   <trkpt lat="-8.049332" lon="-34.892702">
    <ele>12.6</ele>
    <time>2019-08-30T15:12:05.000Z</time>
   </trkpt>
   <trkpt lat="-8.049319" lon="-34.892748">
    <ele>12.7</ele>
    <time>2019-08-30T15:12:06.000Z</time>
   </trkpt>
   <trkpt lat="-8.049294" lon="-34.892766">
    <ele>12.7</ele>
    <time>2019-08-30T15:12:07.000Z</time>
   </trkpt>
   <trkpt lat="-8.049314" lon="-34.892805">
    <ele>12.7</ele>
    <time>2019-08-30T15:12:09.000Z</time>
   </trkpt>
   <trkpt lat="-8.049354" lon="-34.892828">
    <ele>10.9</ele>
    <time>2019-08-30T15:12:10.000Z</time>
   </trkpt>
   <trkpt lat="-8.049392" lon="-34.892854">
    <ele>10.9</ele>
    <time>2019-08-30T15:12:11.000Z</time>
   </trkpt>
   <trkpt lat="-8.049447" lon="-34.892893">
    <ele>10.9</ele>
    <time>2019-08-30T15:12:12.000Z</time>
   </trkpt>
   <trkpt lat="-8.049496" lon="-34.892926">
    <ele>11.1</ele>
    <time>2019-08-30T15:12:13.000Z</time>
   </trkpt>
   <trkpt lat="-8.049558" lon="-34.892944">
    <ele>11.3</ele>
    <time>2019-08-30T15:12:14.000Z</time>
   </trkpt>
   <trkpt lat="-8.049601" lon="-34.892965">
    <ele>11.5</ele>
    <time>2019-08-30T15:12:15.000Z</time>
   </trkpt>
   <trkpt lat="-8.049645" lon="-34.892983">
    <ele>11.7</ele>
    <time>2019-08-30T15:12:16.000Z</time>
   </trkpt>
   <trkpt lat="-8.049684" lon="-34.893005">
    <ele>11.9</ele>
    <time>2019-08-30T15:12:17.000Z</time>
   </trkpt>
   <trkpt lat="-8.049727" lon="-34.893023">
    <ele>12.1</ele>
    <time>2019-08-30T15:12:18.000Z</time>
   </trkpt>
   <trkpt lat="-8.049745" lon="-34.893071">
    <ele>12.3</ele>
    <time>2019-08-30T15:12:19.000Z</time>
   </trkpt>
   <trkpt lat="-8.049775" lon="-34.893084">
    <ele>12.4</ele>
    <time>2019-08-30T15:12:20.000Z</time>
   </trkpt>
   <trkpt lat="-8.049811" lon="-34.893108">
    <ele>12.6</ele>
    <time>2019-08-30T15:12:21.000Z</time>
   </trkpt>
   <trkpt lat="-8.049841" lon="-34.89312">
    <ele>12.4</ele>
    <time>2019-08-30T15:12:22.000Z</time>
   </trkpt>
   <trkpt lat="-8.049895" lon="-34.893136">
    <ele>11.8</ele>
    <time>2019-08-30T15:12:24.000Z</time>
   </trkpt>
   <trkpt lat="-8.049925" lon="-34.893155">
    <ele>11.5</ele>
    <time>2019-08-30T15:12:25.000Z</time>
   </trkpt>
   <trkpt lat="-8.049957" lon="-34.893158">
    <ele>11.1</ele>
    <time>2019-08-30T15:12:26.000Z</time>
   </trkpt>
   <trkpt lat="-8.049991" lon="-34.893157">
    <ele>10.8</ele>
    <time>2019-08-30T15:12:27.000Z</time>
   </trkpt>
   <trkpt lat="-8.050025" lon="-34.893158">
    <ele>10.4</ele>
    <time>2019-08-30T15:12:28.000Z</time>
   </trkpt>
   <trkpt lat="-8.050054" lon="-34.893164">
    <ele>10.1</ele>
    <time>2019-08-30T15:12:29.000Z</time>
   </trkpt>
   <trkpt lat="-8.050082" lon="-34.893186">
    <ele>9.7</ele>
    <time>2019-08-30T15:12:30.000Z</time>
   </trkpt>
   <trkpt lat="-8.050121" lon="-34.893215">
    <ele>9.3</ele>
    <time>2019-08-30T15:12:31.000Z</time>
   </trkpt>
   <trkpt lat="-8.050156" lon="-34.893225">
    <ele>9.3</ele>
    <time>2019-08-30T15:12:32.000Z</time>
   </trkpt>
   <trkpt lat="-8.05019" lon="-34.89324">
    <ele>9.2</ele>
    <time>2019-08-30T15:12:33.000Z</time>
   </trkpt>
   <trkpt lat="-8.050228" lon="-34.893266">
    <ele>9.2</ele>
    <time>2019-08-30T15:12:34.000Z</time>
   </trkpt>
   <trkpt lat="-8.05027" lon="-34.893296">
    <ele>9.2</ele>
    <time>2019-08-30T15:12:35.000Z</time>
   </trkpt>
   <trkpt lat="-8.050311" lon="-34.893326">
    <ele>9.3</ele>
    <time>2019-08-30T15:12:36.000Z</time>
   </trkpt>
   <trkpt lat="-8.050355" lon="-34.89337">
    <ele>9.3</ele>
    <time>2019-08-30T15:12:37.000Z</time>
   </trkpt>
   <trkpt lat="-8.05042" lon="-34.893402">
    <ele>9.3</ele>
    <time>2019-08-30T15:12:38.000Z</time>
   </trkpt>
   <trkpt lat="-8.050486" lon="-34.893424">
    <ele>9.4</ele>
    <time>2019-08-30T15:12:39.000Z</time>
   </trkpt>
   <trkpt lat="-8.050548" lon="-34.893451">
    <ele>9.4</ele>
    <time>2019-08-30T15:12:40.000Z</time>
   </trkpt>
   <trkpt lat="-8.050594" lon="-34.893473">
    <ele>9.4</ele>
    <time>2019-08-30T15:12:41.000Z</time>
   </trkpt>
   <trkpt lat="-8.05064" lon="-34.893489">
    <ele>9.4</ele>
    <time>2019-08-30T15:12:42.000Z</time>
   </trkpt>
   <trkpt lat="-8.050678" lon="-34.893521">
    <ele>9.4</ele>
    <time>2019-08-30T15:12:43.000Z</time>
   </trkpt>
   <trkpt lat="-8.050711" lon="-34.893541">
    <ele>9.4</ele>
    <time>2019-08-30T15:12:44.000Z</time>
   </trkpt>
   <trkpt lat="-8.05075" lon="-34.893556">
    <ele>9.4</ele>
    <time>2019-08-30T15:12:45.000Z</time>
   </trkpt>
   <trkpt lat="-8.050783" lon="-34.893573">
    <ele>9.4</ele>
    <time>2019-08-30T15:12:46.000Z</time>
   </trkpt>
   <trkpt lat="-8.050814" lon="-34.893578">
    <ele>9.4</ele>
    <time>2019-08-30T15:12:47.000Z</time>
   </trkpt>
   <trkpt lat="-8.050858" lon="-34.893613">
    <ele>9.4</ele>
    <time>2019-08-30T15:12:49.000Z</time>
   </trkpt>
   <trkpt lat="-8.050892" lon="-34.893634">
    <ele>9.4</ele>
    <time>2019-08-30T15:12:50.000Z</time>
   </trkpt>
   <trkpt lat="-8.050926" lon="-34.893662">
    <ele>9.4</ele>
    <time>2019-08-30T15:12:51.000Z</time>
   </trkpt>
   <trkpt lat="-8.050981" lon="-34.893679">
    <ele>9.4</ele>
    <time>2019-08-30T15:12:52.000Z</time>
   </trkpt>
   <trkpt lat="-8.05103" lon="-34.893691">
    <ele>9.4</ele>
    <time>2019-08-30T15:12:53.000Z</time>
   </trkpt>
   <trkpt lat="-8.051061" lon="-34.893696">
    <ele>9.4</ele>
    <time>2019-08-30T15:12:54.000Z</time>
   </trkpt>
   <trkpt lat="-8.051106" lon="-34.893728">
    <ele>9.4</ele>
    <time>2019-08-30T15:12:55.000Z</time>
   </trkpt>
   <trkpt lat="-8.051152" lon="-34.893742">
    <ele>9.4</ele>
    <time>2019-08-30T15:12:56.000Z</time>
   </trkpt>
   <trkpt lat="-8.051203" lon="-34.893765">
    <ele>9.5</ele>
    <time>2019-08-30T15:12:57.000Z</time>
   </trkpt>
   <trkpt lat="-8.051251" lon="-34.893784">
    <ele>9.5</ele>
    <time>2019-08-30T15:12:58.000Z</time>
   </trkpt>
   <trkpt lat="-8.05129" lon="-34.893809">
    <ele>9.6</ele>
    <time>2019-08-30T15:12:59.000Z</time>
   </trkpt>
   <trkpt lat="-8.051314" lon="-34.893831">
    <ele>9.6</ele>
    <time>2019-08-30T15:13:00.000Z</time>
   </trkpt>
   <trkpt lat="-8.051355" lon="-34.893844">
    <ele>9.6</ele>
    <time>2019-08-30T15:13:01.000Z</time>
   </trkpt>
   <trkpt lat="-8.051395" lon="-34.893856">
    <ele>9.7</ele>
    <time>2019-08-30T15:13:02.000Z</time>
   </trkpt>
   <trkpt lat="-8.05144" lon="-34.893864">
    <ele>9.7</ele>
    <time>2019-08-30T15:13:03.000Z</time>
   </trkpt>
   <trkpt lat="-8.051485" lon="-34.893866">
    <ele>9.7</ele>
    <time>2019-08-30T15:13:04.000Z</time>
   </trkpt>
   <trkpt lat="-8.051525" lon="-34.89387">
    <ele>9.8</ele>
    <time>2019-08-30T15:13:05.000Z</time>
   </trkpt>
   <trkpt lat="-8.051566" lon="-34.893866">
    <ele>9.8</ele>
    <time>2019-08-30T15:13:06.000Z</time>
   </trkpt>
   <trkpt lat="-8.051637" lon="-34.893861">
    <ele>9.9</ele>
    <time>2019-08-30T15:13:07.000Z</time>
   </trkpt>
   <trkpt lat="-8.051684" lon="-34.893857">
    <ele>10</ele>
    <time>2019-08-30T15:13:08.000Z</time>
   </trkpt>
   <trkpt lat="-8.051722" lon="-34.893827">
    <ele>10.6</ele>
    <time>2019-08-30T15:13:09.000Z</time>
   </trkpt>
   <trkpt lat="-8.051757" lon="-34.893796">
    <ele>11.1</ele>
    <time>2019-08-30T15:13:10.000Z</time>
   </trkpt>
   <trkpt lat="-8.051778" lon="-34.893757">
    <ele>11.6</ele>
    <time>2019-08-30T15:13:11.000Z</time>
   </trkpt>
   <trkpt lat="-8.051793" lon="-34.89372">
    <ele>12.1</ele>
    <time>2019-08-30T15:13:12.000Z</time>
   </trkpt>
   <trkpt lat="-8.051804" lon="-34.893687">
    <ele>12.5</ele>
    <time>2019-08-30T15:13:13.000Z</time>
   </trkpt>
   <trkpt lat="-8.051828" lon="-34.893654">
    <ele>12.1</ele>
    <time>2019-08-30T15:13:14.000Z</time>
   </trkpt>
   <trkpt lat="-8.051846" lon="-34.893624">
    <ele>11.9</ele>
    <time>2019-08-30T15:13:15.000Z</time>
   </trkpt>
   <trkpt lat="-8.051856" lon="-34.893595">
    <ele>11.7</ele>
    <time>2019-08-30T15:13:16.000Z</time>
   </trkpt>
   <trkpt lat="-8.051846" lon="-34.893562">
    <ele>11.5</ele>
    <time>2019-08-30T15:13:17.000Z</time>
   </trkpt>
   <trkpt lat="-8.051853" lon="-34.893532">
    <ele>11.3</ele>
    <time>2019-08-30T15:13:18.000Z</time>
   </trkpt>
   <trkpt lat="-8.051873" lon="-34.893503">
    <ele>11.1</ele>
    <time>2019-08-30T15:13:19.000Z</time>
   </trkpt>
   <trkpt lat="-8.051895" lon="-34.89348">
    <ele>10.9</ele>
    <time>2019-08-30T15:13:20.000Z</time>
   </trkpt>
   <trkpt lat="-8.051911" lon="-34.893436">
    <ele>10.6</ele>
    <time>2019-08-30T15:13:21.000Z</time>
   </trkpt>
   <trkpt lat="-8.051928" lon="-34.893392">
    <ele>10.5</ele>
    <time>2019-08-30T15:13:22.000Z</time>
   </trkpt>
   <trkpt lat="-8.051947" lon="-34.893355">
    <ele>10.3</ele>
    <time>2019-08-30T15:13:23.000Z</time>
   </trkpt>
   <trkpt lat="-8.051951" lon="-34.893327">
    <ele>10.2</ele>
    <time>2019-08-30T15:13:24.000Z</time>
   </trkpt>
   <trkpt lat="-8.051964" lon="-34.893288">
    <ele>10.1</ele>
    <time>2019-08-30T15:13:25.000Z</time>
   </trkpt>
   <trkpt lat="-8.051989" lon="-34.893243">
    <ele>9.9</ele>
    <time>2019-08-30T15:13:26.000Z</time>
   </trkpt>
   <trkpt lat="-8.052024" lon="-34.893188">
    <ele>9.7</ele>
    <time>2019-08-30T15:13:27.000Z</time>
   </trkpt>
   <trkpt lat="-8.052057" lon="-34.893136">
    <ele>9.6</ele>
    <time>2019-08-30T15:13:28.000Z</time>
   </trkpt>
   <trkpt lat="-8.052106" lon="-34.89308">
    <ele>9.5</ele>
    <time>2019-08-30T15:13:29.000Z</time>
   </trkpt>
   <trkpt lat="-8.052142" lon="-34.893031">
    <ele>9.4</ele>
    <time>2019-08-30T15:13:30.000Z</time>
   </trkpt>
   <trkpt lat="-8.052157" lon="-34.892997">
    <ele>9.3</ele>
    <time>2019-08-30T15:13:31.000Z</time>
   </trkpt>
   <trkpt lat="-8.052161" lon="-34.892968">
    <ele>9.2</ele>
    <time>2019-08-30T15:13:32.000Z</time>
   </trkpt>
   <trkpt lat="-8.052171" lon="-34.892939">
    <ele>9.2</ele>
    <time>2019-08-30T15:13:33.000Z</time>
   </trkpt>
   <trkpt lat="-8.05218" lon="-34.892911">
    <ele>9.1</ele>
    <time>2019-08-30T15:13:34.000Z</time>
   </trkpt>
   <trkpt lat="-8.052163" lon="-34.892885">
    <ele>9.1</ele>
    <time>2019-08-30T15:13:36.000Z</time>
   </trkpt>
   <trkpt lat="-8.052165" lon="-34.89285">
    <ele>9</ele>
    <time>2019-08-30T15:13:38.000Z</time>
   </trkpt>
   <trkpt lat="-8.05219" lon="-34.892785">
    <ele>8.9</ele>
    <time>2019-08-30T15:13:40.000Z</time>
   </trkpt>
   <trkpt lat="-8.052207" lon="-34.892747">
    <ele>8.8</ele>
    <time>2019-08-30T15:13:41.000Z</time>
   </trkpt>
   <trkpt lat="-8.052228" lon="-34.892715">
    <ele>8.7</ele>
    <time>2019-08-30T15:13:42.000Z</time>
   </trkpt>
   <trkpt lat="-8.05225" lon="-34.892684">
    <ele>8.7</ele>
    <time>2019-08-30T15:13:43.000Z</time>
   </trkpt>
   <trkpt lat="-8.05226" lon="-34.892645">
    <ele>8.6</ele>
    <time>2019-08-30T15:13:44.000Z</time>
   </trkpt>
   <trkpt lat="-8.052294" lon="-34.8926">
    <ele>8.9</ele>
    <time>2019-08-30T15:13:45.000Z</time>
   </trkpt>
   <trkpt lat="-8.052307" lon="-34.892565">
    <ele>9.1</ele>
    <time>2019-08-30T15:13:46.000Z</time>
   </trkpt>
   <trkpt lat="-8.05234" lon="-34.892522">
    <ele>9.4</ele>
    <time>2019-08-30T15:13:47.000Z</time>
   </trkpt>
   <trkpt lat="-8.052372" lon="-34.892494">
    <ele>9.6</ele>
    <time>2019-08-30T15:13:48.000Z</time>
   </trkpt>
   <trkpt lat="-8.05241" lon="-34.89246">
    <ele>9.9</ele>
    <time>2019-08-30T15:13:49.000Z</time>
   </trkpt>
   <trkpt lat="-8.052453" lon="-34.892429">
    <ele>10.1</ele>
    <time>2019-08-30T15:13:50.000Z</time>
   </trkpt>
   <trkpt lat="-8.052493" lon="-34.892401">
    <ele>10.4</ele>
    <time>2019-08-30T15:13:51.000Z</time>
   </trkpt>
   <trkpt lat="-8.052539" lon="-34.892374">
    <ele>10.7</ele>
    <time>2019-08-30T15:13:52.000Z</time>
   </trkpt>
   <trkpt lat="-8.052585" lon="-34.892345">
    <ele>11.1</ele>
    <time>2019-08-30T15:13:53.000Z</time>
   </trkpt>
   <trkpt lat="-8.052626" lon="-34.892318">
    <ele>11.5</ele>
    <time>2019-08-30T15:13:54.000Z</time>
   </trkpt>
   <trkpt lat="-8.052653" lon="-34.892303">
    <ele>11.3</ele>
    <time>2019-08-30T15:13:55.000Z</time>
   </trkpt>
   <trkpt lat="-8.052684" lon="-34.89228">
    <ele>11.2</ele>
    <time>2019-08-30T15:13:56.000Z</time>
   </trkpt>
   <trkpt lat="-8.052719" lon="-34.892238">
    <ele>11</ele>
    <time>2019-08-30T15:13:57.000Z</time>
   </trkpt>
   <trkpt lat="-8.052754" lon="-34.892211">
    <ele>10.8</ele>
    <time>2019-08-30T15:13:58.000Z</time>
   </trkpt>
   <trkpt lat="-8.052794" lon="-34.892198">
    <ele>10.7</ele>
    <time>2019-08-30T15:13:59.000Z</time>
   </trkpt>
   <trkpt lat="-8.05283" lon="-34.892187">
    <ele>10.6</ele>
    <time>2019-08-30T15:14:00.000Z</time>
   </trkpt>
   <trkpt lat="-8.052872" lon="-34.892183">
    <ele>10.5</ele>
    <time>2019-08-30T15:14:01.000Z</time>
   </trkpt>
   <trkpt lat="-8.052914" lon="-34.892187">
    <ele>10.4</ele>
    <time>2019-08-30T15:14:02.000Z</time>
   </trkpt>
   <trkpt lat="-8.052951" lon="-34.892172">
    <ele>10.4</ele>
    <time>2019-08-30T15:14:03.000Z</time>
   </trkpt>
   <trkpt lat="-8.053002" lon="-34.892141">
    <ele>10.3</ele>
    <time>2019-08-30T15:14:05.000Z</time>
   </trkpt>
   <trkpt lat="-8.053033" lon="-34.89211">
    <ele>10.2</ele>
    <time>2019-08-30T15:14:06.000Z</time>
   </trkpt>
   <trkpt lat="-8.053058" lon="-34.892083">
    <ele>10.1</ele>
    <time>2019-08-30T15:14:07.000Z</time>
   </trkpt>
   <trkpt lat="-8.053081" lon="-34.89206">
    <ele>10.1</ele>
    <time>2019-08-30T15:14:08.000Z</time>
   </trkpt>
   <trkpt lat="-8.053119" lon="-34.892028">
    <ele>10</ele>
    <time>2019-08-30T15:14:09.000Z</time>
   </trkpt>
   <trkpt lat="-8.05316" lon="-34.891995">
    <ele>9.9</ele>
    <time>2019-08-30T15:14:11.000Z</time>
   </trkpt>
   <trkpt lat="-8.053201" lon="-34.891974">
    <ele>9.8</ele>
    <time>2019-08-30T15:14:12.000Z</time>
   </trkpt>
   <trkpt lat="-8.053246" lon="-34.891961">
    <ele>9.7</ele>
    <time>2019-08-30T15:14:13.000Z</time>
   </trkpt>
   <trkpt lat="-8.053299" lon="-34.891942">
    <ele>9.5</ele>
    <time>2019-08-30T15:14:14.000Z</time>
   </trkpt>
   <trkpt lat="-8.053349" lon="-34.891918">
    <ele>9.4</ele>
    <time>2019-08-30T15:14:15.000Z</time>
   </trkpt>
   <trkpt lat="-8.053407" lon="-34.891902">
    <ele>9.2</ele>
    <time>2019-08-30T15:14:16.000Z</time>
   </trkpt>
   <trkpt lat="-8.053458" lon="-34.891901">
    <ele>9.4</ele>
    <time>2019-08-30T15:14:17.000Z</time>
   </trkpt>
   <trkpt lat="-8.053497" lon="-34.891914">
    <ele>9.5</ele>
    <time>2019-08-30T15:14:18.000Z</time>
   </trkpt>
   <trkpt lat="-8.053538" lon="-34.891892">
    <ele>9.8</ele>
    <time>2019-08-30T15:14:19.000Z</time>
   </trkpt>
   <trkpt lat="-8.05358" lon="-34.891845">
    <ele>10.2</ele>
    <time>2019-08-30T15:14:20.000Z</time>
   </trkpt>
   <trkpt lat="-8.053627" lon="-34.89181">
    <ele>10.6</ele>
    <time>2019-08-30T15:14:21.000Z</time>
   </trkpt>
   <trkpt lat="-8.053682" lon="-34.89177">
    <ele>11</ele>
    <time>2019-08-30T15:14:22.000Z</time>
   </trkpt>
   <trkpt lat="-8.053731" lon="-34.89173">
    <ele>11.4</ele>
    <time>2019-08-30T15:14:23.000Z</time>
   </trkpt>
   <trkpt lat="-8.053787" lon="-34.891701">
    <ele>11.8</ele>
    <time>2019-08-30T15:14:24.000Z</time>
   </trkpt>
   <trkpt lat="-8.053842" lon="-34.891663">
    <ele>12</ele>
    <time>2019-08-30T15:14:25.000Z</time>
   </trkpt>
   <trkpt lat="-8.053883" lon="-34.891618">
    <ele>12.2</ele>
    <time>2019-08-30T15:14:26.000Z</time>
   </trkpt>
   <trkpt lat="-8.053925" lon="-34.891588">
    <ele>12.2</ele>
    <time>2019-08-30T15:14:27.000Z</time>
   </trkpt>
   <trkpt lat="-8.053977" lon="-34.891555">
    <ele>12.2</ele>
    <time>2019-08-30T15:14:28.000Z</time>
   </trkpt>
   <trkpt lat="-8.054032" lon="-34.891507">
    <ele>12</ele>
    <time>2019-08-30T15:14:29.000Z</time>
   </trkpt>
   <trkpt lat="-8.054088" lon="-34.891467">
    <ele>11.7</ele>
    <time>2019-08-30T15:14:30.000Z</time>
   </trkpt>
   <trkpt lat="-8.054142" lon="-34.891449">
    <ele>11.8</ele>
    <time>2019-08-30T15:14:31.000Z</time>
   </trkpt>
   <trkpt lat="-8.054195" lon="-34.891427">
    <ele>11.9</ele>
    <time>2019-08-30T15:14:32.000Z</time>
   </trkpt>
   <trkpt lat="-8.054236" lon="-34.8914">
    <ele>11.9</ele>
    <time>2019-08-30T15:14:33.000Z</time>
   </trkpt>
   <trkpt lat="-8.054285" lon="-34.891368">
    <ele>12</ele>
    <time>2019-08-30T15:14:34.000Z</time>
   </trkpt>
   <trkpt lat="-8.054329" lon="-34.891338">
    <ele>12</ele>
    <time>2019-08-30T15:14:35.000Z</time>
   </trkpt>
   <trkpt lat="-8.054365" lon="-34.891294">
    <ele>12.1</ele>
    <time>2019-08-30T15:14:36.000Z</time>
   </trkpt>
   <trkpt lat="-8.054399" lon="-34.891253">
    <ele>12.2</ele>
    <time>2019-08-30T15:14:37.000Z</time>
   </trkpt>
   <trkpt lat="-8.054435" lon="-34.891215">
    <ele>12.3</ele>
    <time>2019-08-30T15:14:38.000Z</time>
   </trkpt>
   <trkpt lat="-8.054472" lon="-34.891166">
    <ele>12.4</ele>
    <time>2019-08-30T15:14:39.000Z</time>
   </trkpt>
   <trkpt lat="-8.054504" lon="-34.891124">
    <ele>12.5</ele>
    <time>2019-08-30T15:14:40.000Z</time>
   </trkpt>
   <trkpt lat="-8.054543" lon="-34.89109">
    <ele>12.6</ele>
    <time>2019-08-30T15:14:41.000Z</time>
   </trkpt>
   <trkpt lat="-8.054589" lon="-34.891077">
    <ele>12.7</ele>
    <time>2019-08-30T15:14:42.000Z</time>
   </trkpt>
   <trkpt lat="-8.054633" lon="-34.891058">
    <ele>12.8</ele>
    <time>2019-08-30T15:14:43.000Z</time>
   </trkpt>
   <trkpt lat="-8.054688" lon="-34.891047">
    <ele>12.9</ele>
    <time>2019-08-30T15:14:44.000Z</time>
   </trkpt>
   <trkpt lat="-8.054746" lon="-34.891034">
    <ele>13</ele>
    <time>2019-08-30T15:14:45.000Z</time>
   </trkpt>
   <trkpt lat="-8.054794" lon="-34.891004">
    <ele>12.8</ele>
    <time>2019-08-30T15:14:46.000Z</time>
   </trkpt>
   <trkpt lat="-8.054833" lon="-34.890981">
    <ele>12.6</ele>
    <time>2019-08-30T15:14:47.000Z</time>
   </trkpt>
   <trkpt lat="-8.054852" lon="-34.890956">
    <ele>12.5</ele>
    <time>2019-08-30T15:14:48.000Z</time>
   </trkpt>
   <trkpt lat="-8.054876" lon="-34.890929">
    <ele>12.3</ele>
    <time>2019-08-30T15:14:49.000Z</time>
   </trkpt>
   <trkpt lat="-8.054908" lon="-34.890902">
    <ele>12.1</ele>
    <time>2019-08-30T15:14:50.000Z</time>
   </trkpt>
   <trkpt lat="-8.054939" lon="-34.890877">
    <ele>12</ele>
    <time>2019-08-30T15:14:51.000Z</time>
   </trkpt>
   <trkpt lat="-8.054976" lon="-34.890867">
    <ele>11.9</ele>
    <time>2019-08-30T15:14:52.000Z</time>
   </trkpt>
   <trkpt lat="-8.055011" lon="-34.890852">
    <ele>11.8</ele>
    <time>2019-08-30T15:14:53.000Z</time>
   </trkpt>
   <trkpt lat="-8.055052" lon="-34.890813">
    <ele>11.6</ele>
    <time>2019-08-30T15:14:54.000Z</time>
   </trkpt>
   <trkpt lat="-8.05508" lon="-34.890781">
    <ele>11.5</ele>
    <time>2019-08-30T15:14:55.000Z</time>
   </trkpt>
   <trkpt lat="-8.05512" lon="-34.890743">
    <ele>11.4</ele>
    <time>2019-08-30T15:14:56.000Z</time>
   </trkpt>
   <trkpt lat="-8.055161" lon="-34.890709">
    <ele>11.4</ele>
    <time>2019-08-30T15:14:57.000Z</time>
   </trkpt>
   <trkpt lat="-8.055195" lon="-34.890684">
    <ele>11.3</ele>
    <time>2019-08-30T15:14:58.000Z</time>
   </trkpt>
   <trkpt lat="-8.055231" lon="-34.890663">
    <ele>11.3</ele>
    <time>2019-08-30T15:14:59.000Z</time>
   </trkpt>
   <trkpt lat="-8.055274" lon="-34.890652">
    <ele>11.2</ele>
    <time>2019-08-30T15:15:00.000Z</time>
   </trkpt>
   <trkpt lat="-8.055306" lon="-34.89064">
    <ele>11.2</ele>
    <time>2019-08-30T15:15:01.000Z</time>
   </trkpt>
   <trkpt lat="-8.055337" lon="-34.890633">
    <ele>11.1</ele>
    <time>2019-08-30T15:15:02.000Z</time>
   </trkpt>
   <trkpt lat="-8.055374" lon="-34.890621">
    <ele>11.1</ele>
    <time>2019-08-30T15:15:03.000Z</time>
   </trkpt>
   <trkpt lat="-8.055416" lon="-34.890605">
    <ele>11.1</ele>
    <time>2019-08-30T15:15:04.000Z</time>
   </trkpt>
   <trkpt lat="-8.055461" lon="-34.890577">
    <ele>11</ele>
    <time>2019-08-30T15:15:05.000Z</time>
   </trkpt>
   <trkpt lat="-8.055498" lon="-34.890561">
    <ele>11</ele>
    <time>2019-08-30T15:15:06.000Z</time>
   </trkpt>
   <trkpt lat="-8.055542" lon="-34.890522">
    <ele>10.9</ele>
    <time>2019-08-30T15:15:07.000Z</time>
   </trkpt>
   <trkpt lat="-8.055602" lon="-34.890484">
    <ele>10.8</ele>
    <time>2019-08-30T15:15:08.000Z</time>
   </trkpt>
   <trkpt lat="-8.055659" lon="-34.890451">
    <ele>10.8</ele>
    <time>2019-08-30T15:15:09.000Z</time>
   </trkpt>
   <trkpt lat="-8.055707" lon="-34.890422">
    <ele>10.7</ele>
    <time>2019-08-30T15:15:10.000Z</time>
   </trkpt>
   <trkpt lat="-8.05575" lon="-34.890392">
    <ele>10.6</ele>
    <time>2019-08-30T15:15:11.000Z</time>
   </trkpt>
   <trkpt lat="-8.05578" lon="-34.890376">
    <ele>10.6</ele>
    <time>2019-08-30T15:15:12.000Z</time>
   </trkpt>
   <trkpt lat="-8.055818" lon="-34.890364">
    <ele>10.6</ele>
    <time>2019-08-30T15:15:13.000Z</time>
   </trkpt>
   <trkpt lat="-8.055859" lon="-34.890352">
    <ele>10.5</ele>
    <time>2019-08-30T15:15:14.000Z</time>
   </trkpt>
   <trkpt lat="-8.05589" lon="-34.890345">
    <ele>10.5</ele>
    <time>2019-08-30T15:15:15.000Z</time>
   </trkpt>
   <trkpt lat="-8.055919" lon="-34.890339">
    <ele>10.5</ele>
    <time>2019-08-30T15:15:16.000Z</time>
   </trkpt>
   <trkpt lat="-8.055951" lon="-34.890331">
    <ele>10.4</ele>
    <time>2019-08-30T15:15:17.000Z</time>
   </trkpt>
   <trkpt lat="-8.055985" lon="-34.89032">
    <ele>10.4</ele>
    <time>2019-08-30T15:15:18.000Z</time>
   </trkpt>
   <trkpt lat="-8.056016" lon="-34.890299">
    <ele>10.4</ele>
    <time>2019-08-30T15:15:19.000Z</time>
   </trkpt>
   <trkpt lat="-8.056053" lon="-34.890278">
    <ele>10.3</ele>
    <time>2019-08-30T15:15:20.000Z</time>
   </trkpt>
   <trkpt lat="-8.056086" lon="-34.890254">
    <ele>10.3</ele>
    <time>2019-08-30T15:15:21.000Z</time>
   </trkpt>
   <trkpt lat="-8.056116" lon="-34.890234">
    <ele>10.2</ele>
    <time>2019-08-30T15:15:22.000Z</time>
   </trkpt>
   <trkpt lat="-8.056144" lon="-34.890216">
    <ele>10.2</ele>
    <time>2019-08-30T15:15:23.000Z</time>
   </trkpt>
   <trkpt lat="-8.056149" lon="-34.890188">
    <ele>10.2</ele>
    <time>2019-08-30T15:15:24.000Z</time>
   </trkpt>
   <trkpt lat="-8.056155" lon="-34.890151">
    <ele>10.1</ele>
    <time>2019-08-30T15:15:25.000Z</time>
   </trkpt>
   <trkpt lat="-8.056162" lon="-34.890097">
    <ele>10.1</ele>
    <time>2019-08-30T15:15:26.000Z</time>
   </trkpt>
   <trkpt lat="-8.056176" lon="-34.890053">
    <ele>10</ele>
    <time>2019-08-30T15:15:27.000Z</time>
   </trkpt>
   <trkpt lat="-8.056189" lon="-34.890012">
    <ele>10</ele>
    <time>2019-08-30T15:15:28.000Z</time>
   </trkpt>
   <trkpt lat="-8.056195" lon="-34.889979">
    <ele>9.9</ele>
    <time>2019-08-30T15:15:29.000Z</time>
   </trkpt>
   <trkpt lat="-8.056197" lon="-34.889948">
    <ele>9.9</ele>
    <time>2019-08-30T15:15:30.000Z</time>
   </trkpt>
   <trkpt lat="-8.056186" lon="-34.88991">
    <ele>9.9</ele>
    <time>2019-08-30T15:15:31.000Z</time>
   </trkpt>
   <trkpt lat="-8.056179" lon="-34.889881">
    <ele>9.9</ele>
    <time>2019-08-30T15:15:32.000Z</time>
   </trkpt>
   <trkpt lat="-8.056169" lon="-34.889848">
    <ele>9.9</ele>
    <time>2019-08-30T15:15:33.000Z</time>
   </trkpt>
   <trkpt lat="-8.056149" lon="-34.889811">
    <ele>10</ele>
    <time>2019-08-30T15:15:34.000Z</time>
   </trkpt>
   <trkpt lat="-8.056145" lon="-34.889771">
    <ele>10.1</ele>
    <time>2019-08-30T15:15:35.000Z</time>
   </trkpt>
   <trkpt lat="-8.056155" lon="-34.889732">
    <ele>10.2</ele>
    <time>2019-08-30T15:15:36.000Z</time>
   </trkpt>
   <trkpt lat="-8.056173" lon="-34.889686">
    <ele>10.3</ele>
    <time>2019-08-30T15:15:37.000Z</time>
   </trkpt>
   <trkpt lat="-8.056196" lon="-34.889636">
    <ele>10.4</ele>
    <time>2019-08-30T15:15:38.000Z</time>
   </trkpt>
   <trkpt lat="-8.056213" lon="-34.889578">
    <ele>10.5</ele>
    <time>2019-08-30T15:15:39.000Z</time>
   </trkpt>
   <trkpt lat="-8.056224" lon="-34.889527">
    <ele>10.6</ele>
    <time>2019-08-30T15:15:40.000Z</time>
   </trkpt>
   <trkpt lat="-8.056243" lon="-34.88947">
    <ele>10.7</ele>
    <time>2019-08-30T15:15:41.000Z</time>
   </trkpt>
   <trkpt lat="-8.056271" lon="-34.889408">
    <ele>10.9</ele>
    <time>2019-08-30T15:15:42.000Z</time>
   </trkpt>
   <trkpt lat="-8.056307" lon="-34.889354">
    <ele>11</ele>
    <time>2019-08-30T15:15:43.000Z</time>
   </trkpt>
   <trkpt lat="-8.056339" lon="-34.889311">
    <ele>11.1</ele>
    <time>2019-08-30T15:15:44.000Z</time>
   </trkpt>
   <trkpt lat="-8.056361" lon="-34.88927">
    <ele>11.2</ele>
    <time>2019-08-30T15:15:45.000Z</time>
   </trkpt>
   <trkpt lat="-8.05637" lon="-34.88923">
    <ele>11.3</ele>
    <time>2019-08-30T15:15:46.000Z</time>
   </trkpt>
   <trkpt lat="-8.056373" lon="-34.88919">
    <ele>11.3</ele>
    <time>2019-08-30T15:15:47.000Z</time>
   </trkpt>
   <trkpt lat="-8.056384" lon="-34.889137">
    <ele>11.5</ele>
    <time>2019-08-30T15:15:48.000Z</time>
   </trkpt>
   <trkpt lat="-8.056391" lon="-34.889107">
    <ele>11.5</ele>
    <time>2019-08-30T15:15:49.000Z</time>
   </trkpt>
   <trkpt lat="-8.05639" lon="-34.889065">
    <ele>11.6</ele>
    <time>2019-08-30T15:15:50.000Z</time>
   </trkpt>
   <trkpt lat="-8.056407" lon="-34.889013">
    <ele>11.7</ele>
    <time>2019-08-30T15:15:51.000Z</time>
   </trkpt>
   <trkpt lat="-8.056434" lon="-34.888968">
    <ele>11.8</ele>
    <time>2019-08-30T15:15:52.000Z</time>
   </trkpt>
   <trkpt lat="-8.056464" lon="-34.888923">
    <ele>11.9</ele>
    <time>2019-08-30T15:15:53.000Z</time>
   </trkpt>
   <trkpt lat="-8.056492" lon="-34.888862">
    <ele>11.9</ele>
    <time>2019-08-30T15:15:54.000Z</time>
   </trkpt>
   <trkpt lat="-8.05652" lon="-34.888815">
    <ele>12</ele>
    <time>2019-08-30T15:15:55.000Z</time>
   </trkpt>
   <trkpt lat="-8.056541" lon="-34.888776">
    <ele>12.1</ele>
    <time>2019-08-30T15:15:56.000Z</time>
   </trkpt>
   <trkpt lat="-8.05655" lon="-34.888737">
    <ele>12.1</ele>
    <time>2019-08-30T15:15:57.000Z</time>
   </trkpt>
   <trkpt lat="-8.056554" lon="-34.888708">
    <ele>12.1</ele>
    <time>2019-08-30T15:15:58.000Z</time>
   </trkpt>
   <trkpt lat="-8.056584" lon="-34.888656">
    <ele>12.1</ele>
    <time>2019-08-30T15:16:00.000Z</time>
   </trkpt>
   <trkpt lat="-8.056618" lon="-34.8886">
    <ele>12.1</ele>
    <time>2019-08-30T15:16:01.000Z</time>
   </trkpt>
   <trkpt lat="-8.056643" lon="-34.888549">
    <ele>12.1</ele>
    <time>2019-08-30T15:16:02.000Z</time>
   </trkpt>
   <trkpt lat="-8.05667" lon="-34.888508">
    <ele>12.1</ele>
    <time>2019-08-30T15:16:03.000Z</time>
   </trkpt>
   <trkpt lat="-8.0567" lon="-34.888461">
    <ele>12</ele>
    <time>2019-08-30T15:16:04.000Z</time>
   </trkpt>
   <trkpt lat="-8.056731" lon="-34.888422">
    <ele>12</ele>
    <time>2019-08-30T15:16:05.000Z</time>
   </trkpt>
   <trkpt lat="-8.05676" lon="-34.888385">
    <ele>11.9</ele>
    <time>2019-08-30T15:16:06.000Z</time>
   </trkpt>
   <trkpt lat="-8.05679" lon="-34.888354">
    <ele>11.9</ele>
    <time>2019-08-30T15:16:07.000Z</time>
   </trkpt>
   <trkpt lat="-8.056812" lon="-34.888335">
    <ele>11.8</ele>
    <time>2019-08-30T15:16:08.000Z</time>
   </trkpt>
   <trkpt lat="-8.056841" lon="-34.888294">
    <ele>11.7</ele>
    <time>2019-08-30T15:16:09.000Z</time>
   </trkpt>
   <trkpt lat="-8.056866" lon="-34.888246">
    <ele>11.7</ele>
    <time>2019-08-30T15:16:10.000Z</time>
   </trkpt>
   <trkpt lat="-8.056889" lon="-34.888196">
    <ele>11.6</ele>
    <time>2019-08-30T15:16:11.000Z</time>
   </trkpt>
   <trkpt lat="-8.056913" lon="-34.888161">
    <ele>11.6</ele>
    <time>2019-08-30T15:16:12.000Z</time>
   </trkpt>
   <trkpt lat="-8.056942" lon="-34.888113">
    <ele>11.6</ele>
    <time>2019-08-30T15:16:13.000Z</time>
   </trkpt>
   <trkpt lat="-8.056981" lon="-34.888067">
    <ele>11.6</ele>
    <time>2019-08-30T15:16:14.000Z</time>
   </trkpt>
   <trkpt lat="-8.057012" lon="-34.88803">
    <ele>11.6</ele>
    <time>2019-08-30T15:16:15.000Z</time>
   </trkpt>
   <trkpt lat="-8.057038" lon="-34.888002">
    <ele>11.6</ele>
    <time>2019-08-30T15:16:16.000Z</time>
   </trkpt>
   <trkpt lat="-8.057063" lon="-34.887972">
    <ele>11.7</ele>
    <time>2019-08-30T15:16:17.000Z</time>
   </trkpt>
   <trkpt lat="-8.057084" lon="-34.88795">
    <ele>11.7</ele>
    <time>2019-08-30T15:16:18.000Z</time>
   </trkpt>
   <trkpt lat="-8.057106" lon="-34.887929">
    <ele>11.8</ele>
    <time>2019-08-30T15:16:19.000Z</time>
   </trkpt>
   <trkpt lat="-8.057125" lon="-34.887907">
    <ele>11.8</ele>
    <time>2019-08-30T15:16:20.000Z</time>
   </trkpt>
   <trkpt lat="-8.057146" lon="-34.887866">
    <ele>11.9</ele>
    <time>2019-08-30T15:16:21.000Z</time>
   </trkpt>
   <trkpt lat="-8.057168" lon="-34.887821">
    <ele>12</ele>
    <time>2019-08-30T15:16:22.000Z</time>
   </trkpt>
   <trkpt lat="-8.057192" lon="-34.887779">
    <ele>12.1</ele>
    <time>2019-08-30T15:16:23.000Z</time>
   </trkpt>
   <trkpt lat="-8.057208" lon="-34.887737">
    <ele>12.2</ele>
    <time>2019-08-30T15:16:24.000Z</time>
   </trkpt>
   <trkpt lat="-8.057215" lon="-34.887695">
    <ele>12.1</ele>
    <time>2019-08-30T15:16:25.000Z</time>
   </trkpt>
   <trkpt lat="-8.057203" lon="-34.887651">
    <ele>12</ele>
    <time>2019-08-30T15:16:26.000Z</time>
   </trkpt>
   <trkpt lat="-8.057209" lon="-34.887623">
    <ele>12</ele>
    <time>2019-08-30T15:16:27.000Z</time>
   </trkpt>
   <trkpt lat="-8.057213" lon="-34.88759">
    <ele>11.9</ele>
    <time>2019-08-30T15:16:29.000Z</time>
   </trkpt>
   <trkpt lat="-8.057227" lon="-34.887564">
    <ele>11.8</ele>
    <time>2019-08-30T15:16:30.000Z</time>
   </trkpt>
   <trkpt lat="-8.057232" lon="-34.887535">
    <ele>11.8</ele>
    <time>2019-08-30T15:16:31.000Z</time>
   </trkpt>
   <trkpt lat="-8.057235" lon="-34.887483">
    <ele>11.6</ele>
    <time>2019-08-30T15:16:32.000Z</time>
   </trkpt>
   <trkpt lat="-8.05725" lon="-34.887448">
    <ele>11.5</ele>
    <time>2019-08-30T15:16:33.000Z</time>
   </trkpt>
   <trkpt lat="-8.057265" lon="-34.887401">
    <ele>11.4</ele>
    <time>2019-08-30T15:16:34.000Z</time>
   </trkpt>
   <trkpt lat="-8.057273" lon="-34.887368">
    <ele>11.3</ele>
    <time>2019-08-30T15:16:35.000Z</time>
   </trkpt>
   <trkpt lat="-8.057276" lon="-34.887317">
    <ele>11.2</ele>
    <time>2019-08-30T15:16:37.000Z</time>
   </trkpt>
   <trkpt lat="-8.057268" lon="-34.88729">
    <ele>11.1</ele>
    <time>2019-08-30T15:16:38.000Z</time>
   </trkpt>
   <trkpt lat="-8.057279" lon="-34.887257">
    <ele>11</ele>
    <time>2019-08-30T15:16:40.000Z</time>
   </trkpt>
   <trkpt lat="-8.057308" lon="-34.88726">
    <ele>10.9</ele>
    <time>2019-08-30T15:16:46.000Z</time>
   </trkpt>
   <trkpt lat="-8.057338" lon="-34.887255">
    <ele>10.8</ele>
    <time>2019-08-30T15:16:49.000Z</time>
   </trkpt>
   <trkpt lat="-8.057368" lon="-34.887249">
    <ele>10.7</ele>
    <time>2019-08-30T15:16:51.000Z</time>
   </trkpt>
   <trkpt lat="-8.057412" lon="-34.887082">
    <ele>10.1</ele>
    <time>2019-08-30T15:19:41.000Z</time>
   </trkpt>
   <trkpt lat="-8.057383" lon="-34.887081">
    <ele>10</ele>
    <time>2019-08-30T15:19:43.000Z</time>
   </trkpt>
   <trkpt lat="-8.057358" lon="-34.887069">
    <ele>9.9</ele>
    <time>2019-08-30T15:19:46.000Z</time>
   </trkpt>
   <trkpt lat="-8.057347" lon="-34.887095">
    <ele>9.8</ele>
    <time>2019-08-30T15:19:58.000Z</time>
   </trkpt>
   <trkpt lat="-8.057325" lon="-34.887111">
    <ele>9.7</ele>
    <time>2019-08-30T15:20:07.000Z</time>
   </trkpt>
   <trkpt lat="-8.057317" lon="-34.887143">
    <ele>9.6</ele>
    <time>2019-08-30T15:20:11.000Z</time>
   </trkpt>
   <trkpt lat="-8.057307" lon="-34.887172">
    <ele>9.5</ele>
    <time>2019-08-30T15:20:16.000Z</time>
   </trkpt>
  </trkseg>
 </trk>
</gpx>
