<?xml version="1.0" encoding="UTF-8"?>
<gpx creator="StravaGPX" version="1.1" xmlns="http://www.topografix.com/GPX/1/1">
 <metadata>
  <time>2019-08-15T23:02:54Z</time>
 </metadata>
 <trk>
  <name>Evening Ride</name>
  <type>1</type>
  <trkseg>
   <trkpt lat="-8.058094" lon="-34.89883">
    <ele>8</ele>
    <time>2019-08-15T23:02:54.000Z</time>
   </trkpt>
   <trkpt lat="-8.057838" lon="-34.899087">
    <ele>6.6</ele>
    <time>2019-08-15T23:03:40.000Z</time>
   </trkpt>
   <trkpt lat="-8.057808" lon="-34.899094">
    <ele>6.5</ele>
    <time>2019-08-15T23:03:55.000Z</time>
   </trkpt>
   <trkpt lat="-8.057782" lon="-34.8991">
    <ele>6.5</ele>
    <time>2019-08-15T23:04:01.000Z</time>
   </trkpt>
   <trkpt lat="-8.057777" lon="-34.899129">
    <ele>6.4</ele>
    <time>2019-08-15T23:04:11.000Z</time>
   </trkpt>
   <trkpt lat="-8.057743" lon="-34.89915">
    <ele>6.4</ele>
    <time>2019-08-15T23:04:18.000Z</time>
   </trkpt>
   <trkpt lat="-8.057709" lon="-34.899157">
    <ele>6.4</ele>
    <time>2019-08-15T23:04:22.000Z</time>
   </trkpt>
   <trkpt lat="-8.057679" lon="-34.899143">
    <ele>6.4</ele>
    <time>2019-08-15T23:04:25.000Z</time>
   </trkpt>
   <trkpt lat="-8.057645" lon="-34.899131">
    <ele>6.3</ele>
    <time>2019-08-15T23:04:30.000Z</time>
   </trkpt>
   <trkpt lat="-8.057619" lon="-34.89915">
    <ele>6.3</ele>
    <time>2019-08-15T23:04:32.000Z</time>
   </trkpt>
   <trkpt lat="-8.057537" lon="-34.899223">
    <ele>6.5</ele>
    <time>2019-08-15T23:04:54.000Z</time>
   </trkpt>
   <trkpt lat="-8.05754" lon="-34.899268">
    <ele>6.6</ele>
    <time>2019-08-15T23:04:57.000Z</time>
   </trkpt>
   <trkpt lat="-8.057539" lon="-34.899317">
    <ele>6.7</ele>
    <time>2019-08-15T23:04:59.000Z</time>
   </trkpt>
   <trkpt lat="-8.057533" lon="-34.899348">
    <ele>6.7</ele>
    <time>2019-08-15T23:05:00.000Z</time>
   </trkpt>
   <trkpt lat="-8.057531" lon="-34.899388">
    <ele>6.8</ele>
    <time>2019-08-15T23:05:01.000Z</time>
   </trkpt>
   <trkpt lat="-8.057545" lon="-34.899417">
    <ele>6.9</ele>
    <time>2019-08-15T23:05:02.000Z</time>
   </trkpt>
   <trkpt lat="-8.057555" lon="-34.899478">
    <ele>7</ele>
    <time>2019-08-15T23:05:04.000Z</time>
   </trkpt>
   <trkpt lat="-8.057556" lon="-34.899517">
    <ele>7.1</ele>
    <time>2019-08-15T23:05:05.000Z</time>
   </trkpt>
   <trkpt lat="-8.057567" lon="-34.899554">
    <ele>7.2</ele>
    <time>2019-08-15T23:05:06.000Z</time>
   </trkpt>
   <trkpt lat="-8.057566" lon="-34.899585">
    <ele>7.2</ele>
    <time>2019-08-15T23:05:07.000Z</time>
   </trkpt>
   <trkpt lat="-8.057575" lon="-34.89963">
    <ele>7.3</ele>
    <time>2019-08-15T23:05:09.000Z</time>
   </trkpt>
   <trkpt lat="-8.057573" lon="-34.899659">
    <ele>7.5</ele>
    <time>2019-08-15T23:05:10.000Z</time>
   </trkpt>
   <trkpt lat="-8.057567" lon="-34.899693">
    <ele>7.8</ele>
    <time>2019-08-15T23:05:11.000Z</time>
   </trkpt>
   <trkpt lat="-8.057554" lon="-34.899724">
    <ele>7.9</ele>
    <time>2019-08-15T23:05:12.000Z</time>
   </trkpt>
   <trkpt lat="-8.057558" lon="-34.899766">
    <ele>8.2</ele>
    <time>2019-08-15T23:05:13.000Z</time>
   </trkpt>
   <trkpt lat="-8.057559" lon="-34.899807">
    <ele>8.4</ele>
    <time>2019-08-15T23:05:14.000Z</time>
   </trkpt>
   <trkpt lat="-8.05756" lon="-34.899839">
    <ele>8.5</ele>
    <time>2019-08-15T23:05:15.000Z</time>
   </trkpt>
   <trkpt lat="-8.057561" lon="-34.899889">
    <ele>8.8</ele>
    <time>2019-08-15T23:05:17.000Z</time>
   </trkpt>
   <trkpt lat="-8.057542" lon="-34.899941">
    <ele>9.1</ele>
    <time>2019-08-15T23:05:19.000Z</time>
   </trkpt>
   <trkpt lat="-8.057513" lon="-34.899968">
    <ele>9.3</ele>
    <time>2019-08-15T23:05:20.000Z</time>
   </trkpt>
   <trkpt lat="-8.057483" lon="-34.899984">
    <ele>9.5</ele>
    <time>2019-08-15T23:05:21.000Z</time>
   </trkpt>
   <trkpt lat="-8.057448" lon="-34.899997">
    <ele>9.8</ele>
    <time>2019-08-15T23:05:22.000Z</time>
   </trkpt>
   <trkpt lat="-8.057415" lon="-34.900007">
    <ele>9.7</ele>
    <time>2019-08-15T23:05:23.000Z</time>
   </trkpt>
   <trkpt lat="-8.05738" lon="-34.900015">
    <ele>9.6</ele>
    <time>2019-08-15T23:05:24.000Z</time>
   </trkpt>
   <trkpt lat="-8.057349" lon="-34.900023">
    <ele>9.6</ele>
    <time>2019-08-15T23:05:25.000Z</time>
   </trkpt>
   <trkpt lat="-8.057318" lon="-34.900013">
    <ele>9.5</ele>
    <time>2019-08-15T23:05:26.000Z</time>
   </trkpt>
   <trkpt lat="-8.057274" lon="-34.900007">
    <ele>9.4</ele>
    <time>2019-08-15T23:05:28.000Z</time>
   </trkpt>
   <trkpt lat="-8.057241" lon="-34.900018">
    <ele>9.3</ele>
    <time>2019-08-15T23:05:30.000Z</time>
   </trkpt>
   <trkpt lat="-8.057213" lon="-34.900015">
    <ele>9.2</ele>
    <time>2019-08-15T23:05:31.000Z</time>
   </trkpt>
   <trkpt lat="-8.057171" lon="-34.900009">
    <ele>9.1</ele>
    <time>2019-08-15T23:05:32.000Z</time>
   </trkpt>
   <trkpt lat="-8.05713" lon="-34.89999">
    <ele>9</ele>
    <time>2019-08-15T23:05:33.000Z</time>
   </trkpt>
   <trkpt lat="-8.057087" lon="-34.899982">
    <ele>8.8</ele>
    <time>2019-08-15T23:05:34.000Z</time>
   </trkpt>
   <trkpt lat="-8.057047" lon="-34.89998">
    <ele>8.8</ele>
    <time>2019-08-15T23:05:35.000Z</time>
   </trkpt>
   <trkpt lat="-8.056999" lon="-34.89998">
    <ele>8.8</ele>
    <time>2019-08-15T23:05:36.000Z</time>
   </trkpt>
   <trkpt lat="-8.056952" lon="-34.899983">
    <ele>8.8</ele>
    <time>2019-08-15T23:05:37.000Z</time>
   </trkpt>
   <trkpt lat="-8.056904" lon="-34.899989">
    <ele>9</ele>
    <time>2019-08-15T23:05:38.000Z</time>
   </trkpt>
   <trkpt lat="-8.056857" lon="-34.900003">
    <ele>9.3</ele>
    <time>2019-08-15T23:05:39.000Z</time>
   </trkpt>
   <trkpt lat="-8.056808" lon="-34.900017">
    <ele>9.5</ele>
    <time>2019-08-15T23:05:40.000Z</time>
   </trkpt>
   <trkpt lat="-8.056763" lon="-34.900025">
    <ele>9.8</ele>
    <time>2019-08-15T23:05:41.000Z</time>
   </trkpt>
   <trkpt lat="-8.056711" lon="-34.900027">
    <ele>10</ele>
    <time>2019-08-15T23:05:42.000Z</time>
   </trkpt>
   <trkpt lat="-8.056668" lon="-34.900036">
    <ele>10.2</ele>
    <time>2019-08-15T23:05:43.000Z</time>
   </trkpt>
   <trkpt lat="-8.056619" lon="-34.900047">
    <ele>10.5</ele>
    <time>2019-08-15T23:05:44.000Z</time>
   </trkpt>
   <trkpt lat="-8.056565" lon="-34.90005">
    <ele>11</ele>
    <time>2019-08-15T23:05:45.000Z</time>
   </trkpt>
   <trkpt lat="-8.056517" lon="-34.900043">
    <ele>11</ele>
    <time>2019-08-15T23:05:46.000Z</time>
   </trkpt>
   <trkpt lat="-8.056467" lon="-34.900035">
    <ele>11.1</ele>
    <time>2019-08-15T23:05:47.000Z</time>
   </trkpt>
   <trkpt lat="-8.056424" lon="-34.900027">
    <ele>11.1</ele>
    <time>2019-08-15T23:05:48.000Z</time>
   </trkpt>
   <trkpt lat="-8.056373" lon="-34.90003">
    <ele>11.3</ele>
    <time>2019-08-15T23:05:49.000Z</time>
   </trkpt>
   <trkpt lat="-8.056323" lon="-34.900031">
    <ele>11.5</ele>
    <time>2019-08-15T23:05:50.000Z</time>
   </trkpt>
   <trkpt lat="-8.056275" lon="-34.90004">
    <ele>11.7</ele>
    <time>2019-08-15T23:05:51.000Z</time>
   </trkpt>
   <trkpt lat="-8.056227" lon="-34.900052">
    <ele>11.8</ele>
    <time>2019-08-15T23:05:52.000Z</time>
   </trkpt>
   <trkpt lat="-8.056181" lon="-34.900067">
    <ele>12</ele>
    <time>2019-08-15T23:05:53.000Z</time>
   </trkpt>
   <trkpt lat="-8.05613" lon="-34.900063">
    <ele>12.2</ele>
    <time>2019-08-15T23:05:54.000Z</time>
   </trkpt>
   <trkpt lat="-8.056084" lon="-34.900072">
    <ele>12.4</ele>
    <time>2019-08-15T23:05:55.000Z</time>
   </trkpt>
   <trkpt lat="-8.05604" lon="-34.900073">
    <ele>12.6</ele>
    <time>2019-08-15T23:05:56.000Z</time>
   </trkpt>
   <trkpt lat="-8.055989" lon="-34.900071">
    <ele>12.7</ele>
    <time>2019-08-15T23:05:57.000Z</time>
   </trkpt>
   <trkpt lat="-8.055941" lon="-34.900069">
    <ele>12.9</ele>
    <time>2019-08-15T23:05:58.000Z</time>
   </trkpt>
   <trkpt lat="-8.055893" lon="-34.900067">
    <ele>13.1</ele>
    <time>2019-08-15T23:05:59.000Z</time>
   </trkpt>
   <trkpt lat="-8.055854" lon="-34.900071">
    <ele>12.8</ele>
    <time>2019-08-15T23:06:00.000Z</time>
   </trkpt>
   <trkpt lat="-8.055815" lon="-34.900076">
    <ele>12.7</ele>
    <time>2019-08-15T23:06:01.000Z</time>
   </trkpt>
   <trkpt lat="-8.055772" lon="-34.900092">
    <ele>12.6</ele>
    <time>2019-08-15T23:06:02.000Z</time>
   </trkpt>
   <trkpt lat="-8.055737" lon="-34.900089">
    <ele>12.5</ele>
    <time>2019-08-15T23:06:03.000Z</time>
   </trkpt>
   <trkpt lat="-8.055691" lon="-34.900081">
    <ele>12.3</ele>
    <time>2019-08-15T23:06:04.000Z</time>
   </trkpt>
   <trkpt lat="-8.055644" lon="-34.900083">
    <ele>12.2</ele>
    <time>2019-08-15T23:06:05.000Z</time>
   </trkpt>
   <trkpt lat="-8.055603" lon="-34.900081">
    <ele>12.1</ele>
    <time>2019-08-15T23:06:06.000Z</time>
   </trkpt>
   <trkpt lat="-8.055558" lon="-34.90008">
    <ele>12</ele>
    <time>2019-08-15T23:06:07.000Z</time>
   </trkpt>
   <trkpt lat="-8.055516" lon="-34.900086">
    <ele>11.9</ele>
    <time>2019-08-15T23:06:08.000Z</time>
   </trkpt>
   <trkpt lat="-8.055485" lon="-34.900089">
    <ele>11.8</ele>
    <time>2019-08-15T23:06:09.000Z</time>
   </trkpt>
   <trkpt lat="-8.055442" lon="-34.900094">
    <ele>11.7</ele>
    <time>2019-08-15T23:06:10.000Z</time>
   </trkpt>
   <trkpt lat="-8.055396" lon="-34.900097">
    <ele>11.6</ele>
    <time>2019-08-15T23:06:11.000Z</time>
   </trkpt>
   <trkpt lat="-8.055348" lon="-34.900104">
    <ele>11.4</ele>
    <time>2019-08-15T23:06:12.000Z</time>
   </trkpt>
   <trkpt lat="-8.055316" lon="-34.900111">
    <ele>11.4</ele>
    <time>2019-08-15T23:06:13.000Z</time>
   </trkpt>
   <trkpt lat="-8.055274" lon="-34.900109">
    <ele>11.3</ele>
    <time>2019-08-15T23:06:14.000Z</time>
   </trkpt>
   <trkpt lat="-8.055231" lon="-34.900108">
    <ele>11.2</ele>
    <time>2019-08-15T23:06:15.000Z</time>
   </trkpt>
   <trkpt lat="-8.055176" lon="-34.900097">
    <ele>11</ele>
    <time>2019-08-15T23:06:16.000Z</time>
   </trkpt>
   <trkpt lat="-8.055125" lon="-34.900089">
    <ele>10.8</ele>
    <time>2019-08-15T23:06:17.000Z</time>
   </trkpt>
   <trkpt lat="-8.055085" lon="-34.900088">
    <ele>10.9</ele>
    <time>2019-08-15T23:06:18.000Z</time>
   </trkpt>
   <trkpt lat="-8.055036" lon="-34.900102">
    <ele>11.2</ele>
    <time>2019-08-15T23:06:19.000Z</time>
   </trkpt>
   <trkpt lat="-8.054986" lon="-34.900097">
    <ele>12.7</ele>
    <time>2019-08-15T23:06:20.000Z</time>
   </trkpt>
   <trkpt lat="-8.054938" lon="-34.900087">
    <ele>13.7</ele>
    <time>2019-08-15T23:06:21.000Z</time>
   </trkpt>
   <trkpt lat="-8.05489" lon="-34.900079">
    <ele>14.4</ele>
    <time>2019-08-15T23:06:22.000Z</time>
   </trkpt>
   <trkpt lat="-8.054829" lon="-34.900072">
    <ele>15.6</ele>
    <time>2019-08-15T23:06:23.000Z</time>
   </trkpt>
   <trkpt lat="-8.054762" lon="-34.900081">
    <ele>16.4</ele>
    <time>2019-08-15T23:06:24.000Z</time>
   </trkpt>
   <trkpt lat="-8.054718" lon="-34.900082">
    <ele>16.9</ele>
    <time>2019-08-15T23:06:25.000Z</time>
   </trkpt>
   <trkpt lat="-8.054662" lon="-34.900094">
    <ele>17.4</ele>
    <time>2019-08-15T23:06:26.000Z</time>
   </trkpt>
   <trkpt lat="-8.05462" lon="-34.900096">
    <ele>17.5</ele>
    <time>2019-08-15T23:06:27.000Z</time>
   </trkpt>
   <trkpt lat="-8.054581" lon="-34.900096">
    <ele>17.5</ele>
    <time>2019-08-15T23:06:28.000Z</time>
   </trkpt>
   <trkpt lat="-8.054537" lon="-34.900094">
    <ele>17.8</ele>
    <time>2019-08-15T23:06:29.000Z</time>
   </trkpt>
   <trkpt lat="-8.054492" lon="-34.900095">
    <ele>18.1</ele>
    <time>2019-08-15T23:06:30.000Z</time>
   </trkpt>
   <trkpt lat="-8.054447" lon="-34.900096">
    <ele>18.1</ele>
    <time>2019-08-15T23:06:31.000Z</time>
   </trkpt>
   <trkpt lat="-8.054404" lon="-34.9001">
    <ele>18.1</ele>
    <time>2019-08-15T23:06:32.000Z</time>
   </trkpt>
   <trkpt lat="-8.054355" lon="-34.900107">
    <ele>18.1</ele>
    <time>2019-08-15T23:06:33.000Z</time>
   </trkpt>
   <trkpt lat="-8.054316" lon="-34.900099">
    <ele>18.2</ele>
    <time>2019-08-15T23:06:34.000Z</time>
   </trkpt>
   <trkpt lat="-8.054269" lon="-34.9001">
    <ele>18.2</ele>
    <time>2019-08-15T23:06:35.000Z</time>
   </trkpt>
   <trkpt lat="-8.054235" lon="-34.900106">
    <ele>18.3</ele>
    <time>2019-08-15T23:06:36.000Z</time>
   </trkpt>
   <trkpt lat="-8.054204" lon="-34.900114">
    <ele>18.3</ele>
    <time>2019-08-15T23:06:37.000Z</time>
   </trkpt>
   <trkpt lat="-8.054174" lon="-34.90011">
    <ele>18.3</ele>
    <time>2019-08-15T23:06:38.000Z</time>
   </trkpt>
   <trkpt lat="-8.054146" lon="-34.900116">
    <ele>18.4</ele>
    <time>2019-08-15T23:06:39.000Z</time>
   </trkpt>
   <trkpt lat="-8.054106" lon="-34.900116">
    <ele>18.4</ele>
    <time>2019-08-15T23:06:40.000Z</time>
   </trkpt>
   <trkpt lat="-8.05406" lon="-34.900109">
    <ele>18.5</ele>
    <time>2019-08-15T23:06:41.000Z</time>
   </trkpt>
   <trkpt lat="-8.054017" lon="-34.900126">
    <ele>18.5</ele>
    <time>2019-08-15T23:06:42.000Z</time>
   </trkpt>
   <trkpt lat="-8.053964" lon="-34.900124">
    <ele>18.6</ele>
    <time>2019-08-15T23:06:43.000Z</time>
   </trkpt>
   <trkpt lat="-8.053924" lon="-34.900126">
    <ele>18.6</ele>
    <time>2019-08-15T23:06:44.000Z</time>
   </trkpt>
   <trkpt lat="-8.053887" lon="-34.900126">
    <ele>18.6</ele>
    <time>2019-08-15T23:06:45.000Z</time>
   </trkpt>
   <trkpt lat="-8.053859" lon="-34.900119">
    <ele>18.5</ele>
    <time>2019-08-15T23:06:46.000Z</time>
   </trkpt>
   <trkpt lat="-8.053816" lon="-34.900114">
    <ele>18.3</ele>
    <time>2019-08-15T23:06:47.000Z</time>
   </trkpt>
   <trkpt lat="-8.053766" lon="-34.900111">
    <ele>18.1</ele>
    <time>2019-08-15T23:06:48.000Z</time>
   </trkpt>
   <trkpt lat="-8.053719" lon="-34.900102">
    <ele>17.9</ele>
    <time>2019-08-15T23:06:49.000Z</time>
   </trkpt>
   <trkpt lat="-8.053681" lon="-34.900085">
    <ele>17.8</ele>
    <time>2019-08-15T23:06:50.000Z</time>
   </trkpt>
   <trkpt lat="-8.053643" lon="-34.900066">
    <ele>17.7</ele>
    <time>2019-08-15T23:06:51.000Z</time>
   </trkpt>
   <trkpt lat="-8.053609" lon="-34.900051">
    <ele>17.7</ele>
    <time>2019-08-15T23:06:52.000Z</time>
   </trkpt>
   <trkpt lat="-8.053574" lon="-34.900034">
    <ele>17.6</ele>
    <time>2019-08-15T23:06:53.000Z</time>
   </trkpt>
   <trkpt lat="-8.053539" lon="-34.900016">
    <ele>17.6</ele>
    <time>2019-08-15T23:06:54.000Z</time>
   </trkpt>
   <trkpt lat="-8.053511" lon="-34.899998">
    <ele>17.6</ele>
    <time>2019-08-15T23:06:55.000Z</time>
   </trkpt>
   <trkpt lat="-8.053476" lon="-34.89998">
    <ele>17.6</ele>
    <time>2019-08-15T23:06:56.000Z</time>
   </trkpt>
   <trkpt lat="-8.053447" lon="-34.899964">
    <ele>17.6</ele>
    <time>2019-08-15T23:06:57.000Z</time>
   </trkpt>
   <trkpt lat="-8.053417" lon="-34.899957">
    <ele>17.6</ele>
    <time>2019-08-15T23:06:58.000Z</time>
   </trkpt>
   <trkpt lat="-8.053365" lon="-34.899963">
    <ele>17.6</ele>
    <time>2019-08-15T23:06:59.000Z</time>
   </trkpt>
   <trkpt lat="-8.05332" lon="-34.899961">
    <ele>17.5</ele>
    <time>2019-08-15T23:07:00.000Z</time>
   </trkpt>
   <trkpt lat="-8.053282" lon="-34.899956">
    <ele>17.5</ele>
    <time>2019-08-15T23:07:01.000Z</time>
   </trkpt>
   <trkpt lat="-8.05324" lon="-34.89995">
    <ele>17.4</ele>
    <time>2019-08-15T23:07:02.000Z</time>
   </trkpt>
   <trkpt lat="-8.053196" lon="-34.89994">
    <ele>17.3</ele>
    <time>2019-08-15T23:07:03.000Z</time>
   </trkpt>
   <trkpt lat="-8.053152" lon="-34.899907">
    <ele>17.2</ele>
    <time>2019-08-15T23:07:04.000Z</time>
   </trkpt>
   <trkpt lat="-8.053093" lon="-34.899872">
    <ele>17</ele>
    <time>2019-08-15T23:07:05.000Z</time>
   </trkpt>
   <trkpt lat="-8.053037" lon="-34.899825">
    <ele>16.9</ele>
    <time>2019-08-15T23:07:06.000Z</time>
   </trkpt>
   <trkpt lat="-8.052977" lon="-34.899782">
    <ele>16.7</ele>
    <time>2019-08-15T23:07:07.000Z</time>
   </trkpt>
   <trkpt lat="-8.052916" lon="-34.899744">
    <ele>16.6</ele>
    <time>2019-08-15T23:07:08.000Z</time>
   </trkpt>
   <trkpt lat="-8.052851" lon="-34.899711">
    <ele>16.4</ele>
    <time>2019-08-15T23:07:09.000Z</time>
   </trkpt>
   <trkpt lat="-8.052792" lon="-34.899679">
    <ele>16.3</ele>
    <time>2019-08-15T23:07:10.000Z</time>
   </trkpt>
   <trkpt lat="-8.052751" lon="-34.899651">
    <ele>16.2</ele>
    <time>2019-08-15T23:07:11.000Z</time>
   </trkpt>
   <trkpt lat="-8.052707" lon="-34.899625">
    <ele>16.1</ele>
    <time>2019-08-15T23:07:12.000Z</time>
   </trkpt>
   <trkpt lat="-8.05268" lon="-34.899606">
    <ele>16</ele>
    <time>2019-08-15T23:07:13.000Z</time>
   </trkpt>
   <trkpt lat="-8.052644" lon="-34.899596">
    <ele>15.5</ele>
    <time>2019-08-15T23:07:14.000Z</time>
   </trkpt>
   <trkpt lat="-8.052596" lon="-34.899574">
    <ele>14.9</ele>
    <time>2019-08-15T23:07:15.000Z</time>
   </trkpt>
   <trkpt lat="-8.052545" lon="-34.899568">
    <ele>14.3</ele>
    <time>2019-08-15T23:07:16.000Z</time>
   </trkpt>
   <trkpt lat="-8.052494" lon="-34.899554">
    <ele>13.7</ele>
    <time>2019-08-15T23:07:17.000Z</time>
   </trkpt>
   <trkpt lat="-8.052448" lon="-34.899541">
    <ele>13.1</ele>
    <time>2019-08-15T23:07:18.000Z</time>
   </trkpt>
   <trkpt lat="-8.052399" lon="-34.899536">
    <ele>12.5</ele>
    <time>2019-08-15T23:07:19.000Z</time>
   </trkpt>
   <trkpt lat="-8.052353" lon="-34.899523">
    <ele>11.8</ele>
    <time>2019-08-15T23:07:20.000Z</time>
   </trkpt>
   <trkpt lat="-8.052298" lon="-34.899503">
    <ele>11.6</ele>
    <time>2019-08-15T23:07:21.000Z</time>
   </trkpt>
   <trkpt lat="-8.052247" lon="-34.899475">
    <ele>11.6</ele>
    <time>2019-08-15T23:07:22.000Z</time>
   </trkpt>
   <trkpt lat="-8.0522" lon="-34.899447">
    <ele>11.7</ele>
    <time>2019-08-15T23:07:23.000Z</time>
   </trkpt>
   <trkpt lat="-8.052149" lon="-34.899426">
    <ele>11.7</ele>
    <time>2019-08-15T23:07:24.000Z</time>
   </trkpt>
   <trkpt lat="-8.052099" lon="-34.899397">
    <ele>11.7</ele>
    <time>2019-08-15T23:07:25.000Z</time>
   </trkpt>
   <trkpt lat="-8.052049" lon="-34.899368">
    <ele>11.8</ele>
    <time>2019-08-15T23:07:26.000Z</time>
   </trkpt>
   <trkpt lat="-8.052001" lon="-34.899335">
    <ele>11.8</ele>
    <time>2019-08-15T23:07:27.000Z</time>
   </trkpt>
   <trkpt lat="-8.051946" lon="-34.899305">
    <ele>11.8</ele>
    <time>2019-08-15T23:07:28.000Z</time>
   </trkpt>
   <trkpt lat="-8.051896" lon="-34.899276">
    <ele>11.8</ele>
    <time>2019-08-15T23:07:29.000Z</time>
   </trkpt>
   <trkpt lat="-8.051838" lon="-34.899242">
    <ele>11.9</ele>
    <time>2019-08-15T23:07:30.000Z</time>
   </trkpt>
   <trkpt lat="-8.051772" lon="-34.899208">
    <ele>11.9</ele>
    <time>2019-08-15T23:07:31.000Z</time>
   </trkpt>
   <trkpt lat="-8.051697" lon="-34.899165">
    <ele>12.4</ele>
    <time>2019-08-15T23:07:32.000Z</time>
   </trkpt>
   <trkpt lat="-8.051633" lon="-34.899121">
    <ele>13.5</ele>
    <time>2019-08-15T23:07:33.000Z</time>
   </trkpt>
   <trkpt lat="-8.051575" lon="-34.899087">
    <ele>14.6</ele>
    <time>2019-08-15T23:07:34.000Z</time>
   </trkpt>
   <trkpt lat="-8.051521" lon="-34.899057">
    <ele>15.8</ele>
    <time>2019-08-15T23:07:35.000Z</time>
   </trkpt>
   <trkpt lat="-8.051469" lon="-34.899008">
    <ele>16.9</ele>
    <time>2019-08-15T23:07:36.000Z</time>
   </trkpt>
   <trkpt lat="-8.051414" lon="-34.898972">
    <ele>17.6</ele>
    <time>2019-08-15T23:07:37.000Z</time>
   </trkpt>
   <trkpt lat="-8.051363" lon="-34.898927">
    <ele>17.5</ele>
    <time>2019-08-15T23:07:38.000Z</time>
   </trkpt>
   <trkpt lat="-8.05132" lon="-34.898893">
    <ele>17.1</ele>
    <time>2019-08-15T23:07:39.000Z</time>
   </trkpt>
   <trkpt lat="-8.051278" lon="-34.898864">
    <ele>16.7</ele>
    <time>2019-08-15T23:07:40.000Z</time>
   </trkpt>
   <trkpt lat="-8.051233" lon="-34.898841">
    <ele>16.3</ele>
    <time>2019-08-15T23:07:41.000Z</time>
   </trkpt>
   <trkpt lat="-8.051188" lon="-34.898812">
    <ele>16</ele>
    <time>2019-08-15T23:07:42.000Z</time>
   </trkpt>
   <trkpt lat="-8.051145" lon="-34.898787">
    <ele>16.2</ele>
    <time>2019-08-15T23:07:43.000Z</time>
   </trkpt>
   <trkpt lat="-8.051093" lon="-34.898769">
    <ele>16.5</ele>
    <time>2019-08-15T23:07:44.000Z</time>
   </trkpt>
   <trkpt lat="-8.05105" lon="-34.898743">
    <ele>16.8</ele>
    <time>2019-08-15T23:07:45.000Z</time>
   </trkpt>
   <trkpt lat="-8.051008" lon="-34.898717">
    <ele>16.7</ele>
    <time>2019-08-15T23:07:46.000Z</time>
   </trkpt>
   <trkpt lat="-8.050967" lon="-34.898688">
    <ele>16.4</ele>
    <time>2019-08-15T23:07:47.000Z</time>
   </trkpt>
   <trkpt lat="-8.050918" lon="-34.898656">
    <ele>15.6</ele>
    <time>2019-08-15T23:07:48.000Z</time>
   </trkpt>
   <trkpt lat="-8.050862" lon="-34.898632">
    <ele>14.9</ele>
    <time>2019-08-15T23:07:49.000Z</time>
   </trkpt>
   <trkpt lat="-8.050809" lon="-34.898604">
    <ele>14.4</ele>
    <time>2019-08-15T23:07:50.000Z</time>
   </trkpt>
   <trkpt lat="-8.050754" lon="-34.898571">
    <ele>14.1</ele>
    <time>2019-08-15T23:07:51.000Z</time>
   </trkpt>
   <trkpt lat="-8.050708" lon="-34.898539">
    <ele>13.6</ele>
    <time>2019-08-15T23:07:52.000Z</time>
   </trkpt>
   <trkpt lat="-8.050666" lon="-34.8985">
    <ele>13</ele>
    <time>2019-08-15T23:07:53.000Z</time>
   </trkpt>
   <trkpt lat="-8.050623" lon="-34.898472">
    <ele>12.6</ele>
    <time>2019-08-15T23:07:54.000Z</time>
   </trkpt>
   <trkpt lat="-8.050577" lon="-34.898461">
    <ele>12.3</ele>
    <time>2019-08-15T23:07:55.000Z</time>
   </trkpt>
   <trkpt lat="-8.050538" lon="-34.898447">
    <ele>12.1</ele>
    <time>2019-08-15T23:07:56.000Z</time>
   </trkpt>
   <trkpt lat="-8.050503" lon="-34.898428">
    <ele>11.9</ele>
    <time>2019-08-15T23:07:57.000Z</time>
   </trkpt>
   <trkpt lat="-8.050468" lon="-34.898408">
    <ele>11.9</ele>
    <time>2019-08-15T23:07:58.000Z</time>
   </trkpt>
   <trkpt lat="-8.050431" lon="-34.898385">
    <ele>11.8</ele>
    <time>2019-08-15T23:07:59.000Z</time>
   </trkpt>
   <trkpt lat="-8.050372" lon="-34.898356">
    <ele>11.7</ele>
    <time>2019-08-15T23:08:01.000Z</time>
   </trkpt>
   <trkpt lat="-8.050338" lon="-34.898336">
    <ele>11.6</ele>
    <time>2019-08-15T23:08:02.000Z</time>
   </trkpt>
   <trkpt lat="-8.050295" lon="-34.89832">
    <ele>11.5</ele>
    <time>2019-08-15T23:08:03.000Z</time>
   </trkpt>
   <trkpt lat="-8.050253" lon="-34.898301">
    <ele>11.4</ele>
    <time>2019-08-15T23:08:04.000Z</time>
   </trkpt>
   <trkpt lat="-8.050204" lon="-34.898304">
    <ele>11.7</ele>
    <time>2019-08-15T23:08:05.000Z</time>
   </trkpt>
   <trkpt lat="-8.050153" lon="-34.898299">
    <ele>12</ele>
    <time>2019-08-15T23:08:06.000Z</time>
   </trkpt>
   <trkpt lat="-8.050106" lon="-34.898297">
    <ele>12.2</ele>
    <time>2019-08-15T23:08:07.000Z</time>
   </trkpt>
   <trkpt lat="-8.050061" lon="-34.898281">
    <ele>12.5</ele>
    <time>2019-08-15T23:08:08.000Z</time>
   </trkpt>
   <trkpt lat="-8.050026" lon="-34.898243">
    <ele>12.9</ele>
    <time>2019-08-15T23:08:09.000Z</time>
   </trkpt>
   <trkpt lat="-8.049982" lon="-34.89822">
    <ele>13.2</ele>
    <time>2019-08-15T23:08:10.000Z</time>
   </trkpt>
   <trkpt lat="-8.049962" lon="-34.898185">
    <ele>13.4</ele>
    <time>2019-08-15T23:08:11.000Z</time>
   </trkpt>
   <trkpt lat="-8.049945" lon="-34.898131">
    <ele>13.4</ele>
    <time>2019-08-15T23:08:12.000Z</time>
   </trkpt>
   <trkpt lat="-8.049956" lon="-34.898062">
    <ele>13.2</ele>
    <time>2019-08-15T23:08:13.000Z</time>
   </trkpt>
   <trkpt lat="-8.049944" lon="-34.89801">
    <ele>13.1</ele>
    <time>2019-08-15T23:08:14.000Z</time>
   </trkpt>
   <trkpt lat="-8.049941" lon="-34.897949">
    <ele>13.1</ele>
    <time>2019-08-15T23:08:15.000Z</time>
   </trkpt>
   <trkpt lat="-8.049948" lon="-34.897878">
    <ele>13</ele>
    <time>2019-08-15T23:08:16.000Z</time>
   </trkpt>
   <trkpt lat="-8.049948" lon="-34.897823">
    <ele>13</ele>
    <time>2019-08-15T23:08:17.000Z</time>
   </trkpt>
   <trkpt lat="-8.049966" lon="-34.89776">
    <ele>13</ele>
    <time>2019-08-15T23:08:18.000Z</time>
   </trkpt>
   <trkpt lat="-8.049974" lon="-34.897701">
    <ele>13</ele>
    <time>2019-08-15T23:08:19.000Z</time>
   </trkpt>
   <trkpt lat="-8.049986" lon="-34.897638">
    <ele>13</ele>
    <time>2019-08-15T23:08:20.000Z</time>
   </trkpt>
   <trkpt lat="-8.049986" lon="-34.89757">
    <ele>13</ele>
    <time>2019-08-15T23:08:21.000Z</time>
   </trkpt>
   <trkpt lat="-8.050003" lon="-34.897521">
    <ele>13</ele>
    <time>2019-08-15T23:08:22.000Z</time>
   </trkpt>
   <trkpt lat="-8.050012" lon="-34.897453">
    <ele>13</ele>
    <time>2019-08-15T23:08:23.000Z</time>
   </trkpt>
   <trkpt lat="-8.050024" lon="-34.897392">
    <ele>13</ele>
    <time>2019-08-15T23:08:24.000Z</time>
   </trkpt>
   <trkpt lat="-8.050036" lon="-34.897333">
    <ele>13</ele>
    <time>2019-08-15T23:08:25.000Z</time>
   </trkpt>
   <trkpt lat="-8.050053" lon="-34.897276">
    <ele>13</ele>
    <time>2019-08-15T23:08:26.000Z</time>
   </trkpt>
   <trkpt lat="-8.050074" lon="-34.897214">
    <ele>13.1</ele>
    <time>2019-08-15T23:08:27.000Z</time>
   </trkpt>
   <trkpt lat="-8.050091" lon="-34.897162">
    <ele>13.2</ele>
    <time>2019-08-15T23:08:28.000Z</time>
   </trkpt>
   <trkpt lat="-8.050097" lon="-34.897112">
    <ele>13.4</ele>
    <time>2019-08-15T23:08:29.000Z</time>
   </trkpt>
   <trkpt lat="-8.050087" lon="-34.897048">
    <ele>13.6</ele>
    <time>2019-08-15T23:08:30.000Z</time>
   </trkpt>
   <trkpt lat="-8.050091" lon="-34.897006">
    <ele>13.7</ele>
    <time>2019-08-15T23:08:31.000Z</time>
   </trkpt>
   <trkpt lat="-8.050109" lon="-34.896969">
    <ele>13.8</ele>
    <time>2019-08-15T23:08:32.000Z</time>
   </trkpt>
   <trkpt lat="-8.050115" lon="-34.896936">
    <ele>13.9</ele>
    <time>2019-08-15T23:08:33.000Z</time>
   </trkpt>
   <trkpt lat="-8.050124" lon="-34.896896">
    <ele>14</ele>
    <time>2019-08-15T23:08:35.000Z</time>
   </trkpt>
   <trkpt lat="-8.050146" lon="-34.896856">
    <ele>14.2</ele>
    <time>2019-08-15T23:08:39.000Z</time>
   </trkpt>
   <trkpt lat="-8.050141" lon="-34.896804">
    <ele>14.4</ele>
    <time>2019-08-15T23:08:41.000Z</time>
   </trkpt>
   <trkpt lat="-8.050134" lon="-34.896777">
    <ele>14.5</ele>
    <time>2019-08-15T23:08:42.000Z</time>
   </trkpt>
   <trkpt lat="-8.050119" lon="-34.896753">
    <ele>14.6</ele>
    <time>2019-08-15T23:08:43.000Z</time>
   </trkpt>
   <trkpt lat="-8.05007" lon="-34.896729">
    <ele>14.8</ele>
    <time>2019-08-15T23:08:45.000Z</time>
   </trkpt>
   <trkpt lat="-8.05004" lon="-34.896709">
    <ele>14.6</ele>
    <time>2019-08-15T23:08:46.000Z</time>
   </trkpt>
   <trkpt lat="-8.049999" lon="-34.89669">
    <ele>14.5</ele>
    <time>2019-08-15T23:08:47.000Z</time>
   </trkpt>
   <trkpt lat="-8.049956" lon="-34.896675">
    <ele>14.4</ele>
    <time>2019-08-15T23:08:48.000Z</time>
   </trkpt>
   <trkpt lat="-8.049914" lon="-34.896654">
    <ele>14.3</ele>
    <time>2019-08-15T23:08:49.000Z</time>
   </trkpt>
   <trkpt lat="-8.049879" lon="-34.896645">
    <ele>14.2</ele>
    <time>2019-08-15T23:08:50.000Z</time>
   </trkpt>
   <trkpt lat="-8.04983" lon="-34.89664">
    <ele>14.1</ele>
    <time>2019-08-15T23:08:51.000Z</time>
   </trkpt>
   <trkpt lat="-8.049791" lon="-34.896638">
    <ele>14</ele>
    <time>2019-08-15T23:08:52.000Z</time>
   </trkpt>
   <trkpt lat="-8.04975" lon="-34.896623">
    <ele>13.9</ele>
    <time>2019-08-15T23:08:53.000Z</time>
   </trkpt>
   <trkpt lat="-8.04971" lon="-34.896615">
    <ele>13.8</ele>
    <time>2019-08-15T23:08:54.000Z</time>
   </trkpt>
   <trkpt lat="-8.049661" lon="-34.896593">
    <ele>13.7</ele>
    <time>2019-08-15T23:08:55.000Z</time>
   </trkpt>
   <trkpt lat="-8.049605" lon="-34.896575">
    <ele>13.6</ele>
    <time>2019-08-15T23:08:56.000Z</time>
   </trkpt>
   <trkpt lat="-8.049542" lon="-34.896557">
    <ele>13.5</ele>
    <time>2019-08-15T23:08:57.000Z</time>
   </trkpt>
   <trkpt lat="-8.049476" lon="-34.896528">
    <ele>13.4</ele>
    <time>2019-08-15T23:08:58.000Z</time>
   </trkpt>
   <trkpt lat="-8.049404" lon="-34.896505">
    <ele>13.3</ele>
    <time>2019-08-15T23:08:59.000Z</time>
   </trkpt>
   <trkpt lat="-8.04933" lon="-34.896484">
    <ele>13.2</ele>
    <time>2019-08-15T23:09:00.000Z</time>
   </trkpt>
   <trkpt lat="-8.049257" lon="-34.896472">
    <ele>13.1</ele>
    <time>2019-08-15T23:09:01.000Z</time>
   </trkpt>
   <trkpt lat="-8.04919" lon="-34.89646">
    <ele>13.1</ele>
    <time>2019-08-15T23:09:02.000Z</time>
   </trkpt>
   <trkpt lat="-8.049133" lon="-34.896455">
    <ele>12.9</ele>
    <time>2019-08-15T23:09:03.000Z</time>
   </trkpt>
   <trkpt lat="-8.049078" lon="-34.89646">
    <ele>12.8</ele>
    <time>2019-08-15T23:09:04.000Z</time>
   </trkpt>
   <trkpt lat="-8.049027" lon="-34.896478">
    <ele>12.7</ele>
    <time>2019-08-15T23:09:05.000Z</time>
   </trkpt>
   <trkpt lat="-8.048978" lon="-34.896488">
    <ele>12.5</ele>
    <time>2019-08-15T23:09:06.000Z</time>
   </trkpt>
   <trkpt lat="-8.048934" lon="-34.896502">
    <ele>12.4</ele>
    <time>2019-08-15T23:09:07.000Z</time>
   </trkpt>
   <trkpt lat="-8.048896" lon="-34.896511">
    <ele>12.3</ele>
    <time>2019-08-15T23:09:08.000Z</time>
   </trkpt>
   <trkpt lat="-8.04886" lon="-34.896525">
    <ele>12.2</ele>
    <time>2019-08-15T23:09:09.000Z</time>
   </trkpt>
   <trkpt lat="-8.048832" lon="-34.896533">
    <ele>12.2</ele>
    <time>2019-08-15T23:09:10.000Z</time>
   </trkpt>
   <trkpt lat="-8.048793" lon="-34.896551">
    <ele>12</ele>
    <time>2019-08-15T23:09:12.000Z</time>
   </trkpt>
   <trkpt lat="-8.048759" lon="-34.896554">
    <ele>11.9</ele>
    <time>2019-08-15T23:09:14.000Z</time>
   </trkpt>
   <trkpt lat="-8.048734" lon="-34.896538">
    <ele>11.8</ele>
    <time>2019-08-15T23:09:17.000Z</time>
   </trkpt>
   <trkpt lat="-8.048701" lon="-34.896547">
    <ele>11.7</ele>
    <time>2019-08-15T23:09:19.000Z</time>
   </trkpt>
   <trkpt lat="-8.048673" lon="-34.89658">
    <ele>11.5</ele>
    <time>2019-08-15T23:09:21.000Z</time>
   </trkpt>
   <trkpt lat="-8.04863" lon="-34.896605">
    <ele>11.4</ele>
    <time>2019-08-15T23:09:23.000Z</time>
   </trkpt>
   <trkpt lat="-8.048591" lon="-34.896627">
    <ele>11.2</ele>
    <time>2019-08-15T23:09:24.000Z</time>
   </trkpt>
   <trkpt lat="-8.048562" lon="-34.896653">
    <ele>11.1</ele>
    <time>2019-08-15T23:09:25.000Z</time>
   </trkpt>
   <trkpt lat="-8.048525" lon="-34.896673">
    <ele>10.9</ele>
    <time>2019-08-15T23:09:26.000Z</time>
   </trkpt>
   <trkpt lat="-8.048486" lon="-34.896691">
    <ele>10.8</ele>
    <time>2019-08-15T23:09:27.000Z</time>
   </trkpt>
   <trkpt lat="-8.048438" lon="-34.896709">
    <ele>10.6</ele>
    <time>2019-08-15T23:09:28.000Z</time>
   </trkpt>
   <trkpt lat="-8.048393" lon="-34.896729">
    <ele>10.5</ele>
    <time>2019-08-15T23:09:29.000Z</time>
   </trkpt>
   <trkpt lat="-8.048347" lon="-34.896753">
    <ele>10.3</ele>
    <time>2019-08-15T23:09:30.000Z</time>
   </trkpt>
   <trkpt lat="-8.048316" lon="-34.896781">
    <ele>10.2</ele>
    <time>2019-08-15T23:09:31.000Z</time>
   </trkpt>
   <trkpt lat="-8.048281" lon="-34.896792">
    <ele>10.1</ele>
    <time>2019-08-15T23:09:32.000Z</time>
   </trkpt>
   <trkpt lat="-8.048242" lon="-34.896807">
    <ele>10.3</ele>
    <time>2019-08-15T23:09:33.000Z</time>
   </trkpt>
   <trkpt lat="-8.048197" lon="-34.896819">
    <ele>10.5</ele>
    <time>2019-08-15T23:09:34.000Z</time>
   </trkpt>
   <trkpt lat="-8.048153" lon="-34.896813">
    <ele>10.7</ele>
    <time>2019-08-15T23:09:35.000Z</time>
   </trkpt>
   <trkpt lat="-8.048108" lon="-34.89682">
    <ele>10.9</ele>
    <time>2019-08-15T23:09:36.000Z</time>
   </trkpt>
   <trkpt lat="-8.048067" lon="-34.896829">
    <ele>11.1</ele>
    <time>2019-08-15T23:09:37.000Z</time>
   </trkpt>
   <trkpt lat="-8.048016" lon="-34.896842">
    <ele>11.5</ele>
    <time>2019-08-15T23:09:38.000Z</time>
   </trkpt>
   <trkpt lat="-8.047968" lon="-34.896852">
    <ele>11.8</ele>
    <time>2019-08-15T23:09:39.000Z</time>
   </trkpt>
   <trkpt lat="-8.047926" lon="-34.896885">
    <ele>12.1</ele>
    <time>2019-08-15T23:09:40.000Z</time>
   </trkpt>
   <trkpt lat="-8.047883" lon="-34.896903">
    <ele>12.3</ele>
    <time>2019-08-15T23:09:41.000Z</time>
   </trkpt>
   <trkpt lat="-8.047839" lon="-34.896914">
    <ele>12.5</ele>
    <time>2019-08-15T23:09:42.000Z</time>
   </trkpt>
   <trkpt lat="-8.047807" lon="-34.896923">
    <ele>12.6</ele>
    <time>2019-08-15T23:09:43.000Z</time>
   </trkpt>
   <trkpt lat="-8.047757" lon="-34.896938">
    <ele>12.8</ele>
    <time>2019-08-15T23:09:44.000Z</time>
   </trkpt>
   <trkpt lat="-8.047712" lon="-34.896955">
    <ele>13</ele>
    <time>2019-08-15T23:09:45.000Z</time>
   </trkpt>
   <trkpt lat="-8.04765" lon="-34.896956">
    <ele>13.3</ele>
    <time>2019-08-15T23:09:46.000Z</time>
   </trkpt>
   <trkpt lat="-8.047592" lon="-34.896961">
    <ele>13</ele>
    <time>2019-08-15T23:09:47.000Z</time>
   </trkpt>
   <trkpt lat="-8.047527" lon="-34.896976">
    <ele>12.8</ele>
    <time>2019-08-15T23:09:48.000Z</time>
   </trkpt>
   <trkpt lat="-8.047475" lon="-34.896993">
    <ele>12.5</ele>
    <time>2019-08-15T23:09:49.000Z</time>
   </trkpt>
   <trkpt lat="-8.047421" lon="-34.897004">
    <ele>12.2</ele>
    <time>2019-08-15T23:09:50.000Z</time>
   </trkpt>
   <trkpt lat="-8.047368" lon="-34.897011">
    <ele>11.9</ele>
    <time>2019-08-15T23:09:51.000Z</time>
   </trkpt>
   <trkpt lat="-8.047318" lon="-34.897021">
    <ele>11.5</ele>
    <time>2019-08-15T23:09:52.000Z</time>
   </trkpt>
   <trkpt lat="-8.047263" lon="-34.897026">
    <ele>11.2</ele>
    <time>2019-08-15T23:09:53.000Z</time>
   </trkpt>
   <trkpt lat="-8.047215" lon="-34.897027">
    <ele>10.9</ele>
    <time>2019-08-15T23:09:54.000Z</time>
   </trkpt>
   <trkpt lat="-8.04716" lon="-34.897035">
    <ele>10.5</ele>
    <time>2019-08-15T23:09:55.000Z</time>
   </trkpt>
   <trkpt lat="-8.04711" lon="-34.897047">
    <ele>10.3</ele>
    <time>2019-08-15T23:09:56.000Z</time>
   </trkpt>
   <trkpt lat="-8.04706" lon="-34.897056">
    <ele>10.3</ele>
    <time>2019-08-15T23:09:57.000Z</time>
   </trkpt>
   <trkpt lat="-8.047013" lon="-34.897066">
    <ele>10.4</ele>
    <time>2019-08-15T23:09:58.000Z</time>
   </trkpt>
   <trkpt lat="-8.046963" lon="-34.897074">
    <ele>10.4</ele>
    <time>2019-08-15T23:09:59.000Z</time>
   </trkpt>
   <trkpt lat="-8.046923" lon="-34.897083">
    <ele>10.5</ele>
    <time>2019-08-15T23:10:00.000Z</time>
   </trkpt>
   <trkpt lat="-8.046868" lon="-34.897081">
    <ele>10.5</ele>
    <time>2019-08-15T23:10:01.000Z</time>
   </trkpt>
   <trkpt lat="-8.046802" lon="-34.897091">
    <ele>10.6</ele>
    <time>2019-08-15T23:10:02.000Z</time>
   </trkpt>
   <trkpt lat="-8.046728" lon="-34.89708">
    <ele>10.7</ele>
    <time>2019-08-15T23:10:03.000Z</time>
   </trkpt>
   <trkpt lat="-8.046654" lon="-34.897083">
    <ele>10.8</ele>
    <time>2019-08-15T23:10:04.000Z</time>
   </trkpt>
   <trkpt lat="-8.046585" lon="-34.897081">
    <ele>10.9</ele>
    <time>2019-08-15T23:10:05.000Z</time>
   </trkpt>
   <trkpt lat="-8.046514" lon="-34.897077">
    <ele>10.9</ele>
    <time>2019-08-15T23:10:06.000Z</time>
   </trkpt>
   <trkpt lat="-8.046464" lon="-34.897059">
    <ele>11</ele>
    <time>2019-08-15T23:10:07.000Z</time>
   </trkpt>
   <trkpt lat="-8.046418" lon="-34.89706">
    <ele>11</ele>
    <time>2019-08-15T23:10:08.000Z</time>
   </trkpt>
   <trkpt lat="-8.046371" lon="-34.89705">
    <ele>11</ele>
    <time>2019-08-15T23:10:09.000Z</time>
   </trkpt>
   <trkpt lat="-8.046321" lon="-34.897049">
    <ele>11.1</ele>
    <time>2019-08-15T23:10:10.000Z</time>
   </trkpt>
   <trkpt lat="-8.046265" lon="-34.89705">
    <ele>11.2</ele>
    <time>2019-08-15T23:10:11.000Z</time>
   </trkpt>
   <trkpt lat="-8.046209" lon="-34.897051">
    <ele>11.3</ele>
    <time>2019-08-15T23:10:12.000Z</time>
   </trkpt>
   <trkpt lat="-8.046151" lon="-34.897045">
    <ele>11.4</ele>
    <time>2019-08-15T23:10:13.000Z</time>
   </trkpt>
   <trkpt lat="-8.046101" lon="-34.89705">
    <ele>11.5</ele>
    <time>2019-08-15T23:10:14.000Z</time>
   </trkpt>
   <trkpt lat="-8.046055" lon="-34.897047">
    <ele>11.5</ele>
    <time>2019-08-15T23:10:15.000Z</time>
   </trkpt>
   <trkpt lat="-8.046009" lon="-34.897049">
    <ele>11.6</ele>
    <time>2019-08-15T23:10:16.000Z</time>
   </trkpt>
   <trkpt lat="-8.04596" lon="-34.897053">
    <ele>11.7</ele>
    <time>2019-08-15T23:10:17.000Z</time>
   </trkpt>
   <trkpt lat="-8.045913" lon="-34.897054">
    <ele>11.7</ele>
    <time>2019-08-15T23:10:18.000Z</time>
   </trkpt>
   <trkpt lat="-8.045871" lon="-34.897048">
    <ele>11.8</ele>
    <time>2019-08-15T23:10:19.000Z</time>
   </trkpt>
   <trkpt lat="-8.04583" lon="-34.897045">
    <ele>11.9</ele>
    <time>2019-08-15T23:10:20.000Z</time>
   </trkpt>
   <trkpt lat="-8.045793" lon="-34.897045">
    <ele>12</ele>
    <time>2019-08-15T23:10:21.000Z</time>
   </trkpt>
   <trkpt lat="-8.045758" lon="-34.897048">
    <ele>12.1</ele>
    <time>2019-08-15T23:10:22.000Z</time>
   </trkpt>
   <trkpt lat="-8.04573" lon="-34.897047">
    <ele>12.2</ele>
    <time>2019-08-15T23:10:23.000Z</time>
   </trkpt>
   <trkpt lat="-8.04569" lon="-34.897044">
    <ele>12.3</ele>
    <time>2019-08-15T23:10:25.000Z</time>
   </trkpt>
   <trkpt lat="-8.045613" lon="-34.89704">
    <ele>12.6</ele>
    <time>2019-08-15T23:10:28.000Z</time>
   </trkpt>
   <trkpt lat="-8.04559" lon="-34.897034">
    <ele>12.7</ele>
    <time>2019-08-15T23:10:31.000Z</time>
   </trkpt>
   <trkpt lat="-8.045566" lon="-34.897027">
    <ele>12.7</ele>
    <time>2019-08-15T23:10:34.000Z</time>
   </trkpt>
   <trkpt lat="-8.045543" lon="-34.89702">
    <ele>12.8</ele>
    <time>2019-08-15T23:10:36.000Z</time>
   </trkpt>
   <trkpt lat="-8.045519" lon="-34.897013">
    <ele>12.9</ele>
    <time>2019-08-15T23:10:45.000Z</time>
   </trkpt>
   <trkpt lat="-8.045496" lon="-34.897007">
    <ele>12.9</ele>
    <time>2019-08-15T23:11:10.000Z</time>
   </trkpt>
   <trkpt lat="-8.045472" lon="-34.897">
    <ele>13</ele>
    <time>2019-08-15T23:11:11.000Z</time>
   </trkpt>
   <trkpt lat="-8.045423" lon="-34.897017">
    <ele>13.2</ele>
    <time>2019-08-15T23:11:12.000Z</time>
   </trkpt>
   <trkpt lat="-8.045362" lon="-34.897024">
    <ele>13.5</ele>
    <time>2019-08-15T23:11:13.000Z</time>
   </trkpt>
   <trkpt lat="-8.045302" lon="-34.897025">
    <ele>13.8</ele>
    <time>2019-08-15T23:11:14.000Z</time>
   </trkpt>
   <trkpt lat="-8.045247" lon="-34.897027">
    <ele>14</ele>
    <time>2019-08-15T23:11:15.000Z</time>
   </trkpt>
   <trkpt lat="-8.045178" lon="-34.897009">
    <ele>14.3</ele>
    <time>2019-08-15T23:11:16.000Z</time>
   </trkpt>
   <trkpt lat="-8.045121" lon="-34.897013">
    <ele>14.6</ele>
    <time>2019-08-15T23:11:17.000Z</time>
   </trkpt>
   <trkpt lat="-8.045058" lon="-34.897006">
    <ele>14.9</ele>
    <time>2019-08-15T23:11:18.000Z</time>
   </trkpt>
   <trkpt lat="-8.044998" lon="-34.897008">
    <ele>15.2</ele>
    <time>2019-08-15T23:11:19.000Z</time>
   </trkpt>
   <trkpt lat="-8.044933" lon="-34.897011">
    <ele>15.5</ele>
    <time>2019-08-15T23:11:20.000Z</time>
   </trkpt>
   <trkpt lat="-8.044877" lon="-34.897007">
    <ele>15.8</ele>
    <time>2019-08-15T23:11:21.000Z</time>
   </trkpt>
   <trkpt lat="-8.04482" lon="-34.897015">
    <ele>16.1</ele>
    <time>2019-08-15T23:11:22.000Z</time>
   </trkpt>
   <trkpt lat="-8.044782" lon="-34.897029">
    <ele>16.3</ele>
    <time>2019-08-15T23:11:23.000Z</time>
   </trkpt>
   <trkpt lat="-8.044723" lon="-34.897031">
    <ele>16.5</ele>
    <time>2019-08-15T23:11:24.000Z</time>
   </trkpt>
   <trkpt lat="-8.044667" lon="-34.897038">
    <ele>16.5</ele>
    <time>2019-08-15T23:11:25.000Z</time>
   </trkpt>
   <trkpt lat="-8.044618" lon="-34.897039">
    <ele>16.3</ele>
    <time>2019-08-15T23:11:26.000Z</time>
   </trkpt>
   <trkpt lat="-8.044572" lon="-34.897043">
    <ele>16.2</ele>
    <time>2019-08-15T23:11:27.000Z</time>
   </trkpt>
   <trkpt lat="-8.044523" lon="-34.897045">
    <ele>16</ele>
    <time>2019-08-15T23:11:28.000Z</time>
   </trkpt>
   <trkpt lat="-8.04449" lon="-34.897052">
    <ele>15.9</ele>
    <time>2019-08-15T23:11:29.000Z</time>
   </trkpt>
   <trkpt lat="-8.044452" lon="-34.89706">
    <ele>15.8</ele>
    <time>2019-08-15T23:11:30.000Z</time>
   </trkpt>
   <trkpt lat="-8.044417" lon="-34.897073">
    <ele>15.6</ele>
    <time>2019-08-15T23:11:31.000Z</time>
   </trkpt>
   <trkpt lat="-8.044389" lon="-34.897079">
    <ele>15.5</ele>
    <time>2019-08-15T23:11:33.000Z</time>
   </trkpt>
   <trkpt lat="-8.044346" lon="-34.897093">
    <ele>15.4</ele>
    <time>2019-08-15T23:11:35.000Z</time>
   </trkpt>
   <trkpt lat="-8.044305" lon="-34.897119">
    <ele>15.2</ele>
    <time>2019-08-15T23:11:37.000Z</time>
   </trkpt>
   <trkpt lat="-8.04428" lon="-34.897133">
    <ele>15.1</ele>
    <time>2019-08-15T23:11:38.000Z</time>
   </trkpt>
   <trkpt lat="-8.044243" lon="-34.897152">
    <ele>15</ele>
    <time>2019-08-15T23:11:39.000Z</time>
   </trkpt>
   <trkpt lat="-8.044205" lon="-34.897175">
    <ele>14.8</ele>
    <time>2019-08-15T23:11:40.000Z</time>
   </trkpt>
   <trkpt lat="-8.044154" lon="-34.897185">
    <ele>14.6</ele>
    <time>2019-08-15T23:11:41.000Z</time>
   </trkpt>
   <trkpt lat="-8.044103" lon="-34.897191">
    <ele>14.4</ele>
    <time>2019-08-15T23:11:42.000Z</time>
   </trkpt>
   <trkpt lat="-8.044058" lon="-34.897202">
    <ele>14.2</ele>
    <time>2019-08-15T23:11:43.000Z</time>
   </trkpt>
   <trkpt lat="-8.044014" lon="-34.897213">
    <ele>14</ele>
    <time>2019-08-15T23:11:44.000Z</time>
   </trkpt>
   <trkpt lat="-8.043973" lon="-34.897222">
    <ele>13.8</ele>
    <time>2019-08-15T23:11:45.000Z</time>
   </trkpt>
   <trkpt lat="-8.043938" lon="-34.897233">
    <ele>13.7</ele>
    <time>2019-08-15T23:11:46.000Z</time>
   </trkpt>
   <trkpt lat="-8.043906" lon="-34.897239">
    <ele>13.5</ele>
    <time>2019-08-15T23:11:47.000Z</time>
   </trkpt>
   <trkpt lat="-8.043876" lon="-34.897249">
    <ele>13.4</ele>
    <time>2019-08-15T23:11:48.000Z</time>
   </trkpt>
   <trkpt lat="-8.043832" lon="-34.89726">
    <ele>13.2</ele>
    <time>2019-08-15T23:11:49.000Z</time>
   </trkpt>
   <trkpt lat="-8.043781" lon="-34.89726">
    <ele>13.1</ele>
    <time>2019-08-15T23:11:50.000Z</time>
   </trkpt>
   <trkpt lat="-8.043755" lon="-34.897292">
    <ele>12.9</ele>
    <time>2019-08-15T23:11:51.000Z</time>
   </trkpt>
   <trkpt lat="-8.043717" lon="-34.897312">
    <ele>12.7</ele>
    <time>2019-08-15T23:11:52.000Z</time>
   </trkpt>
   <trkpt lat="-8.043668" lon="-34.897347">
    <ele>12.4</ele>
    <time>2019-08-15T23:11:54.000Z</time>
   </trkpt>
   <trkpt lat="-8.043627" lon="-34.897368">
    <ele>12.2</ele>
    <time>2019-08-15T23:11:55.000Z</time>
   </trkpt>
   <trkpt lat="-8.043595" lon="-34.897393">
    <ele>12.2</ele>
    <time>2019-08-15T23:11:56.000Z</time>
   </trkpt>
   <trkpt lat="-8.043569" lon="-34.897418">
    <ele>12.2</ele>
    <time>2019-08-15T23:11:57.000Z</time>
   </trkpt>
   <trkpt lat="-8.043528" lon="-34.897438">
    <ele>12.2</ele>
    <time>2019-08-15T23:11:58.000Z</time>
   </trkpt>
   <trkpt lat="-8.043501" lon="-34.897484">
    <ele>12.3</ele>
    <time>2019-08-15T23:11:59.000Z</time>
   </trkpt>
   <trkpt lat="-8.043462" lon="-34.897503">
    <ele>12.3</ele>
    <time>2019-08-15T23:12:00.000Z</time>
   </trkpt>
   <trkpt lat="-8.043413" lon="-34.897521">
    <ele>12.3</ele>
    <time>2019-08-15T23:12:01.000Z</time>
   </trkpt>
   <trkpt lat="-8.043356" lon="-34.897545">
    <ele>12.4</ele>
    <time>2019-08-15T23:12:02.000Z</time>
   </trkpt>
   <trkpt lat="-8.043299" lon="-34.897561">
    <ele>12.4</ele>
    <time>2019-08-15T23:12:03.000Z</time>
   </trkpt>
   <trkpt lat="-8.043244" lon="-34.897582">
    <ele>12.6</ele>
    <time>2019-08-15T23:12:04.000Z</time>
   </trkpt>
   <trkpt lat="-8.043187" lon="-34.897596">
    <ele>12.8</ele>
    <time>2019-08-15T23:12:05.000Z</time>
   </trkpt>
   <trkpt lat="-8.043121" lon="-34.897602">
    <ele>13</ele>
    <time>2019-08-15T23:12:06.000Z</time>
   </trkpt>
   <trkpt lat="-8.043066" lon="-34.897606">
    <ele>13.2</ele>
    <time>2019-08-15T23:12:07.000Z</time>
   </trkpt>
   <trkpt lat="-8.043013" lon="-34.897619">
    <ele>13.4</ele>
    <time>2019-08-15T23:12:08.000Z</time>
   </trkpt>
   <trkpt lat="-8.042957" lon="-34.897648">
    <ele>13.7</ele>
    <time>2019-08-15T23:12:09.000Z</time>
   </trkpt>
   <trkpt lat="-8.042894" lon="-34.897666">
    <ele>13.8</ele>
    <time>2019-08-15T23:12:10.000Z</time>
   </trkpt>
   <trkpt lat="-8.042831" lon="-34.89769">
    <ele>13.9</ele>
    <time>2019-08-15T23:12:11.000Z</time>
   </trkpt>
   <trkpt lat="-8.04276" lon="-34.897711">
    <ele>14</ele>
    <time>2019-08-15T23:12:12.000Z</time>
   </trkpt>
   <trkpt lat="-8.042691" lon="-34.897732">
    <ele>14.1</ele>
    <time>2019-08-15T23:12:13.000Z</time>
   </trkpt>
   <trkpt lat="-8.042616" lon="-34.897759">
    <ele>14.1</ele>
    <time>2019-08-15T23:12:14.000Z</time>
   </trkpt>
   <trkpt lat="-8.042525" lon="-34.897796">
    <ele>14.1</ele>
    <time>2019-08-15T23:12:15.000Z</time>
   </trkpt>
   <trkpt lat="-8.042446" lon="-34.897823">
    <ele>14.2</ele>
    <time>2019-08-15T23:12:16.000Z</time>
   </trkpt>
   <trkpt lat="-8.042389" lon="-34.897844">
    <ele>14.2</ele>
    <time>2019-08-15T23:12:17.000Z</time>
   </trkpt>
   <trkpt lat="-8.04232" lon="-34.897872">
    <ele>14.2</ele>
    <time>2019-08-15T23:12:18.000Z</time>
   </trkpt>
   <trkpt lat="-8.04224" lon="-34.897884">
    <ele>14.3</ele>
    <time>2019-08-15T23:12:19.000Z</time>
   </trkpt>
   <trkpt lat="-8.04217" lon="-34.897896">
    <ele>14.2</ele>
    <time>2019-08-15T23:12:20.000Z</time>
   </trkpt>
   <trkpt lat="-8.042109" lon="-34.897919">
    <ele>13.6</ele>
    <time>2019-08-15T23:12:21.000Z</time>
   </trkpt>
   <trkpt lat="-8.042049" lon="-34.89794">
    <ele>13</ele>
    <time>2019-08-15T23:12:22.000Z</time>
   </trkpt>
   <trkpt lat="-8.041975" lon="-34.897964">
    <ele>12.4</ele>
    <time>2019-08-15T23:12:23.000Z</time>
   </trkpt>
   <trkpt lat="-8.041909" lon="-34.897993">
    <ele>11.8</ele>
    <time>2019-08-15T23:12:24.000Z</time>
   </trkpt>
   <trkpt lat="-8.041844" lon="-34.898023">
    <ele>11.2</ele>
    <time>2019-08-15T23:12:25.000Z</time>
   </trkpt>
   <trkpt lat="-8.041782" lon="-34.898049">
    <ele>10.7</ele>
    <time>2019-08-15T23:12:26.000Z</time>
   </trkpt>
   <trkpt lat="-8.041722" lon="-34.898079">
    <ele>10.2</ele>
    <time>2019-08-15T23:12:27.000Z</time>
   </trkpt>
   <trkpt lat="-8.041667" lon="-34.898115">
    <ele>9.8</ele>
    <time>2019-08-15T23:12:28.000Z</time>
   </trkpt>
   <trkpt lat="-8.041607" lon="-34.898141">
    <ele>9.8</ele>
    <time>2019-08-15T23:12:29.000Z</time>
   </trkpt>
   <trkpt lat="-8.041548" lon="-34.898166">
    <ele>10</ele>
    <time>2019-08-15T23:12:30.000Z</time>
   </trkpt>
   <trkpt lat="-8.041497" lon="-34.898201">
    <ele>10.2</ele>
    <time>2019-08-15T23:12:31.000Z</time>
   </trkpt>
   <trkpt lat="-8.041449" lon="-34.898238">
    <ele>10.3</ele>
    <time>2019-08-15T23:12:32.000Z</time>
   </trkpt>
   <trkpt lat="-8.041394" lon="-34.898261">
    <ele>10.5</ele>
    <time>2019-08-15T23:12:33.000Z</time>
   </trkpt>
   <trkpt lat="-8.041342" lon="-34.898289">
    <ele>10.6</ele>
    <time>2019-08-15T23:12:34.000Z</time>
   </trkpt>
   <trkpt lat="-8.041287" lon="-34.89831">
    <ele>10.7</ele>
    <time>2019-08-15T23:12:35.000Z</time>
   </trkpt>
   <trkpt lat="-8.041246" lon="-34.898373">
    <ele>10.9</ele>
    <time>2019-08-15T23:12:36.000Z</time>
   </trkpt>
   <trkpt lat="-8.041189" lon="-34.898398">
    <ele>11</ele>
    <time>2019-08-15T23:12:37.000Z</time>
   </trkpt>
   <trkpt lat="-8.041136" lon="-34.898421">
    <ele>11.1</ele>
    <time>2019-08-15T23:12:38.000Z</time>
   </trkpt>
   <trkpt lat="-8.041083" lon="-34.898443">
    <ele>11.2</ele>
    <time>2019-08-15T23:12:39.000Z</time>
   </trkpt>
   <trkpt lat="-8.041035" lon="-34.898477">
    <ele>11.3</ele>
    <time>2019-08-15T23:12:40.000Z</time>
   </trkpt>
   <trkpt lat="-8.040985" lon="-34.898509">
    <ele>11.3</ele>
    <time>2019-08-15T23:12:41.000Z</time>
   </trkpt>
   <trkpt lat="-8.040935" lon="-34.89854">
    <ele>11.4</ele>
    <time>2019-08-15T23:12:42.000Z</time>
   </trkpt>
   <trkpt lat="-8.040861" lon="-34.898528">
    <ele>11.5</ele>
    <time>2019-08-15T23:12:43.000Z</time>
   </trkpt>
   <trkpt lat="-8.040804" lon="-34.898546">
    <ele>11.6</ele>
    <time>2019-08-15T23:12:44.000Z</time>
   </trkpt>
   <trkpt lat="-8.040756" lon="-34.898582">
    <ele>11.7</ele>
    <time>2019-08-15T23:12:45.000Z</time>
   </trkpt>
   <trkpt lat="-8.040708" lon="-34.898618">
    <ele>11.8</ele>
    <time>2019-08-15T23:12:46.000Z</time>
   </trkpt>
   <trkpt lat="-8.040667" lon="-34.898648">
    <ele>11.9</ele>
    <time>2019-08-15T23:12:47.000Z</time>
   </trkpt>
   <trkpt lat="-8.040639" lon="-34.898667">
    <ele>11.9</ele>
    <time>2019-08-15T23:12:48.000Z</time>
   </trkpt>
   <trkpt lat="-8.040585" lon="-34.8987">
    <ele>11.9</ele>
    <time>2019-08-15T23:12:49.000Z</time>
   </trkpt>
   <trkpt lat="-8.040528" lon="-34.898745">
    <ele>11.9</ele>
    <time>2019-08-15T23:12:50.000Z</time>
   </trkpt>
   <trkpt lat="-8.040479" lon="-34.898779">
    <ele>12</ele>
    <time>2019-08-15T23:12:51.000Z</time>
   </trkpt>
   <trkpt lat="-8.040428" lon="-34.898829">
    <ele>12</ele>
    <time>2019-08-15T23:12:52.000Z</time>
   </trkpt>
   <trkpt lat="-8.0404" lon="-34.898862">
    <ele>12</ele>
    <time>2019-08-15T23:12:53.000Z</time>
   </trkpt>
   <trkpt lat="-8.040349" lon="-34.898886">
    <ele>12</ele>
    <time>2019-08-15T23:12:54.000Z</time>
   </trkpt>
   <trkpt lat="-8.040306" lon="-34.898921">
    <ele>12.1</ele>
    <time>2019-08-15T23:12:55.000Z</time>
   </trkpt>
   <trkpt lat="-8.040239" lon="-34.898977">
    <ele>12.1</ele>
    <time>2019-08-15T23:12:56.000Z</time>
   </trkpt>
   <trkpt lat="-8.040185" lon="-34.899016">
    <ele>12.1</ele>
    <time>2019-08-15T23:12:57.000Z</time>
   </trkpt>
   <trkpt lat="-8.04013" lon="-34.899057">
    <ele>12.1</ele>
    <time>2019-08-15T23:12:58.000Z</time>
   </trkpt>
   <trkpt lat="-8.040077" lon="-34.899096">
    <ele>12.1</ele>
    <time>2019-08-15T23:12:59.000Z</time>
   </trkpt>
   <trkpt lat="-8.040027" lon="-34.899145">
    <ele>12</ele>
    <time>2019-08-15T23:13:00.000Z</time>
   </trkpt>
   <trkpt lat="-8.03997" lon="-34.899193">
    <ele>11.9</ele>
    <time>2019-08-15T23:13:01.000Z</time>
   </trkpt>
   <trkpt lat="-8.039929" lon="-34.89922">
    <ele>11.8</ele>
    <time>2019-08-15T23:13:02.000Z</time>
   </trkpt>
   <trkpt lat="-8.039884" lon="-34.899237">
    <ele>11.7</ele>
    <time>2019-08-15T23:13:03.000Z</time>
   </trkpt>
   <trkpt lat="-8.039842" lon="-34.899275">
    <ele>11.6</ele>
    <time>2019-08-15T23:13:04.000Z</time>
   </trkpt>
   <trkpt lat="-8.039803" lon="-34.899303">
    <ele>11.6</ele>
    <time>2019-08-15T23:13:05.000Z</time>
   </trkpt>
   <trkpt lat="-8.039761" lon="-34.899329">
    <ele>11.5</ele>
    <time>2019-08-15T23:13:06.000Z</time>
   </trkpt>
   <trkpt lat="-8.039715" lon="-34.899363">
    <ele>11.4</ele>
    <time>2019-08-15T23:13:08.000Z</time>
   </trkpt>
   <trkpt lat="-8.039685" lon="-34.899376">
    <ele>11.4</ele>
    <time>2019-08-15T23:13:10.000Z</time>
   </trkpt>
   <trkpt lat="-8.039642" lon="-34.899394">
    <ele>11.3</ele>
    <time>2019-08-15T23:13:11.000Z</time>
   </trkpt>
   <trkpt lat="-8.039585" lon="-34.899411">
    <ele>11.2</ele>
    <time>2019-08-15T23:13:12.000Z</time>
   </trkpt>
   <trkpt lat="-8.039541" lon="-34.899411">
    <ele>11.1</ele>
    <time>2019-08-15T23:13:13.000Z</time>
   </trkpt>
   <trkpt lat="-8.0395" lon="-34.89939">
    <ele>11</ele>
    <time>2019-08-15T23:13:14.000Z</time>
   </trkpt>
   <trkpt lat="-8.039459" lon="-34.899374">
    <ele>11.6</ele>
    <time>2019-08-15T23:13:15.000Z</time>
   </trkpt>
   <trkpt lat="-8.039417" lon="-34.899359">
    <ele>11.7</ele>
    <time>2019-08-15T23:13:16.000Z</time>
   </trkpt>
   <trkpt lat="-8.039379" lon="-34.899345">
    <ele>11.9</ele>
    <time>2019-08-15T23:13:17.000Z</time>
   </trkpt>
   <trkpt lat="-8.039319" lon="-34.899317">
    <ele>12</ele>
    <time>2019-08-15T23:13:18.000Z</time>
   </trkpt>
   <trkpt lat="-8.039274" lon="-34.899297">
    <ele>12</ele>
    <time>2019-08-15T23:13:19.000Z</time>
   </trkpt>
   <trkpt lat="-8.039222" lon="-34.899278">
    <ele>12</ele>
    <time>2019-08-15T23:13:20.000Z</time>
   </trkpt>
   <trkpt lat="-8.03916" lon="-34.899278">
    <ele>12</ele>
    <time>2019-08-15T23:13:21.000Z</time>
   </trkpt>
   <trkpt lat="-8.039109" lon="-34.899258">
    <ele>12</ele>
    <time>2019-08-15T23:13:22.000Z</time>
   </trkpt>
   <trkpt lat="-8.039055" lon="-34.899235">
    <ele>12</ele>
    <time>2019-08-15T23:13:23.000Z</time>
   </trkpt>
   <trkpt lat="-8.038984" lon="-34.899203">
    <ele>12</ele>
    <time>2019-08-15T23:13:24.000Z</time>
   </trkpt>
   <trkpt lat="-8.038952" lon="-34.899162">
    <ele>12</ele>
    <time>2019-08-15T23:13:25.000Z</time>
   </trkpt>
   <trkpt lat="-8.038887" lon="-34.899127">
    <ele>12</ele>
    <time>2019-08-15T23:13:26.000Z</time>
   </trkpt>
   <trkpt lat="-8.038836" lon="-34.899104">
    <ele>12</ele>
    <time>2019-08-15T23:13:27.000Z</time>
   </trkpt>
   <trkpt lat="-8.038802" lon="-34.899065">
    <ele>12</ele>
    <time>2019-08-15T23:13:28.000Z</time>
   </trkpt>
   <trkpt lat="-8.03876" lon="-34.899024">
    <ele>12</ele>
    <time>2019-08-15T23:13:29.000Z</time>
   </trkpt>
   <trkpt lat="-8.038729" lon="-34.898993">
    <ele>12</ele>
    <time>2019-08-15T23:13:30.000Z</time>
   </trkpt>
   <trkpt lat="-8.038688" lon="-34.898993">
    <ele>12</ele>
    <time>2019-08-15T23:13:31.000Z</time>
   </trkpt>
   <trkpt lat="-8.038646" lon="-34.898983">
    <ele>12</ele>
    <time>2019-08-15T23:13:32.000Z</time>
   </trkpt>
   <trkpt lat="-8.038611" lon="-34.898974">
    <ele>12.1</ele>
    <time>2019-08-15T23:13:33.000Z</time>
   </trkpt>
   <trkpt lat="-8.038583" lon="-34.898961">
    <ele>12.3</ele>
    <time>2019-08-15T23:13:34.000Z</time>
   </trkpt>
   <trkpt lat="-8.038542" lon="-34.898925">
    <ele>12.5</ele>
    <time>2019-08-15T23:13:36.000Z</time>
   </trkpt>
   <trkpt lat="-8.03851" lon="-34.898909">
    <ele>12.7</ele>
    <time>2019-08-15T23:13:37.000Z</time>
   </trkpt>
   <trkpt lat="-8.038483" lon="-34.898891">
    <ele>12.8</ele>
    <time>2019-08-15T23:13:38.000Z</time>
   </trkpt>
   <trkpt lat="-8.038457" lon="-34.898878">
    <ele>13</ele>
    <time>2019-08-15T23:13:39.000Z</time>
   </trkpt>
   <trkpt lat="-8.038425" lon="-34.898865">
    <ele>13.1</ele>
    <time>2019-08-15T23:13:40.000Z</time>
   </trkpt>
   <trkpt lat="-8.038387" lon="-34.898838">
    <ele>13.4</ele>
    <time>2019-08-15T23:13:41.000Z</time>
   </trkpt>
   <trkpt lat="-8.038372" lon="-34.898807">
    <ele>13.5</ele>
    <time>2019-08-15T23:13:42.000Z</time>
   </trkpt>
   <trkpt lat="-8.038346" lon="-34.898788">
    <ele>13.7</ele>
    <time>2019-08-15T23:13:43.000Z</time>
   </trkpt>
   <trkpt lat="-8.03829" lon="-34.898789">
    <ele>13.9</ele>
    <time>2019-08-15T23:13:44.000Z</time>
   </trkpt>
   <trkpt lat="-8.038244" lon="-34.898776">
    <ele>14.1</ele>
    <time>2019-08-15T23:13:45.000Z</time>
   </trkpt>
   <trkpt lat="-8.038185" lon="-34.898754">
    <ele>14.3</ele>
    <time>2019-08-15T23:13:46.000Z</time>
   </trkpt>
   <trkpt lat="-8.038148" lon="-34.898731">
    <ele>14.4</ele>
    <time>2019-08-15T23:13:47.000Z</time>
   </trkpt>
   <trkpt lat="-8.03811" lon="-34.898691">
    <ele>14.5</ele>
    <time>2019-08-15T23:13:48.000Z</time>
   </trkpt>
   <trkpt lat="-8.03808" lon="-34.898686">
    <ele>14.5</ele>
    <time>2019-08-15T23:13:49.000Z</time>
   </trkpt>
   <trkpt lat="-8.038045" lon="-34.898689">
    <ele>14.6</ele>
    <time>2019-08-15T23:13:50.000Z</time>
   </trkpt>
   <trkpt lat="-8.038011" lon="-34.898693">
    <ele>14.6</ele>
    <time>2019-08-15T23:13:51.000Z</time>
   </trkpt>
   <trkpt lat="-8.037983" lon="-34.898696">
    <ele>14.6</ele>
    <time>2019-08-15T23:13:52.000Z</time>
   </trkpt>
   <trkpt lat="-8.037927" lon="-34.898701">
    <ele>14.6</ele>
    <time>2019-08-15T23:13:54.000Z</time>
   </trkpt>
   <trkpt lat="-8.037884" lon="-34.898703">
    <ele>14.6</ele>
    <time>2019-08-15T23:13:56.000Z</time>
   </trkpt>
   <trkpt lat="-8.037832" lon="-34.898707">
    <ele>14.5</ele>
    <time>2019-08-15T23:13:58.000Z</time>
   </trkpt>
   <trkpt lat="-8.037804" lon="-34.89871">
    <ele>14.5</ele>
    <time>2019-08-15T23:13:59.000Z</time>
   </trkpt>
   <trkpt lat="-8.03778" lon="-34.898694">
    <ele>14.4</ele>
    <time>2019-08-15T23:14:00.000Z</time>
   </trkpt>
   <trkpt lat="-8.037721" lon="-34.898679">
    <ele>14.2</ele>
    <time>2019-08-15T23:14:02.000Z</time>
   </trkpt>
   <trkpt lat="-8.037655" lon="-34.898674">
    <ele>13.9</ele>
    <time>2019-08-15T23:14:03.000Z</time>
   </trkpt>
   <trkpt lat="-8.037596" lon="-34.89866">
    <ele>13.7</ele>
    <time>2019-08-15T23:14:04.000Z</time>
   </trkpt>
   <trkpt lat="-8.03754" lon="-34.898629">
    <ele>13.5</ele>
    <time>2019-08-15T23:14:05.000Z</time>
   </trkpt>
   <trkpt lat="-8.037476" lon="-34.898603">
    <ele>13.2</ele>
    <time>2019-08-15T23:14:06.000Z</time>
   </trkpt>
   <trkpt lat="-8.037419" lon="-34.89857">
    <ele>12.9</ele>
    <time>2019-08-15T23:14:07.000Z</time>
   </trkpt>
   <trkpt lat="-8.03737" lon="-34.898518">
    <ele>12.7</ele>
    <time>2019-08-15T23:14:08.000Z</time>
   </trkpt>
   <trkpt lat="-8.037317" lon="-34.89845">
    <ele>12.4</ele>
    <time>2019-08-15T23:14:09.000Z</time>
   </trkpt>
   <trkpt lat="-8.037273" lon="-34.898403">
    <ele>12.1</ele>
    <time>2019-08-15T23:14:10.000Z</time>
   </trkpt>
   <trkpt lat="-8.037222" lon="-34.898362">
    <ele>11.9</ele>
    <time>2019-08-15T23:14:11.000Z</time>
   </trkpt>
   <trkpt lat="-8.037175" lon="-34.898309">
    <ele>11.7</ele>
    <time>2019-08-15T23:14:12.000Z</time>
   </trkpt>
   <trkpt lat="-8.037143" lon="-34.898276">
    <ele>11.5</ele>
    <time>2019-08-15T23:14:13.000Z</time>
   </trkpt>
   <trkpt lat="-8.037111" lon="-34.898245">
    <ele>11.4</ele>
    <time>2019-08-15T23:14:14.000Z</time>
   </trkpt>
   <trkpt lat="-8.037084" lon="-34.898213">
    <ele>11.2</ele>
    <time>2019-08-15T23:14:15.000Z</time>
   </trkpt>
   <trkpt lat="-8.037047" lon="-34.898187">
    <ele>11.1</ele>
    <time>2019-08-15T23:14:16.000Z</time>
   </trkpt>
   <trkpt lat="-8.037008" lon="-34.898168">
    <ele>11</ele>
    <time>2019-08-15T23:14:17.000Z</time>
   </trkpt>
   <trkpt lat="-8.036965" lon="-34.89815">
    <ele>10.8</ele>
    <time>2019-08-15T23:14:18.000Z</time>
   </trkpt>
   <trkpt lat="-8.036914" lon="-34.898135">
    <ele>10.7</ele>
    <time>2019-08-15T23:14:19.000Z</time>
   </trkpt>
   <trkpt lat="-8.036859" lon="-34.89811">
    <ele>10.5</ele>
    <time>2019-08-15T23:14:20.000Z</time>
   </trkpt>
   <trkpt lat="-8.0368" lon="-34.898091">
    <ele>10.4</ele>
    <time>2019-08-15T23:14:21.000Z</time>
   </trkpt>
   <trkpt lat="-8.036727" lon="-34.898029">
    <ele>10.1</ele>
    <time>2019-08-15T23:14:22.000Z</time>
   </trkpt>
   <trkpt lat="-8.036661" lon="-34.897986">
    <ele>9.8</ele>
    <time>2019-08-15T23:14:23.000Z</time>
   </trkpt>
   <trkpt lat="-8.036568" lon="-34.897957">
    <ele>9.5</ele>
    <time>2019-08-15T23:14:24.000Z</time>
   </trkpt>
   <trkpt lat="-8.036495" lon="-34.897935">
    <ele>9.2</ele>
    <time>2019-08-15T23:14:25.000Z</time>
   </trkpt>
   <trkpt lat="-8.036436" lon="-34.897908">
    <ele>9.3</ele>
    <time>2019-08-15T23:14:26.000Z</time>
   </trkpt>
   <trkpt lat="-8.03637" lon="-34.897879">
    <ele>9.5</ele>
    <time>2019-08-15T23:14:27.000Z</time>
   </trkpt>
   <trkpt lat="-8.0363" lon="-34.897841">
    <ele>9.6</ele>
    <time>2019-08-15T23:14:28.000Z</time>
   </trkpt>
   <trkpt lat="-8.036243" lon="-34.897808">
    <ele>9.8</ele>
    <time>2019-08-15T23:14:29.000Z</time>
   </trkpt>
   <trkpt lat="-8.0362" lon="-34.897777">
    <ele>9.9</ele>
    <time>2019-08-15T23:14:30.000Z</time>
   </trkpt>
   <trkpt lat="-8.036151" lon="-34.89776">
    <ele>9.9</ele>
    <time>2019-08-15T23:14:31.000Z</time>
   </trkpt>
   <trkpt lat="-8.036112" lon="-34.89775">
    <ele>10</ele>
    <time>2019-08-15T23:14:32.000Z</time>
   </trkpt>
   <trkpt lat="-8.036068" lon="-34.897736">
    <ele>10</ele>
    <time>2019-08-15T23:14:33.000Z</time>
   </trkpt>
   <trkpt lat="-8.036027" lon="-34.897725">
    <ele>10</ele>
    <time>2019-08-15T23:14:34.000Z</time>
   </trkpt>
   <trkpt lat="-8.035987" lon="-34.897704">
    <ele>10.1</ele>
    <time>2019-08-15T23:14:35.000Z</time>
   </trkpt>
   <trkpt lat="-8.035948" lon="-34.897683">
    <ele>10.1</ele>
    <time>2019-08-15T23:14:36.000Z</time>
   </trkpt>
   <trkpt lat="-8.03592" lon="-34.897661">
    <ele>10.1</ele>
    <time>2019-08-15T23:14:37.000Z</time>
   </trkpt>
   <trkpt lat="-8.035888" lon="-34.897653">
    <ele>10.1</ele>
    <time>2019-08-15T23:14:38.000Z</time>
   </trkpt>
   <trkpt lat="-8.035841" lon="-34.897632">
    <ele>10.1</ele>
    <time>2019-08-15T23:14:40.000Z</time>
   </trkpt>
   <trkpt lat="-8.035818" lon="-34.897616">
    <ele>10.1</ele>
    <time>2019-08-15T23:14:41.000Z</time>
   </trkpt>
   <trkpt lat="-8.035796" lon="-34.8976">
    <ele>10.1</ele>
    <time>2019-08-15T23:14:43.000Z</time>
   </trkpt>
   <trkpt lat="-8.035775" lon="-34.897582">
    <ele>10.1</ele>
    <time>2019-08-15T23:14:46.000Z</time>
   </trkpt>
   <trkpt lat="-8.035753" lon="-34.897561">
    <ele>10.1</ele>
    <time>2019-08-15T23:14:50.000Z</time>
   </trkpt>
   <trkpt lat="-8.035762" lon="-34.89751">
    <ele>10.1</ele>
    <time>2019-08-15T23:15:28.000Z</time>
   </trkpt>
   <trkpt lat="-8.035736" lon="-34.897484">
    <ele>10</ele>
    <time>2019-08-15T23:15:30.000Z</time>
   </trkpt>
   <trkpt lat="-8.035707" lon="-34.897487">
    <ele>10</ele>
    <time>2019-08-15T23:15:31.000Z</time>
   </trkpt>
   <trkpt lat="-8.035667" lon="-34.897486">
    <ele>10</ele>
    <time>2019-08-15T23:15:32.000Z</time>
   </trkpt>
   <trkpt lat="-8.035628" lon="-34.897475">
    <ele>10</ele>
    <time>2019-08-15T23:15:33.000Z</time>
   </trkpt>
   <trkpt lat="-8.035586" lon="-34.897457">
    <ele>10.3</ele>
    <time>2019-08-15T23:15:34.000Z</time>
   </trkpt>
   <trkpt lat="-8.03555" lon="-34.89744">
    <ele>10.5</ele>
    <time>2019-08-15T23:15:35.000Z</time>
   </trkpt>
   <trkpt lat="-8.035518" lon="-34.897425">
    <ele>10.6</ele>
    <time>2019-08-15T23:15:36.000Z</time>
   </trkpt>
   <trkpt lat="-8.035481" lon="-34.89741">
    <ele>10.7</ele>
    <time>2019-08-15T23:15:37.000Z</time>
   </trkpt>
   <trkpt lat="-8.035439" lon="-34.897388">
    <ele>10.8</ele>
    <time>2019-08-15T23:15:38.000Z</time>
   </trkpt>
   <trkpt lat="-8.03539" lon="-34.897362">
    <ele>10.8</ele>
    <time>2019-08-15T23:15:39.000Z</time>
   </trkpt>
   <trkpt lat="-8.035335" lon="-34.897341">
    <ele>10.7</ele>
    <time>2019-08-15T23:15:40.000Z</time>
   </trkpt>
   <trkpt lat="-8.035288" lon="-34.897316">
    <ele>10.7</ele>
    <time>2019-08-15T23:15:41.000Z</time>
   </trkpt>
   <trkpt lat="-8.035244" lon="-34.897295">
    <ele>10.6</ele>
    <time>2019-08-15T23:15:42.000Z</time>
   </trkpt>
   <trkpt lat="-8.035201" lon="-34.897277">
    <ele>10.5</ele>
    <time>2019-08-15T23:15:43.000Z</time>
   </trkpt>
   <trkpt lat="-8.035162" lon="-34.89726">
    <ele>10.5</ele>
    <time>2019-08-15T23:15:44.000Z</time>
   </trkpt>
   <trkpt lat="-8.035129" lon="-34.897246">
    <ele>10.4</ele>
    <time>2019-08-15T23:15:45.000Z</time>
   </trkpt>
   <trkpt lat="-8.035093" lon="-34.897224">
    <ele>10.3</ele>
    <time>2019-08-15T23:15:46.000Z</time>
   </trkpt>
   <trkpt lat="-8.035054" lon="-34.897218">
    <ele>10.2</ele>
    <time>2019-08-15T23:15:47.000Z</time>
   </trkpt>
   <trkpt lat="-8.035016" lon="-34.8972">
    <ele>10.2</ele>
    <time>2019-08-15T23:15:48.000Z</time>
   </trkpt>
   <trkpt lat="-8.034962" lon="-34.897159">
    <ele>10.1</ele>
    <time>2019-08-15T23:15:49.000Z</time>
   </trkpt>
   <trkpt lat="-8.034913" lon="-34.897134">
    <ele>10</ele>
    <time>2019-08-15T23:15:50.000Z</time>
   </trkpt>
   <trkpt lat="-8.034877" lon="-34.897119">
    <ele>9.9</ele>
    <time>2019-08-15T23:15:51.000Z</time>
   </trkpt>
   <trkpt lat="-8.03484" lon="-34.897102">
    <ele>9.9</ele>
    <time>2019-08-15T23:15:52.000Z</time>
   </trkpt>
   <trkpt lat="-8.034797" lon="-34.897095">
    <ele>9.8</ele>
    <time>2019-08-15T23:15:53.000Z</time>
   </trkpt>
   <trkpt lat="-8.034759" lon="-34.897083">
    <ele>9.7</ele>
    <time>2019-08-15T23:15:54.000Z</time>
   </trkpt>
   <trkpt lat="-8.034736" lon="-34.897064">
    <ele>9.7</ele>
    <time>2019-08-15T23:15:55.000Z</time>
   </trkpt>
   <trkpt lat="-8.034712" lon="-34.89705">
    <ele>9.7</ele>
    <time>2019-08-15T23:15:56.000Z</time>
   </trkpt>
   <trkpt lat="-8.034661" lon="-34.897014">
    <ele>9.7</ele>
    <time>2019-08-15T23:15:58.000Z</time>
   </trkpt>
   <trkpt lat="-8.034621" lon="-34.89698">
    <ele>9.6</ele>
    <time>2019-08-15T23:15:59.000Z</time>
   </trkpt>
   <trkpt lat="-8.034582" lon="-34.896947">
    <ele>9.6</ele>
    <time>2019-08-15T23:16:00.000Z</time>
   </trkpt>
   <trkpt lat="-8.03456" lon="-34.896902">
    <ele>9.6</ele>
    <time>2019-08-15T23:16:01.000Z</time>
   </trkpt>
   <trkpt lat="-8.034515" lon="-34.896872">
    <ele>9.5</ele>
    <time>2019-08-15T23:16:02.000Z</time>
   </trkpt>
   <trkpt lat="-8.034433" lon="-34.896864">
    <ele>9.5</ele>
    <time>2019-08-15T23:16:03.000Z</time>
   </trkpt>
   <trkpt lat="-8.034365" lon="-34.896857">
    <ele>9.4</ele>
    <time>2019-08-15T23:16:04.000Z</time>
   </trkpt>
   <trkpt lat="-8.034309" lon="-34.896856">
    <ele>9.4</ele>
    <time>2019-08-15T23:16:05.000Z</time>
   </trkpt>
   <trkpt lat="-8.034255" lon="-34.896852">
    <ele>9.4</ele>
    <time>2019-08-15T23:16:06.000Z</time>
   </trkpt>
   <trkpt lat="-8.034203" lon="-34.896839">
    <ele>9.3</ele>
    <time>2019-08-15T23:16:07.000Z</time>
   </trkpt>
   <trkpt lat="-8.034146" lon="-34.89683">
    <ele>9.2</ele>
    <time>2019-08-15T23:16:08.000Z</time>
   </trkpt>
   <trkpt lat="-8.034103" lon="-34.896816">
    <ele>9.2</ele>
    <time>2019-08-15T23:16:09.000Z</time>
   </trkpt>
   <trkpt lat="-8.034066" lon="-34.896796">
    <ele>9.2</ele>
    <time>2019-08-15T23:16:10.000Z</time>
   </trkpt>
   <trkpt lat="-8.034036" lon="-34.896784">
    <ele>9.1</ele>
    <time>2019-08-15T23:16:11.000Z</time>
   </trkpt>
   <trkpt lat="-8.034023" lon="-34.896738">
    <ele>9.2</ele>
    <time>2019-08-15T23:16:13.000Z</time>
   </trkpt>
   <trkpt lat="-8.033997" lon="-34.896707">
    <ele>9.3</ele>
    <time>2019-08-15T23:16:15.000Z</time>
   </trkpt>
   <trkpt lat="-8.033979" lon="-34.896684">
    <ele>9.4</ele>
    <time>2019-08-15T23:16:16.000Z</time>
   </trkpt>
   <trkpt lat="-8.033959" lon="-34.896658">
    <ele>9.5</ele>
    <time>2019-08-15T23:16:19.000Z</time>
   </trkpt>
   <trkpt lat="-8.033903" lon="-34.896618">
    <ele>9.6</ele>
    <time>2019-08-15T23:16:21.000Z</time>
   </trkpt>
   <trkpt lat="-8.033872" lon="-34.896601">
    <ele>9.7</ele>
    <time>2019-08-15T23:16:22.000Z</time>
   </trkpt>
   <trkpt lat="-8.033847" lon="-34.896588">
    <ele>9.7</ele>
    <time>2019-08-15T23:16:23.000Z</time>
   </trkpt>
   <trkpt lat="-8.033785" lon="-34.896587">
    <ele>9.5</ele>
    <time>2019-08-15T23:16:24.000Z</time>
   </trkpt>
   <trkpt lat="-8.033734" lon="-34.896583">
    <ele>9.3</ele>
    <time>2019-08-15T23:16:25.000Z</time>
   </trkpt>
   <trkpt lat="-8.033685" lon="-34.896581">
    <ele>9.1</ele>
    <time>2019-08-15T23:16:26.000Z</time>
   </trkpt>
   <trkpt lat="-8.033641" lon="-34.896569">
    <ele>9</ele>
    <time>2019-08-15T23:16:27.000Z</time>
   </trkpt>
   <trkpt lat="-8.03359" lon="-34.896553">
    <ele>9</ele>
    <time>2019-08-15T23:16:28.000Z</time>
   </trkpt>
   <trkpt lat="-8.03354" lon="-34.896537">
    <ele>9</ele>
    <time>2019-08-15T23:16:29.000Z</time>
   </trkpt>
   <trkpt lat="-8.033491" lon="-34.896524">
    <ele>9</ele>
    <time>2019-08-15T23:16:30.000Z</time>
   </trkpt>
   <trkpt lat="-8.033444" lon="-34.8965">
    <ele>9</ele>
    <time>2019-08-15T23:16:31.000Z</time>
   </trkpt>
   <trkpt lat="-8.03342" lon="-34.896486">
    <ele>9</ele>
    <time>2019-08-15T23:16:32.000Z</time>
   </trkpt>
   <trkpt lat="-8.033386" lon="-34.896469">
    <ele>9.1</ele>
    <time>2019-08-15T23:16:33.000Z</time>
   </trkpt>
   <trkpt lat="-8.033348" lon="-34.896443">
    <ele>9.3</ele>
    <time>2019-08-15T23:16:34.000Z</time>
   </trkpt>
   <trkpt lat="-8.033301" lon="-34.89643">
    <ele>9.5</ele>
    <time>2019-08-15T23:16:35.000Z</time>
   </trkpt>
   <trkpt lat="-8.033257" lon="-34.896401">
    <ele>9.7</ele>
    <time>2019-08-15T23:16:36.000Z</time>
   </trkpt>
   <trkpt lat="-8.033214" lon="-34.896369">
    <ele>9.8</ele>
    <time>2019-08-15T23:16:37.000Z</time>
   </trkpt>
   <trkpt lat="-8.033175" lon="-34.896332">
    <ele>10</ele>
    <time>2019-08-15T23:16:38.000Z</time>
   </trkpt>
   <trkpt lat="-8.03313" lon="-34.896294">
    <ele>10.1</ele>
    <time>2019-08-15T23:16:39.000Z</time>
   </trkpt>
   <trkpt lat="-8.033084" lon="-34.89625">
    <ele>10.2</ele>
    <time>2019-08-15T23:16:40.000Z</time>
   </trkpt>
   <trkpt lat="-8.033049" lon="-34.896224">
    <ele>10.3</ele>
    <time>2019-08-15T23:16:41.000Z</time>
   </trkpt>
   <trkpt lat="-8.03301" lon="-34.896189">
    <ele>10.4</ele>
    <time>2019-08-15T23:16:42.000Z</time>
   </trkpt>
   <trkpt lat="-8.032971" lon="-34.89616">
    <ele>10.4</ele>
    <time>2019-08-15T23:16:43.000Z</time>
   </trkpt>
   <trkpt lat="-8.032937" lon="-34.896135">
    <ele>10.5</ele>
    <time>2019-08-15T23:16:44.000Z</time>
   </trkpt>
   <trkpt lat="-8.032911" lon="-34.896111">
    <ele>10.5</ele>
    <time>2019-08-15T23:16:45.000Z</time>
   </trkpt>
   <trkpt lat="-8.032885" lon="-34.896087">
    <ele>10.6</ele>
    <time>2019-08-15T23:16:46.000Z</time>
   </trkpt>
   <trkpt lat="-8.032854" lon="-34.896063">
    <ele>10.6</ele>
    <time>2019-08-15T23:16:47.000Z</time>
   </trkpt>
   <trkpt lat="-8.032842" lon="-34.896035">
    <ele>10.6</ele>
    <time>2019-08-15T23:16:48.000Z</time>
   </trkpt>
   <trkpt lat="-8.032828" lon="-34.896005">
    <ele>10.7</ele>
    <time>2019-08-15T23:16:49.000Z</time>
   </trkpt>
   <trkpt lat="-8.032805" lon="-34.89597">
    <ele>10.8</ele>
    <time>2019-08-15T23:16:50.000Z</time>
   </trkpt>
   <trkpt lat="-8.032788" lon="-34.895945">
    <ele>10.8</ele>
    <time>2019-08-15T23:16:51.000Z</time>
   </trkpt>
   <trkpt lat="-8.032809" lon="-34.895917">
    <ele>10.7</ele>
    <time>2019-08-15T23:16:52.000Z</time>
   </trkpt>
   <trkpt lat="-8.032837" lon="-34.895874">
    <ele>10.4</ele>
    <time>2019-08-15T23:16:53.000Z</time>
   </trkpt>
   <trkpt lat="-8.03287" lon="-34.895823">
    <ele>10.2</ele>
    <time>2019-08-15T23:16:54.000Z</time>
   </trkpt>
   <trkpt lat="-8.032865" lon="-34.89577">
    <ele>10.1</ele>
    <time>2019-08-15T23:16:55.000Z</time>
   </trkpt>
   <trkpt lat="-8.032887" lon="-34.895686">
    <ele>10</ele>
    <time>2019-08-15T23:16:56.000Z</time>
   </trkpt>
   <trkpt lat="-8.032911" lon="-34.895621">
    <ele>10</ele>
    <time>2019-08-15T23:16:57.000Z</time>
   </trkpt>
   <trkpt lat="-8.032945" lon="-34.895558">
    <ele>10</ele>
    <time>2019-08-15T23:16:58.000Z</time>
   </trkpt>
   <trkpt lat="-8.032979" lon="-34.895498">
    <ele>10</ele>
    <time>2019-08-15T23:16:59.000Z</time>
   </trkpt>
   <trkpt lat="-8.033008" lon="-34.895448">
    <ele>10</ele>
    <time>2019-08-15T23:17:00.000Z</time>
   </trkpt>
   <trkpt lat="-8.033032" lon="-34.8954">
    <ele>10</ele>
    <time>2019-08-15T23:17:01.000Z</time>
   </trkpt>
   <trkpt lat="-8.033051" lon="-34.895374">
    <ele>10</ele>
    <time>2019-08-15T23:17:02.000Z</time>
   </trkpt>
   <trkpt lat="-8.033067" lon="-34.895342">
    <ele>10</ele>
    <time>2019-08-15T23:17:03.000Z</time>
   </trkpt>
   <trkpt lat="-8.033083" lon="-34.895311">
    <ele>10</ele>
    <time>2019-08-15T23:17:04.000Z</time>
   </trkpt>
   <trkpt lat="-8.033119" lon="-34.895259">
    <ele>10</ele>
    <time>2019-08-15T23:17:06.000Z</time>
   </trkpt>
   <trkpt lat="-8.033159" lon="-34.895242">
    <ele>10</ele>
    <time>2019-08-15T23:17:07.000Z</time>
   </trkpt>
   <trkpt lat="-8.033215" lon="-34.895211">
    <ele>10.1</ele>
    <time>2019-08-15T23:17:08.000Z</time>
   </trkpt>
   <trkpt lat="-8.033261" lon="-34.895156">
    <ele>10.3</ele>
    <time>2019-08-15T23:17:09.000Z</time>
   </trkpt>
   <trkpt lat="-8.033299" lon="-34.895105">
    <ele>10.6</ele>
    <time>2019-08-15T23:17:10.000Z</time>
   </trkpt>
   <trkpt lat="-8.033329" lon="-34.895063">
    <ele>10.6</ele>
    <time>2019-08-15T23:17:11.000Z</time>
   </trkpt>
   <trkpt lat="-8.033365" lon="-34.895018">
    <ele>10.7</ele>
    <time>2019-08-15T23:17:12.000Z</time>
   </trkpt>
   <trkpt lat="-8.033406" lon="-34.894966">
    <ele>10.7</ele>
    <time>2019-08-15T23:17:13.000Z</time>
   </trkpt>
   <trkpt lat="-8.033451" lon="-34.894921">
    <ele>10.7</ele>
    <time>2019-08-15T23:17:14.000Z</time>
   </trkpt>
   <trkpt lat="-8.033494" lon="-34.894882">
    <ele>10.7</ele>
    <time>2019-08-15T23:17:15.000Z</time>
   </trkpt>
   <trkpt lat="-8.033534" lon="-34.894839">
    <ele>10.7</ele>
    <time>2019-08-15T23:17:16.000Z</time>
   </trkpt>
   <trkpt lat="-8.033568" lon="-34.894794">
    <ele>10.7</ele>
    <time>2019-08-15T23:17:17.000Z</time>
   </trkpt>
   <trkpt lat="-8.033631" lon="-34.894767">
    <ele>10.7</ele>
    <time>2019-08-15T23:17:18.000Z</time>
   </trkpt>
   <trkpt lat="-8.03368" lon="-34.894747">
    <ele>10.7</ele>
    <time>2019-08-15T23:17:19.000Z</time>
   </trkpt>
   <trkpt lat="-8.033706" lon="-34.894721">
    <ele>10.6</ele>
    <time>2019-08-15T23:17:20.000Z</time>
   </trkpt>
   <trkpt lat="-8.033751" lon="-34.89469">
    <ele>10.6</ele>
    <time>2019-08-15T23:17:21.000Z</time>
   </trkpt>
   <trkpt lat="-8.033795" lon="-34.894657">
    <ele>10.5</ele>
    <time>2019-08-15T23:17:22.000Z</time>
   </trkpt>
   <trkpt lat="-8.033831" lon="-34.894616">
    <ele>10.5</ele>
    <time>2019-08-15T23:17:23.000Z</time>
   </trkpt>
   <trkpt lat="-8.033866" lon="-34.894581">
    <ele>10.4</ele>
    <time>2019-08-15T23:17:24.000Z</time>
   </trkpt>
   <trkpt lat="-8.033901" lon="-34.89455">
    <ele>10.3</ele>
    <time>2019-08-15T23:17:25.000Z</time>
   </trkpt>
   <trkpt lat="-8.033933" lon="-34.894513">
    <ele>10.3</ele>
    <time>2019-08-15T23:17:26.000Z</time>
   </trkpt>
   <trkpt lat="-8.033969" lon="-34.894475">
    <ele>10.2</ele>
    <time>2019-08-15T23:17:27.000Z</time>
   </trkpt>
   <trkpt lat="-8.034002" lon="-34.894439">
    <ele>10.1</ele>
    <time>2019-08-15T23:17:28.000Z</time>
   </trkpt>
   <trkpt lat="-8.034042" lon="-34.894395">
    <ele>10</ele>
    <time>2019-08-15T23:17:29.000Z</time>
   </trkpt>
   <trkpt lat="-8.034085" lon="-34.894356">
    <ele>10</ele>
    <time>2019-08-15T23:17:30.000Z</time>
   </trkpt>
   <trkpt lat="-8.034124" lon="-34.894322">
    <ele>9.9</ele>
    <time>2019-08-15T23:17:31.000Z</time>
   </trkpt>
   <trkpt lat="-8.034158" lon="-34.894287">
    <ele>9.8</ele>
    <time>2019-08-15T23:17:32.000Z</time>
   </trkpt>
   <trkpt lat="-8.034194" lon="-34.89425">
    <ele>9.8</ele>
    <time>2019-08-15T23:17:33.000Z</time>
   </trkpt>
   <trkpt lat="-8.03423" lon="-34.894214">
    <ele>9.7</ele>
    <time>2019-08-15T23:17:34.000Z</time>
   </trkpt>
   <trkpt lat="-8.034266" lon="-34.894181">
    <ele>9.7</ele>
    <time>2019-08-15T23:17:35.000Z</time>
   </trkpt>
   <trkpt lat="-8.034307" lon="-34.894152">
    <ele>9.6</ele>
    <time>2019-08-15T23:17:36.000Z</time>
   </trkpt>
   <trkpt lat="-8.034354" lon="-34.894109">
    <ele>9.6</ele>
    <time>2019-08-15T23:17:37.000Z</time>
   </trkpt>
   <trkpt lat="-8.03439" lon="-34.894061">
    <ele>9.6</ele>
    <time>2019-08-15T23:17:38.000Z</time>
   </trkpt>
   <trkpt lat="-8.034431" lon="-34.894013">
    <ele>9.6</ele>
    <time>2019-08-15T23:17:39.000Z</time>
   </trkpt>
   <trkpt lat="-8.034471" lon="-34.893971">
    <ele>9.6</ele>
    <time>2019-08-15T23:17:40.000Z</time>
   </trkpt>
   <trkpt lat="-8.03452" lon="-34.893918">
    <ele>9.5</ele>
    <time>2019-08-15T23:17:41.000Z</time>
   </trkpt>
   <trkpt lat="-8.034567" lon="-34.893869">
    <ele>9.5</ele>
    <time>2019-08-15T23:17:42.000Z</time>
   </trkpt>
   <trkpt lat="-8.034605" lon="-34.893815">
    <ele>9.5</ele>
    <time>2019-08-15T23:17:43.000Z</time>
   </trkpt>
   <trkpt lat="-8.034641" lon="-34.893778">
    <ele>9.5</ele>
    <time>2019-08-15T23:17:44.000Z</time>
   </trkpt>
   <trkpt lat="-8.034686" lon="-34.89374">
    <ele>9.5</ele>
    <time>2019-08-15T23:17:45.000Z</time>
   </trkpt>
   <trkpt lat="-8.034728" lon="-34.893702">
    <ele>9.5</ele>
    <time>2019-08-15T23:17:46.000Z</time>
   </trkpt>
   <trkpt lat="-8.034771" lon="-34.893668">
    <ele>9.5</ele>
    <time>2019-08-15T23:17:47.000Z</time>
   </trkpt>
   <trkpt lat="-8.034811" lon="-34.89364">
    <ele>9.6</ele>
    <time>2019-08-15T23:17:48.000Z</time>
   </trkpt>
   <trkpt lat="-8.034854" lon="-34.893603">
    <ele>9.5</ele>
    <time>2019-08-15T23:17:49.000Z</time>
   </trkpt>
   <trkpt lat="-8.0349" lon="-34.89357">
    <ele>9.3</ele>
    <time>2019-08-15T23:17:50.000Z</time>
   </trkpt>
   <trkpt lat="-8.034936" lon="-34.893541">
    <ele>9.2</ele>
    <time>2019-08-15T23:17:51.000Z</time>
   </trkpt>
   <trkpt lat="-8.034972" lon="-34.893506">
    <ele>9.1</ele>
    <time>2019-08-15T23:17:52.000Z</time>
   </trkpt>
   <trkpt lat="-8.035008" lon="-34.893473">
    <ele>9</ele>
    <time>2019-08-15T23:17:53.000Z</time>
   </trkpt>
   <trkpt lat="-8.035047" lon="-34.893445">
    <ele>8.9</ele>
    <time>2019-08-15T23:17:54.000Z</time>
   </trkpt>
   <trkpt lat="-8.035084" lon="-34.893416">
    <ele>8.9</ele>
    <time>2019-08-15T23:17:55.000Z</time>
   </trkpt>
   <trkpt lat="-8.035115" lon="-34.89338">
    <ele>8.8</ele>
    <time>2019-08-15T23:17:56.000Z</time>
   </trkpt>
   <trkpt lat="-8.035146" lon="-34.893344">
    <ele>8.7</ele>
    <time>2019-08-15T23:17:57.000Z</time>
   </trkpt>
   <trkpt lat="-8.035182" lon="-34.893302">
    <ele>8.6</ele>
    <time>2019-08-15T23:17:58.000Z</time>
   </trkpt>
   <trkpt lat="-8.035215" lon="-34.893259">
    <ele>8.5</ele>
    <time>2019-08-15T23:17:59.000Z</time>
   </trkpt>
   <trkpt lat="-8.035257" lon="-34.893222">
    <ele>8.4</ele>
    <time>2019-08-15T23:18:00.000Z</time>
   </trkpt>
   <trkpt lat="-8.035284" lon="-34.893192">
    <ele>8.3</ele>
    <time>2019-08-15T23:18:01.000Z</time>
   </trkpt>
   <trkpt lat="-8.035318" lon="-34.89315">
    <ele>8.2</ele>
    <time>2019-08-15T23:18:03.000Z</time>
   </trkpt>
   <trkpt lat="-8.035351" lon="-34.893122">
    <ele>8.1</ele>
    <time>2019-08-15T23:18:05.000Z</time>
   </trkpt>
   <trkpt lat="-8.035374" lon="-34.893106">
    <ele>8</ele>
    <time>2019-08-15T23:18:06.000Z</time>
   </trkpt>
   <trkpt lat="-8.035407" lon="-34.893089">
    <ele>7.9</ele>
    <time>2019-08-15T23:18:07.000Z</time>
   </trkpt>
   <trkpt lat="-8.03545" lon="-34.893059">
    <ele>7.7</ele>
    <time>2019-08-15T23:18:08.000Z</time>
   </trkpt>
   <trkpt lat="-8.035492" lon="-34.893022">
    <ele>7.6</ele>
    <time>2019-08-15T23:18:09.000Z</time>
   </trkpt>
   <trkpt lat="-8.035517" lon="-34.892979">
    <ele>7.5</ele>
    <time>2019-08-15T23:18:10.000Z</time>
   </trkpt>
   <trkpt lat="-8.035554" lon="-34.892935">
    <ele>7.3</ele>
    <time>2019-08-15T23:18:11.000Z</time>
   </trkpt>
   <trkpt lat="-8.035591" lon="-34.892896">
    <ele>7.2</ele>
    <time>2019-08-15T23:18:12.000Z</time>
   </trkpt>
   <trkpt lat="-8.03563" lon="-34.892859">
    <ele>7.1</ele>
    <time>2019-08-15T23:18:13.000Z</time>
   </trkpt>
   <trkpt lat="-8.035669" lon="-34.892823">
    <ele>7</ele>
    <time>2019-08-15T23:18:14.000Z</time>
   </trkpt>
   <trkpt lat="-8.035707" lon="-34.89279">
    <ele>6.9</ele>
    <time>2019-08-15T23:18:15.000Z</time>
   </trkpt>
   <trkpt lat="-8.035739" lon="-34.892755">
    <ele>6.8</ele>
    <time>2019-08-15T23:18:16.000Z</time>
   </trkpt>
   <trkpt lat="-8.035769" lon="-34.892718">
    <ele>6.7</ele>
    <time>2019-08-15T23:18:17.000Z</time>
   </trkpt>
   <trkpt lat="-8.035803" lon="-34.892692">
    <ele>6.6</ele>
    <time>2019-08-15T23:18:18.000Z</time>
   </trkpt>
   <trkpt lat="-8.035833" lon="-34.892668">
    <ele>6.5</ele>
    <time>2019-08-15T23:18:19.000Z</time>
   </trkpt>
   <trkpt lat="-8.035861" lon="-34.892642">
    <ele>6.4</ele>
    <time>2019-08-15T23:18:20.000Z</time>
   </trkpt>
   <trkpt lat="-8.035884" lon="-34.892618">
    <ele>6.4</ele>
    <time>2019-08-15T23:18:21.000Z</time>
   </trkpt>
   <trkpt lat="-8.035906" lon="-34.892594">
    <ele>6.3</ele>
    <time>2019-08-15T23:18:22.000Z</time>
   </trkpt>
   <trkpt lat="-8.035958" lon="-34.892552">
    <ele>6.2</ele>
    <time>2019-08-15T23:18:24.000Z</time>
   </trkpt>
   <trkpt lat="-8.035983" lon="-34.892529">
    <ele>6.1</ele>
    <time>2019-08-15T23:18:25.000Z</time>
   </trkpt>
   <trkpt lat="-8.036012" lon="-34.892509">
    <ele>6</ele>
    <time>2019-08-15T23:18:26.000Z</time>
   </trkpt>
   <trkpt lat="-8.036046" lon="-34.892487">
    <ele>6</ele>
    <time>2019-08-15T23:18:27.000Z</time>
   </trkpt>
   <trkpt lat="-8.036094" lon="-34.892481">
    <ele>5.9</ele>
    <time>2019-08-15T23:18:28.000Z</time>
   </trkpt>
   <trkpt lat="-8.036166" lon="-34.892483">
    <ele>5.8</ele>
    <time>2019-08-15T23:18:29.000Z</time>
   </trkpt>
   <trkpt lat="-8.036218" lon="-34.892492">
    <ele>5.8</ele>
    <time>2019-08-15T23:18:30.000Z</time>
   </trkpt>
   <trkpt lat="-8.036258" lon="-34.892501">
    <ele>5.8</ele>
    <time>2019-08-15T23:18:31.000Z</time>
   </trkpt>
   <trkpt lat="-8.036297" lon="-34.892508">
    <ele>6</ele>
    <time>2019-08-15T23:18:32.000Z</time>
   </trkpt>
   <trkpt lat="-8.036335" lon="-34.892517">
    <ele>6.2</ele>
    <time>2019-08-15T23:18:33.000Z</time>
   </trkpt>
   <trkpt lat="-8.036372" lon="-34.89253">
    <ele>6.4</ele>
    <time>2019-08-15T23:18:34.000Z</time>
   </trkpt>
   <trkpt lat="-8.036411" lon="-34.892544">
    <ele>6.6</ele>
    <time>2019-08-15T23:18:35.000Z</time>
   </trkpt>
   <trkpt lat="-8.036438" lon="-34.892556">
    <ele>6.7</ele>
    <time>2019-08-15T23:18:36.000Z</time>
   </trkpt>
   <trkpt lat="-8.036464" lon="-34.892572">
    <ele>6.9</ele>
    <time>2019-08-15T23:18:37.000Z</time>
   </trkpt>
   <trkpt lat="-8.036489" lon="-34.892582">
    <ele>7</ele>
    <time>2019-08-15T23:18:38.000Z</time>
   </trkpt>
   <trkpt lat="-8.036516" lon="-34.892592">
    <ele>7.3</ele>
    <time>2019-08-15T23:18:39.000Z</time>
   </trkpt>
   <trkpt lat="-8.036542" lon="-34.892604">
    <ele>7.6</ele>
    <time>2019-08-15T23:18:40.000Z</time>
   </trkpt>
   <trkpt lat="-8.03657" lon="-34.892611">
    <ele>7.8</ele>
    <time>2019-08-15T23:18:41.000Z</time>
   </trkpt>
   <trkpt lat="-8.036601" lon="-34.892616">
    <ele>8</ele>
    <time>2019-08-15T23:18:42.000Z</time>
   </trkpt>
   <trkpt lat="-8.036634" lon="-34.892622">
    <ele>8.1</ele>
    <time>2019-08-15T23:18:43.000Z</time>
   </trkpt>
   <trkpt lat="-8.036667" lon="-34.892627">
    <ele>8.2</ele>
    <time>2019-08-15T23:18:44.000Z</time>
   </trkpt>
   <trkpt lat="-8.036694" lon="-34.892634">
    <ele>8.3</ele>
    <time>2019-08-15T23:18:45.000Z</time>
   </trkpt>
   <trkpt lat="-8.036721" lon="-34.892643">
    <ele>8.5</ele>
    <time>2019-08-15T23:18:46.000Z</time>
   </trkpt>
   <trkpt lat="-8.03679" lon="-34.892642">
    <ele>9</ele>
    <time>2019-08-15T23:18:47.000Z</time>
   </trkpt>
   <trkpt lat="-8.036821" lon="-34.892653">
    <ele>9.2</ele>
    <time>2019-08-15T23:18:48.000Z</time>
   </trkpt>
   <trkpt lat="-8.036836" lon="-34.892679">
    <ele>9.4</ele>
    <time>2019-08-15T23:18:49.000Z</time>
   </trkpt>
   <trkpt lat="-8.03685" lon="-34.892707">
    <ele>9.5</ele>
    <time>2019-08-15T23:18:51.000Z</time>
   </trkpt>
   <trkpt lat="-8.036874" lon="-34.892731">
    <ele>9.7</ele>
    <time>2019-08-15T23:18:53.000Z</time>
   </trkpt>
   <trkpt lat="-8.036852" lon="-34.892783">
    <ele>9.9</ele>
    <time>2019-08-15T23:18:59.000Z</time>
   </trkpt>
  </trkseg>
 </trk>
</gpx>
