<?xml version="1.0" encoding="UTF-8"?>
<gpx creator="StravaGPX" version="1.1" xmlns="http://www.topografix.com/GPX/1/1">
 <metadata>
  <time>2025-09-01T16:10:07Z</time>
 </metadata>
 <trk>
  <name>Evening Ride</name>
  <type>1</type>
  <trkseg>
   <trkpt lat="52.475808" lon="13.475486">
    <ele>37.2</ele>
    <time>2025-09-01T16:10:07.000Z</time>
   </trkpt>
   <trkpt lat="52.475792" lon="13.47545">
    <ele>37.4</ele>
    <time>2025-09-01T16:10:08.000Z</time>
   </trkpt>
   <trkpt lat="52.47577" lon="13.475405">
    <ele>37.4</ele>
    <time>2025-09-01T16:10:09.000Z</time>
   </trkpt>
   <trkpt lat="52.475697" lon="13.475253">
    <ele>37.6</ele>
    <time>2025-09-01T16:10:12.000Z</time>
   </trkpt>
   <trkpt lat="52.475593" lon="13.475073">
    <ele>37.4</ele>
    <time>2025-09-01T16:10:16.000Z</time>
   </trkpt>
   <trkpt lat="52.475572" lon="13.475018">
    <ele>37.4</ele>
    <time>2025-09-01T16:10:17.000Z</time>
   </trkpt>
   <trkpt lat="52.475527" lon="13.474911">
    <ele>37.4</ele>
    <time>2025-09-01T16:10:19.000Z</time>
   </trkpt>
   <trkpt lat="52.475367" lon="13.474606">
    <ele>37.4</ele>
    <time>2025-09-01T16:10:25.000Z</time>
   </trkpt>
   <trkpt lat="52.475204" lon="13.474313">
    <ele>37.2</ele>
    <time>2025-09-01T16:10:31.000Z</time>
   </trkpt>
   <trkpt lat="52.475087" lon="13.47411">
    <ele>37</ele>
    <time>2025-09-01T16:10:36.000Z</time>
   </trkpt>
   <trkpt lat="52.47505" lon="13.474029">
    <ele>37.2</ele>
    <time>2025-09-01T16:10:40.000Z</time>
   </trkpt>
   <trkpt lat="52.475042" lon="13.473988">
    <ele>37.2</ele>
    <time>2025-09-01T16:10:44.000Z</time>
   </trkpt>
   <trkpt lat="52.475052" lon="13.47396">
    <ele>37.2</ele>
    <time>2025-09-01T16:10:45.000Z</time>
   </trkpt>
   <trkpt lat="52.475086" lon="13.47374">
    <ele>37</ele>
    <time>2025-09-01T16:10:50.000Z</time>
   </trkpt>
   <trkpt lat="52.475199" lon="13.473575">
    <ele>37</ele>
    <time>2025-09-01T16:10:54.000Z</time>
   </trkpt>
   <trkpt lat="52.475397" lon="13.473285">
    <ele>37</ele>
    <time>2025-09-01T16:11:00.000Z</time>
   </trkpt>
   <trkpt lat="52.475502" lon="13.473122">
    <ele>37</ele>
    <time>2025-09-01T16:11:03.000Z</time>
   </trkpt>
   <trkpt lat="52.475765" lon="13.472742">
    <ele>36.8</ele>
    <time>2025-09-01T16:11:10.000Z</time>
   </trkpt>
   <trkpt lat="52.475888" lon="13.472577">
    <ele>36.4</ele>
    <time>2025-09-01T16:11:13.000Z</time>
   </trkpt>
   <trkpt lat="52.476062" lon="13.472332">
    <ele>37.6</ele>
    <time>2025-09-01T16:11:17.000Z</time>
   </trkpt>
   <trkpt lat="52.476145" lon="13.472215">
    <ele>37.2</ele>
    <time>2025-09-01T16:11:19.000Z</time>
   </trkpt>
   <trkpt lat="52.476229" lon="13.472091">
    <ele>36.6</ele>
    <time>2025-09-01T16:11:21.000Z</time>
   </trkpt>
   <trkpt lat="52.476501" lon="13.471714">
    <ele>36.4</ele>
    <time>2025-09-01T16:11:27.000Z</time>
   </trkpt>
   <trkpt lat="52.476544" lon="13.471651">
    <ele>36.4</ele>
    <time>2025-09-01T16:11:28.000Z</time>
   </trkpt>
   <trkpt lat="52.476756" lon="13.471361">
    <ele>37</ele>
    <time>2025-09-01T16:11:33.000Z</time>
   </trkpt>
   <trkpt lat="52.477055" lon="13.470925">
    <ele>37</ele>
    <time>2025-09-01T16:11:40.000Z</time>
   </trkpt>
   <trkpt lat="52.477098" lon="13.470864">
    <ele>37.2</ele>
    <time>2025-09-01T16:11:41.000Z</time>
   </trkpt>
   <trkpt lat="52.477351" lon="13.470517">
    <ele>37.4</ele>
    <time>2025-09-01T16:11:47.000Z</time>
   </trkpt>
   <trkpt lat="52.477436" lon="13.470397">
    <ele>37.4</ele>
    <time>2025-09-01T16:11:49.000Z</time>
   </trkpt>
   <trkpt lat="52.477473" lon="13.470332">
    <ele>37.6</ele>
    <time>2025-09-01T16:11:50.000Z</time>
   </trkpt>
   <trkpt lat="52.477555" lon="13.470207">
    <ele>37.6</ele>
    <time>2025-09-01T16:11:52.000Z</time>
   </trkpt>
   <trkpt lat="52.477768" lon="13.469921">
    <ele>37.8</ele>
    <time>2025-09-01T16:11:57.000Z</time>
   </trkpt>
   <trkpt lat="52.477813" lon="13.469865">
    <ele>37.8</ele>
    <time>2025-09-01T16:11:58.000Z</time>
   </trkpt>
   <trkpt lat="52.478061" lon="13.469506">
    <ele>38.4</ele>
    <time>2025-09-01T16:12:04.000Z</time>
   </trkpt>
   <trkpt lat="52.478152" lon="13.469389">
    <ele>38.8</ele>
    <time>2025-09-01T16:12:06.000Z</time>
   </trkpt>
   <trkpt lat="52.478241" lon="13.469276">
    <ele>38.8</ele>
    <time>2025-09-01T16:12:08.000Z</time>
   </trkpt>
   <trkpt lat="52.478285" lon="13.469216">
    <ele>38.4</ele>
    <time>2025-09-01T16:12:09.000Z</time>
   </trkpt>
   <trkpt lat="52.478479" lon="13.469007">
    <ele>38</ele>
    <time>2025-09-01T16:12:13.000Z</time>
   </trkpt>
   <trkpt lat="52.478526" lon="13.468949">
    <ele>38.2</ele>
    <time>2025-09-01T16:12:14.000Z</time>
   </trkpt>
   <trkpt lat="52.47857" lon="13.468898">
    <ele>38.4</ele>
    <time>2025-09-01T16:12:15.000Z</time>
   </trkpt>
   <trkpt lat="52.478612" lon="13.468831">
    <ele>38.6</ele>
    <time>2025-09-01T16:12:16.000Z</time>
   </trkpt>
   <trkpt lat="52.478654" lon="13.468777">
    <ele>38.6</ele>
    <time>2025-09-01T16:12:17.000Z</time>
   </trkpt>
   <trkpt lat="52.478779" lon="13.468593">
    <ele>38.2</ele>
    <time>2025-09-01T16:12:20.000Z</time>
   </trkpt>
   <trkpt lat="52.478961" lon="13.468363">
    <ele>38.2</ele>
    <time>2025-09-01T16:12:24.000Z</time>
   </trkpt>
   <trkpt lat="52.479007" lon="13.468302">
    <ele>38</ele>
    <time>2025-09-01T16:12:25.000Z</time>
   </trkpt>
   <trkpt lat="52.47927" lon="13.467927">
    <ele>38.6</ele>
    <time>2025-09-01T16:12:31.000Z</time>
   </trkpt>
   <trkpt lat="52.479471" lon="13.4676">
    <ele>38.2</ele>
    <time>2025-09-01T16:12:36.000Z</time>
   </trkpt>
   <trkpt lat="52.479592" lon="13.467404">
    <ele>37.6</ele>
    <time>2025-09-01T16:12:39.000Z</time>
   </trkpt>
   <trkpt lat="52.479767" lon="13.467141">
    <ele>37.2</ele>
    <time>2025-09-01T16:12:43.000Z</time>
   </trkpt>
   <trkpt lat="52.479911" lon="13.466935">
    <ele>37</ele>
    <time>2025-09-01T16:12:46.000Z</time>
   </trkpt>
   <trkpt lat="52.480103" lon="13.466657">
    <ele>36.8</ele>
    <time>2025-09-01T16:12:50.000Z</time>
   </trkpt>
   <trkpt lat="52.480464" lon="13.466146">
    <ele>37</ele>
    <time>2025-09-01T16:12:57.000Z</time>
   </trkpt>
   <trkpt lat="52.480864" lon="13.465578">
    <ele>37.4</ele>
    <time>2025-09-01T16:13:05.000Z</time>
   </trkpt>
   <trkpt lat="52.481195" lon="13.465091">
    <ele>38.6</ele>
    <time>2025-09-01T16:13:12.000Z</time>
   </trkpt>
   <trkpt lat="52.481245" lon="13.465024">
    <ele>38.8</ele>
    <time>2025-09-01T16:13:13.000Z</time>
   </trkpt>
   <trkpt lat="52.481491" lon="13.464677">
    <ele>39</ele>
    <time>2025-09-01T16:13:18.000Z</time>
   </trkpt>
   <trkpt lat="52.481638" lon="13.464487">
    <ele>39.2</ele>
    <time>2025-09-01T16:13:21.000Z</time>
   </trkpt>
   <trkpt lat="52.481897" lon="13.464108">
    <ele>38.8</ele>
    <time>2025-09-01T16:13:27.000Z</time>
   </trkpt>
   <trkpt lat="52.482061" lon="13.463872">
    <ele>38.8</ele>
    <time>2025-09-01T16:13:31.000Z</time>
   </trkpt>
   <trkpt lat="52.482152" lon="13.463749">
    <ele>38.8</ele>
    <time>2025-09-01T16:13:33.000Z</time>
   </trkpt>
   <trkpt lat="52.482437" lon="13.463339">
    <ele>38.2</ele>
    <time>2025-09-01T16:13:39.000Z</time>
   </trkpt>
   <trkpt lat="52.48258" lon="13.463124">
    <ele>38</ele>
    <time>2025-09-01T16:13:42.000Z</time>
   </trkpt>
   <trkpt lat="52.482633" lon="13.46305">
    <ele>38</ele>
    <time>2025-09-01T16:13:43.000Z</time>
   </trkpt>
   <trkpt lat="52.482685" lon="13.462981">
    <ele>38</ele>
    <time>2025-09-01T16:13:44.000Z</time>
   </trkpt>
   <trkpt lat="52.482839" lon="13.462762">
    <ele>38.2</ele>
    <time>2025-09-01T16:13:47.000Z</time>
   </trkpt>
   <trkpt lat="52.483209" lon="13.462252">
    <ele>37.8</ele>
    <time>2025-09-01T16:13:54.000Z</time>
   </trkpt>
   <trkpt lat="52.483362" lon="13.462035">
    <ele>37.8</ele>
    <time>2025-09-01T16:13:57.000Z</time>
   </trkpt>
   <trkpt lat="52.483564" lon="13.461737">
    <ele>37.8</ele>
    <time>2025-09-01T16:14:01.000Z</time>
   </trkpt>
   <trkpt lat="52.483864" lon="13.461331">
    <ele>38</ele>
    <time>2025-09-01T16:14:07.000Z</time>
   </trkpt>
   <trkpt lat="52.484009" lon="13.461113">
    <ele>38</ele>
    <time>2025-09-01T16:14:10.000Z</time>
   </trkpt>
   <trkpt lat="52.484165" lon="13.460896">
    <ele>38</ele>
    <time>2025-09-01T16:14:13.000Z</time>
   </trkpt>
   <trkpt lat="52.484271" lon="13.460753">
    <ele>38.2</ele>
    <time>2025-09-01T16:14:15.000Z</time>
   </trkpt>
   <trkpt lat="52.484375" lon="13.460606">
    <ele>38</ele>
    <time>2025-09-01T16:14:17.000Z</time>
   </trkpt>
   <trkpt lat="52.48448" lon="13.460459">
    <ele>38.2</ele>
    <time>2025-09-01T16:14:19.000Z</time>
   </trkpt>
   <trkpt lat="52.484586" lon="13.460315">
    <ele>38.2</ele>
    <time>2025-09-01T16:14:21.000Z</time>
   </trkpt>
   <trkpt lat="52.484685" lon="13.46017">
    <ele>38.4</ele>
    <time>2025-09-01T16:14:23.000Z</time>
   </trkpt>
   <trkpt lat="52.484785" lon="13.460021">
    <ele>38.4</ele>
    <time>2025-09-01T16:14:25.000Z</time>
   </trkpt>
   <trkpt lat="52.484835" lon="13.459942">
    <ele>38.4</ele>
    <time>2025-09-01T16:14:26.000Z</time>
   </trkpt>
   <trkpt lat="52.485191" lon="13.459364">
    <ele>37.8</ele>
    <time>2025-09-01T16:14:33.000Z</time>
   </trkpt>
   <trkpt lat="52.485574" lon="13.458813">
    <ele>38</ele>
    <time>2025-09-01T16:14:40.000Z</time>
   </trkpt>
   <trkpt lat="52.485627" lon="13.458738">
    <ele>38</ele>
    <time>2025-09-01T16:14:41.000Z</time>
   </trkpt>
   <trkpt lat="52.4859" lon="13.45839">
    <ele>38.2</ele>
    <time>2025-09-01T16:14:46.000Z</time>
   </trkpt>
   <trkpt lat="52.486267" lon="13.457888">
    <ele>38.4</ele>
    <time>2025-09-01T16:14:53.000Z</time>
   </trkpt>
   <trkpt lat="52.486548" lon="13.45748">
    <ele>38.6</ele>
    <time>2025-09-01T16:14:59.000Z</time>
   </trkpt>
   <trkpt lat="52.486868" lon="13.457032">
    <ele>38.6</ele>
    <time>2025-09-01T16:15:06.000Z</time>
   </trkpt>
   <trkpt lat="52.487139" lon="13.456652">
    <ele>38.6</ele>
    <time>2025-09-01T16:15:12.000Z</time>
   </trkpt>
   <trkpt lat="52.48746" lon="13.456176">
    <ele>38.6</ele>
    <time>2025-09-01T16:15:19.000Z</time>
   </trkpt>
   <trkpt lat="52.487592" lon="13.45599">
    <ele>38.8</ele>
    <time>2025-09-01T16:15:22.000Z</time>
   </trkpt>
   <trkpt lat="52.487803" lon="13.455692">
    <ele>38.8</ele>
    <time>2025-09-01T16:15:27.000Z</time>
   </trkpt>
   <trkpt lat="52.488152" lon="13.455208">
    <ele>39</ele>
    <time>2025-09-01T16:15:35.000Z</time>
   </trkpt>
   <trkpt lat="52.488424" lon="13.454806">
    <ele>39.4</ele>
    <time>2025-09-01T16:15:42.000Z</time>
   </trkpt>
   <trkpt lat="52.488688" lon="13.454416">
    <ele>39.6</ele>
    <time>2025-09-01T16:15:49.000Z</time>
   </trkpt>
   <trkpt lat="52.488722" lon="13.454353">
    <ele>39.6</ele>
    <time>2025-09-01T16:15:50.000Z</time>
   </trkpt>
   <trkpt lat="52.488814" lon="13.454217">
    <ele>39.8</ele>
    <time>2025-09-01T16:15:53.000Z</time>
   </trkpt>
   <trkpt lat="52.488864" lon="13.454129">
    <ele>40.4</ele>
    <time>2025-09-01T16:15:56.000Z</time>
   </trkpt>
   <trkpt lat="52.488893" lon="13.454098">
    <ele>40.4</ele>
    <time>2025-09-01T16:15:58.000Z</time>
   </trkpt>
   <trkpt lat="52.489015" lon="13.45396">
    <ele>40.4</ele>
    <time>2025-09-01T16:16:03.000Z</time>
   </trkpt>
   <trkpt lat="52.48921" lon="13.453678">
    <ele>40.2</ele>
    <time>2025-09-01T16:16:09.000Z</time>
   </trkpt>
   <trkpt lat="52.489361" lon="13.453414">
    <ele>40.2</ele>
    <time>2025-09-01T16:16:14.000Z</time>
   </trkpt>
   <trkpt lat="52.48965" lon="13.45297">
    <ele>40.2</ele>
    <time>2025-09-01T16:16:22.000Z</time>
   </trkpt>
   <trkpt lat="52.489927" lon="13.452573">
    <ele>40</ele>
    <time>2025-09-01T16:16:29.000Z</time>
   </trkpt>
   <trkpt lat="52.490259" lon="13.452099">
    <ele>40.2</ele>
    <time>2025-09-01T16:16:36.000Z</time>
   </trkpt>
   <trkpt lat="52.490461" lon="13.451819">
    <ele>39</ele>
    <time>2025-09-01T16:16:40.000Z</time>
   </trkpt>
   <trkpt lat="52.490615" lon="13.451612">
    <ele>38.2</ele>
    <time>2025-09-01T16:16:43.000Z</time>
   </trkpt>
   <trkpt lat="52.490944" lon="13.451108">
    <ele>38.4</ele>
    <time>2025-09-01T16:16:50.000Z</time>
   </trkpt>
   <trkpt lat="52.490996" lon="13.451036">
    <ele>38.6</ele>
    <time>2025-09-01T16:16:51.000Z</time>
   </trkpt>
   <trkpt lat="52.491039" lon="13.450973">
    <ele>38.8</ele>
    <time>2025-09-01T16:16:52.000Z</time>
   </trkpt>
   <trkpt lat="52.49108" lon="13.450915">
    <ele>38.8</ele>
    <time>2025-09-01T16:16:53.000Z</time>
   </trkpt>
   <trkpt lat="52.491238" lon="13.450685">
    <ele>39.4</ele>
    <time>2025-09-01T16:16:57.000Z</time>
   </trkpt>
   <trkpt lat="52.491368" lon="13.450515">
    <ele>39.6</ele>
    <time>2025-09-01T16:17:00.000Z</time>
   </trkpt>
   <trkpt lat="52.491452" lon="13.450475">
    <ele>39.8</ele>
    <time>2025-09-01T16:17:02.000Z</time>
   </trkpt>
   <trkpt lat="52.491493" lon="13.450512">
    <ele>40</ele>
    <time>2025-09-01T16:17:03.000Z</time>
   </trkpt>
   <trkpt lat="52.491566" lon="13.450613">
    <ele>39.8</ele>
    <time>2025-09-01T16:17:05.000Z</time>
   </trkpt>
   <trkpt lat="52.491787" lon="13.450971">
    <ele>39.6</ele>
    <time>2025-09-01T16:17:11.000Z</time>
   </trkpt>
   <trkpt lat="52.491976" lon="13.451283">
    <ele>39.6</ele>
    <time>2025-09-01T16:17:16.000Z</time>
   </trkpt>
   <trkpt lat="52.49225" lon="13.451654">
    <ele>39.6</ele>
    <time>2025-09-01T16:17:22.000Z</time>
   </trkpt>
   <trkpt lat="52.4924" lon="13.451893">
    <ele>39.6</ele>
    <time>2025-09-01T16:17:26.000Z</time>
   </trkpt>
   <trkpt lat="52.492553" lon="13.452147">
    <ele>39.4</ele>
    <time>2025-09-01T16:17:30.000Z</time>
   </trkpt>
   <trkpt lat="52.492632" lon="13.452271">
    <ele>39.8</ele>
    <time>2025-09-01T16:17:32.000Z</time>
   </trkpt>
   <trkpt lat="52.492826" lon="13.452601">
    <ele>39.8</ele>
    <time>2025-09-01T16:17:37.000Z</time>
   </trkpt>
   <trkpt lat="52.492869" lon="13.452677">
    <ele>39.8</ele>
    <time>2025-09-01T16:17:38.000Z</time>
   </trkpt>
   <trkpt lat="52.493007" lon="13.452889">
    <ele>40</ele>
    <time>2025-09-01T16:17:41.000Z</time>
   </trkpt>
   <trkpt lat="52.493047" lon="13.452972">
    <ele>40.2</ele>
    <time>2025-09-01T16:17:42.000Z</time>
   </trkpt>
   <trkpt lat="52.493084" lon="13.453044">
    <ele>41</ele>
    <time>2025-09-01T16:17:45.000Z</time>
   </trkpt>
   <trkpt lat="52.493091" lon="13.453048">
    <ele>41.2</ele>
    <time>2025-09-01T16:17:46.000Z</time>
   </trkpt>
   <trkpt lat="52.493118" lon="13.453059">
    <ele>40.6</ele>
    <time>2025-09-01T16:17:53.000Z</time>
   </trkpt>
   <trkpt lat="52.49314" lon="13.453074">
    <ele>40.8</ele>
    <time>2025-09-01T16:17:57.000Z</time>
   </trkpt>
   <trkpt lat="52.49322" lon="13.453165">
    <ele>40.8</ele>
    <time>2025-09-01T16:18:02.000Z</time>
   </trkpt>
   <trkpt lat="52.493323" lon="13.453338">
    <ele>40.8</ele>
    <time>2025-09-01T16:18:06.000Z</time>
   </trkpt>
   <trkpt lat="52.493355" lon="13.453382">
    <ele>40.6</ele>
    <time>2025-09-01T16:18:07.000Z</time>
   </trkpt>
   <trkpt lat="52.493451" lon="13.45352">
    <ele>40.6</ele>
    <time>2025-09-01T16:18:10.000Z</time>
   </trkpt>
   <trkpt lat="52.493555" lon="13.453676">
    <ele>40.8</ele>
    <time>2025-09-01T16:18:13.000Z</time>
   </trkpt>
   <trkpt lat="52.493737" lon="13.453921">
    <ele>41.2</ele>
    <time>2025-09-01T16:18:19.000Z</time>
   </trkpt>
   <trkpt lat="52.493744" lon="13.45395">
    <ele>41.4</ele>
    <time>2025-09-01T16:18:20.000Z</time>
   </trkpt>
   <trkpt lat="52.493752" lon="13.454002">
    <ele>41.6</ele>
    <time>2025-09-01T16:18:22.000Z</time>
   </trkpt>
   <trkpt lat="52.493765" lon="13.454024">
    <ele>41.6</ele>
    <time>2025-09-01T16:18:23.000Z</time>
   </trkpt>
   <trkpt lat="52.49382" lon="13.454127">
    <ele>41.6</ele>
    <time>2025-09-01T16:18:27.000Z</time>
   </trkpt>
   <trkpt lat="52.493831" lon="13.454147">
    <ele>41.6</ele>
    <time>2025-09-01T16:18:31.000Z</time>
   </trkpt>
   <trkpt lat="52.493877" lon="13.454151">
    <ele>41.4</ele>
    <time>2025-09-01T16:18:37.000Z</time>
   </trkpt>
   <trkpt lat="52.493885" lon="13.45416">
    <ele>41</ele>
    <time>2025-09-01T16:18:43.000Z</time>
   </trkpt>
   <trkpt lat="52.493866" lon="13.454159">
    <ele>41.4</ele>
    <time>2025-09-01T16:18:46.000Z</time>
   </trkpt>
   <trkpt lat="52.493845" lon="13.454175">
    <ele>41.4</ele>
    <time>2025-09-01T16:18:49.000Z</time>
   </trkpt>
   <trkpt lat="52.493839" lon="13.45417">
    <ele>41.4</ele>
    <time>2025-09-01T16:18:50.000Z</time>
   </trkpt>
   <trkpt lat="52.493829" lon="13.45415">
    <ele>41.4</ele>
    <time>2025-09-01T16:18:54.000Z</time>
   </trkpt>
   <trkpt lat="52.493831" lon="13.454139">
    <ele>41.4</ele>
    <time>2025-09-01T16:18:58.000Z</time>
   </trkpt>
   <trkpt lat="52.493845" lon="13.454156">
    <ele>41.4</ele>
    <time>2025-09-01T16:19:05.000Z</time>
   </trkpt>
   <trkpt lat="52.493899" lon="13.454265">
    <ele>41.4</ele>
    <time>2025-09-01T16:19:10.000Z</time>
   </trkpt>
   <trkpt lat="52.494035" lon="13.454448">
    <ele>41.8</ele>
    <time>2025-09-01T16:19:15.000Z</time>
   </trkpt>
   <trkpt lat="52.494096" lon="13.454545">
    <ele>42.2</ele>
    <time>2025-09-01T16:19:17.000Z</time>
   </trkpt>
   <trkpt lat="52.494187" lon="13.454693">
    <ele>42.8</ele>
    <time>2025-09-01T16:19:20.000Z</time>
   </trkpt>
   <trkpt lat="52.494317" lon="13.454822">
    <ele>42.4</ele>
    <time>2025-09-01T16:19:24.000Z</time>
   </trkpt>
   <trkpt lat="52.494361" lon="13.4547">
    <ele>41.8</ele>
    <time>2025-09-01T16:19:27.000Z</time>
   </trkpt>
   <trkpt lat="52.494449" lon="13.454333">
    <ele>42.2</ele>
    <time>2025-09-01T16:19:33.000Z</time>
   </trkpt>
   <trkpt lat="52.494472" lon="13.454263">
    <ele>42.2</ele>
    <time>2025-09-01T16:19:34.000Z</time>
   </trkpt>
   <trkpt lat="52.494572" lon="13.453982">
    <ele>42.2</ele>
    <time>2025-09-01T16:19:38.000Z</time>
   </trkpt>
   <trkpt lat="52.494636" lon="13.453749">
    <ele>41.8</ele>
    <time>2025-09-01T16:19:41.000Z</time>
   </trkpt>
   <trkpt lat="52.494681" lon="13.453606">
    <ele>42</ele>
    <time>2025-09-01T16:19:43.000Z</time>
   </trkpt>
   <trkpt lat="52.494746" lon="13.453372">
    <ele>42.2</ele>
    <time>2025-09-01T16:19:47.000Z</time>
   </trkpt>
   <trkpt lat="52.494773" lon="13.453273">
    <ele>42.4</ele>
    <time>2025-09-01T16:19:49.000Z</time>
   </trkpt>
   <trkpt lat="52.494842" lon="13.453128">
    <ele>42.2</ele>
    <time>2025-09-01T16:19:52.000Z</time>
   </trkpt>
   <trkpt lat="52.494867" lon="13.453085">
    <ele>42.2</ele>
    <time>2025-09-01T16:19:53.000Z</time>
   </trkpt>
   <trkpt lat="52.495036" lon="13.452765">
    <ele>42</ele>
    <time>2025-09-01T16:19:59.000Z</time>
   </trkpt>
   <trkpt lat="52.49516" lon="13.452556">
    <ele>42</ele>
    <time>2025-09-01T16:20:03.000Z</time>
   </trkpt>
   <trkpt lat="52.495225" lon="13.452435">
    <ele>42.4</ele>
    <time>2025-09-01T16:20:05.000Z</time>
   </trkpt>
   <trkpt lat="52.495381" lon="13.452175">
    <ele>42.2</ele>
    <time>2025-09-01T16:20:09.000Z</time>
   </trkpt>
   <trkpt lat="52.495468" lon="13.452051">
    <ele>42</ele>
    <time>2025-09-01T16:20:11.000Z</time>
   </trkpt>
   <trkpt lat="52.495629" lon="13.451782">
    <ele>41.6</ele>
    <time>2025-09-01T16:20:15.000Z</time>
   </trkpt>
   <trkpt lat="52.495744" lon="13.451578">
    <ele>41.6</ele>
    <time>2025-09-01T16:20:18.000Z</time>
   </trkpt>
   <trkpt lat="52.496021" lon="13.451146">
    <ele>42</ele>
    <time>2025-09-01T16:20:25.000Z</time>
   </trkpt>
   <trkpt lat="52.496298" lon="13.450692">
    <ele>42.4</ele>
    <time>2025-09-01T16:20:32.000Z</time>
   </trkpt>
   <trkpt lat="52.496418" lon="13.450493">
    <ele>42.6</ele>
    <time>2025-09-01T16:20:35.000Z</time>
   </trkpt>
   <trkpt lat="52.496573" lon="13.450235">
    <ele>42.8</ele>
    <time>2025-09-01T16:20:39.000Z</time>
   </trkpt>
   <trkpt lat="52.496638" lon="13.450123">
    <ele>43.2</ele>
    <time>2025-09-01T16:20:41.000Z</time>
   </trkpt>
   <trkpt lat="52.496671" lon="13.450065">
    <ele>43.4</ele>
    <time>2025-09-01T16:20:42.000Z</time>
   </trkpt>
   <trkpt lat="52.496925" lon="13.449628">
    <ele>42.8</ele>
    <time>2025-09-01T16:20:49.000Z</time>
   </trkpt>
   <trkpt lat="52.497256" lon="13.44905">
    <ele>43.2</ele>
    <time>2025-09-01T16:20:58.000Z</time>
   </trkpt>
   <trkpt lat="52.497514" lon="13.448594">
    <ele>44.2</ele>
    <time>2025-09-01T16:21:06.000Z</time>
   </trkpt>
   <trkpt lat="52.49775" lon="13.448152">
    <ele>43</ele>
    <time>2025-09-01T16:21:13.000Z</time>
   </trkpt>
   <trkpt lat="52.498044" lon="13.447663">
    <ele>43.6</ele>
    <time>2025-09-01T16:21:20.000Z</time>
   </trkpt>
   <trkpt lat="52.498181" lon="13.447398">
    <ele>43.2</ele>
    <time>2025-09-01T16:21:24.000Z</time>
   </trkpt>
   <trkpt lat="52.498247" lon="13.447273">
    <ele>42.8</ele>
    <time>2025-09-01T16:21:26.000Z</time>
   </trkpt>
   <trkpt lat="52.498317" lon="13.447162">
    <ele>42</ele>
    <time>2025-09-01T16:21:28.000Z</time>
   </trkpt>
   <trkpt lat="52.498456" lon="13.446939">
    <ele>41.8</ele>
    <time>2025-09-01T16:21:32.000Z</time>
   </trkpt>
   <trkpt lat="52.498631" lon="13.446644">
    <ele>41.8</ele>
    <time>2025-09-01T16:21:37.000Z</time>
   </trkpt>
   <trkpt lat="52.498703" lon="13.446528">
    <ele>41.8</ele>
    <time>2025-09-01T16:21:39.000Z</time>
   </trkpt>
   <trkpt lat="52.498943" lon="13.446102">
    <ele>41.6</ele>
    <time>2025-09-01T16:21:46.000Z</time>
   </trkpt>
   <trkpt lat="52.49912" lon="13.445785">
    <ele>42.2</ele>
    <time>2025-09-01T16:21:51.000Z</time>
   </trkpt>
   <trkpt lat="52.499182" lon="13.445658">
    <ele>42.2</ele>
    <time>2025-09-01T16:21:53.000Z</time>
   </trkpt>
   <trkpt lat="52.499253" lon="13.445574">
    <ele>42.2</ele>
    <time>2025-09-01T16:21:55.000Z</time>
   </trkpt>
   <trkpt lat="52.499288" lon="13.445528">
    <ele>42.2</ele>
    <time>2025-09-01T16:21:56.000Z</time>
   </trkpt>
   <trkpt lat="52.49944" lon="13.445245">
    <ele>42</ele>
    <time>2025-09-01T16:22:01.000Z</time>
   </trkpt>
   <trkpt lat="52.499502" lon="13.445121">
    <ele>41.8</ele>
    <time>2025-09-01T16:22:03.000Z</time>
   </trkpt>
   <trkpt lat="52.499768" lon="13.444604">
    <ele>41.4</ele>
    <time>2025-09-01T16:22:12.000Z</time>
   </trkpt>
   <trkpt lat="52.499868" lon="13.444435">
    <ele>41.2</ele>
    <time>2025-09-01T16:22:16.000Z</time>
   </trkpt>
   <trkpt lat="52.49994" lon="13.444292">
    <ele>41.6</ele>
    <time>2025-09-01T16:22:21.000Z</time>
   </trkpt>
   <trkpt lat="52.499982" lon="13.444184">
    <ele>41.4</ele>
    <time>2025-09-01T16:22:25.000Z</time>
   </trkpt>
   <trkpt lat="52.500003" lon="13.444142">
    <ele>41.2</ele>
    <time>2025-09-01T16:22:26.000Z</time>
   </trkpt>
   <trkpt lat="52.500091" lon="13.444003">
    <ele>41</ele>
    <time>2025-09-01T16:22:29.000Z</time>
   </trkpt>
   <trkpt lat="52.500151" lon="13.443888">
    <ele>40.8</ele>
    <time>2025-09-01T16:22:31.000Z</time>
   </trkpt>
   <trkpt lat="52.50041" lon="13.443355">
    <ele>40.4</ele>
    <time>2025-09-01T16:22:39.000Z</time>
   </trkpt>
   <trkpt lat="52.500721" lon="13.442756">
    <ele>40.4</ele>
    <time>2025-09-01T16:22:48.000Z</time>
   </trkpt>
   <trkpt lat="52.500852" lon="13.442498">
    <ele>41</ele>
    <time>2025-09-01T16:22:53.000Z</time>
   </trkpt>
   <trkpt lat="52.500904" lon="13.442395">
    <ele>41</ele>
    <time>2025-09-01T16:22:58.000Z</time>
   </trkpt>
   <trkpt lat="52.5009" lon="13.442399">
    <ele>40</ele>
    <time>2025-09-01T16:23:05.000Z</time>
   </trkpt>
   <trkpt lat="52.5009" lon="13.442399">
    <ele>40.2</ele>
    <time>2025-09-01T16:23:11.000Z</time>
   </trkpt>
   <trkpt lat="52.5009" lon="13.442399">
    <ele>40</ele>
    <time>2025-09-01T16:23:12.000Z</time>
   </trkpt>
   <trkpt lat="52.5009" lon="13.442399">
    <ele>39.4</ele>
    <time>2025-09-01T16:23:23.000Z</time>
   </trkpt>
   <trkpt lat="52.5009" lon="13.442399">
    <ele>39.4</ele>
    <time>2025-09-01T16:23:24.000Z</time>
   </trkpt>
   <trkpt lat="52.500931" lon="13.442327">
    <ele>39.4</ele>
    <time>2025-09-01T16:23:29.000Z</time>
   </trkpt>
   <trkpt lat="52.500975" lon="13.442258">
    <ele>39.4</ele>
    <time>2025-09-01T16:23:35.000Z</time>
   </trkpt>
   <trkpt lat="52.501051" lon="13.442158">
    <ele>39.2</ele>
    <time>2025-09-01T16:23:39.000Z</time>
   </trkpt>
   <trkpt lat="52.50111" lon="13.442063">
    <ele>39.2</ele>
    <time>2025-09-01T16:23:41.000Z</time>
   </trkpt>
   <trkpt lat="52.501202" lon="13.441941">
    <ele>39.2</ele>
    <time>2025-09-01T16:23:44.000Z</time>
   </trkpt>
   <trkpt lat="52.501238" lon="13.441936">
    <ele>39.4</ele>
    <time>2025-09-01T16:23:45.000Z</time>
   </trkpt>
   <trkpt lat="52.501274" lon="13.441902">
    <ele>39.6</ele>
    <time>2025-09-01T16:23:47.000Z</time>
   </trkpt>
   <trkpt lat="52.501272" lon="13.441871">
    <ele>39.6</ele>
    <time>2025-09-01T16:23:51.000Z</time>
   </trkpt>
   <trkpt lat="52.501272" lon="13.441871">
    <ele>39.2</ele>
    <time>2025-09-01T16:23:59.000Z</time>
   </trkpt>
   <trkpt lat="52.501272" lon="13.441871">
    <ele>39</ele>
    <time>2025-09-01T16:24:07.000Z</time>
   </trkpt>
   <trkpt lat="52.501272" lon="13.441871">
    <ele>38.8</ele>
    <time>2025-09-01T16:24:11.000Z</time>
   </trkpt>
   <trkpt lat="52.501272" lon="13.441871">
    <ele>38.6</ele>
    <time>2025-09-01T16:24:16.000Z</time>
   </trkpt>
   <trkpt lat="52.501272" lon="13.441871">
    <ele>38.6</ele>
    <time>2025-09-01T16:24:19.000Z</time>
   </trkpt>
   <trkpt lat="52.501271" lon="13.441836">
    <ele>38.2</ele>
    <time>2025-09-01T16:24:24.000Z</time>
   </trkpt>
   <trkpt lat="52.501272" lon="13.441769">
    <ele>38.2</ele>
    <time>2025-09-01T16:24:26.000Z</time>
   </trkpt>
   <trkpt lat="52.501247" lon="13.44163">
    <ele>38.2</ele>
    <time>2025-09-01T16:24:29.000Z</time>
   </trkpt>
   <trkpt lat="52.501213" lon="13.441519">
    <ele>38.2</ele>
    <time>2025-09-01T16:24:31.000Z</time>
   </trkpt>
   <trkpt lat="52.501186" lon="13.44147">
    <ele>38.2</ele>
    <time>2025-09-01T16:24:32.000Z</time>
   </trkpt>
   <trkpt lat="52.501087" lon="13.44133">
    <ele>38.2</ele>
    <time>2025-09-01T16:24:35.000Z</time>
   </trkpt>
   <trkpt lat="52.500903" lon="13.441077">
    <ele>38.6</ele>
    <time>2025-09-01T16:24:40.000Z</time>
   </trkpt>
   <trkpt lat="52.500883" lon="13.440925">
    <ele>38.4</ele>
    <time>2025-09-01T16:24:42.000Z</time>
   </trkpt>
   <trkpt lat="52.500806" lon="13.44044">
    <ele>39.2</ele>
    <time>2025-09-01T16:24:48.000Z</time>
   </trkpt>
   <trkpt lat="52.500747" lon="13.439916">
    <ele>39</ele>
    <time>2025-09-01T16:24:54.000Z</time>
   </trkpt>
   <trkpt lat="52.500679" lon="13.43938">
    <ele>39</ele>
    <time>2025-09-01T16:25:01.000Z</time>
   </trkpt>
   <trkpt lat="52.500645" lon="13.439136">
    <ele>39.4</ele>
    <time>2025-09-01T16:25:04.000Z</time>
   </trkpt>
   <trkpt lat="52.500619" lon="13.438962">
    <ele>39.4</ele>
    <time>2025-09-01T16:25:06.000Z</time>
   </trkpt>
   <trkpt lat="52.500598" lon="13.438799">
    <ele>39.4</ele>
    <time>2025-09-01T16:25:08.000Z</time>
   </trkpt>
   <trkpt lat="52.50054" lon="13.43845">
    <ele>39.6</ele>
    <time>2025-09-01T16:25:13.000Z</time>
   </trkpt>
   <trkpt lat="52.50053" lon="13.438392">
    <ele>39.6</ele>
    <time>2025-09-01T16:25:14.000Z</time>
   </trkpt>
   <trkpt lat="52.500445" lon="13.438103">
    <ele>39.8</ele>
    <time>2025-09-01T16:25:20.000Z</time>
   </trkpt>
   <trkpt lat="52.500404" lon="13.437984">
    <ele>39.6</ele>
    <time>2025-09-01T16:25:22.000Z</time>
   </trkpt>
   <trkpt lat="52.500384" lon="13.437831">
    <ele>39.6</ele>
    <time>2025-09-01T16:25:24.000Z</time>
   </trkpt>
   <trkpt lat="52.500356" lon="13.437658">
    <ele>39.4</ele>
    <time>2025-09-01T16:25:26.000Z</time>
   </trkpt>
   <trkpt lat="52.500324" lon="13.437481">
    <ele>39.2</ele>
    <time>2025-09-01T16:25:28.000Z</time>
   </trkpt>
   <trkpt lat="52.500322" lon="13.437386">
    <ele>39.2</ele>
    <time>2025-09-01T16:25:29.000Z</time>
   </trkpt>
   <trkpt lat="52.500334" lon="13.437292">
    <ele>39.2</ele>
    <time>2025-09-01T16:25:30.000Z</time>
   </trkpt>
   <trkpt lat="52.500331" lon="13.437111">
    <ele>39.4</ele>
    <time>2025-09-01T16:25:32.000Z</time>
   </trkpt>
   <trkpt lat="52.500323" lon="13.437021">
    <ele>39.4</ele>
    <time>2025-09-01T16:25:33.000Z</time>
   </trkpt>
   <trkpt lat="52.500265" lon="13.436601">
    <ele>39.6</ele>
    <time>2025-09-01T16:25:38.000Z</time>
   </trkpt>
   <trkpt lat="52.500249" lon="13.436421">
    <ele>39.6</ele>
    <time>2025-09-01T16:25:40.000Z</time>
   </trkpt>
   <trkpt lat="52.500206" lon="13.43614">
    <ele>39.6</ele>
    <time>2025-09-01T16:25:43.000Z</time>
   </trkpt>
   <trkpt lat="52.50013" lon="13.43563">
    <ele>39.6</ele>
    <time>2025-09-01T16:25:49.000Z</time>
   </trkpt>
   <trkpt lat="52.500086" lon="13.435239">
    <ele>40</ele>
    <time>2025-09-01T16:25:54.000Z</time>
   </trkpt>
   <trkpt lat="52.500052" lon="13.435061">
    <ele>40.2</ele>
    <time>2025-09-01T16:25:56.000Z</time>
   </trkpt>
   <trkpt lat="52.499999" lon="13.43471">
    <ele>39.8</ele>
    <time>2025-09-01T16:26:00.000Z</time>
   </trkpt>
   <trkpt lat="52.499986" lon="13.434623">
    <ele>40</ele>
    <time>2025-09-01T16:26:01.000Z</time>
   </trkpt>
   <trkpt lat="52.499915" lon="13.434205">
    <ele>40</ele>
    <time>2025-09-01T16:26:06.000Z</time>
   </trkpt>
   <trkpt lat="52.499846" lon="13.433743">
    <ele>40.2</ele>
    <time>2025-09-01T16:26:12.000Z</time>
   </trkpt>
   <trkpt lat="52.499814" lon="13.433675">
    <ele>40.2</ele>
    <time>2025-09-01T16:26:13.000Z</time>
   </trkpt>
   <trkpt lat="52.499765" lon="13.433525">
    <ele>40.2</ele>
    <time>2025-09-01T16:26:15.000Z</time>
   </trkpt>
   <trkpt lat="52.499753" lon="13.433442">
    <ele>40.4</ele>
    <time>2025-09-01T16:26:16.000Z</time>
   </trkpt>
   <trkpt lat="52.499711" lon="13.433193">
    <ele>40.2</ele>
    <time>2025-09-01T16:26:19.000Z</time>
   </trkpt>
   <trkpt lat="52.49969" lon="13.433016">
    <ele>40.2</ele>
    <time>2025-09-01T16:26:21.000Z</time>
   </trkpt>
   <trkpt lat="52.499696" lon="13.432924">
    <ele>40</ele>
    <time>2025-09-01T16:26:22.000Z</time>
   </trkpt>
   <trkpt lat="52.499694" lon="13.43275">
    <ele>40.2</ele>
    <time>2025-09-01T16:26:24.000Z</time>
   </trkpt>
   <trkpt lat="52.499685" lon="13.432672">
    <ele>40.4</ele>
    <time>2025-09-01T16:26:25.000Z</time>
   </trkpt>
   <trkpt lat="52.49963" lon="13.432342">
    <ele>40.6</ele>
    <time>2025-09-01T16:26:29.000Z</time>
   </trkpt>
   <trkpt lat="52.499584" lon="13.432201">
    <ele>40.6</ele>
    <time>2025-09-01T16:26:31.000Z</time>
   </trkpt>
   <trkpt lat="52.499535" lon="13.431818">
    <ele>40.8</ele>
    <time>2025-09-01T16:26:36.000Z</time>
   </trkpt>
   <trkpt lat="52.499449" lon="13.431176">
    <ele>40.6</ele>
    <time>2025-09-01T16:26:44.000Z</time>
   </trkpt>
   <trkpt lat="52.499441" lon="13.430938">
    <ele>40.6</ele>
    <time>2025-09-01T16:26:47.000Z</time>
   </trkpt>
   <trkpt lat="52.499445" lon="13.43086">
    <ele>40.6</ele>
    <time>2025-09-01T16:26:48.000Z</time>
   </trkpt>
   <trkpt lat="52.499468" lon="13.430627">
    <ele>40.4</ele>
    <time>2025-09-01T16:26:51.000Z</time>
   </trkpt>
   <trkpt lat="52.499483" lon="13.4304">
    <ele>40.4</ele>
    <time>2025-09-01T16:26:54.000Z</time>
   </trkpt>
   <trkpt lat="52.499499" lon="13.430176">
    <ele>40.4</ele>
    <time>2025-09-01T16:26:57.000Z</time>
   </trkpt>
   <trkpt lat="52.49951" lon="13.430099">
    <ele>40.4</ele>
    <time>2025-09-01T16:26:58.000Z</time>
   </trkpt>
   <trkpt lat="52.499525" lon="13.429962">
    <ele>40.6</ele>
    <time>2025-09-01T16:27:00.000Z</time>
   </trkpt>
   <trkpt lat="52.499521" lon="13.429805">
    <ele>40.2</ele>
    <time>2025-09-01T16:27:02.000Z</time>
   </trkpt>
   <trkpt lat="52.499489" lon="13.429314">
    <ele>40</ele>
    <time>2025-09-01T16:27:08.000Z</time>
   </trkpt>
   <trkpt lat="52.499465" lon="13.429154">
    <ele>39.8</ele>
    <time>2025-09-01T16:27:10.000Z</time>
   </trkpt>
   <trkpt lat="52.499463" lon="13.429076">
    <ele>39.6</ele>
    <time>2025-09-01T16:27:11.000Z</time>
   </trkpt>
   <trkpt lat="52.499441" lon="13.428691">
    <ele>39.6</ele>
    <time>2025-09-01T16:27:16.000Z</time>
   </trkpt>
   <trkpt lat="52.499417" lon="13.428183">
    <ele>39.8</ele>
    <time>2025-09-01T16:27:23.000Z</time>
   </trkpt>
   <trkpt lat="52.499377" lon="13.427653">
    <ele>39.6</ele>
    <time>2025-09-01T16:27:31.000Z</time>
   </trkpt>
   <trkpt lat="52.499367" lon="13.427238">
    <ele>39.6</ele>
    <time>2025-09-01T16:27:38.000Z</time>
   </trkpt>
   <trkpt lat="52.499338" lon="13.427032">
    <ele>39.6</ele>
    <time>2025-09-01T16:27:41.000Z</time>
   </trkpt>
   <trkpt lat="52.499336" lon="13.426896">
    <ele>39.4</ele>
    <time>2025-09-01T16:27:43.000Z</time>
   </trkpt>
   <trkpt lat="52.499324" lon="13.426624">
    <ele>39.2</ele>
    <time>2025-09-01T16:27:47.000Z</time>
   </trkpt>
   <trkpt lat="52.499337" lon="13.426553">
    <ele>39.2</ele>
    <time>2025-09-01T16:27:48.000Z</time>
   </trkpt>
   <trkpt lat="52.49937" lon="13.426409">
    <ele>38.8</ele>
    <time>2025-09-01T16:27:50.000Z</time>
   </trkpt>
   <trkpt lat="52.499442" lon="13.426094">
    <ele>38.2</ele>
    <time>2025-09-01T16:27:54.000Z</time>
   </trkpt>
   <trkpt lat="52.499622" lon="13.425442">
    <ele>38</ele>
    <time>2025-09-01T16:28:02.000Z</time>
   </trkpt>
   <trkpt lat="52.499852" lon="13.424609">
    <ele>38.8</ele>
    <time>2025-09-01T16:28:12.000Z</time>
   </trkpt>
   <trkpt lat="52.499935" lon="13.424277">
    <ele>38.8</ele>
    <time>2025-09-01T16:28:16.000Z</time>
   </trkpt>
   <trkpt lat="52.500008" lon="13.424021">
    <ele>38.8</ele>
    <time>2025-09-01T16:28:19.000Z</time>
   </trkpt>
   <trkpt lat="52.500219" lon="13.4232">
    <ele>38.6</ele>
    <time>2025-09-01T16:28:28.000Z</time>
   </trkpt>
   <trkpt lat="52.500376" lon="13.422656">
    <ele>38.4</ele>
    <time>2025-09-01T16:28:34.000Z</time>
   </trkpt>
   <trkpt lat="52.500538" lon="13.422006">
    <ele>38</ele>
    <time>2025-09-01T16:28:41.000Z</time>
   </trkpt>
   <trkpt lat="52.500739" lon="13.421272">
    <ele>38.2</ele>
    <time>2025-09-01T16:28:49.000Z</time>
   </trkpt>
   <trkpt lat="52.500971" lon="13.420469">
    <ele>38</ele>
    <time>2025-09-01T16:28:58.000Z</time>
   </trkpt>
   <trkpt lat="52.50113" lon="13.419856">
    <ele>38.4</ele>
    <time>2025-09-01T16:29:06.000Z</time>
   </trkpt>
   <trkpt lat="52.501192" lon="13.419618">
    <ele>38.8</ele>
    <time>2025-09-01T16:29:11.000Z</time>
   </trkpt>
   <trkpt lat="52.50123" lon="13.419508">
    <ele>38.8</ele>
    <time>2025-09-01T16:29:16.000Z</time>
   </trkpt>
   <trkpt lat="52.501294" lon="13.41938">
    <ele>38.6</ele>
    <time>2025-09-01T16:29:20.000Z</time>
   </trkpt>
   <trkpt lat="52.501346" lon="13.419198">
    <ele>38.4</ele>
    <time>2025-09-01T16:29:23.000Z</time>
   </trkpt>
   <trkpt lat="52.501384" lon="13.419054">
    <ele>38.2</ele>
    <time>2025-09-01T16:29:25.000Z</time>
   </trkpt>
   <trkpt lat="52.501446" lon="13.418832">
    <ele>38</ele>
    <time>2025-09-01T16:29:28.000Z</time>
   </trkpt>
   <trkpt lat="52.501544" lon="13.418465">
    <ele>38.4</ele>
    <time>2025-09-01T16:29:33.000Z</time>
   </trkpt>
   <trkpt lat="52.501638" lon="13.418089">
    <ele>38</ele>
    <time>2025-09-01T16:29:38.000Z</time>
   </trkpt>
   <trkpt lat="52.501732" lon="13.417773">
    <ele>38.2</ele>
    <time>2025-09-01T16:29:42.000Z</time>
   </trkpt>
   <trkpt lat="52.501932" lon="13.417082">
    <ele>38</ele>
    <time>2025-09-01T16:29:51.000Z</time>
   </trkpt>
   <trkpt lat="52.502063" lon="13.416722">
    <ele>37.8</ele>
    <time>2025-09-01T16:29:56.000Z</time>
   </trkpt>
   <trkpt lat="52.502097" lon="13.416651">
    <ele>37.8</ele>
    <time>2025-09-01T16:29:57.000Z</time>
   </trkpt>
   <trkpt lat="52.502135" lon="13.416589">
    <ele>37.8</ele>
    <time>2025-09-01T16:29:58.000Z</time>
   </trkpt>
   <trkpt lat="52.502279" lon="13.416246">
    <ele>38</ele>
    <time>2025-09-01T16:30:03.000Z</time>
   </trkpt>
   <trkpt lat="52.502326" lon="13.41609">
    <ele>37.8</ele>
    <time>2025-09-01T16:30:05.000Z</time>
   </trkpt>
   <trkpt lat="52.502344" lon="13.416006">
    <ele>37.8</ele>
    <time>2025-09-01T16:30:06.000Z</time>
   </trkpt>
   <trkpt lat="52.502448" lon="13.41556">
    <ele>37.6</ele>
    <time>2025-09-01T16:30:12.000Z</time>
   </trkpt>
   <trkpt lat="52.502541" lon="13.415223">
    <ele>37.4</ele>
    <time>2025-09-01T16:30:18.000Z</time>
   </trkpt>
   <trkpt lat="52.502532" lon="13.415155">
    <ele>37.4</ele>
    <time>2025-09-01T16:30:22.000Z</time>
   </trkpt>
   <trkpt lat="52.502523" lon="13.415069">
    <ele>37</ele>
    <time>2025-09-01T16:30:28.000Z</time>
   </trkpt>
   <trkpt lat="52.502519" lon="13.414835">
    <ele>37.2</ele>
    <time>2025-09-01T16:30:32.000Z</time>
   </trkpt>
   <trkpt lat="52.502557" lon="13.414697">
    <ele>37.2</ele>
    <time>2025-09-01T16:30:34.000Z</time>
   </trkpt>
   <trkpt lat="52.502609" lon="13.414555">
    <ele>37.4</ele>
    <time>2025-09-01T16:30:36.000Z</time>
   </trkpt>
   <trkpt lat="52.502797" lon="13.413925">
    <ele>37.2</ele>
    <time>2025-09-01T16:30:44.000Z</time>
   </trkpt>
   <trkpt lat="52.502923" lon="13.413417">
    <ele>36.8</ele>
    <time>2025-09-01T16:30:50.000Z</time>
   </trkpt>
   <trkpt lat="52.502942" lon="13.413332">
    <ele>36.8</ele>
    <time>2025-09-01T16:30:51.000Z</time>
   </trkpt>
   <trkpt lat="52.502963" lon="13.413248">
    <ele>36.8</ele>
    <time>2025-09-01T16:30:52.000Z</time>
   </trkpt>
   <trkpt lat="52.50301" lon="13.41308">
    <ele>36.8</ele>
    <time>2025-09-01T16:30:54.000Z</time>
   </trkpt>
   <trkpt lat="52.503033" lon="13.412993">
    <ele>36.8</ele>
    <time>2025-09-01T16:30:55.000Z</time>
   </trkpt>
   <trkpt lat="52.503277" lon="13.412156">
    <ele>36.4</ele>
    <time>2025-09-01T16:31:05.000Z</time>
   </trkpt>
   <trkpt lat="52.503325" lon="13.411992">
    <ele>36.4</ele>
    <time>2025-09-01T16:31:08.000Z</time>
   </trkpt>
   <trkpt lat="52.503332" lon="13.411975">
    <ele>36.6</ele>
    <time>2025-09-01T16:31:09.000Z</time>
   </trkpt>
   <trkpt lat="52.503335" lon="13.411967">
    <ele>36.8</ele>
    <time>2025-09-01T16:31:10.000Z</time>
   </trkpt>
   <trkpt lat="52.503336" lon="13.411963">
    <ele>36.8</ele>
    <time>2025-09-01T16:31:11.000Z</time>
   </trkpt>
   <trkpt lat="52.503352" lon="13.411896">
    <ele>36.8</ele>
    <time>2025-09-01T16:31:14.000Z</time>
   </trkpt>
   <trkpt lat="52.503391" lon="13.411757">
    <ele>36.4</ele>
    <time>2025-09-01T16:31:17.000Z</time>
   </trkpt>
   <trkpt lat="52.503426" lon="13.411636">
    <ele>36.4</ele>
    <time>2025-09-01T16:31:19.000Z</time>
   </trkpt>
   <trkpt lat="52.503573" lon="13.411264">
    <ele>36.6</ele>
    <time>2025-09-01T16:31:25.000Z</time>
   </trkpt>
   <trkpt lat="52.503651" lon="13.411204">
    <ele>36.6</ele>
    <time>2025-09-01T16:31:27.000Z</time>
   </trkpt>
   <trkpt lat="52.503722" lon="13.411146">
    <ele>37.2</ele>
    <time>2025-09-01T16:31:29.000Z</time>
   </trkpt>
   <trkpt lat="52.503801" lon="13.411072">
    <ele>37.6</ele>
    <time>2025-09-01T16:31:31.000Z</time>
   </trkpt>
   <trkpt lat="52.503838" lon="13.411022">
    <ele>37.8</ele>
    <time>2025-09-01T16:31:32.000Z</time>
   </trkpt>
   <trkpt lat="52.503872" lon="13.410965">
    <ele>38</ele>
    <time>2025-09-01T16:31:33.000Z</time>
   </trkpt>
   <trkpt lat="52.503902" lon="13.410818">
    <ele>37.4</ele>
    <time>2025-09-01T16:31:35.000Z</time>
   </trkpt>
   <trkpt lat="52.503902" lon="13.410738">
    <ele>37.2</ele>
    <time>2025-09-01T16:31:36.000Z</time>
   </trkpt>
   <trkpt lat="52.503891" lon="13.410661">
    <ele>37</ele>
    <time>2025-09-01T16:31:37.000Z</time>
   </trkpt>
   <trkpt lat="52.503845" lon="13.410444">
    <ele>37.2</ele>
    <time>2025-09-01T16:31:40.000Z</time>
   </trkpt>
   <trkpt lat="52.503872" lon="13.410301">
    <ele>37</ele>
    <time>2025-09-01T16:31:42.000Z</time>
   </trkpt>
   <trkpt lat="52.503895" lon="13.410235">
    <ele>37</ele>
    <time>2025-09-01T16:31:43.000Z</time>
   </trkpt>
   <trkpt lat="52.503917" lon="13.41017">
    <ele>36.8</ele>
    <time>2025-09-01T16:31:44.000Z</time>
   </trkpt>
   <trkpt lat="52.503979" lon="13.40996">
    <ele>37</ele>
    <time>2025-09-01T16:31:48.000Z</time>
   </trkpt>
   <trkpt lat="52.50401" lon="13.409771">
    <ele>36.8</ele>
    <time>2025-09-01T16:31:51.000Z</time>
   </trkpt>
   <trkpt lat="52.504055" lon="13.409563">
    <ele>36.8</ele>
    <time>2025-09-01T16:31:54.000Z</time>
   </trkpt>
   <trkpt lat="52.504193" lon="13.409095">
    <ele>37</ele>
    <time>2025-09-01T16:32:01.000Z</time>
   </trkpt>
   <trkpt lat="52.504272" lon="13.408741">
    <ele>37</ele>
    <time>2025-09-01T16:32:06.000Z</time>
   </trkpt>
   <trkpt lat="52.504293" lon="13.408674">
    <ele>37</ele>
    <time>2025-09-01T16:32:07.000Z</time>
   </trkpt>
   <trkpt lat="52.504401" lon="13.408287">
    <ele>37.4</ele>
    <time>2025-09-01T16:32:13.000Z</time>
   </trkpt>
   <trkpt lat="52.504466" lon="13.408038">
    <ele>37.6</ele>
    <time>2025-09-01T16:32:18.000Z</time>
   </trkpt>
   <trkpt lat="52.504381" lon="13.407909">
    <ele>37.4</ele>
    <time>2025-09-01T16:32:23.000Z</time>
   </trkpt>
   <trkpt lat="52.50428" lon="13.407836">
    <ele>37.2</ele>
    <time>2025-09-01T16:32:26.000Z</time>
   </trkpt>
   <trkpt lat="52.504165" lon="13.407739">
    <ele>37.6</ele>
    <time>2025-09-01T16:32:29.000Z</time>
   </trkpt>
   <trkpt lat="52.503839" lon="13.407478">
    <ele>37.2</ele>
    <time>2025-09-01T16:32:37.000Z</time>
   </trkpt>
   <trkpt lat="52.503591" lon="13.407303">
    <ele>38</ele>
    <time>2025-09-01T16:32:43.000Z</time>
   </trkpt>
   <trkpt lat="52.503554" lon="13.407287">
    <ele>38.4</ele>
    <time>2025-09-01T16:32:44.000Z</time>
   </trkpt>
   <trkpt lat="52.503425" lon="13.407264">
    <ele>37.2</ele>
    <time>2025-09-01T16:32:48.000Z</time>
   </trkpt>
   <trkpt lat="52.503405" lon="13.407264">
    <ele>37</ele>
    <time>2025-09-01T16:32:49.000Z</time>
   </trkpt>
   <trkpt lat="52.503341" lon="13.407244">
    <ele>37.2</ele>
    <time>2025-09-01T16:32:56.000Z</time>
   </trkpt>
   <trkpt lat="52.503407" lon="13.407455">
    <ele>37.2</ele>
    <time>2025-09-01T16:32:59.000Z</time>
   </trkpt>
   <trkpt lat="52.503336" lon="13.407796">
    <ele>37.2</ele>
    <time>2025-09-01T16:33:01.000Z</time>
   </trkpt>
   <trkpt lat="52.503259" lon="13.407998">
    <ele>37.8</ele>
    <time>2025-09-01T16:33:05.000Z</time>
   </trkpt>
   <trkpt lat="52.50331" lon="13.408089">
    <ele>38</ele>
    <time>2025-09-01T16:33:07.000Z</time>
   </trkpt>
   <trkpt lat="52.503339" lon="13.408106">
    <ele>38.2</ele>
    <time>2025-09-01T16:33:11.000Z</time>
   </trkpt>
   <trkpt lat="52.503427" lon="13.408319">
    <ele>38.2</ele>
    <time>2025-09-01T16:33:15.000Z</time>
   </trkpt>
   <trkpt lat="52.503449" lon="13.408338">
    <ele>38.2</ele>
    <time>2025-09-01T16:33:16.000Z</time>
   </trkpt>
   <trkpt lat="52.503523" lon="13.408477">
    <ele>37.8</ele>
    <time>2025-09-01T16:33:21.000Z</time>
   </trkpt>
   <trkpt lat="52.503573" lon="13.408524">
    <ele>37.6</ele>
    <time>2025-09-01T16:33:25.000Z</time>
   </trkpt>
   <trkpt lat="52.503563" lon="13.408584">
    <ele>37.6</ele>
    <time>2025-09-01T16:33:30.000Z</time>
   </trkpt>
   <trkpt lat="52.503586" lon="13.408595">
    <ele>37.8</ele>
    <time>2025-09-01T16:33:33.000Z</time>
   </trkpt>
   <trkpt lat="52.503591" lon="13.408588">
    <ele>37.8</ele>
    <time>2025-09-01T16:33:34.000Z</time>
   </trkpt>
   <trkpt lat="52.503592" lon="13.408595">
    <ele>37.4</ele>
    <time>2025-09-01T16:33:39.000Z</time>
   </trkpt>
   <trkpt lat="52.503587" lon="13.40862">
    <ele>37.6</ele>
    <time>2025-09-01T16:33:45.000Z</time>
   </trkpt>
   <trkpt lat="52.503576" lon="13.40864">
    <ele>37</ele>
    <time>2025-09-01T16:33:49.000Z</time>
   </trkpt>
   <trkpt lat="52.503567" lon="13.408626">
    <ele>37.2</ele>
    <time>2025-09-01T16:33:52.000Z</time>
   </trkpt>
   <trkpt lat="52.503569" lon="13.408609">
    <ele>37.6</ele>
    <time>2025-09-01T16:33:56.000Z</time>
   </trkpt>
   <trkpt lat="52.503585" lon="13.408594">
    <ele>37.4</ele>
    <time>2025-09-01T16:34:02.000Z</time>
   </trkpt>
   <trkpt lat="52.503558" lon="13.408604">
    <ele>37.2</ele>
    <time>2025-09-01T16:34:08.000Z</time>
   </trkpt>
   <trkpt lat="52.503563" lon="13.408619">
    <ele>37.4</ele>
    <time>2025-09-01T16:34:13.000Z</time>
   </trkpt>
   <trkpt lat="52.503533" lon="13.40863">
    <ele>37.4</ele>
    <time>2025-09-01T16:34:18.000Z</time>
   </trkpt>
   <trkpt lat="52.503549" lon="13.408618">
    <ele>37.4</ele>
    <time>2025-09-01T16:34:24.000Z</time>
   </trkpt>
   <trkpt lat="52.503567" lon="13.408623">
    <ele>37.2</ele>
    <time>2025-09-01T16:34:27.000Z</time>
   </trkpt>
   <trkpt lat="52.503577" lon="13.408616">
    <ele>37.2</ele>
    <time>2025-09-01T16:34:29.000Z</time>
   </trkpt>
   <trkpt lat="52.503586" lon="13.408611">
    <ele>37.2</ele>
    <time>2025-09-01T16:34:30.000Z</time>
   </trkpt>
   <trkpt lat="52.503566" lon="13.408583">
    <ele>37.2</ele>
    <time>2025-09-01T16:34:35.000Z</time>
   </trkpt>
   <trkpt lat="52.503577" lon="13.40857">
    <ele>37.2</ele>
    <time>2025-09-01T16:34:36.000Z</time>
   </trkpt>
   <trkpt lat="52.503597" lon="13.40851">
    <ele>37.4</ele>
    <time>2025-09-01T16:34:39.000Z</time>
   </trkpt>
   <trkpt lat="52.50358" lon="13.40844">
    <ele>37.2</ele>
    <time>2025-09-01T16:34:45.000Z</time>
   </trkpt>
   <trkpt lat="52.503579" lon="13.408347">
    <ele>37</ele>
    <time>2025-09-01T16:34:49.000Z</time>
   </trkpt>
   <trkpt lat="52.503555" lon="13.40828">
    <ele>37</ele>
    <time>2025-09-01T16:34:52.000Z</time>
   </trkpt>
   <trkpt lat="52.50353" lon="13.408246">
    <ele>37</ele>
    <time>2025-09-01T16:34:54.000Z</time>
   </trkpt>
   <trkpt lat="52.503445" lon="13.408153">
    <ele>37.2</ele>
    <time>2025-09-01T16:35:01.000Z</time>
   </trkpt>
   <trkpt lat="52.503383" lon="13.408105">
    <ele>37.4</ele>
    <time>2025-09-01T16:35:08.000Z</time>
   </trkpt>
   <trkpt lat="52.503386" lon="13.408246">
    <ele>37.4</ele>
    <time>2025-09-01T16:35:17.000Z</time>
   </trkpt>
   <trkpt lat="52.503383" lon="13.4083">
    <ele>37.4</ele>
    <time>2025-09-01T16:35:26.000Z</time>
   </trkpt>
   <trkpt lat="52.5034" lon="13.408273">
    <ele>37.4</ele>
    <time>2025-09-01T16:35:34.000Z</time>
   </trkpt>
   <trkpt lat="52.50341" lon="13.408212">
    <ele>37.4</ele>
    <time>2025-09-01T16:35:41.000Z</time>
   </trkpt>
   <trkpt lat="52.50342" lon="13.408199">
    <ele>37.4</ele>
    <time>2025-09-01T16:35:44.000Z</time>
   </trkpt>
   <trkpt lat="52.503412" lon="13.408138">
    <ele>37.4</ele>
    <time>2025-09-01T16:35:51.000Z</time>
   </trkpt>
   <trkpt lat="52.503377" lon="13.408078">
    <ele>37.4</ele>
    <time>2025-09-01T16:35:59.000Z</time>
   </trkpt>
   <trkpt lat="52.503387" lon="13.408067">
    <ele>37.4</ele>
    <time>2025-09-01T16:36:07.000Z</time>
   </trkpt>
   <trkpt lat="52.503436" lon="13.408271">
    <ele>37.4</ele>
    <time>2025-09-01T16:36:16.000Z</time>
   </trkpt>
   <trkpt lat="52.503428" lon="13.408477">
    <ele>37</ele>
    <time>2025-09-01T16:36:22.000Z</time>
   </trkpt>
   <trkpt lat="52.50344" lon="13.408525">
    <ele>36.8</ele>
    <time>2025-09-01T16:36:23.000Z</time>
   </trkpt>
   <trkpt lat="52.503481" lon="13.408627">
    <ele>36.6</ele>
    <time>2025-09-01T16:36:25.000Z</time>
   </trkpt>
   <trkpt lat="52.503481" lon="13.408627">
    <ele>36.6</ele>
    <time>2025-09-01T16:36:26.000Z</time>
   </trkpt>
   <trkpt lat="52.503634" lon="13.408741">
    <ele>36.6</ele>
    <time>2025-09-01T16:36:33.000Z</time>
   </trkpt>
   <trkpt lat="52.503698" lon="13.408889">
    <ele>36.4</ele>
    <time>2025-09-01T16:36:36.000Z</time>
   </trkpt>
   <trkpt lat="52.503782" lon="13.409044">
    <ele>36</ele>
    <time>2025-09-01T16:36:39.000Z</time>
   </trkpt>
   <trkpt lat="52.503879" lon="13.409224">
    <ele>35.8</ele>
    <time>2025-09-01T16:36:43.000Z</time>
   </trkpt>
   <trkpt lat="52.504069" lon="13.409623">
    <ele>35.4</ele>
    <time>2025-09-01T16:36:53.000Z</time>
   </trkpt>
   <trkpt lat="52.503855" lon="13.409412">
    <ele>35.8</ele>
    <time>2025-09-01T16:37:00.000Z</time>
   </trkpt>
   <trkpt lat="52.503656" lon="13.408888">
    <ele>35.6</ele>
    <time>2025-09-01T16:37:06.000Z</time>
   </trkpt>
   <trkpt lat="52.503531" lon="13.40866">
    <ele>35.6</ele>
    <time>2025-09-01T16:37:13.000Z</time>
   </trkpt>
   <trkpt lat="52.503406" lon="13.408433">
    <ele>35.6</ele>
    <time>2025-09-01T16:37:14.000Z</time>
   </trkpt>
   <trkpt lat="52.50338" lon="13.408365">
    <ele>35.6</ele>
    <time>2025-09-01T16:37:15.000Z</time>
   </trkpt>
   <trkpt lat="52.503345" lon="13.408281">
    <ele>35.4</ele>
    <time>2025-09-01T16:37:17.000Z</time>
   </trkpt>
   <trkpt lat="52.503344" lon="13.408266">
    <ele>35.4</ele>
    <time>2025-09-01T16:37:18.000Z</time>
   </trkpt>
   <trkpt lat="52.50338" lon="13.408264">
    <ele>35</ele>
    <time>2025-09-01T16:37:26.000Z</time>
   </trkpt>
   <trkpt lat="52.503389" lon="13.408286">
    <ele>35</ele>
    <time>2025-09-01T16:37:28.000Z</time>
   </trkpt>
   <trkpt lat="52.503418" lon="13.408272">
    <ele>34.8</ele>
    <time>2025-09-01T16:37:36.000Z</time>
   </trkpt>
   <trkpt lat="52.503439" lon="13.408254">
    <ele>34.8</ele>
    <time>2025-09-01T16:37:40.000Z</time>
   </trkpt>
   <trkpt lat="52.503439" lon="13.408254">
    <ele>35.6</ele>
    <time>2025-09-01T16:37:50.000Z</time>
   </trkpt>
   <trkpt lat="52.503439" lon="13.408254">
    <ele>35.4</ele>
    <time>2025-09-01T16:37:58.000Z</time>
   </trkpt>
   <trkpt lat="52.503439" lon="13.408254">
    <ele>35.2</ele>
    <time>2025-09-01T16:38:05.000Z</time>
   </trkpt>
   <trkpt lat="52.503439" lon="13.408254">
    <ele>35.4</ele>
    <time>2025-09-01T16:38:07.000Z</time>
   </trkpt>
   <trkpt lat="52.503439" lon="13.408254">
    <ele>36</ele>
    <time>2025-09-01T16:38:25.000Z</time>
   </trkpt>
   <trkpt lat="52.503439" lon="13.408254">
    <ele>35.2</ele>
    <time>2025-09-01T16:38:34.000Z</time>
   </trkpt>
   <trkpt lat="52.503439" lon="13.408254">
    <ele>35.2</ele>
    <time>2025-09-01T16:38:40.000Z</time>
   </trkpt>
  </trkseg>
 </trk>
</gpx>
