<?xml version="1.0" encoding="UTF-8"?>
<gpx creator="StravaGPX" version="1.1" xmlns="http://www.topografix.com/GPX/1/1">
 <metadata>
  <time>2020-01-15T12:46:54Z</time>
 </metadata>
 <trk>
  <name>Morning Ride</name>
  <type>1</type>
  <trkseg>
   <trkpt lat="-8.036938" lon="-34.892705">
    <ele>7.9</ele>
    <time>2020-01-15T12:46:54.000Z</time>
   </trkpt>
   <trkpt lat="-8.036974" lon="-34.892711">
    <ele>8</ele>
    <time>2020-01-15T12:46:56.000Z</time>
   </trkpt>
   <trkpt lat="-8.037011" lon="-34.892718">
    <ele>8.2</ele>
    <time>2020-01-15T12:46:57.000Z</time>
   </trkpt>
   <trkpt lat="-8.037044" lon="-34.892727">
    <ele>8.3</ele>
    <time>2020-01-15T12:46:58.000Z</time>
   </trkpt>
   <trkpt lat="-8.037075" lon="-34.892733">
    <ele>8.5</ele>
    <time>2020-01-15T12:46:59.000Z</time>
   </trkpt>
   <trkpt lat="-8.03711" lon="-34.892744">
    <ele>8.6</ele>
    <time>2020-01-15T12:47:00.000Z</time>
   </trkpt>
   <trkpt lat="-8.037138" lon="-34.892759">
    <ele>8.8</ele>
    <time>2020-01-15T12:47:01.000Z</time>
   </trkpt>
   <trkpt lat="-8.037165" lon="-34.892777">
    <ele>8.9</ele>
    <time>2020-01-15T12:47:02.000Z</time>
   </trkpt>
   <trkpt lat="-8.037192" lon="-34.892797">
    <ele>9.1</ele>
    <time>2020-01-15T12:47:03.000Z</time>
   </trkpt>
   <trkpt lat="-8.037221" lon="-34.89282">
    <ele>9.3</ele>
    <time>2020-01-15T12:47:04.000Z</time>
   </trkpt>
   <trkpt lat="-8.037249" lon="-34.892841">
    <ele>9.4</ele>
    <time>2020-01-15T12:47:05.000Z</time>
   </trkpt>
   <trkpt lat="-8.037276" lon="-34.89286">
    <ele>9.6</ele>
    <time>2020-01-15T12:47:06.000Z</time>
   </trkpt>
   <trkpt lat="-8.037291" lon="-34.892883">
    <ele>10</ele>
    <time>2020-01-15T12:47:07.000Z</time>
   </trkpt>
   <trkpt lat="-8.037315" lon="-34.892908">
    <ele>10</ele>
    <time>2020-01-15T12:47:08.000Z</time>
   </trkpt>
   <trkpt lat="-8.037323" lon="-34.892937">
    <ele>10</ele>
    <time>2020-01-15T12:47:09.000Z</time>
   </trkpt>
   <trkpt lat="-8.03732" lon="-34.89297">
    <ele>10</ele>
    <time>2020-01-15T12:47:10.000Z</time>
   </trkpt>
   <trkpt lat="-8.03731" lon="-34.893005">
    <ele>10</ele>
    <time>2020-01-15T12:47:11.000Z</time>
   </trkpt>
   <trkpt lat="-8.037297" lon="-34.893042">
    <ele>10</ele>
    <time>2020-01-15T12:47:12.000Z</time>
   </trkpt>
   <trkpt lat="-8.037277" lon="-34.893081">
    <ele>10</ele>
    <time>2020-01-15T12:47:13.000Z</time>
   </trkpt>
   <trkpt lat="-8.037256" lon="-34.893117">
    <ele>10</ele>
    <time>2020-01-15T12:47:14.000Z</time>
   </trkpt>
   <trkpt lat="-8.037245" lon="-34.893152">
    <ele>10</ele>
    <time>2020-01-15T12:47:15.000Z</time>
   </trkpt>
   <trkpt lat="-8.037233" lon="-34.893188">
    <ele>10</ele>
    <time>2020-01-15T12:47:16.000Z</time>
   </trkpt>
   <trkpt lat="-8.03721" lon="-34.893227">
    <ele>10</ele>
    <time>2020-01-15T12:47:17.000Z</time>
   </trkpt>
   <trkpt lat="-8.037186" lon="-34.893263">
    <ele>10</ele>
    <time>2020-01-15T12:47:18.000Z</time>
   </trkpt>
   <trkpt lat="-8.037173" lon="-34.893299">
    <ele>9.9</ele>
    <time>2020-01-15T12:47:19.000Z</time>
   </trkpt>
   <trkpt lat="-8.037154" lon="-34.893337">
    <ele>9.8</ele>
    <time>2020-01-15T12:47:20.000Z</time>
   </trkpt>
   <trkpt lat="-8.037128" lon="-34.893378">
    <ele>9.6</ele>
    <time>2020-01-15T12:47:21.000Z</time>
   </trkpt>
   <trkpt lat="-8.037129" lon="-34.89342">
    <ele>9.4</ele>
    <time>2020-01-15T12:47:22.000Z</time>
   </trkpt>
   <trkpt lat="-8.03711" lon="-34.893465">
    <ele>9.1</ele>
    <time>2020-01-15T12:47:23.000Z</time>
   </trkpt>
   <trkpt lat="-8.037086" lon="-34.893515">
    <ele>8.6</ele>
    <time>2020-01-15T12:47:24.000Z</time>
   </trkpt>
   <trkpt lat="-8.037067" lon="-34.893553">
    <ele>8.5</ele>
    <time>2020-01-15T12:47:25.000Z</time>
   </trkpt>
   <trkpt lat="-8.037051" lon="-34.893602">
    <ele>8.3</ele>
    <time>2020-01-15T12:47:26.000Z</time>
   </trkpt>
   <trkpt lat="-8.037035" lon="-34.893647">
    <ele>8.2</ele>
    <time>2020-01-15T12:47:27.000Z</time>
   </trkpt>
   <trkpt lat="-8.03704" lon="-34.893684">
    <ele>8.1</ele>
    <time>2020-01-15T12:47:28.000Z</time>
   </trkpt>
   <trkpt lat="-8.037033" lon="-34.893728">
    <ele>8.3</ele>
    <time>2020-01-15T12:47:29.000Z</time>
   </trkpt>
   <trkpt lat="-8.037031" lon="-34.893774">
    <ele>8.6</ele>
    <time>2020-01-15T12:47:30.000Z</time>
   </trkpt>
   <trkpt lat="-8.03703" lon="-34.893825">
    <ele>8.9</ele>
    <time>2020-01-15T12:47:31.000Z</time>
   </trkpt>
   <trkpt lat="-8.037021" lon="-34.893866">
    <ele>9.3</ele>
    <time>2020-01-15T12:47:32.000Z</time>
   </trkpt>
   <trkpt lat="-8.037003" lon="-34.893906">
    <ele>9.5</ele>
    <time>2020-01-15T12:47:33.000Z</time>
   </trkpt>
   <trkpt lat="-8.036993" lon="-34.89394">
    <ele>9.5</ele>
    <time>2020-01-15T12:47:34.000Z</time>
   </trkpt>
   <trkpt lat="-8.036981" lon="-34.893978">
    <ele>9.5</ele>
    <time>2020-01-15T12:47:35.000Z</time>
   </trkpt>
   <trkpt lat="-8.036974" lon="-34.894022">
    <ele>9.6</ele>
    <time>2020-01-15T12:47:36.000Z</time>
   </trkpt>
   <trkpt lat="-8.036956" lon="-34.894077">
    <ele>9.8</ele>
    <time>2020-01-15T12:47:37.000Z</time>
   </trkpt>
   <trkpt lat="-8.036942" lon="-34.894126">
    <ele>9.8</ele>
    <time>2020-01-15T12:47:38.000Z</time>
   </trkpt>
   <trkpt lat="-8.036941" lon="-34.894163">
    <ele>9.8</ele>
    <time>2020-01-15T12:47:39.000Z</time>
   </trkpt>
   <trkpt lat="-8.036963" lon="-34.894195">
    <ele>8.7</ele>
    <time>2020-01-15T12:47:40.000Z</time>
   </trkpt>
   <trkpt lat="-8.036985" lon="-34.894221">
    <ele>8.5</ele>
    <time>2020-01-15T12:47:41.000Z</time>
   </trkpt>
   <trkpt lat="-8.037001" lon="-34.89425">
    <ele>8.2</ele>
    <time>2020-01-15T12:47:43.000Z</time>
   </trkpt>
   <trkpt lat="-8.037021" lon="-34.894226">
    <ele>8</ele>
    <time>2020-01-15T12:47:46.000Z</time>
   </trkpt>
   <trkpt lat="-8.037024" lon="-34.894202">
    <ele>8</ele>
    <time>2020-01-15T12:47:48.000Z</time>
   </trkpt>
   <trkpt lat="-8.037065" lon="-34.894263">
    <ele>7.9</ele>
    <time>2020-01-15T12:48:25.000Z</time>
   </trkpt>
   <trkpt lat="-8.03711" lon="-34.894246">
    <ele>7.5</ele>
    <time>2020-01-15T12:48:27.000Z</time>
   </trkpt>
   <trkpt lat="-8.037146" lon="-34.894221">
    <ele>7.3</ele>
    <time>2020-01-15T12:48:29.000Z</time>
   </trkpt>
   <trkpt lat="-8.037161" lon="-34.894194">
    <ele>7.2</ele>
    <time>2020-01-15T12:48:30.000Z</time>
   </trkpt>
   <trkpt lat="-8.037184" lon="-34.894175">
    <ele>7.1</ele>
    <time>2020-01-15T12:48:31.000Z</time>
   </trkpt>
   <trkpt lat="-8.037211" lon="-34.89415">
    <ele>7</ele>
    <time>2020-01-15T12:48:32.000Z</time>
   </trkpt>
   <trkpt lat="-8.037241" lon="-34.894119">
    <ele>6.9</ele>
    <time>2020-01-15T12:48:33.000Z</time>
   </trkpt>
   <trkpt lat="-8.037274" lon="-34.894086">
    <ele>6.8</ele>
    <time>2020-01-15T12:48:34.000Z</time>
   </trkpt>
   <trkpt lat="-8.037302" lon="-34.894055">
    <ele>6.7</ele>
    <time>2020-01-15T12:48:35.000Z</time>
   </trkpt>
   <trkpt lat="-8.037331" lon="-34.894024">
    <ele>6.6</ele>
    <time>2020-01-15T12:48:36.000Z</time>
   </trkpt>
   <trkpt lat="-8.037354" lon="-34.893999">
    <ele>6.5</ele>
    <time>2020-01-15T12:48:37.000Z</time>
   </trkpt>
   <trkpt lat="-8.037387" lon="-34.893983">
    <ele>6.4</ele>
    <time>2020-01-15T12:48:38.000Z</time>
   </trkpt>
   <trkpt lat="-8.037432" lon="-34.893988">
    <ele>6.3</ele>
    <time>2020-01-15T12:48:39.000Z</time>
   </trkpt>
   <trkpt lat="-8.03748" lon="-34.894">
    <ele>6.1</ele>
    <time>2020-01-15T12:48:40.000Z</time>
   </trkpt>
   <trkpt lat="-8.037511" lon="-34.894011">
    <ele>6</ele>
    <time>2020-01-15T12:48:41.000Z</time>
   </trkpt>
   <trkpt lat="-8.037548" lon="-34.894034">
    <ele>5.9</ele>
    <time>2020-01-15T12:48:43.000Z</time>
   </trkpt>
   <trkpt lat="-8.037575" lon="-34.894048">
    <ele>5.8</ele>
    <time>2020-01-15T12:48:44.000Z</time>
   </trkpt>
   <trkpt lat="-8.037612" lon="-34.894063">
    <ele>5.6</ele>
    <time>2020-01-15T12:48:45.000Z</time>
   </trkpt>
   <trkpt lat="-8.037646" lon="-34.894069">
    <ele>5.5</ele>
    <time>2020-01-15T12:48:46.000Z</time>
   </trkpt>
   <trkpt lat="-8.037691" lon="-34.894071">
    <ele>5.3</ele>
    <time>2020-01-15T12:48:47.000Z</time>
   </trkpt>
   <trkpt lat="-8.03774" lon="-34.894079">
    <ele>5.2</ele>
    <time>2020-01-15T12:48:48.000Z</time>
   </trkpt>
   <trkpt lat="-8.03782" lon="-34.894095">
    <ele>5.8</ele>
    <time>2020-01-15T12:48:49.000Z</time>
   </trkpt>
   <trkpt lat="-8.03789" lon="-34.894113">
    <ele>6.2</ele>
    <time>2020-01-15T12:48:50.000Z</time>
   </trkpt>
   <trkpt lat="-8.037951" lon="-34.894127">
    <ele>6.6</ele>
    <time>2020-01-15T12:48:51.000Z</time>
   </trkpt>
   <trkpt lat="-8.038011" lon="-34.894138">
    <ele>6.9</ele>
    <time>2020-01-15T12:48:52.000Z</time>
   </trkpt>
   <trkpt lat="-8.038067" lon="-34.894144">
    <ele>7.2</ele>
    <time>2020-01-15T12:48:53.000Z</time>
   </trkpt>
   <trkpt lat="-8.038118" lon="-34.89415">
    <ele>7.4</ele>
    <time>2020-01-15T12:48:54.000Z</time>
   </trkpt>
   <trkpt lat="-8.038167" lon="-34.894159">
    <ele>7.7</ele>
    <time>2020-01-15T12:48:55.000Z</time>
   </trkpt>
   <trkpt lat="-8.038217" lon="-34.894166">
    <ele>8.1</ele>
    <time>2020-01-15T12:48:56.000Z</time>
   </trkpt>
   <trkpt lat="-8.038259" lon="-34.894171">
    <ele>8.3</ele>
    <time>2020-01-15T12:48:57.000Z</time>
   </trkpt>
   <trkpt lat="-8.038296" lon="-34.894173">
    <ele>8.6</ele>
    <time>2020-01-15T12:48:58.000Z</time>
   </trkpt>
   <trkpt lat="-8.038328" lon="-34.8942">
    <ele>8.8</ele>
    <time>2020-01-15T12:48:59.000Z</time>
   </trkpt>
   <trkpt lat="-8.038356" lon="-34.894217">
    <ele>8.7</ele>
    <time>2020-01-15T12:49:00.000Z</time>
   </trkpt>
   <trkpt lat="-8.038409" lon="-34.894235">
    <ele>8.7</ele>
    <time>2020-01-15T12:49:01.000Z</time>
   </trkpt>
   <trkpt lat="-8.038456" lon="-34.894252">
    <ele>8.7</ele>
    <time>2020-01-15T12:49:02.000Z</time>
   </trkpt>
   <trkpt lat="-8.038508" lon="-34.894262">
    <ele>8.7</ele>
    <time>2020-01-15T12:49:03.000Z</time>
   </trkpt>
   <trkpt lat="-8.038553" lon="-34.894271">
    <ele>8.7</ele>
    <time>2020-01-15T12:49:04.000Z</time>
   </trkpt>
   <trkpt lat="-8.038603" lon="-34.894313">
    <ele>8.6</ele>
    <time>2020-01-15T12:49:05.000Z</time>
   </trkpt>
   <trkpt lat="-8.038657" lon="-34.894327">
    <ele>8.6</ele>
    <time>2020-01-15T12:49:06.000Z</time>
   </trkpt>
   <trkpt lat="-8.038706" lon="-34.894336">
    <ele>8.6</ele>
    <time>2020-01-15T12:49:07.000Z</time>
   </trkpt>
   <trkpt lat="-8.038742" lon="-34.894346">
    <ele>8.6</ele>
    <time>2020-01-15T12:49:08.000Z</time>
   </trkpt>
   <trkpt lat="-8.03878" lon="-34.894355">
    <ele>8.6</ele>
    <time>2020-01-15T12:49:09.000Z</time>
   </trkpt>
   <trkpt lat="-8.038821" lon="-34.894363">
    <ele>8.6</ele>
    <time>2020-01-15T12:49:10.000Z</time>
   </trkpt>
   <trkpt lat="-8.038854" lon="-34.894383">
    <ele>8.7</ele>
    <time>2020-01-15T12:49:11.000Z</time>
   </trkpt>
   <trkpt lat="-8.038889" lon="-34.894388">
    <ele>8.7</ele>
    <time>2020-01-15T12:49:12.000Z</time>
   </trkpt>
   <trkpt lat="-8.038934" lon="-34.894389">
    <ele>8.7</ele>
    <time>2020-01-15T12:49:13.000Z</time>
   </trkpt>
   <trkpt lat="-8.038987" lon="-34.894386">
    <ele>8.8</ele>
    <time>2020-01-15T12:49:14.000Z</time>
   </trkpt>
   <trkpt lat="-8.039037" lon="-34.894386">
    <ele>8.9</ele>
    <time>2020-01-15T12:49:15.000Z</time>
   </trkpt>
   <trkpt lat="-8.039085" lon="-34.894391">
    <ele>9</ele>
    <time>2020-01-15T12:49:16.000Z</time>
   </trkpt>
   <trkpt lat="-8.039115" lon="-34.894433">
    <ele>9.1</ele>
    <time>2020-01-15T12:49:17.000Z</time>
   </trkpt>
   <trkpt lat="-8.039157" lon="-34.894443">
    <ele>9.1</ele>
    <time>2020-01-15T12:49:18.000Z</time>
   </trkpt>
   <trkpt lat="-8.039195" lon="-34.894475">
    <ele>9.2</ele>
    <time>2020-01-15T12:49:19.000Z</time>
   </trkpt>
   <trkpt lat="-8.039246" lon="-34.894485">
    <ele>9.3</ele>
    <time>2020-01-15T12:49:20.000Z</time>
   </trkpt>
   <trkpt lat="-8.039287" lon="-34.894488">
    <ele>9.3</ele>
    <time>2020-01-15T12:49:21.000Z</time>
   </trkpt>
   <trkpt lat="-8.039318" lon="-34.8945">
    <ele>9.3</ele>
    <time>2020-01-15T12:49:22.000Z</time>
   </trkpt>
   <trkpt lat="-8.039343" lon="-34.894517">
    <ele>9.3</ele>
    <time>2020-01-15T12:49:23.000Z</time>
   </trkpt>
   <trkpt lat="-8.039373" lon="-34.894529">
    <ele>9.8</ele>
    <time>2020-01-15T12:49:24.000Z</time>
   </trkpt>
   <trkpt lat="-8.03941" lon="-34.894582">
    <ele>10.8</ele>
    <time>2020-01-15T12:49:25.000Z</time>
   </trkpt>
   <trkpt lat="-8.03947" lon="-34.894591">
    <ele>11.6</ele>
    <time>2020-01-15T12:49:26.000Z</time>
   </trkpt>
   <trkpt lat="-8.039518" lon="-34.894601">
    <ele>12.1</ele>
    <time>2020-01-15T12:49:27.000Z</time>
   </trkpt>
   <trkpt lat="-8.039558" lon="-34.894617">
    <ele>12.6</ele>
    <time>2020-01-15T12:49:28.000Z</time>
   </trkpt>
   <trkpt lat="-8.039587" lon="-34.894632">
    <ele>13</ele>
    <time>2020-01-15T12:49:29.000Z</time>
   </trkpt>
   <trkpt lat="-8.039617" lon="-34.894649">
    <ele>13.4</ele>
    <time>2020-01-15T12:49:30.000Z</time>
   </trkpt>
   <trkpt lat="-8.039645" lon="-34.89467">
    <ele>13.9</ele>
    <time>2020-01-15T12:49:31.000Z</time>
   </trkpt>
   <trkpt lat="-8.039695" lon="-34.894676">
    <ele>14.4</ele>
    <time>2020-01-15T12:49:32.000Z</time>
   </trkpt>
   <trkpt lat="-8.039772" lon="-34.894696">
    <ele>15.1</ele>
    <time>2020-01-15T12:49:33.000Z</time>
   </trkpt>
   <trkpt lat="-8.039815" lon="-34.894708">
    <ele>15.6</ele>
    <time>2020-01-15T12:49:34.000Z</time>
   </trkpt>
   <trkpt lat="-8.039881" lon="-34.894737">
    <ele>16.4</ele>
    <time>2020-01-15T12:49:35.000Z</time>
   </trkpt>
   <trkpt lat="-8.039932" lon="-34.894754">
    <ele>17</ele>
    <time>2020-01-15T12:49:36.000Z</time>
   </trkpt>
   <trkpt lat="-8.039981" lon="-34.89475">
    <ele>17.5</ele>
    <time>2020-01-15T12:49:37.000Z</time>
   </trkpt>
   <trkpt lat="-8.040028" lon="-34.894737">
    <ele>18</ele>
    <time>2020-01-15T12:49:38.000Z</time>
   </trkpt>
   <trkpt lat="-8.040078" lon="-34.894724">
    <ele>18.7</ele>
    <time>2020-01-15T12:49:39.000Z</time>
   </trkpt>
   <trkpt lat="-8.040124" lon="-34.894697">
    <ele>18.9</ele>
    <time>2020-01-15T12:49:40.000Z</time>
   </trkpt>
   <trkpt lat="-8.040174" lon="-34.894678">
    <ele>19</ele>
    <time>2020-01-15T12:49:41.000Z</time>
   </trkpt>
   <trkpt lat="-8.040226" lon="-34.894672">
    <ele>19.2</ele>
    <time>2020-01-15T12:49:42.000Z</time>
   </trkpt>
   <trkpt lat="-8.040273" lon="-34.894661">
    <ele>19.3</ele>
    <time>2020-01-15T12:49:43.000Z</time>
   </trkpt>
   <trkpt lat="-8.04031" lon="-34.89466">
    <ele>19.4</ele>
    <time>2020-01-15T12:49:44.000Z</time>
   </trkpt>
   <trkpt lat="-8.040352" lon="-34.894656">
    <ele>19.2</ele>
    <time>2020-01-15T12:49:45.000Z</time>
   </trkpt>
   <trkpt lat="-8.040396" lon="-34.894635">
    <ele>19</ele>
    <time>2020-01-15T12:49:46.000Z</time>
   </trkpt>
   <trkpt lat="-8.040437" lon="-34.894618">
    <ele>18.9</ele>
    <time>2020-01-15T12:49:47.000Z</time>
   </trkpt>
   <trkpt lat="-8.040476" lon="-34.894599">
    <ele>18.8</ele>
    <time>2020-01-15T12:49:48.000Z</time>
   </trkpt>
   <trkpt lat="-8.040521" lon="-34.89458">
    <ele>18.7</ele>
    <time>2020-01-15T12:49:49.000Z</time>
   </trkpt>
   <trkpt lat="-8.040558" lon="-34.894562">
    <ele>18.6</ele>
    <time>2020-01-15T12:49:50.000Z</time>
   </trkpt>
   <trkpt lat="-8.040603" lon="-34.894545">
    <ele>18.5</ele>
    <time>2020-01-15T12:49:51.000Z</time>
   </trkpt>
   <trkpt lat="-8.040642" lon="-34.89453">
    <ele>18.4</ele>
    <time>2020-01-15T12:49:52.000Z</time>
   </trkpt>
   <trkpt lat="-8.040681" lon="-34.894512">
    <ele>18.3</ele>
    <time>2020-01-15T12:49:53.000Z</time>
   </trkpt>
   <trkpt lat="-8.040721" lon="-34.894498">
    <ele>18.2</ele>
    <time>2020-01-15T12:49:54.000Z</time>
   </trkpt>
   <trkpt lat="-8.040766" lon="-34.894487">
    <ele>18</ele>
    <time>2020-01-15T12:49:55.000Z</time>
   </trkpt>
   <trkpt lat="-8.040831" lon="-34.894517">
    <ele>17.9</ele>
    <time>2020-01-15T12:49:56.000Z</time>
   </trkpt>
   <trkpt lat="-8.040866" lon="-34.894494">
    <ele>17.8</ele>
    <time>2020-01-15T12:49:57.000Z</time>
   </trkpt>
   <trkpt lat="-8.040908" lon="-34.894451">
    <ele>17.6</ele>
    <time>2020-01-15T12:49:58.000Z</time>
   </trkpt>
   <trkpt lat="-8.040938" lon="-34.894422">
    <ele>17.5</ele>
    <time>2020-01-15T12:49:59.000Z</time>
   </trkpt>
   <trkpt lat="-8.040962" lon="-34.894401">
    <ele>17.5</ele>
    <time>2020-01-15T12:50:00.000Z</time>
   </trkpt>
   <trkpt lat="-8.040982" lon="-34.89438">
    <ele>17.4</ele>
    <time>2020-01-15T12:50:01.000Z</time>
   </trkpt>
   <trkpt lat="-8.041005" lon="-34.894362">
    <ele>17.4</ele>
    <time>2020-01-15T12:50:03.000Z</time>
   </trkpt>
   <trkpt lat="-8.041029" lon="-34.894337">
    <ele>17.4</ele>
    <time>2020-01-15T12:50:05.000Z</time>
   </trkpt>
   <trkpt lat="-8.041053" lon="-34.894312">
    <ele>17.4</ele>
    <time>2020-01-15T12:50:07.000Z</time>
   </trkpt>
   <trkpt lat="-8.041084" lon="-34.89429">
    <ele>17.4</ele>
    <time>2020-01-15T12:50:11.000Z</time>
   </trkpt>
   <trkpt lat="-8.041101" lon="-34.894267">
    <ele>17.3</ele>
    <time>2020-01-15T12:50:12.000Z</time>
   </trkpt>
   <trkpt lat="-8.041118" lon="-34.894243">
    <ele>17.3</ele>
    <time>2020-01-15T12:50:13.000Z</time>
   </trkpt>
   <trkpt lat="-8.041136" lon="-34.894217">
    <ele>17.3</ele>
    <time>2020-01-15T12:50:14.000Z</time>
   </trkpt>
   <trkpt lat="-8.041161" lon="-34.894188">
    <ele>17.3</ele>
    <time>2020-01-15T12:50:15.000Z</time>
   </trkpt>
   <trkpt lat="-8.041177" lon="-34.894136">
    <ele>17.3</ele>
    <time>2020-01-15T12:50:16.000Z</time>
   </trkpt>
   <trkpt lat="-8.041214" lon="-34.894098">
    <ele>17.3</ele>
    <time>2020-01-15T12:50:17.000Z</time>
   </trkpt>
   <trkpt lat="-8.041248" lon="-34.894052">
    <ele>17.3</ele>
    <time>2020-01-15T12:50:18.000Z</time>
   </trkpt>
   <trkpt lat="-8.041274" lon="-34.894001">
    <ele>17.3</ele>
    <time>2020-01-15T12:50:19.000Z</time>
   </trkpt>
   <trkpt lat="-8.041316" lon="-34.893949">
    <ele>17.4</ele>
    <time>2020-01-15T12:50:20.000Z</time>
   </trkpt>
   <trkpt lat="-8.041354" lon="-34.893895">
    <ele>17.5</ele>
    <time>2020-01-15T12:50:21.000Z</time>
   </trkpt>
   <trkpt lat="-8.041391" lon="-34.893845">
    <ele>17.7</ele>
    <time>2020-01-15T12:50:22.000Z</time>
   </trkpt>
   <trkpt lat="-8.041426" lon="-34.893798">
    <ele>18</ele>
    <time>2020-01-15T12:50:23.000Z</time>
   </trkpt>
   <trkpt lat="-8.041463" lon="-34.893751">
    <ele>18.2</ele>
    <time>2020-01-15T12:50:24.000Z</time>
   </trkpt>
   <trkpt lat="-8.041498" lon="-34.893696">
    <ele>17.8</ele>
    <time>2020-01-15T12:50:25.000Z</time>
   </trkpt>
   <trkpt lat="-8.041537" lon="-34.893656">
    <ele>17.7</ele>
    <time>2020-01-15T12:50:26.000Z</time>
   </trkpt>
   <trkpt lat="-8.041558" lon="-34.893617">
    <ele>17.6</ele>
    <time>2020-01-15T12:50:27.000Z</time>
   </trkpt>
   <trkpt lat="-8.041587" lon="-34.893579">
    <ele>17.5</ele>
    <time>2020-01-15T12:50:28.000Z</time>
   </trkpt>
   <trkpt lat="-8.041618" lon="-34.893537">
    <ele>17.4</ele>
    <time>2020-01-15T12:50:29.000Z</time>
   </trkpt>
   <trkpt lat="-8.041646" lon="-34.893499">
    <ele>17.3</ele>
    <time>2020-01-15T12:50:30.000Z</time>
   </trkpt>
   <trkpt lat="-8.041679" lon="-34.893451">
    <ele>17.3</ele>
    <time>2020-01-15T12:50:31.000Z</time>
   </trkpt>
   <trkpt lat="-8.041705" lon="-34.893401">
    <ele>17.2</ele>
    <time>2020-01-15T12:50:32.000Z</time>
   </trkpt>
   <trkpt lat="-8.041733" lon="-34.893359">
    <ele>17.2</ele>
    <time>2020-01-15T12:50:33.000Z</time>
   </trkpt>
   <trkpt lat="-8.041754" lon="-34.893314">
    <ele>17.1</ele>
    <time>2020-01-15T12:50:34.000Z</time>
   </trkpt>
   <trkpt lat="-8.041778" lon="-34.893272">
    <ele>17.1</ele>
    <time>2020-01-15T12:50:35.000Z</time>
   </trkpt>
   <trkpt lat="-8.041804" lon="-34.89323">
    <ele>17.1</ele>
    <time>2020-01-15T12:50:36.000Z</time>
   </trkpt>
   <trkpt lat="-8.041839" lon="-34.893196">
    <ele>17.1</ele>
    <time>2020-01-15T12:50:37.000Z</time>
   </trkpt>
   <trkpt lat="-8.041886" lon="-34.893175">
    <ele>17.1</ele>
    <time>2020-01-15T12:50:38.000Z</time>
   </trkpt>
   <trkpt lat="-8.041911" lon="-34.893131">
    <ele>17.1</ele>
    <time>2020-01-15T12:50:39.000Z</time>
   </trkpt>
   <trkpt lat="-8.041938" lon="-34.893095">
    <ele>17.1</ele>
    <time>2020-01-15T12:50:40.000Z</time>
   </trkpt>
   <trkpt lat="-8.041963" lon="-34.893069">
    <ele>17.1</ele>
    <time>2020-01-15T12:50:41.000Z</time>
   </trkpt>
   <trkpt lat="-8.041999" lon="-34.893029">
    <ele>17.1</ele>
    <time>2020-01-15T12:50:43.000Z</time>
   </trkpt>
   <trkpt lat="-8.042013" lon="-34.892993">
    <ele>17</ele>
    <time>2020-01-15T12:50:44.000Z</time>
   </trkpt>
   <trkpt lat="-8.042031" lon="-34.892967">
    <ele>17</ele>
    <time>2020-01-15T12:50:45.000Z</time>
   </trkpt>
   <trkpt lat="-8.04206" lon="-34.892911">
    <ele>17</ele>
    <time>2020-01-15T12:50:47.000Z</time>
   </trkpt>
   <trkpt lat="-8.042091" lon="-34.892872">
    <ele>17</ele>
    <time>2020-01-15T12:50:48.000Z</time>
   </trkpt>
   <trkpt lat="-8.042117" lon="-34.892857">
    <ele>17</ele>
    <time>2020-01-15T12:50:49.000Z</time>
   </trkpt>
   <trkpt lat="-8.042129" lon="-34.892827">
    <ele>17</ele>
    <time>2020-01-15T12:50:52.000Z</time>
   </trkpt>
   <trkpt lat="-8.042133" lon="-34.8928">
    <ele>17</ele>
    <time>2020-01-15T12:50:53.000Z</time>
   </trkpt>
   <trkpt lat="-8.042143" lon="-34.892755">
    <ele>17</ele>
    <time>2020-01-15T12:50:55.000Z</time>
   </trkpt>
   <trkpt lat="-8.042161" lon="-34.89272">
    <ele>17</ele>
    <time>2020-01-15T12:50:58.000Z</time>
   </trkpt>
   <trkpt lat="-8.042178" lon="-34.892697">
    <ele>17</ele>
    <time>2020-01-15T12:51:00.000Z</time>
   </trkpt>
   <trkpt lat="-8.042194" lon="-34.892657">
    <ele>17</ele>
    <time>2020-01-15T12:51:03.000Z</time>
   </trkpt>
   <trkpt lat="-8.042208" lon="-34.892652">
    <ele>17</ele>
    <time>2020-01-15T12:51:08.000Z</time>
   </trkpt>
   <trkpt lat="-8.04229" lon="-34.892555">
    <ele>17</ele>
    <time>2020-01-15T12:51:23.000Z</time>
   </trkpt>
   <trkpt lat="-8.042314" lon="-34.892532">
    <ele>17</ele>
    <time>2020-01-15T12:51:24.000Z</time>
   </trkpt>
   <trkpt lat="-8.042339" lon="-34.892503">
    <ele>16.8</ele>
    <time>2020-01-15T12:51:25.000Z</time>
   </trkpt>
   <trkpt lat="-8.042361" lon="-34.892468">
    <ele>16.7</ele>
    <time>2020-01-15T12:51:26.000Z</time>
   </trkpt>
   <trkpt lat="-8.042383" lon="-34.892435">
    <ele>16.6</ele>
    <time>2020-01-15T12:51:27.000Z</time>
   </trkpt>
   <trkpt lat="-8.042405" lon="-34.892407">
    <ele>16.5</ele>
    <time>2020-01-15T12:51:28.000Z</time>
   </trkpt>
   <trkpt lat="-8.042437" lon="-34.892379">
    <ele>16.3</ele>
    <time>2020-01-15T12:51:29.000Z</time>
   </trkpt>
   <trkpt lat="-8.042475" lon="-34.892344">
    <ele>16.2</ele>
    <time>2020-01-15T12:51:30.000Z</time>
   </trkpt>
   <trkpt lat="-8.042508" lon="-34.892311">
    <ele>16</ele>
    <time>2020-01-15T12:51:31.000Z</time>
   </trkpt>
   <trkpt lat="-8.042541" lon="-34.892279">
    <ele>15.7</ele>
    <time>2020-01-15T12:51:32.000Z</time>
   </trkpt>
   <trkpt lat="-8.042568" lon="-34.892245">
    <ele>15.6</ele>
    <time>2020-01-15T12:51:33.000Z</time>
   </trkpt>
   <trkpt lat="-8.042591" lon="-34.892217">
    <ele>15.4</ele>
    <time>2020-01-15T12:51:34.000Z</time>
   </trkpt>
   <trkpt lat="-8.042609" lon="-34.892191">
    <ele>15.3</ele>
    <time>2020-01-15T12:51:35.000Z</time>
   </trkpt>
   <trkpt lat="-8.042632" lon="-34.892161">
    <ele>15.2</ele>
    <time>2020-01-15T12:51:36.000Z</time>
   </trkpt>
   <trkpt lat="-8.042663" lon="-34.892128">
    <ele>15.1</ele>
    <time>2020-01-15T12:51:37.000Z</time>
   </trkpt>
   <trkpt lat="-8.042693" lon="-34.892094">
    <ele>15</ele>
    <time>2020-01-15T12:51:38.000Z</time>
   </trkpt>
   <trkpt lat="-8.042725" lon="-34.892059">
    <ele>14.9</ele>
    <time>2020-01-15T12:51:39.000Z</time>
   </trkpt>
   <trkpt lat="-8.04276" lon="-34.892022">
    <ele>14.9</ele>
    <time>2020-01-15T12:51:40.000Z</time>
   </trkpt>
   <trkpt lat="-8.042797" lon="-34.891985">
    <ele>14.8</ele>
    <time>2020-01-15T12:51:41.000Z</time>
   </trkpt>
   <trkpt lat="-8.042826" lon="-34.891953">
    <ele>14.8</ele>
    <time>2020-01-15T12:51:42.000Z</time>
   </trkpt>
   <trkpt lat="-8.042845" lon="-34.891918">
    <ele>14.7</ele>
    <time>2020-01-15T12:51:43.000Z</time>
   </trkpt>
   <trkpt lat="-8.042876" lon="-34.891848">
    <ele>14.7</ele>
    <time>2020-01-15T12:51:44.000Z</time>
   </trkpt>
   <trkpt lat="-8.04291" lon="-34.891783">
    <ele>14.7</ele>
    <time>2020-01-15T12:51:45.000Z</time>
   </trkpt>
   <trkpt lat="-8.042935" lon="-34.891734">
    <ele>14.6</ele>
    <time>2020-01-15T12:51:46.000Z</time>
   </trkpt>
   <trkpt lat="-8.042981" lon="-34.891696">
    <ele>14.6</ele>
    <time>2020-01-15T12:51:47.000Z</time>
   </trkpt>
   <trkpt lat="-8.043011" lon="-34.891654">
    <ele>14.5</ele>
    <time>2020-01-15T12:51:48.000Z</time>
   </trkpt>
   <trkpt lat="-8.043055" lon="-34.891603">
    <ele>14.4</ele>
    <time>2020-01-15T12:51:49.000Z</time>
   </trkpt>
   <trkpt lat="-8.043096" lon="-34.891565">
    <ele>14.4</ele>
    <time>2020-01-15T12:51:50.000Z</time>
   </trkpt>
   <trkpt lat="-8.043128" lon="-34.891527">
    <ele>14.3</ele>
    <time>2020-01-15T12:51:51.000Z</time>
   </trkpt>
   <trkpt lat="-8.043174" lon="-34.891486">
    <ele>14.2</ele>
    <time>2020-01-15T12:51:52.000Z</time>
   </trkpt>
   <trkpt lat="-8.043229" lon="-34.891448">
    <ele>14.1</ele>
    <time>2020-01-15T12:51:53.000Z</time>
   </trkpt>
   <trkpt lat="-8.04327" lon="-34.891414">
    <ele>14</ele>
    <time>2020-01-15T12:51:54.000Z</time>
   </trkpt>
   <trkpt lat="-8.043308" lon="-34.891387">
    <ele>13.9</ele>
    <time>2020-01-15T12:51:55.000Z</time>
   </trkpt>
   <trkpt lat="-8.043347" lon="-34.891363">
    <ele>13.8</ele>
    <time>2020-01-15T12:51:56.000Z</time>
   </trkpt>
   <trkpt lat="-8.043379" lon="-34.891335">
    <ele>13.8</ele>
    <time>2020-01-15T12:51:57.000Z</time>
   </trkpt>
   <trkpt lat="-8.043414" lon="-34.891311">
    <ele>13.7</ele>
    <time>2020-01-15T12:51:58.000Z</time>
   </trkpt>
   <trkpt lat="-8.043448" lon="-34.891291">
    <ele>13.7</ele>
    <time>2020-01-15T12:51:59.000Z</time>
   </trkpt>
   <trkpt lat="-8.043471" lon="-34.891259">
    <ele>13.7</ele>
    <time>2020-01-15T12:52:00.000Z</time>
   </trkpt>
   <trkpt lat="-8.043504" lon="-34.891225">
    <ele>13.6</ele>
    <time>2020-01-15T12:52:01.000Z</time>
   </trkpt>
   <trkpt lat="-8.04354" lon="-34.891161">
    <ele>13.6</ele>
    <time>2020-01-15T12:52:02.000Z</time>
   </trkpt>
   <trkpt lat="-8.043582" lon="-34.891118">
    <ele>13.6</ele>
    <time>2020-01-15T12:52:03.000Z</time>
   </trkpt>
   <trkpt lat="-8.043645" lon="-34.891072">
    <ele>13.5</ele>
    <time>2020-01-15T12:52:04.000Z</time>
   </trkpt>
   <trkpt lat="-8.043712" lon="-34.891044">
    <ele>13.5</ele>
    <time>2020-01-15T12:52:05.000Z</time>
   </trkpt>
   <trkpt lat="-8.043761" lon="-34.891001">
    <ele>13.5</ele>
    <time>2020-01-15T12:52:06.000Z</time>
   </trkpt>
   <trkpt lat="-8.0438" lon="-34.890958">
    <ele>13.4</ele>
    <time>2020-01-15T12:52:07.000Z</time>
   </trkpt>
   <trkpt lat="-8.04384" lon="-34.890917">
    <ele>13.4</ele>
    <time>2020-01-15T12:52:08.000Z</time>
   </trkpt>
   <trkpt lat="-8.04387" lon="-34.890879">
    <ele>13.3</ele>
    <time>2020-01-15T12:52:09.000Z</time>
   </trkpt>
   <trkpt lat="-8.043886" lon="-34.890851">
    <ele>13.2</ele>
    <time>2020-01-15T12:52:10.000Z</time>
   </trkpt>
   <trkpt lat="-8.043914" lon="-34.890832">
    <ele>13.1</ele>
    <time>2020-01-15T12:52:11.000Z</time>
   </trkpt>
   <trkpt lat="-8.043931" lon="-34.890808">
    <ele>13</ele>
    <time>2020-01-15T12:52:12.000Z</time>
   </trkpt>
   <trkpt lat="-8.043957" lon="-34.890765">
    <ele>12.9</ele>
    <time>2020-01-15T12:52:13.000Z</time>
   </trkpt>
   <trkpt lat="-8.04399" lon="-34.890726">
    <ele>12.8</ele>
    <time>2020-01-15T12:52:14.000Z</time>
   </trkpt>
   <trkpt lat="-8.044038" lon="-34.890682">
    <ele>12.6</ele>
    <time>2020-01-15T12:52:15.000Z</time>
   </trkpt>
   <trkpt lat="-8.04409" lon="-34.890629">
    <ele>12.4</ele>
    <time>2020-01-15T12:52:16.000Z</time>
   </trkpt>
   <trkpt lat="-8.044139" lon="-34.890592">
    <ele>12.1</ele>
    <time>2020-01-15T12:52:17.000Z</time>
   </trkpt>
   <trkpt lat="-8.044189" lon="-34.890547">
    <ele>11.8</ele>
    <time>2020-01-15T12:52:18.000Z</time>
   </trkpt>
   <trkpt lat="-8.044239" lon="-34.890491">
    <ele>11.4</ele>
    <time>2020-01-15T12:52:19.000Z</time>
   </trkpt>
   <trkpt lat="-8.044288" lon="-34.890436">
    <ele>11</ele>
    <time>2020-01-15T12:52:20.000Z</time>
   </trkpt>
   <trkpt lat="-8.044337" lon="-34.890381">
    <ele>10.6</ele>
    <time>2020-01-15T12:52:21.000Z</time>
   </trkpt>
   <trkpt lat="-8.044391" lon="-34.890332">
    <ele>10.1</ele>
    <time>2020-01-15T12:52:22.000Z</time>
   </trkpt>
   <trkpt lat="-8.044455" lon="-34.890267">
    <ele>9.6</ele>
    <time>2020-01-15T12:52:23.000Z</time>
   </trkpt>
   <trkpt lat="-8.044515" lon="-34.890209">
    <ele>8.6</ele>
    <time>2020-01-15T12:52:24.000Z</time>
   </trkpt>
   <trkpt lat="-8.044578" lon="-34.890159">
    <ele>8.6</ele>
    <time>2020-01-15T12:52:25.000Z</time>
   </trkpt>
   <trkpt lat="-8.044646" lon="-34.890118">
    <ele>7.9</ele>
    <time>2020-01-15T12:52:26.000Z</time>
   </trkpt>
   <trkpt lat="-8.044706" lon="-34.890089">
    <ele>7.6</ele>
    <time>2020-01-15T12:52:27.000Z</time>
   </trkpt>
   <trkpt lat="-8.044766" lon="-34.890067">
    <ele>7.4</ele>
    <time>2020-01-15T12:52:28.000Z</time>
   </trkpt>
   <trkpt lat="-8.044833" lon="-34.890054">
    <ele>7.1</ele>
    <time>2020-01-15T12:52:29.000Z</time>
   </trkpt>
   <trkpt lat="-8.044901" lon="-34.890055">
    <ele>6.8</ele>
    <time>2020-01-15T12:52:30.000Z</time>
   </trkpt>
   <trkpt lat="-8.044961" lon="-34.890059">
    <ele>6.5</ele>
    <time>2020-01-15T12:52:31.000Z</time>
   </trkpt>
   <trkpt lat="-8.045032" lon="-34.890052">
    <ele>6.3</ele>
    <time>2020-01-15T12:52:32.000Z</time>
   </trkpt>
   <trkpt lat="-8.045094" lon="-34.890044">
    <ele>6.2</ele>
    <time>2020-01-15T12:52:33.000Z</time>
   </trkpt>
   <trkpt lat="-8.045154" lon="-34.890032">
    <ele>6.2</ele>
    <time>2020-01-15T12:52:34.000Z</time>
   </trkpt>
   <trkpt lat="-8.045192" lon="-34.890037">
    <ele>6.1</ele>
    <time>2020-01-15T12:52:35.000Z</time>
   </trkpt>
   <trkpt lat="-8.045249" lon="-34.890028">
    <ele>6</ele>
    <time>2020-01-15T12:52:36.000Z</time>
   </trkpt>
   <trkpt lat="-8.045328" lon="-34.890017">
    <ele>6.6</ele>
    <time>2020-01-15T12:52:37.000Z</time>
   </trkpt>
   <trkpt lat="-8.045405" lon="-34.890006">
    <ele>6.9</ele>
    <time>2020-01-15T12:52:38.000Z</time>
   </trkpt>
   <trkpt lat="-8.045476" lon="-34.889989">
    <ele>7.3</ele>
    <time>2020-01-15T12:52:39.000Z</time>
   </trkpt>
   <trkpt lat="-8.045562" lon="-34.889982">
    <ele>7.7</ele>
    <time>2020-01-15T12:52:40.000Z</time>
   </trkpt>
   <trkpt lat="-8.045641" lon="-34.889976">
    <ele>8.1</ele>
    <time>2020-01-15T12:52:41.000Z</time>
   </trkpt>
   <trkpt lat="-8.045715" lon="-34.88997">
    <ele>8.5</ele>
    <time>2020-01-15T12:52:42.000Z</time>
   </trkpt>
   <trkpt lat="-8.045789" lon="-34.889973">
    <ele>9</ele>
    <time>2020-01-15T12:52:43.000Z</time>
   </trkpt>
   <trkpt lat="-8.045859" lon="-34.889968">
    <ele>9.4</ele>
    <time>2020-01-15T12:52:44.000Z</time>
   </trkpt>
   <trkpt lat="-8.045921" lon="-34.889964">
    <ele>9.5</ele>
    <time>2020-01-15T12:52:45.000Z</time>
   </trkpt>
   <trkpt lat="-8.045993" lon="-34.889952">
    <ele>9.5</ele>
    <time>2020-01-15T12:52:46.000Z</time>
   </trkpt>
   <trkpt lat="-8.046078" lon="-34.889948">
    <ele>9.5</ele>
    <time>2020-01-15T12:52:47.000Z</time>
   </trkpt>
   <trkpt lat="-8.046141" lon="-34.889944">
    <ele>9.6</ele>
    <time>2020-01-15T12:52:48.000Z</time>
   </trkpt>
   <trkpt lat="-8.04621" lon="-34.889942">
    <ele>9.6</ele>
    <time>2020-01-15T12:52:49.000Z</time>
   </trkpt>
   <trkpt lat="-8.046279" lon="-34.889932">
    <ele>9.6</ele>
    <time>2020-01-15T12:52:50.000Z</time>
   </trkpt>
   <trkpt lat="-8.046346" lon="-34.889922">
    <ele>9.7</ele>
    <time>2020-01-15T12:52:51.000Z</time>
   </trkpt>
   <trkpt lat="-8.046406" lon="-34.889919">
    <ele>9.7</ele>
    <time>2020-01-15T12:52:52.000Z</time>
   </trkpt>
   <trkpt lat="-8.046451" lon="-34.889917">
    <ele>9.7</ele>
    <time>2020-01-15T12:52:53.000Z</time>
   </trkpt>
   <trkpt lat="-8.046484" lon="-34.889912">
    <ele>9.8</ele>
    <time>2020-01-15T12:52:54.000Z</time>
   </trkpt>
   <trkpt lat="-8.046516" lon="-34.889905">
    <ele>9.8</ele>
    <time>2020-01-15T12:52:56.000Z</time>
   </trkpt>
   <trkpt lat="-8.046557" lon="-34.889892">
    <ele>9.8</ele>
    <time>2020-01-15T12:53:00.000Z</time>
   </trkpt>
   <trkpt lat="-8.046595" lon="-34.889887">
    <ele>9.9</ele>
    <time>2020-01-15T12:53:01.000Z</time>
   </trkpt>
   <trkpt lat="-8.046625" lon="-34.889888">
    <ele>9.9</ele>
    <time>2020-01-15T12:53:02.000Z</time>
   </trkpt>
   <trkpt lat="-8.046667" lon="-34.889882">
    <ele>10</ele>
    <time>2020-01-15T12:53:03.000Z</time>
   </trkpt>
   <trkpt lat="-8.046724" lon="-34.889871">
    <ele>10.1</ele>
    <time>2020-01-15T12:53:04.000Z</time>
   </trkpt>
   <trkpt lat="-8.046783" lon="-34.889862">
    <ele>10.2</ele>
    <time>2020-01-15T12:53:05.000Z</time>
   </trkpt>
   <trkpt lat="-8.046844" lon="-34.889832">
    <ele>10.4</ele>
    <time>2020-01-15T12:53:06.000Z</time>
   </trkpt>
   <trkpt lat="-8.046897" lon="-34.889825">
    <ele>10.5</ele>
    <time>2020-01-15T12:53:07.000Z</time>
   </trkpt>
   <trkpt lat="-8.046972" lon="-34.88984">
    <ele>10.6</ele>
    <time>2020-01-15T12:53:08.000Z</time>
   </trkpt>
   <trkpt lat="-8.047044" lon="-34.88985">
    <ele>10.7</ele>
    <time>2020-01-15T12:53:09.000Z</time>
   </trkpt>
   <trkpt lat="-8.047104" lon="-34.889855">
    <ele>10.8</ele>
    <time>2020-01-15T12:53:10.000Z</time>
   </trkpt>
   <trkpt lat="-8.047165" lon="-34.889853">
    <ele>10.8</ele>
    <time>2020-01-15T12:53:11.000Z</time>
   </trkpt>
   <trkpt lat="-8.04722" lon="-34.889851">
    <ele>10.9</ele>
    <time>2020-01-15T12:53:12.000Z</time>
   </trkpt>
   <trkpt lat="-8.047281" lon="-34.889847">
    <ele>10.9</ele>
    <time>2020-01-15T12:53:13.000Z</time>
   </trkpt>
   <trkpt lat="-8.047347" lon="-34.889846">
    <ele>11</ele>
    <time>2020-01-15T12:53:14.000Z</time>
   </trkpt>
   <trkpt lat="-8.047409" lon="-34.889838">
    <ele>11</ele>
    <time>2020-01-15T12:53:15.000Z</time>
   </trkpt>
   <trkpt lat="-8.047453" lon="-34.889835">
    <ele>11.1</ele>
    <time>2020-01-15T12:53:16.000Z</time>
   </trkpt>
   <trkpt lat="-8.047513" lon="-34.889831">
    <ele>11.1</ele>
    <time>2020-01-15T12:53:17.000Z</time>
   </trkpt>
   <trkpt lat="-8.047569" lon="-34.889827">
    <ele>11.1</ele>
    <time>2020-01-15T12:53:18.000Z</time>
   </trkpt>
   <trkpt lat="-8.047633" lon="-34.889819">
    <ele>11.2</ele>
    <time>2020-01-15T12:53:19.000Z</time>
   </trkpt>
   <trkpt lat="-8.047684" lon="-34.889809">
    <ele>11.2</ele>
    <time>2020-01-15T12:53:20.000Z</time>
   </trkpt>
   <trkpt lat="-8.047743" lon="-34.889806">
    <ele>11.2</ele>
    <time>2020-01-15T12:53:21.000Z</time>
   </trkpt>
   <trkpt lat="-8.047791" lon="-34.889798">
    <ele>11.2</ele>
    <time>2020-01-15T12:53:22.000Z</time>
   </trkpt>
   <trkpt lat="-8.047843" lon="-34.88979">
    <ele>11.1</ele>
    <time>2020-01-15T12:53:23.000Z</time>
   </trkpt>
   <trkpt lat="-8.047892" lon="-34.889788">
    <ele>11</ele>
    <time>2020-01-15T12:53:24.000Z</time>
   </trkpt>
   <trkpt lat="-8.047939" lon="-34.88978">
    <ele>10.8</ele>
    <time>2020-01-15T12:53:25.000Z</time>
   </trkpt>
   <trkpt lat="-8.04799" lon="-34.889769">
    <ele>10.7</ele>
    <time>2020-01-15T12:53:26.000Z</time>
   </trkpt>
   <trkpt lat="-8.048042" lon="-34.889755">
    <ele>10.5</ele>
    <time>2020-01-15T12:53:27.000Z</time>
   </trkpt>
   <trkpt lat="-8.048104" lon="-34.889749">
    <ele>10.3</ele>
    <time>2020-01-15T12:53:28.000Z</time>
   </trkpt>
   <trkpt lat="-8.048162" lon="-34.889744">
    <ele>10.2</ele>
    <time>2020-01-15T12:53:29.000Z</time>
   </trkpt>
   <trkpt lat="-8.048223" lon="-34.889746">
    <ele>10.1</ele>
    <time>2020-01-15T12:53:30.000Z</time>
   </trkpt>
   <trkpt lat="-8.048277" lon="-34.889748">
    <ele>10.4</ele>
    <time>2020-01-15T12:53:31.000Z</time>
   </trkpt>
   <trkpt lat="-8.048332" lon="-34.889752">
    <ele>10.8</ele>
    <time>2020-01-15T12:53:32.000Z</time>
   </trkpt>
   <trkpt lat="-8.048379" lon="-34.889768">
    <ele>11</ele>
    <time>2020-01-15T12:53:33.000Z</time>
   </trkpt>
   <trkpt lat="-8.04844" lon="-34.889773">
    <ele>11.3</ele>
    <time>2020-01-15T12:53:34.000Z</time>
   </trkpt>
   <trkpt lat="-8.048497" lon="-34.889793">
    <ele>11.6</ele>
    <time>2020-01-15T12:53:35.000Z</time>
   </trkpt>
   <trkpt lat="-8.048565" lon="-34.889798">
    <ele>11.9</ele>
    <time>2020-01-15T12:53:36.000Z</time>
   </trkpt>
   <trkpt lat="-8.048624" lon="-34.889811">
    <ele>12.2</ele>
    <time>2020-01-15T12:53:37.000Z</time>
   </trkpt>
   <trkpt lat="-8.048675" lon="-34.889819">
    <ele>12.6</ele>
    <time>2020-01-15T12:53:38.000Z</time>
   </trkpt>
   <trkpt lat="-8.048724" lon="-34.889856">
    <ele>13.1</ele>
    <time>2020-01-15T12:53:39.000Z</time>
   </trkpt>
   <trkpt lat="-8.048782" lon="-34.889865">
    <ele>13.5</ele>
    <time>2020-01-15T12:53:40.000Z</time>
   </trkpt>
   <trkpt lat="-8.048826" lon="-34.88987">
    <ele>13.8</ele>
    <time>2020-01-15T12:53:41.000Z</time>
   </trkpt>
   <trkpt lat="-8.048869" lon="-34.889881">
    <ele>14.2</ele>
    <time>2020-01-15T12:53:42.000Z</time>
   </trkpt>
   <trkpt lat="-8.048913" lon="-34.889895">
    <ele>14.6</ele>
    <time>2020-01-15T12:53:43.000Z</time>
   </trkpt>
   <trkpt lat="-8.048966" lon="-34.889902">
    <ele>15</ele>
    <time>2020-01-15T12:53:44.000Z</time>
   </trkpt>
   <trkpt lat="-8.049021" lon="-34.889911">
    <ele>14.7</ele>
    <time>2020-01-15T12:53:45.000Z</time>
   </trkpt>
   <trkpt lat="-8.04907" lon="-34.889931">
    <ele>14.5</ele>
    <time>2020-01-15T12:53:46.000Z</time>
   </trkpt>
   <trkpt lat="-8.049121" lon="-34.889952">
    <ele>14.3</ele>
    <time>2020-01-15T12:53:47.000Z</time>
   </trkpt>
   <trkpt lat="-8.049169" lon="-34.889963">
    <ele>14.2</ele>
    <time>2020-01-15T12:53:48.000Z</time>
   </trkpt>
   <trkpt lat="-8.049215" lon="-34.889961">
    <ele>14</ele>
    <time>2020-01-15T12:53:49.000Z</time>
   </trkpt>
   <trkpt lat="-8.049252" lon="-34.889965">
    <ele>13.9</ele>
    <time>2020-01-15T12:53:50.000Z</time>
   </trkpt>
   <trkpt lat="-8.049285" lon="-34.889954">
    <ele>13.7</ele>
    <time>2020-01-15T12:53:51.000Z</time>
   </trkpt>
   <trkpt lat="-8.049329" lon="-34.889959">
    <ele>13.5</ele>
    <time>2020-01-15T12:53:52.000Z</time>
   </trkpt>
   <trkpt lat="-8.049373" lon="-34.889962">
    <ele>13.3</ele>
    <time>2020-01-15T12:53:53.000Z</time>
   </trkpt>
   <trkpt lat="-8.049421" lon="-34.889969">
    <ele>13</ele>
    <time>2020-01-15T12:53:54.000Z</time>
   </trkpt>
   <trkpt lat="-8.049477" lon="-34.889965">
    <ele>12.8</ele>
    <time>2020-01-15T12:53:55.000Z</time>
   </trkpt>
   <trkpt lat="-8.049534" lon="-34.889966">
    <ele>12.5</ele>
    <time>2020-01-15T12:53:56.000Z</time>
   </trkpt>
   <trkpt lat="-8.049591" lon="-34.889971">
    <ele>12.2</ele>
    <time>2020-01-15T12:53:57.000Z</time>
   </trkpt>
   <trkpt lat="-8.049656" lon="-34.889985">
    <ele>11.8</ele>
    <time>2020-01-15T12:53:58.000Z</time>
   </trkpt>
   <trkpt lat="-8.04972" lon="-34.889992">
    <ele>11.3</ele>
    <time>2020-01-15T12:53:59.000Z</time>
   </trkpt>
   <trkpt lat="-8.049782" lon="-34.889998">
    <ele>11.1</ele>
    <time>2020-01-15T12:54:00.000Z</time>
   </trkpt>
   <trkpt lat="-8.049839" lon="-34.890004">
    <ele>11</ele>
    <time>2020-01-15T12:54:01.000Z</time>
   </trkpt>
   <trkpt lat="-8.049889" lon="-34.890002">
    <ele>10.9</ele>
    <time>2020-01-15T12:54:02.000Z</time>
   </trkpt>
   <trkpt lat="-8.049937" lon="-34.890001">
    <ele>10.8</ele>
    <time>2020-01-15T12:54:03.000Z</time>
   </trkpt>
   <trkpt lat="-8.049981" lon="-34.889998">
    <ele>10.7</ele>
    <time>2020-01-15T12:54:04.000Z</time>
   </trkpt>
   <trkpt lat="-8.050027" lon="-34.890003">
    <ele>10.6</ele>
    <time>2020-01-15T12:54:05.000Z</time>
   </trkpt>
   <trkpt lat="-8.050072" lon="-34.890001">
    <ele>10.6</ele>
    <time>2020-01-15T12:54:06.000Z</time>
   </trkpt>
   <trkpt lat="-8.050126" lon="-34.890014">
    <ele>10.5</ele>
    <time>2020-01-15T12:54:07.000Z</time>
   </trkpt>
   <trkpt lat="-8.050184" lon="-34.890037">
    <ele>10.5</ele>
    <time>2020-01-15T12:54:08.000Z</time>
   </trkpt>
   <trkpt lat="-8.0502" lon="-34.890061">
    <ele>10.5</ele>
    <time>2020-01-15T12:54:09.000Z</time>
   </trkpt>
   <trkpt lat="-8.050203" lon="-34.890099">
    <ele>10.5</ele>
    <time>2020-01-15T12:54:10.000Z</time>
   </trkpt>
   <trkpt lat="-8.050199" lon="-34.890147">
    <ele>10.5</ele>
    <time>2020-01-15T12:54:11.000Z</time>
   </trkpt>
   <trkpt lat="-8.050189" lon="-34.8902">
    <ele>10.5</ele>
    <time>2020-01-15T12:54:12.000Z</time>
   </trkpt>
   <trkpt lat="-8.050179" lon="-34.890255">
    <ele>10.5</ele>
    <time>2020-01-15T12:54:13.000Z</time>
   </trkpt>
   <trkpt lat="-8.05015" lon="-34.890313">
    <ele>10.5</ele>
    <time>2020-01-15T12:54:14.000Z</time>
   </trkpt>
   <trkpt lat="-8.050142" lon="-34.890366">
    <ele>10.5</ele>
    <time>2020-01-15T12:54:15.000Z</time>
   </trkpt>
   <trkpt lat="-8.050133" lon="-34.890421">
    <ele>10.5</ele>
    <time>2020-01-15T12:54:16.000Z</time>
   </trkpt>
   <trkpt lat="-8.050125" lon="-34.890479">
    <ele>10.5</ele>
    <time>2020-01-15T12:54:17.000Z</time>
   </trkpt>
   <trkpt lat="-8.050112" lon="-34.890541">
    <ele>10.5</ele>
    <time>2020-01-15T12:54:18.000Z</time>
   </trkpt>
   <trkpt lat="-8.050105" lon="-34.890605">
    <ele>10.5</ele>
    <time>2020-01-15T12:54:19.000Z</time>
   </trkpt>
   <trkpt lat="-8.050081" lon="-34.890668">
    <ele>10.5</ele>
    <time>2020-01-15T12:54:20.000Z</time>
   </trkpt>
   <trkpt lat="-8.050077" lon="-34.890732">
    <ele>10.5</ele>
    <time>2020-01-15T12:54:21.000Z</time>
   </trkpt>
   <trkpt lat="-8.050084" lon="-34.890793">
    <ele>10.6</ele>
    <time>2020-01-15T12:54:22.000Z</time>
   </trkpt>
   <trkpt lat="-8.05008" lon="-34.890849">
    <ele>10.6</ele>
    <time>2020-01-15T12:54:23.000Z</time>
   </trkpt>
   <trkpt lat="-8.050077" lon="-34.89091">
    <ele>10.6</ele>
    <time>2020-01-15T12:54:24.000Z</time>
   </trkpt>
   <trkpt lat="-8.050079" lon="-34.890982">
    <ele>10.6</ele>
    <time>2020-01-15T12:54:25.000Z</time>
   </trkpt>
   <trkpt lat="-8.050081" lon="-34.891045">
    <ele>10.6</ele>
    <time>2020-01-15T12:54:26.000Z</time>
   </trkpt>
   <trkpt lat="-8.050071" lon="-34.891096">
    <ele>10.6</ele>
    <time>2020-01-15T12:54:27.000Z</time>
   </trkpt>
   <trkpt lat="-8.050069" lon="-34.891151">
    <ele>10.6</ele>
    <time>2020-01-15T12:54:28.000Z</time>
   </trkpt>
   <trkpt lat="-8.050063" lon="-34.891219">
    <ele>10.6</ele>
    <time>2020-01-15T12:54:29.000Z</time>
   </trkpt>
   <trkpt lat="-8.050058" lon="-34.891286">
    <ele>10.6</ele>
    <time>2020-01-15T12:54:30.000Z</time>
   </trkpt>
   <trkpt lat="-8.050049" lon="-34.891355">
    <ele>10.6</ele>
    <time>2020-01-15T12:54:31.000Z</time>
   </trkpt>
   <trkpt lat="-8.050037" lon="-34.891424">
    <ele>10.6</ele>
    <time>2020-01-15T12:54:32.000Z</time>
   </trkpt>
   <trkpt lat="-8.05003" lon="-34.891488">
    <ele>10.6</ele>
    <time>2020-01-15T12:54:33.000Z</time>
   </trkpt>
   <trkpt lat="-8.050024" lon="-34.89155">
    <ele>10.6</ele>
    <time>2020-01-15T12:54:34.000Z</time>
   </trkpt>
   <trkpt lat="-8.050021" lon="-34.891609">
    <ele>10.6</ele>
    <time>2020-01-15T12:54:35.000Z</time>
   </trkpt>
   <trkpt lat="-8.050013" lon="-34.891651">
    <ele>10.7</ele>
    <time>2020-01-15T12:54:36.000Z</time>
   </trkpt>
   <trkpt lat="-8.050006" lon="-34.891697">
    <ele>10.7</ele>
    <time>2020-01-15T12:54:37.000Z</time>
   </trkpt>
   <trkpt lat="-8.049984" lon="-34.891771">
    <ele>10.8</ele>
    <time>2020-01-15T12:54:38.000Z</time>
   </trkpt>
   <trkpt lat="-8.049976" lon="-34.89185">
    <ele>11.1</ele>
    <time>2020-01-15T12:54:39.000Z</time>
   </trkpt>
   <trkpt lat="-8.049972" lon="-34.89192">
    <ele>11.4</ele>
    <time>2020-01-15T12:54:40.000Z</time>
   </trkpt>
   <trkpt lat="-8.049965" lon="-34.891992">
    <ele>11.8</ele>
    <time>2020-01-15T12:54:41.000Z</time>
   </trkpt>
   <trkpt lat="-8.049948" lon="-34.892049">
    <ele>12.1</ele>
    <time>2020-01-15T12:54:42.000Z</time>
   </trkpt>
   <trkpt lat="-8.04991" lon="-34.892114">
    <ele>12.4</ele>
    <time>2020-01-15T12:54:43.000Z</time>
   </trkpt>
   <trkpt lat="-8.049883" lon="-34.892146">
    <ele>12.5</ele>
    <time>2020-01-15T12:54:44.000Z</time>
   </trkpt>
   <trkpt lat="-8.049855" lon="-34.892186">
    <ele>12.6</ele>
    <time>2020-01-15T12:54:45.000Z</time>
   </trkpt>
   <trkpt lat="-8.049811" lon="-34.892229">
    <ele>12.6</ele>
    <time>2020-01-15T12:54:46.000Z</time>
   </trkpt>
   <trkpt lat="-8.04977" lon="-34.892267">
    <ele>12.7</ele>
    <time>2020-01-15T12:54:47.000Z</time>
   </trkpt>
   <trkpt lat="-8.049729" lon="-34.892317">
    <ele>12.7</ele>
    <time>2020-01-15T12:54:48.000Z</time>
   </trkpt>
   <trkpt lat="-8.049692" lon="-34.892362">
    <ele>12.7</ele>
    <time>2020-01-15T12:54:49.000Z</time>
   </trkpt>
   <trkpt lat="-8.049648" lon="-34.892401">
    <ele>12.7</ele>
    <time>2020-01-15T12:54:50.000Z</time>
   </trkpt>
   <trkpt lat="-8.049609" lon="-34.892445">
    <ele>12.7</ele>
    <time>2020-01-15T12:54:51.000Z</time>
   </trkpt>
   <trkpt lat="-8.049579" lon="-34.892487">
    <ele>12.7</ele>
    <time>2020-01-15T12:54:52.000Z</time>
   </trkpt>
   <trkpt lat="-8.049551" lon="-34.89253">
    <ele>12.7</ele>
    <time>2020-01-15T12:54:53.000Z</time>
   </trkpt>
   <trkpt lat="-8.049524" lon="-34.892562">
    <ele>12.7</ele>
    <time>2020-01-15T12:54:54.000Z</time>
   </trkpt>
   <trkpt lat="-8.049486" lon="-34.892594">
    <ele>12.7</ele>
    <time>2020-01-15T12:54:55.000Z</time>
   </trkpt>
   <trkpt lat="-8.049452" lon="-34.892633">
    <ele>12.7</ele>
    <time>2020-01-15T12:54:56.000Z</time>
   </trkpt>
   <trkpt lat="-8.049418" lon="-34.892674">
    <ele>12.7</ele>
    <time>2020-01-15T12:54:57.000Z</time>
   </trkpt>
   <trkpt lat="-8.049378" lon="-34.892718">
    <ele>12.7</ele>
    <time>2020-01-15T12:54:58.000Z</time>
   </trkpt>
   <trkpt lat="-8.049338" lon="-34.892757">
    <ele>12.7</ele>
    <time>2020-01-15T12:54:59.000Z</time>
   </trkpt>
   <trkpt lat="-8.04932" lon="-34.892796">
    <ele>12.3</ele>
    <time>2020-01-15T12:55:00.000Z</time>
   </trkpt>
   <trkpt lat="-8.049317" lon="-34.892833">
    <ele>11.8</ele>
    <time>2020-01-15T12:55:01.000Z</time>
   </trkpt>
   <trkpt lat="-8.049347" lon="-34.892876">
    <ele>10.9</ele>
    <time>2020-01-15T12:55:02.000Z</time>
   </trkpt>
   <trkpt lat="-8.049393" lon="-34.89291">
    <ele>10.9</ele>
    <time>2020-01-15T12:55:03.000Z</time>
   </trkpt>
   <trkpt lat="-8.049446" lon="-34.89293">
    <ele>11</ele>
    <time>2020-01-15T12:55:04.000Z</time>
   </trkpt>
   <trkpt lat="-8.049497" lon="-34.892956">
    <ele>11.1</ele>
    <time>2020-01-15T12:55:05.000Z</time>
   </trkpt>
   <trkpt lat="-8.049562" lon="-34.892983">
    <ele>11.4</ele>
    <time>2020-01-15T12:55:06.000Z</time>
   </trkpt>
   <trkpt lat="-8.049621" lon="-34.893011">
    <ele>11.7</ele>
    <time>2020-01-15T12:55:07.000Z</time>
   </trkpt>
   <trkpt lat="-8.049689" lon="-34.893037">
    <ele>12.1</ele>
    <time>2020-01-15T12:55:08.000Z</time>
   </trkpt>
   <trkpt lat="-8.049753" lon="-34.893081">
    <ele>12.3</ele>
    <time>2020-01-15T12:55:09.000Z</time>
   </trkpt>
   <trkpt lat="-8.049815" lon="-34.893117">
    <ele>12.6</ele>
    <time>2020-01-15T12:55:10.000Z</time>
   </trkpt>
   <trkpt lat="-8.049876" lon="-34.893142">
    <ele>12</ele>
    <time>2020-01-15T12:55:11.000Z</time>
   </trkpt>
   <trkpt lat="-8.049932" lon="-34.893162">
    <ele>11.4</ele>
    <time>2020-01-15T12:55:12.000Z</time>
   </trkpt>
   <trkpt lat="-8.049989" lon="-34.893182">
    <ele>10.9</ele>
    <time>2020-01-15T12:55:13.000Z</time>
   </trkpt>
   <trkpt lat="-8.050046" lon="-34.893199">
    <ele>10.3</ele>
    <time>2020-01-15T12:55:14.000Z</time>
   </trkpt>
   <trkpt lat="-8.050098" lon="-34.893237">
    <ele>9.7</ele>
    <time>2020-01-15T12:55:15.000Z</time>
   </trkpt>
   <trkpt lat="-8.050139" lon="-34.893256">
    <ele>9.3</ele>
    <time>2020-01-15T12:55:16.000Z</time>
   </trkpt>
   <trkpt lat="-8.05018" lon="-34.893271">
    <ele>9</ele>
    <time>2020-01-15T12:55:17.000Z</time>
   </trkpt>
   <trkpt lat="-8.05022" lon="-34.893289">
    <ele>8.9</ele>
    <time>2020-01-15T12:55:18.000Z</time>
   </trkpt>
   <trkpt lat="-8.050266" lon="-34.8933">
    <ele>8.7</ele>
    <time>2020-01-15T12:55:19.000Z</time>
   </trkpt>
   <trkpt lat="-8.050315" lon="-34.8933">
    <ele>8.5</ele>
    <time>2020-01-15T12:55:20.000Z</time>
   </trkpt>
   <trkpt lat="-8.050369" lon="-34.893304">
    <ele>8.3</ele>
    <time>2020-01-15T12:55:21.000Z</time>
   </trkpt>
   <trkpt lat="-8.050423" lon="-34.893314">
    <ele>8.1</ele>
    <time>2020-01-15T12:55:22.000Z</time>
   </trkpt>
   <trkpt lat="-8.050476" lon="-34.893334">
    <ele>7.9</ele>
    <time>2020-01-15T12:55:23.000Z</time>
   </trkpt>
   <trkpt lat="-8.050533" lon="-34.893352">
    <ele>7.7</ele>
    <time>2020-01-15T12:55:24.000Z</time>
   </trkpt>
   <trkpt lat="-8.050583" lon="-34.89337">
    <ele>7.6</ele>
    <time>2020-01-15T12:55:25.000Z</time>
   </trkpt>
   <trkpt lat="-8.050628" lon="-34.893392">
    <ele>7.5</ele>
    <time>2020-01-15T12:55:26.000Z</time>
   </trkpt>
   <trkpt lat="-8.050684" lon="-34.893431">
    <ele>7.5</ele>
    <time>2020-01-15T12:55:27.000Z</time>
   </trkpt>
   <trkpt lat="-8.050734" lon="-34.893453">
    <ele>7.5</ele>
    <time>2020-01-15T12:55:28.000Z</time>
   </trkpt>
   <trkpt lat="-8.050788" lon="-34.893475">
    <ele>7.5</ele>
    <time>2020-01-15T12:55:29.000Z</time>
   </trkpt>
   <trkpt lat="-8.050846" lon="-34.893512">
    <ele>7.5</ele>
    <time>2020-01-15T12:55:30.000Z</time>
   </trkpt>
   <trkpt lat="-8.050897" lon="-34.893532">
    <ele>7.5</ele>
    <time>2020-01-15T12:55:31.000Z</time>
   </trkpt>
   <trkpt lat="-8.050939" lon="-34.893546">
    <ele>7.5</ele>
    <time>2020-01-15T12:55:32.000Z</time>
   </trkpt>
   <trkpt lat="-8.050974" lon="-34.893579">
    <ele>7.5</ele>
    <time>2020-01-15T12:55:33.000Z</time>
   </trkpt>
   <trkpt lat="-8.051016" lon="-34.893604">
    <ele>7.5</ele>
    <time>2020-01-15T12:55:34.000Z</time>
   </trkpt>
   <trkpt lat="-8.051065" lon="-34.893618">
    <ele>7.6</ele>
    <time>2020-01-15T12:55:35.000Z</time>
   </trkpt>
   <trkpt lat="-8.05111" lon="-34.893634">
    <ele>7.6</ele>
    <time>2020-01-15T12:55:36.000Z</time>
   </trkpt>
   <trkpt lat="-8.051151" lon="-34.893644">
    <ele>7.6</ele>
    <time>2020-01-15T12:55:37.000Z</time>
   </trkpt>
   <trkpt lat="-8.051206" lon="-34.893666">
    <ele>7.6</ele>
    <time>2020-01-15T12:55:38.000Z</time>
   </trkpt>
   <trkpt lat="-8.051259" lon="-34.893686">
    <ele>7.6</ele>
    <time>2020-01-15T12:55:39.000Z</time>
   </trkpt>
   <trkpt lat="-8.051306" lon="-34.893712">
    <ele>7.6</ele>
    <time>2020-01-15T12:55:40.000Z</time>
   </trkpt>
   <trkpt lat="-8.051361" lon="-34.893732">
    <ele>7.7</ele>
    <time>2020-01-15T12:55:41.000Z</time>
   </trkpt>
   <trkpt lat="-8.051407" lon="-34.89375">
    <ele>7.7</ele>
    <time>2020-01-15T12:55:42.000Z</time>
   </trkpt>
   <trkpt lat="-8.051458" lon="-34.89377">
    <ele>7.7</ele>
    <time>2020-01-15T12:55:43.000Z</time>
   </trkpt>
   <trkpt lat="-8.05151" lon="-34.893783">
    <ele>7.7</ele>
    <time>2020-01-15T12:55:44.000Z</time>
   </trkpt>
   <trkpt lat="-8.051559" lon="-34.893799">
    <ele>7.8</ele>
    <time>2020-01-15T12:55:45.000Z</time>
   </trkpt>
   <trkpt lat="-8.051599" lon="-34.893824">
    <ele>8.5</ele>
    <time>2020-01-15T12:55:46.000Z</time>
   </trkpt>
   <trkpt lat="-8.051641" lon="-34.893842">
    <ele>9.2</ele>
    <time>2020-01-15T12:55:47.000Z</time>
   </trkpt>
   <trkpt lat="-8.051681" lon="-34.893848">
    <ele>9.8</ele>
    <time>2020-01-15T12:55:48.000Z</time>
   </trkpt>
   <trkpt lat="-8.051714" lon="-34.893838">
    <ele>10.4</ele>
    <time>2020-01-15T12:55:49.000Z</time>
   </trkpt>
   <trkpt lat="-8.051731" lon="-34.893812">
    <ele>10.9</ele>
    <time>2020-01-15T12:55:50.000Z</time>
   </trkpt>
   <trkpt lat="-8.051741" lon="-34.893778">
    <ele>11.4</ele>
    <time>2020-01-15T12:55:51.000Z</time>
   </trkpt>
   <trkpt lat="-8.051774" lon="-34.893747">
    <ele>12.1</ele>
    <time>2020-01-15T12:55:52.000Z</time>
   </trkpt>
   <trkpt lat="-8.051794" lon="-34.89371">
    <ele>12.7</ele>
    <time>2020-01-15T12:55:53.000Z</time>
   </trkpt>
   <trkpt lat="-8.051813" lon="-34.893666">
    <ele>12.7</ele>
    <time>2020-01-15T12:55:54.000Z</time>
   </trkpt>
   <trkpt lat="-8.051833" lon="-34.89361">
    <ele>12.7</ele>
    <time>2020-01-15T12:55:55.000Z</time>
   </trkpt>
   <trkpt lat="-8.051857" lon="-34.893573">
    <ele>12.6</ele>
    <time>2020-01-15T12:55:56.000Z</time>
   </trkpt>
   <trkpt lat="-8.051875" lon="-34.893529">
    <ele>12.6</ele>
    <time>2020-01-15T12:55:57.000Z</time>
   </trkpt>
   <trkpt lat="-8.051904" lon="-34.893482">
    <ele>12.6</ele>
    <time>2020-01-15T12:55:58.000Z</time>
   </trkpt>
   <trkpt lat="-8.051926" lon="-34.893435">
    <ele>12.6</ele>
    <time>2020-01-15T12:55:59.000Z</time>
   </trkpt>
   <trkpt lat="-8.051953" lon="-34.893383">
    <ele>12.5</ele>
    <time>2020-01-15T12:56:00.000Z</time>
   </trkpt>
   <trkpt lat="-8.05197" lon="-34.893329">
    <ele>12.2</ele>
    <time>2020-01-15T12:56:01.000Z</time>
   </trkpt>
   <trkpt lat="-8.051998" lon="-34.893253">
    <ele>11.7</ele>
    <time>2020-01-15T12:56:02.000Z</time>
   </trkpt>
   <trkpt lat="-8.052024" lon="-34.893199">
    <ele>11.3</ele>
    <time>2020-01-15T12:56:03.000Z</time>
   </trkpt>
   <trkpt lat="-8.052046" lon="-34.893154">
    <ele>11</ele>
    <time>2020-01-15T12:56:04.000Z</time>
   </trkpt>
   <trkpt lat="-8.052071" lon="-34.893101">
    <ele>10.7</ele>
    <time>2020-01-15T12:56:05.000Z</time>
   </trkpt>
   <trkpt lat="-8.05209" lon="-34.893055">
    <ele>10.5</ele>
    <time>2020-01-15T12:56:06.000Z</time>
   </trkpt>
   <trkpt lat="-8.052096" lon="-34.893021">
    <ele>10.3</ele>
    <time>2020-01-15T12:56:07.000Z</time>
   </trkpt>
   <trkpt lat="-8.052113" lon="-34.89298">
    <ele>10.2</ele>
    <time>2020-01-15T12:56:08.000Z</time>
   </trkpt>
   <trkpt lat="-8.052131" lon="-34.892947">
    <ele>10.1</ele>
    <time>2020-01-15T12:56:09.000Z</time>
   </trkpt>
   <trkpt lat="-8.052152" lon="-34.892911">
    <ele>9.9</ele>
    <time>2020-01-15T12:56:10.000Z</time>
   </trkpt>
   <trkpt lat="-8.052172" lon="-34.892867">
    <ele>9.8</ele>
    <time>2020-01-15T12:56:11.000Z</time>
   </trkpt>
   <trkpt lat="-8.052196" lon="-34.892823">
    <ele>9.6</ele>
    <time>2020-01-15T12:56:12.000Z</time>
   </trkpt>
   <trkpt lat="-8.052213" lon="-34.892782">
    <ele>9.4</ele>
    <time>2020-01-15T12:56:13.000Z</time>
   </trkpt>
   <trkpt lat="-8.052232" lon="-34.892741">
    <ele>9.2</ele>
    <time>2020-01-15T12:56:14.000Z</time>
   </trkpt>
   <trkpt lat="-8.052245" lon="-34.892694">
    <ele>8.9</ele>
    <time>2020-01-15T12:56:15.000Z</time>
   </trkpt>
   <trkpt lat="-8.052272" lon="-34.892647">
    <ele>8.6</ele>
    <time>2020-01-15T12:56:16.000Z</time>
   </trkpt>
   <trkpt lat="-8.052299" lon="-34.89261">
    <ele>8.8</ele>
    <time>2020-01-15T12:56:17.000Z</time>
   </trkpt>
   <trkpt lat="-8.052332" lon="-34.892566">
    <ele>9.1</ele>
    <time>2020-01-15T12:56:18.000Z</time>
   </trkpt>
   <trkpt lat="-8.052368" lon="-34.892528">
    <ele>9.4</ele>
    <time>2020-01-15T12:56:19.000Z</time>
   </trkpt>
   <trkpt lat="-8.052408" lon="-34.89248">
    <ele>9.8</ele>
    <time>2020-01-15T12:56:20.000Z</time>
   </trkpt>
   <trkpt lat="-8.052451" lon="-34.892444">
    <ele>10.1</ele>
    <time>2020-01-15T12:56:21.000Z</time>
   </trkpt>
   <trkpt lat="-8.052492" lon="-34.892414">
    <ele>10.4</ele>
    <time>2020-01-15T12:56:22.000Z</time>
   </trkpt>
   <trkpt lat="-8.052535" lon="-34.89238">
    <ele>10.8</ele>
    <time>2020-01-15T12:56:23.000Z</time>
   </trkpt>
   <trkpt lat="-8.052582" lon="-34.892352">
    <ele>11.3</ele>
    <time>2020-01-15T12:56:24.000Z</time>
   </trkpt>
   <trkpt lat="-8.052628" lon="-34.89232">
    <ele>11.4</ele>
    <time>2020-01-15T12:56:25.000Z</time>
   </trkpt>
   <trkpt lat="-8.052661" lon="-34.892287">
    <ele>11.3</ele>
    <time>2020-01-15T12:56:26.000Z</time>
   </trkpt>
   <trkpt lat="-8.05269" lon="-34.892256">
    <ele>11.1</ele>
    <time>2020-01-15T12:56:27.000Z</time>
   </trkpt>
   <trkpt lat="-8.052733" lon="-34.892225">
    <ele>10.9</ele>
    <time>2020-01-15T12:56:28.000Z</time>
   </trkpt>
   <trkpt lat="-8.052766" lon="-34.892184">
    <ele>10.8</ele>
    <time>2020-01-15T12:56:29.000Z</time>
   </trkpt>
   <trkpt lat="-8.05281" lon="-34.892156">
    <ele>10.5</ele>
    <time>2020-01-15T12:56:30.000Z</time>
   </trkpt>
   <trkpt lat="-8.052852" lon="-34.892133">
    <ele>10.2</ele>
    <time>2020-01-15T12:56:31.000Z</time>
   </trkpt>
   <trkpt lat="-8.052899" lon="-34.892118">
    <ele>9.9</ele>
    <time>2020-01-15T12:56:32.000Z</time>
   </trkpt>
   <trkpt lat="-8.052947" lon="-34.892091">
    <ele>9.6</ele>
    <time>2020-01-15T12:56:33.000Z</time>
   </trkpt>
   <trkpt lat="-8.052992" lon="-34.892067">
    <ele>9.3</ele>
    <time>2020-01-15T12:56:34.000Z</time>
   </trkpt>
   <trkpt lat="-8.053041" lon="-34.892045">
    <ele>8.9</ele>
    <time>2020-01-15T12:56:35.000Z</time>
   </trkpt>
   <trkpt lat="-8.053086" lon="-34.89201">
    <ele>9</ele>
    <time>2020-01-15T12:56:36.000Z</time>
   </trkpt>
   <trkpt lat="-8.053134" lon="-34.891988">
    <ele>9</ele>
    <time>2020-01-15T12:56:37.000Z</time>
   </trkpt>
   <trkpt lat="-8.053178" lon="-34.891958">
    <ele>9</ele>
    <time>2020-01-15T12:56:38.000Z</time>
   </trkpt>
   <trkpt lat="-8.053216" lon="-34.891938">
    <ele>9.1</ele>
    <time>2020-01-15T12:56:39.000Z</time>
   </trkpt>
   <trkpt lat="-8.053265" lon="-34.891923">
    <ele>9.1</ele>
    <time>2020-01-15T12:56:40.000Z</time>
   </trkpt>
   <trkpt lat="-8.053321" lon="-34.891903">
    <ele>9.1</ele>
    <time>2020-01-15T12:56:41.000Z</time>
   </trkpt>
   <trkpt lat="-8.053389" lon="-34.891914">
    <ele>9.1</ele>
    <time>2020-01-15T12:56:42.000Z</time>
   </trkpt>
   <trkpt lat="-8.053445" lon="-34.891898">
    <ele>9.2</ele>
    <time>2020-01-15T12:56:43.000Z</time>
   </trkpt>
   <trkpt lat="-8.053496" lon="-34.891861">
    <ele>9.5</ele>
    <time>2020-01-15T12:56:44.000Z</time>
   </trkpt>
   <trkpt lat="-8.053541" lon="-34.891826">
    <ele>9.9</ele>
    <time>2020-01-15T12:56:45.000Z</time>
   </trkpt>
   <trkpt lat="-8.053574" lon="-34.891794">
    <ele>10.2</ele>
    <time>2020-01-15T12:56:46.000Z</time>
   </trkpt>
   <trkpt lat="-8.053609" lon="-34.891765">
    <ele>10.4</ele>
    <time>2020-01-15T12:56:47.000Z</time>
   </trkpt>
   <trkpt lat="-8.053668" lon="-34.891752">
    <ele>10.7</ele>
    <time>2020-01-15T12:56:48.000Z</time>
   </trkpt>
   <trkpt lat="-8.053722" lon="-34.891726">
    <ele>11</ele>
    <time>2020-01-15T12:56:49.000Z</time>
   </trkpt>
   <trkpt lat="-8.053777" lon="-34.891707">
    <ele>11.2</ele>
    <time>2020-01-15T12:56:50.000Z</time>
   </trkpt>
   <trkpt lat="-8.053835" lon="-34.891686">
    <ele>11.4</ele>
    <time>2020-01-15T12:56:51.000Z</time>
   </trkpt>
   <trkpt lat="-8.053881" lon="-34.891657">
    <ele>11.5</ele>
    <time>2020-01-15T12:56:52.000Z</time>
   </trkpt>
   <trkpt lat="-8.053931" lon="-34.891635">
    <ele>11.5</ele>
    <time>2020-01-15T12:56:53.000Z</time>
   </trkpt>
   <trkpt lat="-8.053992" lon="-34.891605">
    <ele>11.6</ele>
    <time>2020-01-15T12:56:54.000Z</time>
   </trkpt>
   <trkpt lat="-8.054035" lon="-34.891572">
    <ele>11.6</ele>
    <time>2020-01-15T12:56:55.000Z</time>
   </trkpt>
   <trkpt lat="-8.054086" lon="-34.891532">
    <ele>11.7</ele>
    <time>2020-01-15T12:56:56.000Z</time>
   </trkpt>
   <trkpt lat="-8.054136" lon="-34.891493">
    <ele>11.8</ele>
    <time>2020-01-15T12:56:57.000Z</time>
   </trkpt>
   <trkpt lat="-8.054183" lon="-34.891461">
    <ele>11.8</ele>
    <time>2020-01-15T12:56:58.000Z</time>
   </trkpt>
   <trkpt lat="-8.05423" lon="-34.891423">
    <ele>11.9</ele>
    <time>2020-01-15T12:56:59.000Z</time>
   </trkpt>
   <trkpt lat="-8.054262" lon="-34.891386">
    <ele>11.9</ele>
    <time>2020-01-15T12:57:00.000Z</time>
   </trkpt>
   <trkpt lat="-8.054295" lon="-34.89136">
    <ele>12</ele>
    <time>2020-01-15T12:57:01.000Z</time>
   </trkpt>
   <trkpt lat="-8.054332" lon="-34.891334">
    <ele>12</ele>
    <time>2020-01-15T12:57:02.000Z</time>
   </trkpt>
   <trkpt lat="-8.054366" lon="-34.891316">
    <ele>12.1</ele>
    <time>2020-01-15T12:57:03.000Z</time>
   </trkpt>
   <trkpt lat="-8.0544" lon="-34.891318">
    <ele>12.1</ele>
    <time>2020-01-15T12:57:04.000Z</time>
   </trkpt>
   <trkpt lat="-8.054446" lon="-34.891333">
    <ele>12.2</ele>
    <time>2020-01-15T12:57:05.000Z</time>
   </trkpt>
   <trkpt lat="-8.054511" lon="-34.89132">
    <ele>12.2</ele>
    <time>2020-01-15T12:57:06.000Z</time>
   </trkpt>
   <trkpt lat="-8.054561" lon="-34.89134">
    <ele>12.3</ele>
    <time>2020-01-15T12:57:07.000Z</time>
   </trkpt>
   <trkpt lat="-8.054611" lon="-34.891373">
    <ele>12.3</ele>
    <time>2020-01-15T12:57:08.000Z</time>
   </trkpt>
   <trkpt lat="-8.054675" lon="-34.891411">
    <ele>12.4</ele>
    <time>2020-01-15T12:57:09.000Z</time>
   </trkpt>
   <trkpt lat="-8.054739" lon="-34.891442">
    <ele>12.5</ele>
    <time>2020-01-15T12:57:10.000Z</time>
   </trkpt>
   <trkpt lat="-8.054798" lon="-34.891477">
    <ele>12.6</ele>
    <time>2020-01-15T12:57:11.000Z</time>
   </trkpt>
   <trkpt lat="-8.054866" lon="-34.891507">
    <ele>12.7</ele>
    <time>2020-01-15T12:57:12.000Z</time>
   </trkpt>
   <trkpt lat="-8.054916" lon="-34.891535">
    <ele>12.8</ele>
    <time>2020-01-15T12:57:13.000Z</time>
   </trkpt>
   <trkpt lat="-8.05496" lon="-34.891571">
    <ele>12.8</ele>
    <time>2020-01-15T12:57:14.000Z</time>
   </trkpt>
   <trkpt lat="-8.054999" lon="-34.891601">
    <ele>12.9</ele>
    <time>2020-01-15T12:57:15.000Z</time>
   </trkpt>
   <trkpt lat="-8.055028" lon="-34.891628">
    <ele>12.9</ele>
    <time>2020-01-15T12:57:16.000Z</time>
   </trkpt>
   <trkpt lat="-8.055073" lon="-34.89166">
    <ele>12.9</ele>
    <time>2020-01-15T12:57:17.000Z</time>
   </trkpt>
   <trkpt lat="-8.055114" lon="-34.891686">
    <ele>13</ele>
    <time>2020-01-15T12:57:18.000Z</time>
   </trkpt>
   <trkpt lat="-8.05515" lon="-34.89172">
    <ele>13</ele>
    <time>2020-01-15T12:57:19.000Z</time>
   </trkpt>
   <trkpt lat="-8.055184" lon="-34.891767">
    <ele>13</ele>
    <time>2020-01-15T12:57:20.000Z</time>
   </trkpt>
   <trkpt lat="-8.055217" lon="-34.891801">
    <ele>13.1</ele>
    <time>2020-01-15T12:57:21.000Z</time>
   </trkpt>
   <trkpt lat="-8.055244" lon="-34.891825">
    <ele>13.1</ele>
    <time>2020-01-15T12:57:22.000Z</time>
   </trkpt>
   <trkpt lat="-8.055269" lon="-34.891853">
    <ele>13.1</ele>
    <time>2020-01-15T12:57:23.000Z</time>
   </trkpt>
   <trkpt lat="-8.055305" lon="-34.891843">
    <ele>13.2</ele>
    <time>2020-01-15T12:57:24.000Z</time>
   </trkpt>
   <trkpt lat="-8.055303" lon="-34.891873">
    <ele>13.2</ele>
    <time>2020-01-15T12:57:26.000Z</time>
   </trkpt>
   <trkpt lat="-8.055317" lon="-34.891881">
    <ele>13.2</ele>
    <time>2020-01-15T12:57:30.000Z</time>
   </trkpt>
   <trkpt lat="-8.055308" lon="-34.891854">
    <ele>13.2</ele>
    <time>2020-01-15T12:57:31.000Z</time>
   </trkpt>
   <trkpt lat="-8.055382" lon="-34.891842">
    <ele>13.3</ele>
    <time>2020-01-15T12:57:34.000Z</time>
   </trkpt>
   <trkpt lat="-8.055436" lon="-34.891858">
    <ele>13.4</ele>
    <time>2020-01-15T12:58:07.000Z</time>
   </trkpt>
   <trkpt lat="-8.055491" lon="-34.891875">
    <ele>13.4</ele>
    <time>2020-01-15T12:58:08.000Z</time>
   </trkpt>
   <trkpt lat="-8.055545" lon="-34.891903">
    <ele>13.5</ele>
    <time>2020-01-15T12:58:09.000Z</time>
   </trkpt>
   <trkpt lat="-8.055587" lon="-34.89193">
    <ele>13.6</ele>
    <time>2020-01-15T12:58:10.000Z</time>
   </trkpt>
   <trkpt lat="-8.05562" lon="-34.891952">
    <ele>13.6</ele>
    <time>2020-01-15T12:58:11.000Z</time>
   </trkpt>
   <trkpt lat="-8.055643" lon="-34.891974">
    <ele>13.7</ele>
    <time>2020-01-15T12:58:12.000Z</time>
   </trkpt>
   <trkpt lat="-8.055675" lon="-34.891979">
    <ele>13.7</ele>
    <time>2020-01-15T12:58:13.000Z</time>
   </trkpt>
   <trkpt lat="-8.055715" lon="-34.892006">
    <ele>13.8</ele>
    <time>2020-01-15T12:58:15.000Z</time>
   </trkpt>
   <trkpt lat="-8.055745" lon="-34.892013">
    <ele>13.8</ele>
    <time>2020-01-15T12:58:17.000Z</time>
   </trkpt>
   <trkpt lat="-8.055762" lon="-34.892037">
    <ele>13.8</ele>
    <time>2020-01-15T12:58:19.000Z</time>
   </trkpt>
   <trkpt lat="-8.055785" lon="-34.892062">
    <ele>13.7</ele>
    <time>2020-01-15T12:58:21.000Z</time>
   </trkpt>
   <trkpt lat="-8.055816" lon="-34.892088">
    <ele>13.4</ele>
    <time>2020-01-15T12:58:25.000Z</time>
   </trkpt>
   <trkpt lat="-8.055822" lon="-34.892117">
    <ele>13.2</ele>
    <time>2020-01-15T12:58:27.000Z</time>
   </trkpt>
   <trkpt lat="-8.055848" lon="-34.892123">
    <ele>13.1</ele>
    <time>2020-01-15T12:58:29.000Z</time>
   </trkpt>
   <trkpt lat="-8.055868" lon="-34.892146">
    <ele>12.9</ele>
    <time>2020-01-15T12:58:31.000Z</time>
   </trkpt>
   <trkpt lat="-8.055871" lon="-34.892177">
    <ele>12.7</ele>
    <time>2020-01-15T12:58:33.000Z</time>
   </trkpt>
   <trkpt lat="-8.055887" lon="-34.892198">
    <ele>12.5</ele>
    <time>2020-01-15T12:58:36.000Z</time>
   </trkpt>
   <trkpt lat="-8.055919" lon="-34.892209">
    <ele>12.4</ele>
    <time>2020-01-15T12:58:38.000Z</time>
   </trkpt>
   <trkpt lat="-8.055966" lon="-34.892226">
    <ele>12.1</ele>
    <time>2020-01-15T12:58:40.000Z</time>
   </trkpt>
   <trkpt lat="-8.055994" lon="-34.892244">
    <ele>12</ele>
    <time>2020-01-15T12:58:42.000Z</time>
   </trkpt>
   <trkpt lat="-8.056018" lon="-34.892263">
    <ele>11.8</ele>
    <time>2020-01-15T12:58:45.000Z</time>
   </trkpt>
   <trkpt lat="-8.056018" lon="-34.892299">
    <ele>11.7</ele>
    <time>2020-01-15T12:58:48.000Z</time>
   </trkpt>
   <trkpt lat="-8.056036" lon="-34.892332">
    <ele>11.5</ele>
    <time>2020-01-15T12:58:51.000Z</time>
   </trkpt>
   <trkpt lat="-8.056058" lon="-34.892368">
    <ele>11.3</ele>
    <time>2020-01-15T12:58:53.000Z</time>
   </trkpt>
   <trkpt lat="-8.056094" lon="-34.892386">
    <ele>11.1</ele>
    <time>2020-01-15T12:58:55.000Z</time>
   </trkpt>
   <trkpt lat="-8.056129" lon="-34.892394">
    <ele>11</ele>
    <time>2020-01-15T12:58:57.000Z</time>
   </trkpt>
   <trkpt lat="-8.056169" lon="-34.892401">
    <ele>10.8</ele>
    <time>2020-01-15T12:58:59.000Z</time>
   </trkpt>
   <trkpt lat="-8.056202" lon="-34.89242">
    <ele>10.6</ele>
    <time>2020-01-15T12:59:00.000Z</time>
   </trkpt>
   <trkpt lat="-8.056236" lon="-34.892442">
    <ele>10.5</ele>
    <time>2020-01-15T12:59:01.000Z</time>
   </trkpt>
   <trkpt lat="-8.056264" lon="-34.89246">
    <ele>10.3</ele>
    <time>2020-01-15T12:59:02.000Z</time>
   </trkpt>
   <trkpt lat="-8.056293" lon="-34.89247">
    <ele>10.2</ele>
    <time>2020-01-15T12:59:03.000Z</time>
   </trkpt>
   <trkpt lat="-8.056318" lon="-34.892487">
    <ele>10.1</ele>
    <time>2020-01-15T12:59:04.000Z</time>
   </trkpt>
   <trkpt lat="-8.056355" lon="-34.892512">
    <ele>9.9</ele>
    <time>2020-01-15T12:59:06.000Z</time>
   </trkpt>
   <trkpt lat="-8.056383" lon="-34.892523">
    <ele>9.8</ele>
    <time>2020-01-15T12:59:07.000Z</time>
   </trkpt>
   <trkpt lat="-8.056412" lon="-34.892561">
    <ele>9.6</ele>
    <time>2020-01-15T12:59:09.000Z</time>
   </trkpt>
   <trkpt lat="-8.056441" lon="-34.892581">
    <ele>9.5</ele>
    <time>2020-01-15T12:59:12.000Z</time>
   </trkpt>
   <trkpt lat="-8.056446" lon="-34.89256">
    <ele>9.5</ele>
    <time>2020-01-15T12:59:17.000Z</time>
   </trkpt>
   <trkpt lat="-8.056475" lon="-34.892577">
    <ele>9.4</ele>
    <time>2020-01-15T12:59:19.000Z</time>
   </trkpt>
   <trkpt lat="-8.056509" lon="-34.892587">
    <ele>9.3</ele>
    <time>2020-01-15T12:59:20.000Z</time>
   </trkpt>
   <trkpt lat="-8.056543" lon="-34.892591">
    <ele>9.2</ele>
    <time>2020-01-15T12:59:21.000Z</time>
   </trkpt>
   <trkpt lat="-8.056579" lon="-34.892605">
    <ele>9.1</ele>
    <time>2020-01-15T12:59:22.000Z</time>
   </trkpt>
   <trkpt lat="-8.056619" lon="-34.892612">
    <ele>9.1</ele>
    <time>2020-01-15T12:59:23.000Z</time>
   </trkpt>
   <trkpt lat="-8.056656" lon="-34.89262">
    <ele>9.1</ele>
    <time>2020-01-15T12:59:24.000Z</time>
   </trkpt>
   <trkpt lat="-8.056695" lon="-34.892634">
    <ele>8.6</ele>
    <time>2020-01-15T12:59:25.000Z</time>
   </trkpt>
   <trkpt lat="-8.056741" lon="-34.892652">
    <ele>8.5</ele>
    <time>2020-01-15T12:59:26.000Z</time>
   </trkpt>
   <trkpt lat="-8.056794" lon="-34.892663">
    <ele>8.4</ele>
    <time>2020-01-15T12:59:27.000Z</time>
   </trkpt>
   <trkpt lat="-8.05685" lon="-34.892671">
    <ele>8.3</ele>
    <time>2020-01-15T12:59:28.000Z</time>
   </trkpt>
   <trkpt lat="-8.056914" lon="-34.892677">
    <ele>8.2</ele>
    <time>2020-01-15T12:59:29.000Z</time>
   </trkpt>
   <trkpt lat="-8.056969" lon="-34.8927">
    <ele>8.1</ele>
    <time>2020-01-15T12:59:30.000Z</time>
   </trkpt>
   <trkpt lat="-8.057039" lon="-34.89271">
    <ele>8</ele>
    <time>2020-01-15T12:59:31.000Z</time>
   </trkpt>
   <trkpt lat="-8.057107" lon="-34.892713">
    <ele>7.8</ele>
    <time>2020-01-15T12:59:32.000Z</time>
   </trkpt>
   <trkpt lat="-8.057165" lon="-34.89272">
    <ele>7.8</ele>
    <time>2020-01-15T12:59:33.000Z</time>
   </trkpt>
   <trkpt lat="-8.057219" lon="-34.89273">
    <ele>7.7</ele>
    <time>2020-01-15T12:59:34.000Z</time>
   </trkpt>
   <trkpt lat="-8.057268" lon="-34.892752">
    <ele>7.7</ele>
    <time>2020-01-15T12:59:35.000Z</time>
   </trkpt>
   <trkpt lat="-8.057318" lon="-34.892759">
    <ele>7.7</ele>
    <time>2020-01-15T12:59:36.000Z</time>
   </trkpt>
   <trkpt lat="-8.057371" lon="-34.892784">
    <ele>7.7</ele>
    <time>2020-01-15T12:59:37.000Z</time>
   </trkpt>
   <trkpt lat="-8.057431" lon="-34.892794">
    <ele>7.7</ele>
    <time>2020-01-15T12:59:38.000Z</time>
   </trkpt>
   <trkpt lat="-8.057499" lon="-34.892807">
    <ele>7.7</ele>
    <time>2020-01-15T12:59:39.000Z</time>
   </trkpt>
   <trkpt lat="-8.057557" lon="-34.892813">
    <ele>7.7</ele>
    <time>2020-01-15T12:59:40.000Z</time>
   </trkpt>
   <trkpt lat="-8.057617" lon="-34.892831">
    <ele>7.7</ele>
    <time>2020-01-15T12:59:41.000Z</time>
   </trkpt>
   <trkpt lat="-8.057677" lon="-34.892844">
    <ele>7.7</ele>
    <time>2020-01-15T12:59:42.000Z</time>
   </trkpt>
   <trkpt lat="-8.057735" lon="-34.892842">
    <ele>7.7</ele>
    <time>2020-01-15T12:59:43.000Z</time>
   </trkpt>
   <trkpt lat="-8.057788" lon="-34.89285">
    <ele>7.7</ele>
    <time>2020-01-15T12:59:44.000Z</time>
   </trkpt>
   <trkpt lat="-8.057844" lon="-34.892863">
    <ele>7.7</ele>
    <time>2020-01-15T12:59:45.000Z</time>
   </trkpt>
   <trkpt lat="-8.0579" lon="-34.892873">
    <ele>7.7</ele>
    <time>2020-01-15T12:59:46.000Z</time>
   </trkpt>
   <trkpt lat="-8.057963" lon="-34.892888">
    <ele>7.7</ele>
    <time>2020-01-15T12:59:47.000Z</time>
   </trkpt>
   <trkpt lat="-8.058021" lon="-34.892895">
    <ele>7.7</ele>
    <time>2020-01-15T12:59:48.000Z</time>
   </trkpt>
   <trkpt lat="-8.05807" lon="-34.8929">
    <ele>7.7</ele>
    <time>2020-01-15T12:59:49.000Z</time>
   </trkpt>
   <trkpt lat="-8.058118" lon="-34.89291">
    <ele>7.7</ele>
    <time>2020-01-15T12:59:50.000Z</time>
   </trkpt>
   <trkpt lat="-8.058175" lon="-34.892914">
    <ele>7.7</ele>
    <time>2020-01-15T12:59:51.000Z</time>
   </trkpt>
   <trkpt lat="-8.058237" lon="-34.892918">
    <ele>8</ele>
    <time>2020-01-15T12:59:52.000Z</time>
   </trkpt>
   <trkpt lat="-8.058301" lon="-34.892918">
    <ele>8.2</ele>
    <time>2020-01-15T12:59:53.000Z</time>
   </trkpt>
   <trkpt lat="-8.058355" lon="-34.892921">
    <ele>8.4</ele>
    <time>2020-01-15T12:59:54.000Z</time>
   </trkpt>
   <trkpt lat="-8.058409" lon="-34.892926">
    <ele>8.5</ele>
    <time>2020-01-15T12:59:55.000Z</time>
   </trkpt>
   <trkpt lat="-8.058451" lon="-34.892926">
    <ele>8.6</ele>
    <time>2020-01-15T12:59:56.000Z</time>
   </trkpt>
   <trkpt lat="-8.0585" lon="-34.892926">
    <ele>8.6</ele>
    <time>2020-01-15T12:59:57.000Z</time>
   </trkpt>
   <trkpt lat="-8.058541" lon="-34.892924">
    <ele>8.7</ele>
    <time>2020-01-15T12:59:58.000Z</time>
   </trkpt>
   <trkpt lat="-8.058574" lon="-34.892915">
    <ele>8.7</ele>
    <time>2020-01-15T12:59:59.000Z</time>
   </trkpt>
   <trkpt lat="-8.058612" lon="-34.892916">
    <ele>8.7</ele>
    <time>2020-01-15T13:00:00.000Z</time>
   </trkpt>
   <trkpt lat="-8.058653" lon="-34.89293">
    <ele>8.8</ele>
    <time>2020-01-15T13:00:01.000Z</time>
   </trkpt>
   <trkpt lat="-8.05869" lon="-34.892942">
    <ele>8.8</ele>
    <time>2020-01-15T13:00:02.000Z</time>
   </trkpt>
   <trkpt lat="-8.058737" lon="-34.892955">
    <ele>8.8</ele>
    <time>2020-01-15T13:00:03.000Z</time>
   </trkpt>
   <trkpt lat="-8.058771" lon="-34.89296">
    <ele>8.8</ele>
    <time>2020-01-15T13:00:04.000Z</time>
   </trkpt>
   <trkpt lat="-8.058808" lon="-34.892975">
    <ele>8.9</ele>
    <time>2020-01-15T13:00:05.000Z</time>
   </trkpt>
   <trkpt lat="-8.058853" lon="-34.892996">
    <ele>8.9</ele>
    <time>2020-01-15T13:00:07.000Z</time>
   </trkpt>
   <trkpt lat="-8.058881" lon="-34.893001">
    <ele>8.9</ele>
    <time>2020-01-15T13:00:08.000Z</time>
   </trkpt>
   <trkpt lat="-8.058929" lon="-34.893032">
    <ele>9</ele>
    <time>2020-01-15T13:00:10.000Z</time>
   </trkpt>
   <trkpt lat="-8.058952" lon="-34.893048">
    <ele>9</ele>
    <time>2020-01-15T13:00:11.000Z</time>
   </trkpt>
   <trkpt lat="-8.058987" lon="-34.893079">
    <ele>9</ele>
    <time>2020-01-15T13:00:12.000Z</time>
   </trkpt>
   <trkpt lat="-8.059022" lon="-34.893113">
    <ele>9.3</ele>
    <time>2020-01-15T13:00:13.000Z</time>
   </trkpt>
   <trkpt lat="-8.059047" lon="-34.893156">
    <ele>9.4</ele>
    <time>2020-01-15T13:00:14.000Z</time>
   </trkpt>
   <trkpt lat="-8.059067" lon="-34.893201">
    <ele>9.5</ele>
    <time>2020-01-15T13:00:15.000Z</time>
   </trkpt>
   <trkpt lat="-8.059093" lon="-34.893252">
    <ele>9.6</ele>
    <time>2020-01-15T13:00:16.000Z</time>
   </trkpt>
   <trkpt lat="-8.059114" lon="-34.893314">
    <ele>9.7</ele>
    <time>2020-01-15T13:00:17.000Z</time>
   </trkpt>
   <trkpt lat="-8.059133" lon="-34.893376">
    <ele>9.9</ele>
    <time>2020-01-15T13:00:18.000Z</time>
   </trkpt>
   <trkpt lat="-8.059153" lon="-34.893438">
    <ele>10</ele>
    <time>2020-01-15T13:00:19.000Z</time>
   </trkpt>
   <trkpt lat="-8.059162" lon="-34.893505">
    <ele>10</ele>
    <time>2020-01-15T13:00:20.000Z</time>
   </trkpt>
   <trkpt lat="-8.059176" lon="-34.893568">
    <ele>10</ele>
    <time>2020-01-15T13:00:21.000Z</time>
   </trkpt>
   <trkpt lat="-8.059193" lon="-34.893628">
    <ele>10</ele>
    <time>2020-01-15T13:00:22.000Z</time>
   </trkpt>
   <trkpt lat="-8.059228" lon="-34.893701">
    <ele>10</ele>
    <time>2020-01-15T13:00:23.000Z</time>
   </trkpt>
   <trkpt lat="-8.059263" lon="-34.893778">
    <ele>9.9</ele>
    <time>2020-01-15T13:00:24.000Z</time>
   </trkpt>
   <trkpt lat="-8.059298" lon="-34.893853">
    <ele>9.8</ele>
    <time>2020-01-15T13:00:25.000Z</time>
   </trkpt>
   <trkpt lat="-8.059355" lon="-34.893921">
    <ele>9.6</ele>
    <time>2020-01-15T13:00:26.000Z</time>
   </trkpt>
   <trkpt lat="-8.05942" lon="-34.893983">
    <ele>9.4</ele>
    <time>2020-01-15T13:00:27.000Z</time>
   </trkpt>
   <trkpt lat="-8.059475" lon="-34.894047">
    <ele>9.2</ele>
    <time>2020-01-15T13:00:28.000Z</time>
   </trkpt>
   <trkpt lat="-8.059525" lon="-34.894112">
    <ele>9.3</ele>
    <time>2020-01-15T13:00:29.000Z</time>
   </trkpt>
   <trkpt lat="-8.059572" lon="-34.894168">
    <ele>9.4</ele>
    <time>2020-01-15T13:00:30.000Z</time>
   </trkpt>
   <trkpt lat="-8.059608" lon="-34.894219">
    <ele>9.4</ele>
    <time>2020-01-15T13:00:31.000Z</time>
   </trkpt>
   <trkpt lat="-8.059644" lon="-34.89426">
    <ele>9.5</ele>
    <time>2020-01-15T13:00:32.000Z</time>
   </trkpt>
   <trkpt lat="-8.059694" lon="-34.894302">
    <ele>9.5</ele>
    <time>2020-01-15T13:00:33.000Z</time>
   </trkpt>
   <trkpt lat="-8.059734" lon="-34.894341">
    <ele>9.6</ele>
    <time>2020-01-15T13:00:34.000Z</time>
   </trkpt>
   <trkpt lat="-8.059784" lon="-34.894377">
    <ele>9.7</ele>
    <time>2020-01-15T13:00:35.000Z</time>
   </trkpt>
   <trkpt lat="-8.059833" lon="-34.894418">
    <ele>9.8</ele>
    <time>2020-01-15T13:00:36.000Z</time>
   </trkpt>
   <trkpt lat="-8.059875" lon="-34.894445">
    <ele>9.8</ele>
    <time>2020-01-15T13:00:37.000Z</time>
   </trkpt>
   <trkpt lat="-8.059929" lon="-34.894491">
    <ele>9.5</ele>
    <time>2020-01-15T13:00:38.000Z</time>
   </trkpt>
   <trkpt lat="-8.059987" lon="-34.894531">
    <ele>9.2</ele>
    <time>2020-01-15T13:00:39.000Z</time>
   </trkpt>
   <trkpt lat="-8.060044" lon="-34.894576">
    <ele>8.9</ele>
    <time>2020-01-15T13:00:40.000Z</time>
   </trkpt>
   <trkpt lat="-8.060111" lon="-34.894624">
    <ele>8.5</ele>
    <time>2020-01-15T13:00:41.000Z</time>
   </trkpt>
   <trkpt lat="-8.060175" lon="-34.894665">
    <ele>8.2</ele>
    <time>2020-01-15T13:00:42.000Z</time>
   </trkpt>
   <trkpt lat="-8.06023" lon="-34.8947">
    <ele>7.9</ele>
    <time>2020-01-15T13:00:43.000Z</time>
   </trkpt>
   <trkpt lat="-8.060284" lon="-34.894724">
    <ele>7.7</ele>
    <time>2020-01-15T13:00:44.000Z</time>
   </trkpt>
   <trkpt lat="-8.060311" lon="-34.894741">
    <ele>7.5</ele>
    <time>2020-01-15T13:00:45.000Z</time>
   </trkpt>
   <trkpt lat="-8.060307" lon="-34.894733">
    <ele>7.5</ele>
    <time>2020-01-15T13:00:48.000Z</time>
   </trkpt>
   <trkpt lat="-8.060301" lon="-34.894728">
    <ele>7.5</ele>
    <time>2020-01-15T13:00:50.000Z</time>
   </trkpt>
   <trkpt lat="-8.060345" lon="-34.894755">
    <ele>7.2</ele>
    <time>2020-01-15T13:00:52.000Z</time>
   </trkpt>
   <trkpt lat="-8.060394" lon="-34.894777">
    <ele>7</ele>
    <time>2020-01-15T13:00:54.000Z</time>
   </trkpt>
   <trkpt lat="-8.060449" lon="-34.894798">
    <ele>6.7</ele>
    <time>2020-01-15T13:00:56.000Z</time>
   </trkpt>
   <trkpt lat="-8.060484" lon="-34.894822">
    <ele>6.5</ele>
    <time>2020-01-15T13:00:57.000Z</time>
   </trkpt>
   <trkpt lat="-8.06052" lon="-34.894853">
    <ele>6.3</ele>
    <time>2020-01-15T13:00:58.000Z</time>
   </trkpt>
   <trkpt lat="-8.060558" lon="-34.89487">
    <ele>6</ele>
    <time>2020-01-15T13:00:59.000Z</time>
   </trkpt>
   <trkpt lat="-8.060602" lon="-34.894888">
    <ele>6.2</ele>
    <time>2020-01-15T13:01:01.000Z</time>
   </trkpt>
   <trkpt lat="-8.060652" lon="-34.894896">
    <ele>6.3</ele>
    <time>2020-01-15T13:01:02.000Z</time>
   </trkpt>
   <trkpt lat="-8.060696" lon="-34.894886">
    <ele>6.5</ele>
    <time>2020-01-15T13:01:03.000Z</time>
   </trkpt>
   <trkpt lat="-8.060748" lon="-34.894877">
    <ele>6.7</ele>
    <time>2020-01-15T13:01:04.000Z</time>
   </trkpt>
   <trkpt lat="-8.060801" lon="-34.894878">
    <ele>6.9</ele>
    <time>2020-01-15T13:01:05.000Z</time>
   </trkpt>
   <trkpt lat="-8.060865" lon="-34.894888">
    <ele>7.1</ele>
    <time>2020-01-15T13:01:06.000Z</time>
   </trkpt>
   <trkpt lat="-8.060934" lon="-34.894896">
    <ele>7.4</ele>
    <time>2020-01-15T13:01:07.000Z</time>
   </trkpt>
   <trkpt lat="-8.060993" lon="-34.894903">
    <ele>7.8</ele>
    <time>2020-01-15T13:01:08.000Z</time>
   </trkpt>
   <trkpt lat="-8.061058" lon="-34.894912">
    <ele>8</ele>
    <time>2020-01-15T13:01:09.000Z</time>
   </trkpt>
   <trkpt lat="-8.061107" lon="-34.894925">
    <ele>8</ele>
    <time>2020-01-15T13:01:10.000Z</time>
   </trkpt>
   <trkpt lat="-8.061159" lon="-34.894929">
    <ele>8</ele>
    <time>2020-01-15T13:01:11.000Z</time>
   </trkpt>
   <trkpt lat="-8.061217" lon="-34.89493">
    <ele>7.9</ele>
    <time>2020-01-15T13:01:12.000Z</time>
   </trkpt>
   <trkpt lat="-8.061274" lon="-34.894937">
    <ele>7.8</ele>
    <time>2020-01-15T13:01:13.000Z</time>
   </trkpt>
   <trkpt lat="-8.061328" lon="-34.894959">
    <ele>7.5</ele>
    <time>2020-01-15T13:01:14.000Z</time>
   </trkpt>
   <trkpt lat="-8.06138" lon="-34.894978">
    <ele>7.3</ele>
    <time>2020-01-15T13:01:15.000Z</time>
   </trkpt>
   <trkpt lat="-8.061427" lon="-34.894987">
    <ele>7</ele>
    <time>2020-01-15T13:01:16.000Z</time>
   </trkpt>
   <trkpt lat="-8.061471" lon="-34.894985">
    <ele>6.6</ele>
    <time>2020-01-15T13:01:17.000Z</time>
   </trkpt>
   <trkpt lat="-8.061525" lon="-34.894983">
    <ele>6.4</ele>
    <time>2020-01-15T13:01:18.000Z</time>
   </trkpt>
   <trkpt lat="-8.061585" lon="-34.894985">
    <ele>6.4</ele>
    <time>2020-01-15T13:01:19.000Z</time>
   </trkpt>
   <trkpt lat="-8.061633" lon="-34.894987">
    <ele>6.7</ele>
    <time>2020-01-15T13:01:20.000Z</time>
   </trkpt>
   <trkpt lat="-8.061685" lon="-34.89501">
    <ele>7</ele>
    <time>2020-01-15T13:01:21.000Z</time>
   </trkpt>
   <trkpt lat="-8.061735" lon="-34.895014">
    <ele>7.1</ele>
    <time>2020-01-15T13:01:22.000Z</time>
   </trkpt>
   <trkpt lat="-8.06179" lon="-34.89502">
    <ele>7.1</ele>
    <time>2020-01-15T13:01:23.000Z</time>
   </trkpt>
   <trkpt lat="-8.061839" lon="-34.895023">
    <ele>7.1</ele>
    <time>2020-01-15T13:01:24.000Z</time>
   </trkpt>
   <trkpt lat="-8.061899" lon="-34.895036">
    <ele>7.1</ele>
    <time>2020-01-15T13:01:25.000Z</time>
   </trkpt>
   <trkpt lat="-8.061964" lon="-34.895042">
    <ele>7.1</ele>
    <time>2020-01-15T13:01:26.000Z</time>
   </trkpt>
   <trkpt lat="-8.062019" lon="-34.895062">
    <ele>7.1</ele>
    <time>2020-01-15T13:01:27.000Z</time>
   </trkpt>
   <trkpt lat="-8.062061" lon="-34.895067">
    <ele>7.1</ele>
    <time>2020-01-15T13:01:28.000Z</time>
   </trkpt>
   <trkpt lat="-8.062102" lon="-34.895076">
    <ele>7.1</ele>
    <time>2020-01-15T13:01:29.000Z</time>
   </trkpt>
   <trkpt lat="-8.062132" lon="-34.895069">
    <ele>7.1</ele>
    <time>2020-01-15T13:01:30.000Z</time>
   </trkpt>
   <trkpt lat="-8.062173" lon="-34.895066">
    <ele>7.1</ele>
    <time>2020-01-15T13:01:31.000Z</time>
   </trkpt>
   <trkpt lat="-8.062209" lon="-34.895081">
    <ele>7.1</ele>
    <time>2020-01-15T13:01:32.000Z</time>
   </trkpt>
   <trkpt lat="-8.062251" lon="-34.895102">
    <ele>7.1</ele>
    <time>2020-01-15T13:01:33.000Z</time>
   </trkpt>
   <trkpt lat="-8.062302" lon="-34.895109">
    <ele>7</ele>
    <time>2020-01-15T13:01:34.000Z</time>
   </trkpt>
   <trkpt lat="-8.062356" lon="-34.895113">
    <ele>6.9</ele>
    <time>2020-01-15T13:01:35.000Z</time>
   </trkpt>
   <trkpt lat="-8.062397" lon="-34.895125">
    <ele>6.8</ele>
    <time>2020-01-15T13:01:36.000Z</time>
   </trkpt>
   <trkpt lat="-8.062442" lon="-34.895134">
    <ele>6.7</ele>
    <time>2020-01-15T13:01:37.000Z</time>
   </trkpt>
   <trkpt lat="-8.062485" lon="-34.895136">
    <ele>6.7</ele>
    <time>2020-01-15T13:01:38.000Z</time>
   </trkpt>
   <trkpt lat="-8.062533" lon="-34.895136">
    <ele>6.6</ele>
    <time>2020-01-15T13:01:39.000Z</time>
   </trkpt>
   <trkpt lat="-8.06258" lon="-34.895143">
    <ele>6.5</ele>
    <time>2020-01-15T13:01:40.000Z</time>
   </trkpt>
   <trkpt lat="-8.062619" lon="-34.895156">
    <ele>6.5</ele>
    <time>2020-01-15T13:01:41.000Z</time>
   </trkpt>
   <trkpt lat="-8.062659" lon="-34.895169">
    <ele>6.4</ele>
    <time>2020-01-15T13:01:42.000Z</time>
   </trkpt>
   <trkpt lat="-8.062708" lon="-34.895186">
    <ele>6.4</ele>
    <time>2020-01-15T13:01:43.000Z</time>
   </trkpt>
   <trkpt lat="-8.062752" lon="-34.895195">
    <ele>6.4</ele>
    <time>2020-01-15T13:01:44.000Z</time>
   </trkpt>
   <trkpt lat="-8.06279" lon="-34.89521">
    <ele>6.3</ele>
    <time>2020-01-15T13:01:45.000Z</time>
   </trkpt>
   <trkpt lat="-8.062812" lon="-34.895243">
    <ele>6.4</ele>
    <time>2020-01-15T13:01:46.000Z</time>
   </trkpt>
   <trkpt lat="-8.062824" lon="-34.895277">
    <ele>6.4</ele>
    <time>2020-01-15T13:01:47.000Z</time>
   </trkpt>
   <trkpt lat="-8.062828" lon="-34.895308">
    <ele>6.5</ele>
    <time>2020-01-15T13:01:48.000Z</time>
   </trkpt>
   <trkpt lat="-8.062808" lon="-34.895341">
    <ele>6.5</ele>
    <time>2020-01-15T13:01:49.000Z</time>
   </trkpt>
   <trkpt lat="-8.062805" lon="-34.895377">
    <ele>6.6</ele>
    <time>2020-01-15T13:01:50.000Z</time>
   </trkpt>
   <trkpt lat="-8.062798" lon="-34.895411">
    <ele>6.6</ele>
    <time>2020-01-15T13:01:51.000Z</time>
   </trkpt>
   <trkpt lat="-8.062796" lon="-34.895449">
    <ele>6.7</ele>
    <time>2020-01-15T13:01:52.000Z</time>
   </trkpt>
   <trkpt lat="-8.062799" lon="-34.895496">
    <ele>6.7</ele>
    <time>2020-01-15T13:01:53.000Z</time>
   </trkpt>
   <trkpt lat="-8.062783" lon="-34.895542">
    <ele>6.8</ele>
    <time>2020-01-15T13:01:54.000Z</time>
   </trkpt>
   <trkpt lat="-8.062788" lon="-34.895601">
    <ele>7.1</ele>
    <time>2020-01-15T13:01:55.000Z</time>
   </trkpt>
   <trkpt lat="-8.062785" lon="-34.895628">
    <ele>7.3</ele>
    <time>2020-01-15T13:01:56.000Z</time>
   </trkpt>
   <trkpt lat="-8.062781" lon="-34.895657">
    <ele>7.5</ele>
    <time>2020-01-15T13:01:57.000Z</time>
   </trkpt>
   <trkpt lat="-8.062783" lon="-34.895695">
    <ele>7.8</ele>
    <time>2020-01-15T13:01:58.000Z</time>
   </trkpt>
   <trkpt lat="-8.062779" lon="-34.895731">
    <ele>8.2</ele>
    <time>2020-01-15T13:01:59.000Z</time>
   </trkpt>
   <trkpt lat="-8.062773" lon="-34.895772">
    <ele>8.4</ele>
    <time>2020-01-15T13:02:00.000Z</time>
   </trkpt>
   <trkpt lat="-8.062768" lon="-34.895805">
    <ele>8.5</ele>
    <time>2020-01-15T13:02:01.000Z</time>
   </trkpt>
   <trkpt lat="-8.062767" lon="-34.895832">
    <ele>8.5</ele>
    <time>2020-01-15T13:02:02.000Z</time>
   </trkpt>
   <trkpt lat="-8.062755" lon="-34.895898">
    <ele>8.5</ele>
    <time>2020-01-15T13:02:04.000Z</time>
   </trkpt>
   <trkpt lat="-8.062764" lon="-34.895941">
    <ele>8.5</ele>
    <time>2020-01-15T13:02:05.000Z</time>
   </trkpt>
   <trkpt lat="-8.062762" lon="-34.896008">
    <ele>8.2</ele>
    <time>2020-01-15T13:02:06.000Z</time>
   </trkpt>
   <trkpt lat="-8.06275" lon="-34.896063">
    <ele>7.9</ele>
    <time>2020-01-15T13:02:07.000Z</time>
   </trkpt>
   <trkpt lat="-8.062739" lon="-34.896094">
    <ele>7.7</ele>
    <time>2020-01-15T13:02:08.000Z</time>
   </trkpt>
   <trkpt lat="-8.062721" lon="-34.896118">
    <ele>7.5</ele>
    <time>2020-01-15T13:02:09.000Z</time>
   </trkpt>
   <trkpt lat="-8.062668" lon="-34.896145">
    <ele>7.4</ele>
    <time>2020-01-15T13:02:11.000Z</time>
   </trkpt>
   <trkpt lat="-8.062644" lon="-34.896187">
    <ele>7.4</ele>
    <time>2020-01-15T13:02:13.000Z</time>
   </trkpt>
   <trkpt lat="-8.062651" lon="-34.896221">
    <ele>7.3</ele>
    <time>2020-01-15T13:02:14.000Z</time>
   </trkpt>
   <trkpt lat="-8.062655" lon="-34.896274">
    <ele>7.2</ele>
    <time>2020-01-15T13:02:15.000Z</time>
   </trkpt>
   <trkpt lat="-8.062617" lon="-34.896335">
    <ele>6.9</ele>
    <time>2020-01-15T13:02:16.000Z</time>
   </trkpt>
   <trkpt lat="-8.062607" lon="-34.896374">
    <ele>6.7</ele>
    <time>2020-01-15T13:02:17.000Z</time>
   </trkpt>
   <trkpt lat="-8.062616" lon="-34.896407">
    <ele>6.4</ele>
    <time>2020-01-15T13:02:18.000Z</time>
   </trkpt>
   <trkpt lat="-8.062623" lon="-34.896435">
    <ele>6.3</ele>
    <time>2020-01-15T13:02:20.000Z</time>
   </trkpt>
   <trkpt lat="-8.062662" lon="-34.896437">
    <ele>6.4</ele>
    <time>2020-01-15T13:02:23.000Z</time>
   </trkpt>
   <trkpt lat="-8.062713" lon="-34.896429">
    <ele>6.4</ele>
    <time>2020-01-15T13:02:24.000Z</time>
   </trkpt>
   <trkpt lat="-8.062744" lon="-34.896414">
    <ele>6.4</ele>
    <time>2020-01-15T13:02:25.000Z</time>
   </trkpt>
   <trkpt lat="-8.062787" lon="-34.896423">
    <ele>6.5</ele>
    <time>2020-01-15T13:02:26.000Z</time>
   </trkpt>
   <trkpt lat="-8.062843" lon="-34.896401">
    <ele>6.5</ele>
    <time>2020-01-15T13:02:27.000Z</time>
   </trkpt>
   <trkpt lat="-8.062901" lon="-34.896378">
    <ele>6.6</ele>
    <time>2020-01-15T13:02:28.000Z</time>
   </trkpt>
   <trkpt lat="-8.062947" lon="-34.896366">
    <ele>6.6</ele>
    <time>2020-01-15T13:02:29.000Z</time>
   </trkpt>
   <trkpt lat="-8.062996" lon="-34.896351">
    <ele>6.7</ele>
    <time>2020-01-15T13:02:30.000Z</time>
   </trkpt>
   <trkpt lat="-8.063036" lon="-34.896339">
    <ele>6.7</ele>
    <time>2020-01-15T13:02:31.000Z</time>
   </trkpt>
   <trkpt lat="-8.063088" lon="-34.896367">
    <ele>6.8</ele>
    <time>2020-01-15T13:02:32.000Z</time>
   </trkpt>
   <trkpt lat="-8.063121" lon="-34.896366">
    <ele>6.8</ele>
    <time>2020-01-15T13:02:33.000Z</time>
   </trkpt>
   <trkpt lat="-8.063157" lon="-34.896352">
    <ele>6.9</ele>
    <time>2020-01-15T13:02:34.000Z</time>
   </trkpt>
   <trkpt lat="-8.063203" lon="-34.896337">
    <ele>6.9</ele>
    <time>2020-01-15T13:02:35.000Z</time>
   </trkpt>
   <trkpt lat="-8.063263" lon="-34.896316">
    <ele>7</ele>
    <time>2020-01-15T13:02:36.000Z</time>
   </trkpt>
   <trkpt lat="-8.063312" lon="-34.896286">
    <ele>7</ele>
    <time>2020-01-15T13:02:37.000Z</time>
   </trkpt>
   <trkpt lat="-8.063359" lon="-34.896259">
    <ele>7.1</ele>
    <time>2020-01-15T13:02:38.000Z</time>
   </trkpt>
   <trkpt lat="-8.063404" lon="-34.896226">
    <ele>7.1</ele>
    <time>2020-01-15T13:02:39.000Z</time>
   </trkpt>
   <trkpt lat="-8.063446" lon="-34.896201">
    <ele>7.2</ele>
    <time>2020-01-15T13:02:40.000Z</time>
   </trkpt>
   <trkpt lat="-8.063475" lon="-34.896183">
    <ele>7.2</ele>
    <time>2020-01-15T13:02:41.000Z</time>
   </trkpt>
   <trkpt lat="-8.063521" lon="-34.896167">
    <ele>7.2</ele>
    <time>2020-01-15T13:02:42.000Z</time>
   </trkpt>
   <trkpt lat="-8.063571" lon="-34.896152">
    <ele>7.3</ele>
    <time>2020-01-15T13:02:43.000Z</time>
   </trkpt>
   <trkpt lat="-8.063613" lon="-34.896093">
    <ele>7.3</ele>
    <time>2020-01-15T13:02:44.000Z</time>
   </trkpt>
   <trkpt lat="-8.063664" lon="-34.896085">
    <ele>7.2</ele>
    <time>2020-01-15T13:02:45.000Z</time>
   </trkpt>
   <trkpt lat="-8.063711" lon="-34.896078">
    <ele>7.1</ele>
    <time>2020-01-15T13:02:46.000Z</time>
   </trkpt>
   <trkpt lat="-8.063762" lon="-34.896076">
    <ele>7</ele>
    <time>2020-01-15T13:02:47.000Z</time>
   </trkpt>
   <trkpt lat="-8.063814" lon="-34.896071">
    <ele>6.9</ele>
    <time>2020-01-15T13:02:48.000Z</time>
   </trkpt>
   <trkpt lat="-8.063873" lon="-34.896053">
    <ele>6.8</ele>
    <time>2020-01-15T13:02:49.000Z</time>
   </trkpt>
   <trkpt lat="-8.063938" lon="-34.896049">
    <ele>6.7</ele>
    <time>2020-01-15T13:02:50.000Z</time>
   </trkpt>
   <trkpt lat="-8.063993" lon="-34.896044">
    <ele>6.6</ele>
    <time>2020-01-15T13:02:51.000Z</time>
   </trkpt>
   <trkpt lat="-8.064046" lon="-34.896036">
    <ele>6.5</ele>
    <time>2020-01-15T13:02:52.000Z</time>
   </trkpt>
   <trkpt lat="-8.064085" lon="-34.89603">
    <ele>6.4</ele>
    <time>2020-01-15T13:02:53.000Z</time>
   </trkpt>
   <trkpt lat="-8.064123" lon="-34.896022">
    <ele>6.3</ele>
    <time>2020-01-15T13:02:54.000Z</time>
   </trkpt>
   <trkpt lat="-8.064163" lon="-34.896008">
    <ele>6.1</ele>
    <time>2020-01-15T13:02:55.000Z</time>
   </trkpt>
   <trkpt lat="-8.064216" lon="-34.896009">
    <ele>5.9</ele>
    <time>2020-01-15T13:02:56.000Z</time>
   </trkpt>
   <trkpt lat="-8.064256" lon="-34.895976">
    <ele>5.6</ele>
    <time>2020-01-15T13:02:57.000Z</time>
   </trkpt>
   <trkpt lat="-8.064303" lon="-34.895964">
    <ele>5.4</ele>
    <time>2020-01-15T13:02:58.000Z</time>
   </trkpt>
   <trkpt lat="-8.064347" lon="-34.895952">
    <ele>5.1</ele>
    <time>2020-01-15T13:02:59.000Z</time>
   </trkpt>
   <trkpt lat="-8.064401" lon="-34.895927">
    <ele>4.6</ele>
    <time>2020-01-15T13:03:00.000Z</time>
   </trkpt>
   <trkpt lat="-8.064442" lon="-34.895915">
    <ele>4.5</ele>
    <time>2020-01-15T13:03:01.000Z</time>
   </trkpt>
   <trkpt lat="-8.064478" lon="-34.895879">
    <ele>4.4</ele>
    <time>2020-01-15T13:03:03.000Z</time>
   </trkpt>
   <trkpt lat="-8.064509" lon="-34.895871">
    <ele>4.4</ele>
    <time>2020-01-15T13:03:04.000Z</time>
   </trkpt>
   <trkpt lat="-8.064547" lon="-34.895863">
    <ele>4.3</ele>
    <time>2020-01-15T13:03:05.000Z</time>
   </trkpt>
   <trkpt lat="-8.064575" lon="-34.895856">
    <ele>4.2</ele>
    <time>2020-01-15T13:03:06.000Z</time>
   </trkpt>
   <trkpt lat="-8.064611" lon="-34.895856">
    <ele>4.1</ele>
    <time>2020-01-15T13:03:07.000Z</time>
   </trkpt>
   <trkpt lat="-8.064655" lon="-34.895847">
    <ele>4</ele>
    <time>2020-01-15T13:03:08.000Z</time>
   </trkpt>
   <trkpt lat="-8.06471" lon="-34.895881">
    <ele>3.9</ele>
    <time>2020-01-15T13:03:09.000Z</time>
   </trkpt>
   <trkpt lat="-8.064756" lon="-34.895891">
    <ele>3.8</ele>
    <time>2020-01-15T13:03:10.000Z</time>
   </trkpt>
   <trkpt lat="-8.064791" lon="-34.89589">
    <ele>3.7</ele>
    <time>2020-01-15T13:03:11.000Z</time>
   </trkpt>
   <trkpt lat="-8.064825" lon="-34.895885">
    <ele>3.7</ele>
    <time>2020-01-15T13:03:12.000Z</time>
   </trkpt>
   <trkpt lat="-8.064856" lon="-34.895871">
    <ele>3.6</ele>
    <time>2020-01-15T13:03:13.000Z</time>
   </trkpt>
   <trkpt lat="-8.064889" lon="-34.895842">
    <ele>3.5</ele>
    <time>2020-01-15T13:03:14.000Z</time>
   </trkpt>
   <trkpt lat="-8.064919" lon="-34.895823">
    <ele>3.4</ele>
    <time>2020-01-15T13:03:15.000Z</time>
   </trkpt>
   <trkpt lat="-8.06499" lon="-34.895871">
    <ele>3.3</ele>
    <time>2020-01-15T13:03:16.000Z</time>
   </trkpt>
   <trkpt lat="-8.065021" lon="-34.895855">
    <ele>3.2</ele>
    <time>2020-01-15T13:03:17.000Z</time>
   </trkpt>
   <trkpt lat="-8.065056" lon="-34.895847">
    <ele>3.1</ele>
    <time>2020-01-15T13:03:19.000Z</time>
   </trkpt>
   <trkpt lat="-8.06506" lon="-34.895868">
    <ele>3.1</ele>
    <time>2020-01-15T13:03:22.000Z</time>
   </trkpt>
   <trkpt lat="-8.065078" lon="-34.895891">
    <ele>3</ele>
    <time>2020-01-15T13:03:24.000Z</time>
   </trkpt>
   <trkpt lat="-8.065082" lon="-34.895935">
    <ele>2.9</ele>
    <time>2020-01-15T13:03:26.000Z</time>
   </trkpt>
   <trkpt lat="-8.065093" lon="-34.895961">
    <ele>2.9</ele>
    <time>2020-01-15T13:03:27.000Z</time>
   </trkpt>
   <trkpt lat="-8.065114" lon="-34.896013">
    <ele>2.8</ele>
    <time>2020-01-15T13:03:29.000Z</time>
   </trkpt>
   <trkpt lat="-8.065149" lon="-34.896018">
    <ele>2.7</ele>
    <time>2020-01-15T13:03:31.000Z</time>
   </trkpt>
   <trkpt lat="-8.065168" lon="-34.895999">
    <ele>2.7</ele>
    <time>2020-01-15T13:03:35.000Z</time>
   </trkpt>
   <trkpt lat="-8.065166" lon="-34.896013">
    <ele>2.7</ele>
    <time>2020-01-15T13:03:38.000Z</time>
   </trkpt>
   <trkpt lat="-8.065157" lon="-34.89603">
    <ele>2.6</ele>
    <time>2020-01-15T13:03:42.000Z</time>
   </trkpt>
   <trkpt lat="-8.065123" lon="-34.896051">
    <ele>2.6</ele>
    <time>2020-01-15T13:03:45.000Z</time>
   </trkpt>
   <trkpt lat="-8.065097" lon="-34.896064">
    <ele>2.5</ele>
    <time>2020-01-15T13:03:46.000Z</time>
   </trkpt>
   <trkpt lat="-8.064906" lon="-34.896017">
    <ele>2.2</ele>
    <time>2020-01-15T13:06:08.000Z</time>
   </trkpt>
   <trkpt lat="-8.064927" lon="-34.895992">
    <ele>2.1</ele>
    <time>2020-01-15T13:06:11.000Z</time>
   </trkpt>
  </trkseg>
 </trk>
</gpx>
