<?xml version="1.0" encoding="UTF-8"?>
<gpx creator="StravaGPX" version="1.1" xmlns="http://www.topografix.com/GPX/1/1">
 <metadata>
  <time>2019-08-13T21:22:03Z</time>
 </metadata>
 <trk>
  <name>Evening Ride</name>
  <type>1</type>
  <trkseg>
   <trkpt lat="-8.057808" lon="-34.899056">
    <ele>6.3</ele>
    <time>2019-08-13T21:22:03.000Z</time>
   </trkpt>
   <trkpt lat="-8.05779" lon="-34.899196">
    <ele>6.3</ele>
    <time>2019-08-13T21:22:11.000Z</time>
   </trkpt>
   <trkpt lat="-8.057773" lon="-34.899177">
    <ele>6.3</ele>
    <time>2019-08-13T21:22:12.000Z</time>
   </trkpt>
   <trkpt lat="-8.057746" lon="-34.899189">
    <ele>6.3</ele>
    <time>2019-08-13T21:22:14.000Z</time>
   </trkpt>
   <trkpt lat="-8.057727" lon="-34.899214">
    <ele>6.3</ele>
    <time>2019-08-13T21:22:18.000Z</time>
   </trkpt>
   <trkpt lat="-8.057704" lon="-34.899233">
    <ele>6.3</ele>
    <time>2019-08-13T21:22:23.000Z</time>
   </trkpt>
   <trkpt lat="-8.057679" lon="-34.899252">
    <ele>6.3</ele>
    <time>2019-08-13T21:22:26.000Z</time>
   </trkpt>
   <trkpt lat="-8.057644" lon="-34.899259">
    <ele>6.3</ele>
    <time>2019-08-13T21:22:30.000Z</time>
   </trkpt>
   <trkpt lat="-8.057612" lon="-34.899212">
    <ele>6.3</ele>
    <time>2019-08-13T21:22:33.000Z</time>
   </trkpt>
   <trkpt lat="-8.057579" lon="-34.899206">
    <ele>6.3</ele>
    <time>2019-08-13T21:22:36.000Z</time>
   </trkpt>
   <trkpt lat="-8.057547" lon="-34.89921">
    <ele>6.3</ele>
    <time>2019-08-13T21:22:46.000Z</time>
   </trkpt>
   <trkpt lat="-8.057505" lon="-34.899198">
    <ele>6.3</ele>
    <time>2019-08-13T21:22:48.000Z</time>
   </trkpt>
   <trkpt lat="-8.057512" lon="-34.899164">
    <ele>6.3</ele>
    <time>2019-08-13T21:22:50.000Z</time>
   </trkpt>
   <trkpt lat="-8.057512" lon="-34.899135">
    <ele>6.3</ele>
    <time>2019-08-13T21:22:51.000Z</time>
   </trkpt>
   <trkpt lat="-8.057505" lon="-34.899105">
    <ele>6.4</ele>
    <time>2019-08-13T21:22:52.000Z</time>
   </trkpt>
   <trkpt lat="-8.057505" lon="-34.899062">
    <ele>6.4</ele>
    <time>2019-08-13T21:22:54.000Z</time>
   </trkpt>
   <trkpt lat="-8.057493" lon="-34.899031">
    <ele>6.5</ele>
    <time>2019-08-13T21:22:55.000Z</time>
   </trkpt>
   <trkpt lat="-8.057497" lon="-34.898979">
    <ele>6.7</ele>
    <time>2019-08-13T21:22:57.000Z</time>
   </trkpt>
   <trkpt lat="-8.057489" lon="-34.898945">
    <ele>7</ele>
    <time>2019-08-13T21:22:58.000Z</time>
   </trkpt>
   <trkpt lat="-8.057472" lon="-34.898884">
    <ele>7.6</ele>
    <time>2019-08-13T21:22:59.000Z</time>
   </trkpt>
   <trkpt lat="-8.057468" lon="-34.898843">
    <ele>7.9</ele>
    <time>2019-08-13T21:23:00.000Z</time>
   </trkpt>
   <trkpt lat="-8.057462" lon="-34.898808">
    <ele>8.3</ele>
    <time>2019-08-13T21:23:01.000Z</time>
   </trkpt>
   <trkpt lat="-8.057447" lon="-34.898773">
    <ele>8.7</ele>
    <time>2019-08-13T21:23:02.000Z</time>
   </trkpt>
   <trkpt lat="-8.057439" lon="-34.898747">
    <ele>9.1</ele>
    <time>2019-08-13T21:23:03.000Z</time>
   </trkpt>
   <trkpt lat="-8.057438" lon="-34.898717">
    <ele>9.3</ele>
    <time>2019-08-13T21:23:04.000Z</time>
   </trkpt>
   <trkpt lat="-8.057435" lon="-34.898681">
    <ele>9.3</ele>
    <time>2019-08-13T21:23:05.000Z</time>
   </trkpt>
   <trkpt lat="-8.057436" lon="-34.898639">
    <ele>9.3</ele>
    <time>2019-08-13T21:23:07.000Z</time>
   </trkpt>
   <trkpt lat="-8.057418" lon="-34.898596">
    <ele>9.6</ele>
    <time>2019-08-13T21:23:09.000Z</time>
   </trkpt>
   <trkpt lat="-8.05743" lon="-34.898569">
    <ele>9.7</ele>
    <time>2019-08-13T21:23:12.000Z</time>
   </trkpt>
   <trkpt lat="-8.057446" lon="-34.898539">
    <ele>9.9</ele>
    <time>2019-08-13T21:23:15.000Z</time>
   </trkpt>
   <trkpt lat="-8.057483" lon="-34.898513">
    <ele>10</ele>
    <time>2019-08-13T21:23:17.000Z</time>
   </trkpt>
   <trkpt lat="-8.057535" lon="-34.898514">
    <ele>10</ele>
    <time>2019-08-13T21:23:19.000Z</time>
   </trkpt>
   <trkpt lat="-8.05757" lon="-34.898525">
    <ele>10.1</ele>
    <time>2019-08-13T21:23:20.000Z</time>
   </trkpt>
   <trkpt lat="-8.057602" lon="-34.898535">
    <ele>10.4</ele>
    <time>2019-08-13T21:23:21.000Z</time>
   </trkpt>
   <trkpt lat="-8.057633" lon="-34.898542">
    <ele>10.6</ele>
    <time>2019-08-13T21:23:22.000Z</time>
   </trkpt>
   <trkpt lat="-8.057682" lon="-34.898576">
    <ele>10.9</ele>
    <time>2019-08-13T21:23:23.000Z</time>
   </trkpt>
   <trkpt lat="-8.057719" lon="-34.898602">
    <ele>10.9</ele>
    <time>2019-08-13T21:23:24.000Z</time>
   </trkpt>
   <trkpt lat="-8.057753" lon="-34.898616">
    <ele>11.1</ele>
    <time>2019-08-13T21:23:25.000Z</time>
   </trkpt>
   <trkpt lat="-8.057778" lon="-34.898628">
    <ele>11.2</ele>
    <time>2019-08-13T21:23:26.000Z</time>
   </trkpt>
   <trkpt lat="-8.05783" lon="-34.898651">
    <ele>11.2</ele>
    <time>2019-08-13T21:23:28.000Z</time>
   </trkpt>
   <trkpt lat="-8.057875" lon="-34.898668">
    <ele>11.1</ele>
    <time>2019-08-13T21:23:30.000Z</time>
   </trkpt>
   <trkpt lat="-8.057918" lon="-34.898677">
    <ele>10.8</ele>
    <time>2019-08-13T21:23:32.000Z</time>
   </trkpt>
   <trkpt lat="-8.057958" lon="-34.898681">
    <ele>10.6</ele>
    <time>2019-08-13T21:23:33.000Z</time>
   </trkpt>
   <trkpt lat="-8.057995" lon="-34.898704">
    <ele>10.4</ele>
    <time>2019-08-13T21:23:34.000Z</time>
   </trkpt>
   <trkpt lat="-8.058035" lon="-34.898708">
    <ele>10.3</ele>
    <time>2019-08-13T21:23:35.000Z</time>
   </trkpt>
   <trkpt lat="-8.058077" lon="-34.898715">
    <ele>10.3</ele>
    <time>2019-08-13T21:23:37.000Z</time>
   </trkpt>
   <trkpt lat="-8.058116" lon="-34.898723">
    <ele>10.3</ele>
    <time>2019-08-13T21:23:39.000Z</time>
   </trkpt>
   <trkpt lat="-8.058199" lon="-34.898733">
    <ele>10.4</ele>
    <time>2019-08-13T21:23:41.000Z</time>
   </trkpt>
   <trkpt lat="-8.058264" lon="-34.898768">
    <ele>10.8</ele>
    <time>2019-08-13T21:23:42.000Z</time>
   </trkpt>
   <trkpt lat="-8.058295" lon="-34.898809">
    <ele>11.2</ele>
    <time>2019-08-13T21:23:43.000Z</time>
   </trkpt>
   <trkpt lat="-8.058302" lon="-34.898845">
    <ele>11.7</ele>
    <time>2019-08-13T21:23:44.000Z</time>
   </trkpt>
   <trkpt lat="-8.058301" lon="-34.898875">
    <ele>12</ele>
    <time>2019-08-13T21:23:45.000Z</time>
   </trkpt>
   <trkpt lat="-8.058303" lon="-34.898904">
    <ele>12</ele>
    <time>2019-08-13T21:23:46.000Z</time>
   </trkpt>
   <trkpt lat="-8.058294" lon="-34.898953">
    <ele>11.9</ele>
    <time>2019-08-13T21:23:47.000Z</time>
   </trkpt>
   <trkpt lat="-8.058268" lon="-34.899014">
    <ele>11.9</ele>
    <time>2019-08-13T21:23:48.000Z</time>
   </trkpt>
   <trkpt lat="-8.058239" lon="-34.899076">
    <ele>11.9</ele>
    <time>2019-08-13T21:23:49.000Z</time>
   </trkpt>
   <trkpt lat="-8.058233" lon="-34.899122">
    <ele>11.8</ele>
    <time>2019-08-13T21:23:50.000Z</time>
   </trkpt>
   <trkpt lat="-8.058237" lon="-34.899156">
    <ele>11.9</ele>
    <time>2019-08-13T21:23:51.000Z</time>
   </trkpt>
   <trkpt lat="-8.058243" lon="-34.899189">
    <ele>11.9</ele>
    <time>2019-08-13T21:23:53.000Z</time>
   </trkpt>
   <trkpt lat="-8.058241" lon="-34.899236">
    <ele>12</ele>
    <time>2019-08-13T21:23:55.000Z</time>
   </trkpt>
   <trkpt lat="-8.058229" lon="-34.89928">
    <ele>12</ele>
    <time>2019-08-13T21:23:56.000Z</time>
   </trkpt>
   <trkpt lat="-8.058232" lon="-34.899327">
    <ele>12</ele>
    <time>2019-08-13T21:23:57.000Z</time>
   </trkpt>
   <trkpt lat="-8.058231" lon="-34.899376">
    <ele>12</ele>
    <time>2019-08-13T21:23:58.000Z</time>
   </trkpt>
   <trkpt lat="-8.058211" lon="-34.899418">
    <ele>12.1</ele>
    <time>2019-08-13T21:23:59.000Z</time>
   </trkpt>
   <trkpt lat="-8.058216" lon="-34.899465">
    <ele>12.6</ele>
    <time>2019-08-13T21:24:00.000Z</time>
   </trkpt>
   <trkpt lat="-8.05823" lon="-34.899512">
    <ele>13</ele>
    <time>2019-08-13T21:24:01.000Z</time>
   </trkpt>
   <trkpt lat="-8.058245" lon="-34.899558">
    <ele>13.5</ele>
    <time>2019-08-13T21:24:02.000Z</time>
   </trkpt>
   <trkpt lat="-8.058262" lon="-34.899602">
    <ele>13.9</ele>
    <time>2019-08-13T21:24:03.000Z</time>
   </trkpt>
   <trkpt lat="-8.058277" lon="-34.899649">
    <ele>14.4</ele>
    <time>2019-08-13T21:24:04.000Z</time>
   </trkpt>
   <trkpt lat="-8.058303" lon="-34.899703">
    <ele>15</ele>
    <time>2019-08-13T21:24:05.000Z</time>
   </trkpt>
   <trkpt lat="-8.058331" lon="-34.899768">
    <ele>15.4</ele>
    <time>2019-08-13T21:24:06.000Z</time>
   </trkpt>
   <trkpt lat="-8.058361" lon="-34.899837">
    <ele>15.2</ele>
    <time>2019-08-13T21:24:07.000Z</time>
   </trkpt>
   <trkpt lat="-8.058392" lon="-34.899873">
    <ele>14.9</ele>
    <time>2019-08-13T21:24:08.000Z</time>
   </trkpt>
   <trkpt lat="-8.058372" lon="-34.899901">
    <ele>14.6</ele>
    <time>2019-08-13T21:24:10.000Z</time>
   </trkpt>
   <trkpt lat="-8.058348" lon="-34.899928">
    <ele>14.3</ele>
    <time>2019-08-13T21:24:11.000Z</time>
   </trkpt>
   <trkpt lat="-8.058318" lon="-34.899935">
    <ele>14.2</ele>
    <time>2019-08-13T21:24:12.000Z</time>
   </trkpt>
   <trkpt lat="-8.05827" lon="-34.899957">
    <ele>12.8</ele>
    <time>2019-08-13T21:24:13.000Z</time>
   </trkpt>
   <trkpt lat="-8.058229" lon="-34.89997">
    <ele>12.3</ele>
    <time>2019-08-13T21:24:14.000Z</time>
   </trkpt>
   <trkpt lat="-8.058192" lon="-34.899976">
    <ele>11.9</ele>
    <time>2019-08-13T21:24:15.000Z</time>
   </trkpt>
   <trkpt lat="-8.05815" lon="-34.899987">
    <ele>11.5</ele>
    <time>2019-08-13T21:24:16.000Z</time>
   </trkpt>
   <trkpt lat="-8.058102" lon="-34.899989">
    <ele>11</ele>
    <time>2019-08-13T21:24:17.000Z</time>
   </trkpt>
   <trkpt lat="-8.058052" lon="-34.899996">
    <ele>10.7</ele>
    <time>2019-08-13T21:24:18.000Z</time>
   </trkpt>
   <trkpt lat="-8.058015" lon="-34.899997">
    <ele>10.5</ele>
    <time>2019-08-13T21:24:19.000Z</time>
   </trkpt>
   <trkpt lat="-8.057984" lon="-34.899996">
    <ele>10.4</ele>
    <time>2019-08-13T21:24:20.000Z</time>
   </trkpt>
   <trkpt lat="-8.057937" lon="-34.900009">
    <ele>10.1</ele>
    <time>2019-08-13T21:24:22.000Z</time>
   </trkpt>
   <trkpt lat="-8.057836" lon="-34.900031">
    <ele>10</ele>
    <time>2019-08-13T21:24:24.000Z</time>
   </trkpt>
   <trkpt lat="-8.057768" lon="-34.900055">
    <ele>10</ele>
    <time>2019-08-13T21:24:29.000Z</time>
   </trkpt>
   <trkpt lat="-8.057699" lon="-34.900078">
    <ele>9.9</ele>
    <time>2019-08-13T21:24:48.000Z</time>
   </trkpt>
   <trkpt lat="-8.057631" lon="-34.900102">
    <ele>9.9</ele>
    <time>2019-08-13T21:24:49.000Z</time>
   </trkpt>
   <trkpt lat="-8.057573" lon="-34.900106">
    <ele>9.8</ele>
    <time>2019-08-13T21:24:50.000Z</time>
   </trkpt>
   <trkpt lat="-8.057505" lon="-34.900112">
    <ele>9.8</ele>
    <time>2019-08-13T21:24:51.000Z</time>
   </trkpt>
   <trkpt lat="-8.057432" lon="-34.90011">
    <ele>9.8</ele>
    <time>2019-08-13T21:24:52.000Z</time>
   </trkpt>
   <trkpt lat="-8.057357" lon="-34.900107">
    <ele>9.6</ele>
    <time>2019-08-13T21:24:53.000Z</time>
   </trkpt>
   <trkpt lat="-8.05729" lon="-34.900114">
    <ele>9.4</ele>
    <time>2019-08-13T21:24:54.000Z</time>
   </trkpt>
   <trkpt lat="-8.05722" lon="-34.900109">
    <ele>9.2</ele>
    <time>2019-08-13T21:24:55.000Z</time>
   </trkpt>
   <trkpt lat="-8.057163" lon="-34.900106">
    <ele>9</ele>
    <time>2019-08-13T21:24:56.000Z</time>
   </trkpt>
   <trkpt lat="-8.057123" lon="-34.900098">
    <ele>8.9</ele>
    <time>2019-08-13T21:24:57.000Z</time>
   </trkpt>
   <trkpt lat="-8.05708" lon="-34.90009">
    <ele>8.8</ele>
    <time>2019-08-13T21:24:58.000Z</time>
   </trkpt>
   <trkpt lat="-8.05703" lon="-34.900091">
    <ele>8.8</ele>
    <time>2019-08-13T21:24:59.000Z</time>
   </trkpt>
   <trkpt lat="-8.056973" lon="-34.900091">
    <ele>8.8</ele>
    <time>2019-08-13T21:25:00.000Z</time>
   </trkpt>
   <trkpt lat="-8.056918" lon="-34.900095">
    <ele>9.1</ele>
    <time>2019-08-13T21:25:01.000Z</time>
   </trkpt>
   <trkpt lat="-8.056871" lon="-34.900092">
    <ele>9.3</ele>
    <time>2019-08-13T21:25:02.000Z</time>
   </trkpt>
   <trkpt lat="-8.056826" lon="-34.900087">
    <ele>9.5</ele>
    <time>2019-08-13T21:25:03.000Z</time>
   </trkpt>
   <trkpt lat="-8.056769" lon="-34.900087">
    <ele>9.8</ele>
    <time>2019-08-13T21:25:04.000Z</time>
   </trkpt>
   <trkpt lat="-8.056729" lon="-34.900088">
    <ele>10</ele>
    <time>2019-08-13T21:25:05.000Z</time>
   </trkpt>
   <trkpt lat="-8.056684" lon="-34.900081">
    <ele>10.2</ele>
    <time>2019-08-13T21:25:06.000Z</time>
   </trkpt>
   <trkpt lat="-8.056643" lon="-34.900088">
    <ele>10.4</ele>
    <time>2019-08-13T21:25:07.000Z</time>
   </trkpt>
   <trkpt lat="-8.056593" lon="-34.900089">
    <ele>10.6</ele>
    <time>2019-08-13T21:25:08.000Z</time>
   </trkpt>
   <trkpt lat="-8.056541" lon="-34.900087">
    <ele>10.9</ele>
    <time>2019-08-13T21:25:09.000Z</time>
   </trkpt>
   <trkpt lat="-8.056486" lon="-34.900086">
    <ele>11</ele>
    <time>2019-08-13T21:25:10.000Z</time>
   </trkpt>
   <trkpt lat="-8.056437" lon="-34.900073">
    <ele>11.1</ele>
    <time>2019-08-13T21:25:11.000Z</time>
   </trkpt>
   <trkpt lat="-8.056387" lon="-34.900056">
    <ele>11.2</ele>
    <time>2019-08-13T21:25:12.000Z</time>
   </trkpt>
   <trkpt lat="-8.056347" lon="-34.900055">
    <ele>11.4</ele>
    <time>2019-08-13T21:25:13.000Z</time>
   </trkpt>
   <trkpt lat="-8.05631" lon="-34.900055">
    <ele>11.5</ele>
    <time>2019-08-13T21:25:14.000Z</time>
   </trkpt>
   <trkpt lat="-8.05627" lon="-34.900058">
    <ele>11.7</ele>
    <time>2019-08-13T21:25:15.000Z</time>
   </trkpt>
   <trkpt lat="-8.056232" lon="-34.900054">
    <ele>11.9</ele>
    <time>2019-08-13T21:25:16.000Z</time>
   </trkpt>
   <trkpt lat="-8.056193" lon="-34.900051">
    <ele>12</ele>
    <time>2019-08-13T21:25:17.000Z</time>
   </trkpt>
   <trkpt lat="-8.056154" lon="-34.900048">
    <ele>12.2</ele>
    <time>2019-08-13T21:25:18.000Z</time>
   </trkpt>
   <trkpt lat="-8.056117" lon="-34.900043">
    <ele>12.3</ele>
    <time>2019-08-13T21:25:19.000Z</time>
   </trkpt>
   <trkpt lat="-8.056078" lon="-34.900041">
    <ele>12.5</ele>
    <time>2019-08-13T21:25:20.000Z</time>
   </trkpt>
   <trkpt lat="-8.056038" lon="-34.900038">
    <ele>12.7</ele>
    <time>2019-08-13T21:25:21.000Z</time>
   </trkpt>
   <trkpt lat="-8.055995" lon="-34.900038">
    <ele>12.9</ele>
    <time>2019-08-13T21:25:22.000Z</time>
   </trkpt>
   <trkpt lat="-8.05594" lon="-34.900045">
    <ele>13.1</ele>
    <time>2019-08-13T21:25:23.000Z</time>
   </trkpt>
   <trkpt lat="-8.055887" lon="-34.900066">
    <ele>12.9</ele>
    <time>2019-08-13T21:25:24.000Z</time>
   </trkpt>
   <trkpt lat="-8.055842" lon="-34.900062">
    <ele>12.8</ele>
    <time>2019-08-13T21:25:25.000Z</time>
   </trkpt>
   <trkpt lat="-8.055785" lon="-34.900057">
    <ele>12.6</ele>
    <time>2019-08-13T21:25:26.000Z</time>
   </trkpt>
   <trkpt lat="-8.055732" lon="-34.900044">
    <ele>12.5</ele>
    <time>2019-08-13T21:25:27.000Z</time>
   </trkpt>
   <trkpt lat="-8.055682" lon="-34.900042">
    <ele>12.3</ele>
    <time>2019-08-13T21:25:28.000Z</time>
   </trkpt>
   <trkpt lat="-8.055635" lon="-34.900039">
    <ele>12.2</ele>
    <time>2019-08-13T21:25:29.000Z</time>
   </trkpt>
   <trkpt lat="-8.055601" lon="-34.900054">
    <ele>12.1</ele>
    <time>2019-08-13T21:25:30.000Z</time>
   </trkpt>
   <trkpt lat="-8.05556" lon="-34.900062">
    <ele>12</ele>
    <time>2019-08-13T21:25:31.000Z</time>
   </trkpt>
   <trkpt lat="-8.055518" lon="-34.900065">
    <ele>11.9</ele>
    <time>2019-08-13T21:25:32.000Z</time>
   </trkpt>
   <trkpt lat="-8.055479" lon="-34.900064">
    <ele>11.8</ele>
    <time>2019-08-13T21:25:33.000Z</time>
   </trkpt>
   <trkpt lat="-8.055438" lon="-34.900057">
    <ele>11.7</ele>
    <time>2019-08-13T21:25:34.000Z</time>
   </trkpt>
   <trkpt lat="-8.0554" lon="-34.900068">
    <ele>11.6</ele>
    <time>2019-08-13T21:25:35.000Z</time>
   </trkpt>
   <trkpt lat="-8.055359" lon="-34.900069">
    <ele>11.5</ele>
    <time>2019-08-13T21:25:36.000Z</time>
   </trkpt>
   <trkpt lat="-8.055319" lon="-34.900067">
    <ele>11.4</ele>
    <time>2019-08-13T21:25:37.000Z</time>
   </trkpt>
   <trkpt lat="-8.055281" lon="-34.900066">
    <ele>11.4</ele>
    <time>2019-08-13T21:25:38.000Z</time>
   </trkpt>
   <trkpt lat="-8.055245" lon="-34.900067">
    <ele>11.3</ele>
    <time>2019-08-13T21:25:39.000Z</time>
   </trkpt>
   <trkpt lat="-8.055196" lon="-34.900074">
    <ele>11.1</ele>
    <time>2019-08-13T21:25:40.000Z</time>
   </trkpt>
   <trkpt lat="-8.055147" lon="-34.900078">
    <ele>10.9</ele>
    <time>2019-08-13T21:25:41.000Z</time>
   </trkpt>
   <trkpt lat="-8.055096" lon="-34.900083">
    <ele>10.9</ele>
    <time>2019-08-13T21:25:42.000Z</time>
   </trkpt>
   <trkpt lat="-8.055045" lon="-34.900091">
    <ele>10.9</ele>
    <time>2019-08-13T21:25:43.000Z</time>
   </trkpt>
   <trkpt lat="-8.054988" lon="-34.900096">
    <ele>12.4</ele>
    <time>2019-08-13T21:25:44.000Z</time>
   </trkpt>
   <trkpt lat="-8.054943" lon="-34.900099">
    <ele>13.5</ele>
    <time>2019-08-13T21:25:45.000Z</time>
   </trkpt>
   <trkpt lat="-8.054901" lon="-34.900096">
    <ele>14.1</ele>
    <time>2019-08-13T21:25:46.000Z</time>
   </trkpt>
   <trkpt lat="-8.054855" lon="-34.900101">
    <ele>14.9</ele>
    <time>2019-08-13T21:25:47.000Z</time>
   </trkpt>
   <trkpt lat="-8.054818" lon="-34.900099">
    <ele>15.6</ele>
    <time>2019-08-13T21:25:48.000Z</time>
   </trkpt>
   <trkpt lat="-8.054783" lon="-34.900101">
    <ele>16.1</ele>
    <time>2019-08-13T21:25:49.000Z</time>
   </trkpt>
   <trkpt lat="-8.054746" lon="-34.900107">
    <ele>16.5</ele>
    <time>2019-08-13T21:25:50.000Z</time>
   </trkpt>
   <trkpt lat="-8.054724" lon="-34.900128">
    <ele>16.8</ele>
    <time>2019-08-13T21:25:51.000Z</time>
   </trkpt>
   <trkpt lat="-8.054684" lon="-34.900131">
    <ele>17.2</ele>
    <time>2019-08-13T21:25:52.000Z</time>
   </trkpt>
   <trkpt lat="-8.054622" lon="-34.90015">
    <ele>17.5</ele>
    <time>2019-08-13T21:25:53.000Z</time>
   </trkpt>
   <trkpt lat="-8.054556" lon="-34.900163">
    <ele>17.7</ele>
    <time>2019-08-13T21:25:54.000Z</time>
   </trkpt>
   <trkpt lat="-8.054513" lon="-34.900158">
    <ele>18</ele>
    <time>2019-08-13T21:25:55.000Z</time>
   </trkpt>
   <trkpt lat="-8.054472" lon="-34.900154">
    <ele>18.1</ele>
    <time>2019-08-13T21:25:56.000Z</time>
   </trkpt>
   <trkpt lat="-8.054425" lon="-34.900157">
    <ele>18.1</ele>
    <time>2019-08-13T21:25:57.000Z</time>
   </trkpt>
   <trkpt lat="-8.054383" lon="-34.900161">
    <ele>18.1</ele>
    <time>2019-08-13T21:25:58.000Z</time>
   </trkpt>
   <trkpt lat="-8.05435" lon="-34.900164">
    <ele>18.1</ele>
    <time>2019-08-13T21:25:59.000Z</time>
   </trkpt>
   <trkpt lat="-8.054316" lon="-34.900162">
    <ele>18.2</ele>
    <time>2019-08-13T21:26:00.000Z</time>
   </trkpt>
   <trkpt lat="-8.05427" lon="-34.900159">
    <ele>18.2</ele>
    <time>2019-08-13T21:26:01.000Z</time>
   </trkpt>
   <trkpt lat="-8.054237" lon="-34.900165">
    <ele>18.3</ele>
    <time>2019-08-13T21:26:02.000Z</time>
   </trkpt>
   <trkpt lat="-8.054204" lon="-34.90017">
    <ele>18.3</ele>
    <time>2019-08-13T21:26:03.000Z</time>
   </trkpt>
   <trkpt lat="-8.054171" lon="-34.900176">
    <ele>18.3</ele>
    <time>2019-08-13T21:26:04.000Z</time>
   </trkpt>
   <trkpt lat="-8.05413" lon="-34.900173">
    <ele>18.4</ele>
    <time>2019-08-13T21:26:05.000Z</time>
   </trkpt>
   <trkpt lat="-8.054094" lon="-34.900173">
    <ele>18.5</ele>
    <time>2019-08-13T21:26:06.000Z</time>
   </trkpt>
   <trkpt lat="-8.054055" lon="-34.900167">
    <ele>18.5</ele>
    <time>2019-08-13T21:26:07.000Z</time>
   </trkpt>
   <trkpt lat="-8.054012" lon="-34.900163">
    <ele>18.5</ele>
    <time>2019-08-13T21:26:08.000Z</time>
   </trkpt>
   <trkpt lat="-8.053971" lon="-34.900162">
    <ele>18.6</ele>
    <time>2019-08-13T21:26:09.000Z</time>
   </trkpt>
   <trkpt lat="-8.053927" lon="-34.900165">
    <ele>18.6</ele>
    <time>2019-08-13T21:26:10.000Z</time>
   </trkpt>
   <trkpt lat="-8.053892" lon="-34.90016">
    <ele>18.7</ele>
    <time>2019-08-13T21:26:11.000Z</time>
   </trkpt>
   <trkpt lat="-8.053843" lon="-34.900155">
    <ele>18.5</ele>
    <time>2019-08-13T21:26:12.000Z</time>
   </trkpt>
   <trkpt lat="-8.053787" lon="-34.900142">
    <ele>18.2</ele>
    <time>2019-08-13T21:26:13.000Z</time>
   </trkpt>
   <trkpt lat="-8.053732" lon="-34.900127">
    <ele>18</ele>
    <time>2019-08-13T21:26:14.000Z</time>
   </trkpt>
   <trkpt lat="-8.053683" lon="-34.900106">
    <ele>17.8</ele>
    <time>2019-08-13T21:26:15.000Z</time>
   </trkpt>
   <trkpt lat="-8.053639" lon="-34.900086">
    <ele>17.7</ele>
    <time>2019-08-13T21:26:16.000Z</time>
   </trkpt>
   <trkpt lat="-8.053603" lon="-34.900064">
    <ele>17.7</ele>
    <time>2019-08-13T21:26:17.000Z</time>
   </trkpt>
   <trkpt lat="-8.053564" lon="-34.900037">
    <ele>17.6</ele>
    <time>2019-08-13T21:26:18.000Z</time>
   </trkpt>
   <trkpt lat="-8.053522" lon="-34.900013">
    <ele>17.6</ele>
    <time>2019-08-13T21:26:19.000Z</time>
   </trkpt>
   <trkpt lat="-8.053481" lon="-34.899994">
    <ele>17.6</ele>
    <time>2019-08-13T21:26:20.000Z</time>
   </trkpt>
   <trkpt lat="-8.053442" lon="-34.899981">
    <ele>17.6</ele>
    <time>2019-08-13T21:26:21.000Z</time>
   </trkpt>
   <trkpt lat="-8.053409" lon="-34.899967">
    <ele>17.6</ele>
    <time>2019-08-13T21:26:22.000Z</time>
   </trkpt>
   <trkpt lat="-8.053383" lon="-34.89995">
    <ele>17.7</ele>
    <time>2019-08-13T21:26:23.000Z</time>
   </trkpt>
   <trkpt lat="-8.053361" lon="-34.899932">
    <ele>17.6</ele>
    <time>2019-08-13T21:26:24.000Z</time>
   </trkpt>
   <trkpt lat="-8.053335" lon="-34.899913">
    <ele>17.5</ele>
    <time>2019-08-13T21:26:25.000Z</time>
   </trkpt>
   <trkpt lat="-8.053302" lon="-34.89989">
    <ele>17.5</ele>
    <time>2019-08-13T21:26:26.000Z</time>
   </trkpt>
   <trkpt lat="-8.053264" lon="-34.899857">
    <ele>17.4</ele>
    <time>2019-08-13T21:26:27.000Z</time>
   </trkpt>
   <trkpt lat="-8.053234" lon="-34.899841">
    <ele>17.3</ele>
    <time>2019-08-13T21:26:28.000Z</time>
   </trkpt>
   <trkpt lat="-8.053207" lon="-34.899821">
    <ele>17.2</ele>
    <time>2019-08-13T21:26:29.000Z</time>
   </trkpt>
   <trkpt lat="-8.053169" lon="-34.899813">
    <ele>17.1</ele>
    <time>2019-08-13T21:26:30.000Z</time>
   </trkpt>
   <trkpt lat="-8.053131" lon="-34.899808">
    <ele>17.1</ele>
    <time>2019-08-13T21:26:31.000Z</time>
   </trkpt>
   <trkpt lat="-8.053101" lon="-34.899796">
    <ele>17</ele>
    <time>2019-08-13T21:26:32.000Z</time>
   </trkpt>
   <trkpt lat="-8.053045" lon="-34.899798">
    <ele>16.9</ele>
    <time>2019-08-13T21:26:34.000Z</time>
   </trkpt>
   <trkpt lat="-8.053" lon="-34.899791">
    <ele>16.8</ele>
    <time>2019-08-13T21:26:36.000Z</time>
   </trkpt>
   <trkpt lat="-8.052947" lon="-34.89978">
    <ele>16.7</ele>
    <time>2019-08-13T21:26:38.000Z</time>
   </trkpt>
   <trkpt lat="-8.052902" lon="-34.899761">
    <ele>16.6</ele>
    <time>2019-08-13T21:26:40.000Z</time>
   </trkpt>
   <trkpt lat="-8.052867" lon="-34.899743">
    <ele>16.5</ele>
    <time>2019-08-13T21:26:42.000Z</time>
   </trkpt>
   <trkpt lat="-8.052816" lon="-34.899725">
    <ele>16.4</ele>
    <time>2019-08-13T21:26:44.000Z</time>
   </trkpt>
   <trkpt lat="-8.052784" lon="-34.899718">
    <ele>16.3</ele>
    <time>2019-08-13T21:26:45.000Z</time>
   </trkpt>
   <trkpt lat="-8.05276" lon="-34.899699">
    <ele>16.3</ele>
    <time>2019-08-13T21:26:46.000Z</time>
   </trkpt>
   <trkpt lat="-8.05273" lon="-34.899678">
    <ele>16.2</ele>
    <time>2019-08-13T21:26:48.000Z</time>
   </trkpt>
   <trkpt lat="-8.052698" lon="-34.899657">
    <ele>16.1</ele>
    <time>2019-08-13T21:26:50.000Z</time>
   </trkpt>
   <trkpt lat="-8.052664" lon="-34.899622">
    <ele>15.9</ele>
    <time>2019-08-13T21:26:52.000Z</time>
   </trkpt>
   <trkpt lat="-8.052624" lon="-34.899615">
    <ele>15.3</ele>
    <time>2019-08-13T21:26:54.000Z</time>
   </trkpt>
   <trkpt lat="-8.052593" lon="-34.89961">
    <ele>14.9</ele>
    <time>2019-08-13T21:26:56.000Z</time>
   </trkpt>
   <trkpt lat="-8.052563" lon="-34.899587">
    <ele>14.4</ele>
    <time>2019-08-13T21:27:05.000Z</time>
   </trkpt>
   <trkpt lat="-8.052522" lon="-34.899517">
    <ele>13.3</ele>
    <time>2019-08-13T21:27:35.000Z</time>
   </trkpt>
   <trkpt lat="-8.052462" lon="-34.899507">
    <ele>12.5</ele>
    <time>2019-08-13T21:27:37.000Z</time>
   </trkpt>
   <trkpt lat="-8.052415" lon="-34.899512">
    <ele>12.2</ele>
    <time>2019-08-13T21:27:38.000Z</time>
   </trkpt>
   <trkpt lat="-8.052372" lon="-34.899495">
    <ele>11.9</ele>
    <time>2019-08-13T21:27:39.000Z</time>
   </trkpt>
   <trkpt lat="-8.052332" lon="-34.89947">
    <ele>11.6</ele>
    <time>2019-08-13T21:27:40.000Z</time>
   </trkpt>
   <trkpt lat="-8.052294" lon="-34.899449">
    <ele>11.6</ele>
    <time>2019-08-13T21:27:41.000Z</time>
   </trkpt>
   <trkpt lat="-8.052255" lon="-34.899423">
    <ele>11.7</ele>
    <time>2019-08-13T21:27:42.000Z</time>
   </trkpt>
   <trkpt lat="-8.052216" lon="-34.899406">
    <ele>11.7</ele>
    <time>2019-08-13T21:27:43.000Z</time>
   </trkpt>
   <trkpt lat="-8.052171" lon="-34.899384">
    <ele>11.7</ele>
    <time>2019-08-13T21:27:44.000Z</time>
   </trkpt>
   <trkpt lat="-8.052125" lon="-34.89936">
    <ele>11.7</ele>
    <time>2019-08-13T21:27:45.000Z</time>
   </trkpt>
   <trkpt lat="-8.052078" lon="-34.899338">
    <ele>11.8</ele>
    <time>2019-08-13T21:27:46.000Z</time>
   </trkpt>
   <trkpt lat="-8.052039" lon="-34.899307">
    <ele>11.8</ele>
    <time>2019-08-13T21:27:47.000Z</time>
   </trkpt>
   <trkpt lat="-8.051998" lon="-34.89928">
    <ele>11.8</ele>
    <time>2019-08-13T21:27:48.000Z</time>
   </trkpt>
   <trkpt lat="-8.051957" lon="-34.899251">
    <ele>11.8</ele>
    <time>2019-08-13T21:27:49.000Z</time>
   </trkpt>
   <trkpt lat="-8.051913" lon="-34.899226">
    <ele>11.9</ele>
    <time>2019-08-13T21:27:50.000Z</time>
   </trkpt>
   <trkpt lat="-8.051871" lon="-34.899201">
    <ele>11.9</ele>
    <time>2019-08-13T21:27:51.000Z</time>
   </trkpt>
   <trkpt lat="-8.05183" lon="-34.899177">
    <ele>11.9</ele>
    <time>2019-08-13T21:27:52.000Z</time>
   </trkpt>
   <trkpt lat="-8.051789" lon="-34.899162">
    <ele>11.9</ele>
    <time>2019-08-13T21:27:53.000Z</time>
   </trkpt>
   <trkpt lat="-8.05175" lon="-34.89914">
    <ele>11.9</ele>
    <time>2019-08-13T21:27:54.000Z</time>
   </trkpt>
   <trkpt lat="-8.051712" lon="-34.899118">
    <ele>12.5</ele>
    <time>2019-08-13T21:27:55.000Z</time>
   </trkpt>
   <trkpt lat="-8.051671" lon="-34.89909">
    <ele>13.2</ele>
    <time>2019-08-13T21:27:56.000Z</time>
   </trkpt>
   <trkpt lat="-8.05163" lon="-34.89906">
    <ele>14.1</ele>
    <time>2019-08-13T21:27:57.000Z</time>
   </trkpt>
   <trkpt lat="-8.051585" lon="-34.899031">
    <ele>15.1</ele>
    <time>2019-08-13T21:27:58.000Z</time>
   </trkpt>
   <trkpt lat="-8.051538" lon="-34.899005">
    <ele>16.1</ele>
    <time>2019-08-13T21:27:59.000Z</time>
   </trkpt>
   <trkpt lat="-8.051492" lon="-34.898979">
    <ele>17</ele>
    <time>2019-08-13T21:28:00.000Z</time>
   </trkpt>
   <trkpt lat="-8.051446" lon="-34.898954">
    <ele>17.6</ele>
    <time>2019-08-13T21:28:01.000Z</time>
   </trkpt>
   <trkpt lat="-8.051402" lon="-34.898929">
    <ele>17.5</ele>
    <time>2019-08-13T21:28:02.000Z</time>
   </trkpt>
   <trkpt lat="-8.051358" lon="-34.898903">
    <ele>17.3</ele>
    <time>2019-08-13T21:28:03.000Z</time>
   </trkpt>
   <trkpt lat="-8.051311" lon="-34.898876">
    <ele>16.8</ele>
    <time>2019-08-13T21:28:04.000Z</time>
   </trkpt>
   <trkpt lat="-8.051263" lon="-34.89885">
    <ele>16.4</ele>
    <time>2019-08-13T21:28:05.000Z</time>
   </trkpt>
   <trkpt lat="-8.051216" lon="-34.898827">
    <ele>16</ele>
    <time>2019-08-13T21:28:06.000Z</time>
   </trkpt>
   <trkpt lat="-8.051177" lon="-34.898806">
    <ele>16.1</ele>
    <time>2019-08-13T21:28:07.000Z</time>
   </trkpt>
   <trkpt lat="-8.05114" lon="-34.898787">
    <ele>16.3</ele>
    <time>2019-08-13T21:28:08.000Z</time>
   </trkpt>
   <trkpt lat="-8.051096" lon="-34.898772">
    <ele>16.6</ele>
    <time>2019-08-13T21:28:09.000Z</time>
   </trkpt>
   <trkpt lat="-8.051059" lon="-34.898747">
    <ele>16.8</ele>
    <time>2019-08-13T21:28:10.000Z</time>
   </trkpt>
   <trkpt lat="-8.051002" lon="-34.89871">
    <ele>16.5</ele>
    <time>2019-08-13T21:28:11.000Z</time>
   </trkpt>
   <trkpt lat="-8.050961" lon="-34.89868">
    <ele>15.8</ele>
    <time>2019-08-13T21:28:12.000Z</time>
   </trkpt>
   <trkpt lat="-8.050918" lon="-34.898655">
    <ele>15.1</ele>
    <time>2019-08-13T21:28:13.000Z</time>
   </trkpt>
   <trkpt lat="-8.050876" lon="-34.898628">
    <ele>14.7</ele>
    <time>2019-08-13T21:28:14.000Z</time>
   </trkpt>
   <trkpt lat="-8.050816" lon="-34.89859">
    <ele>14.2</ele>
    <time>2019-08-13T21:28:15.000Z</time>
   </trkpt>
   <trkpt lat="-8.050788" lon="-34.898576">
    <ele>14</ele>
    <time>2019-08-13T21:28:16.000Z</time>
   </trkpt>
   <trkpt lat="-8.050759" lon="-34.898565">
    <ele>13.8</ele>
    <time>2019-08-13T21:28:17.000Z</time>
   </trkpt>
   <trkpt lat="-8.050723" lon="-34.898552">
    <ele>13.4</ele>
    <time>2019-08-13T21:28:18.000Z</time>
   </trkpt>
   <trkpt lat="-8.050693" lon="-34.898524">
    <ele>12.9</ele>
    <time>2019-08-13T21:28:19.000Z</time>
   </trkpt>
   <trkpt lat="-8.050635" lon="-34.898488">
    <ele>12.4</ele>
    <time>2019-08-13T21:28:20.000Z</time>
   </trkpt>
   <trkpt lat="-8.05061" lon="-34.89847">
    <ele>12.2</ele>
    <time>2019-08-13T21:28:21.000Z</time>
   </trkpt>
   <trkpt lat="-8.050569" lon="-34.898448">
    <ele>12</ele>
    <time>2019-08-13T21:28:22.000Z</time>
   </trkpt>
   <trkpt lat="-8.050538" lon="-34.89843">
    <ele>11.9</ele>
    <time>2019-08-13T21:28:23.000Z</time>
   </trkpt>
   <trkpt lat="-8.050506" lon="-34.898411">
    <ele>11.9</ele>
    <time>2019-08-13T21:28:24.000Z</time>
   </trkpt>
   <trkpt lat="-8.050462" lon="-34.898389">
    <ele>11.8</ele>
    <time>2019-08-13T21:28:25.000Z</time>
   </trkpt>
   <trkpt lat="-8.050431" lon="-34.898371">
    <ele>11.7</ele>
    <time>2019-08-13T21:28:26.000Z</time>
   </trkpt>
   <trkpt lat="-8.0504" lon="-34.898351">
    <ele>11.6</ele>
    <time>2019-08-13T21:28:27.000Z</time>
   </trkpt>
   <trkpt lat="-8.050346" lon="-34.898322">
    <ele>11.5</ele>
    <time>2019-08-13T21:28:30.000Z</time>
   </trkpt>
   <trkpt lat="-8.050292" lon="-34.898292">
    <ele>11.6</ele>
    <time>2019-08-13T21:28:32.000Z</time>
   </trkpt>
   <trkpt lat="-8.050256" lon="-34.898275">
    <ele>11.8</ele>
    <time>2019-08-13T21:28:33.000Z</time>
   </trkpt>
   <trkpt lat="-8.050205" lon="-34.898233">
    <ele>12.2</ele>
    <time>2019-08-13T21:28:36.000Z</time>
   </trkpt>
   <trkpt lat="-8.050142" lon="-34.898201">
    <ele>12.6</ele>
    <time>2019-08-13T21:28:55.000Z</time>
   </trkpt>
   <trkpt lat="-8.050102" lon="-34.898177">
    <ele>13</ele>
    <time>2019-08-13T21:28:57.000Z</time>
   </trkpt>
   <trkpt lat="-8.050062" lon="-34.898147">
    <ele>13.3</ele>
    <time>2019-08-13T21:28:58.000Z</time>
   </trkpt>
   <trkpt lat="-8.050017" lon="-34.898119">
    <ele>13.5</ele>
    <time>2019-08-13T21:29:00.000Z</time>
   </trkpt>
   <trkpt lat="-8.050004" lon="-34.898087">
    <ele>13.4</ele>
    <time>2019-08-13T21:29:01.000Z</time>
   </trkpt>
   <trkpt lat="-8.05" lon="-34.898051">
    <ele>13.2</ele>
    <time>2019-08-13T21:29:02.000Z</time>
   </trkpt>
   <trkpt lat="-8.050007" lon="-34.898019">
    <ele>13.1</ele>
    <time>2019-08-13T21:29:03.000Z</time>
   </trkpt>
   <trkpt lat="-8.050026" lon="-34.897978">
    <ele>13.1</ele>
    <time>2019-08-13T21:29:04.000Z</time>
   </trkpt>
   <trkpt lat="-8.050045" lon="-34.897938">
    <ele>13.1</ele>
    <time>2019-08-13T21:29:05.000Z</time>
   </trkpt>
   <trkpt lat="-8.050053" lon="-34.897902">
    <ele>13</ele>
    <time>2019-08-13T21:29:06.000Z</time>
   </trkpt>
   <trkpt lat="-8.050062" lon="-34.897865">
    <ele>13</ele>
    <time>2019-08-13T21:29:07.000Z</time>
   </trkpt>
   <trkpt lat="-8.050072" lon="-34.897835">
    <ele>13</ele>
    <time>2019-08-13T21:29:08.000Z</time>
   </trkpt>
   <trkpt lat="-8.050077" lon="-34.897797">
    <ele>13</ele>
    <time>2019-08-13T21:29:09.000Z</time>
   </trkpt>
   <trkpt lat="-8.050077" lon="-34.897748">
    <ele>13</ele>
    <time>2019-08-13T21:29:10.000Z</time>
   </trkpt>
   <trkpt lat="-8.050069" lon="-34.897697">
    <ele>13</ele>
    <time>2019-08-13T21:29:11.000Z</time>
   </trkpt>
   <trkpt lat="-8.050069" lon="-34.89765">
    <ele>13</ele>
    <time>2019-08-13T21:29:12.000Z</time>
   </trkpt>
   <trkpt lat="-8.050033" lon="-34.897667">
    <ele>13</ele>
    <time>2019-08-13T21:29:13.000Z</time>
   </trkpt>
   <trkpt lat="-8.050031" lon="-34.89762">
    <ele>13</ele>
    <time>2019-08-13T21:29:14.000Z</time>
   </trkpt>
   <trkpt lat="-8.050031" lon="-34.897572">
    <ele>13</ele>
    <time>2019-08-13T21:29:15.000Z</time>
   </trkpt>
   <trkpt lat="-8.050031" lon="-34.897528">
    <ele>13</ele>
    <time>2019-08-13T21:29:16.000Z</time>
   </trkpt>
   <trkpt lat="-8.050043" lon="-34.897474">
    <ele>13</ele>
    <time>2019-08-13T21:29:17.000Z</time>
   </trkpt>
   <trkpt lat="-8.050058" lon="-34.897423">
    <ele>13</ele>
    <time>2019-08-13T21:29:18.000Z</time>
   </trkpt>
   <trkpt lat="-8.050081" lon="-34.897358">
    <ele>13</ele>
    <time>2019-08-13T21:29:19.000Z</time>
   </trkpt>
   <trkpt lat="-8.050101" lon="-34.8973">
    <ele>13</ele>
    <time>2019-08-13T21:29:20.000Z</time>
   </trkpt>
   <trkpt lat="-8.050117" lon="-34.897261">
    <ele>13</ele>
    <time>2019-08-13T21:29:21.000Z</time>
   </trkpt>
   <trkpt lat="-8.050133" lon="-34.897226">
    <ele>13.1</ele>
    <time>2019-08-13T21:29:22.000Z</time>
   </trkpt>
   <trkpt lat="-8.0501" lon="-34.897202">
    <ele>13.1</ele>
    <time>2019-08-13T21:29:24.000Z</time>
   </trkpt>
   <trkpt lat="-8.050105" lon="-34.897169">
    <ele>13.2</ele>
    <time>2019-08-13T21:29:25.000Z</time>
   </trkpt>
   <trkpt lat="-8.050133" lon="-34.897113">
    <ele>13.4</ele>
    <time>2019-08-13T21:29:27.000Z</time>
   </trkpt>
   <trkpt lat="-8.050145" lon="-34.897082">
    <ele>13.5</ele>
    <time>2019-08-13T21:29:28.000Z</time>
   </trkpt>
   <trkpt lat="-8.050161" lon="-34.897022">
    <ele>13.7</ele>
    <time>2019-08-13T21:29:30.000Z</time>
   </trkpt>
   <trkpt lat="-8.050166" lon="-34.896987">
    <ele>13.8</ele>
    <time>2019-08-13T21:29:31.000Z</time>
   </trkpt>
   <trkpt lat="-8.050167" lon="-34.896958">
    <ele>13.9</ele>
    <time>2019-08-13T21:29:32.000Z</time>
   </trkpt>
   <trkpt lat="-8.050142" lon="-34.896895">
    <ele>14.2</ele>
    <time>2019-08-13T21:29:33.000Z</time>
   </trkpt>
   <trkpt lat="-8.050132" lon="-34.896851">
    <ele>14.2</ele>
    <time>2019-08-13T21:29:35.000Z</time>
   </trkpt>
   <trkpt lat="-8.050101" lon="-34.896815">
    <ele>14.2</ele>
    <time>2019-08-13T21:29:37.000Z</time>
   </trkpt>
   <trkpt lat="-8.050072" lon="-34.896793">
    <ele>14.7</ele>
    <time>2019-08-13T21:29:38.000Z</time>
   </trkpt>
   <trkpt lat="-8.050044" lon="-34.896768">
    <ele>14.6</ele>
    <time>2019-08-13T21:29:39.000Z</time>
   </trkpt>
   <trkpt lat="-8.04999" lon="-34.896735">
    <ele>14.5</ele>
    <time>2019-08-13T21:29:41.000Z</time>
   </trkpt>
   <trkpt lat="-8.049953" lon="-34.896711">
    <ele>14.4</ele>
    <time>2019-08-13T21:29:42.000Z</time>
   </trkpt>
   <trkpt lat="-8.049909" lon="-34.896688">
    <ele>14.3</ele>
    <time>2019-08-13T21:29:43.000Z</time>
   </trkpt>
   <trkpt lat="-8.049851" lon="-34.896654">
    <ele>14.2</ele>
    <time>2019-08-13T21:29:44.000Z</time>
   </trkpt>
   <trkpt lat="-8.04979" lon="-34.896624">
    <ele>14</ele>
    <time>2019-08-13T21:29:45.000Z</time>
   </trkpt>
   <trkpt lat="-8.04974" lon="-34.896592">
    <ele>13.9</ele>
    <time>2019-08-13T21:29:46.000Z</time>
   </trkpt>
   <trkpt lat="-8.049679" lon="-34.896572">
    <ele>13.8</ele>
    <time>2019-08-13T21:29:47.000Z</time>
   </trkpt>
   <trkpt lat="-8.049616" lon="-34.896547">
    <ele>13.6</ele>
    <time>2019-08-13T21:29:48.000Z</time>
   </trkpt>
   <trkpt lat="-8.049535" lon="-34.896538">
    <ele>13.5</ele>
    <time>2019-08-13T21:29:49.000Z</time>
   </trkpt>
   <trkpt lat="-8.049471" lon="-34.896526">
    <ele>13.4</ele>
    <time>2019-08-13T21:29:50.000Z</time>
   </trkpt>
   <trkpt lat="-8.049406" lon="-34.896529">
    <ele>13.4</ele>
    <time>2019-08-13T21:29:51.000Z</time>
   </trkpt>
   <trkpt lat="-8.049362" lon="-34.896508">
    <ele>13.3</ele>
    <time>2019-08-13T21:29:52.000Z</time>
   </trkpt>
   <trkpt lat="-8.049337" lon="-34.896485">
    <ele>13.3</ele>
    <time>2019-08-13T21:29:53.000Z</time>
   </trkpt>
   <trkpt lat="-8.049284" lon="-34.896482">
    <ele>13.2</ele>
    <time>2019-08-13T21:29:54.000Z</time>
   </trkpt>
   <trkpt lat="-8.049235" lon="-34.89648">
    <ele>13.1</ele>
    <time>2019-08-13T21:29:55.000Z</time>
   </trkpt>
   <trkpt lat="-8.049194" lon="-34.896473">
    <ele>13.1</ele>
    <time>2019-08-13T21:29:56.000Z</time>
   </trkpt>
   <trkpt lat="-8.04915" lon="-34.896474">
    <ele>13</ele>
    <time>2019-08-13T21:29:57.000Z</time>
   </trkpt>
   <trkpt lat="-8.049103" lon="-34.896474">
    <ele>13</ele>
    <time>2019-08-13T21:29:58.000Z</time>
   </trkpt>
   <trkpt lat="-8.049072" lon="-34.896477">
    <ele>12.9</ele>
    <time>2019-08-13T21:29:59.000Z</time>
   </trkpt>
   <trkpt lat="-8.049039" lon="-34.896471">
    <ele>12.8</ele>
    <time>2019-08-13T21:30:01.000Z</time>
   </trkpt>
   <trkpt lat="-8.049001" lon="-34.896489">
    <ele>12.7</ele>
    <time>2019-08-13T21:30:02.000Z</time>
   </trkpt>
   <trkpt lat="-8.048968" lon="-34.896494">
    <ele>12.6</ele>
    <time>2019-08-13T21:30:03.000Z</time>
   </trkpt>
   <trkpt lat="-8.048927" lon="-34.896489">
    <ele>12.5</ele>
    <time>2019-08-13T21:30:04.000Z</time>
   </trkpt>
   <trkpt lat="-8.048893" lon="-34.896482">
    <ele>12.5</ele>
    <time>2019-08-13T21:30:06.000Z</time>
   </trkpt>
   <trkpt lat="-8.048919" lon="-34.896463">
    <ele>12.4</ele>
    <time>2019-08-13T21:30:09.000Z</time>
   </trkpt>
   <trkpt lat="-8.048872" lon="-34.896476">
    <ele>12.3</ele>
    <time>2019-08-13T21:30:14.000Z</time>
   </trkpt>
   <trkpt lat="-8.048837" lon="-34.896484">
    <ele>12.2</ele>
    <time>2019-08-13T21:30:15.000Z</time>
   </trkpt>
   <trkpt lat="-8.0488" lon="-34.896497">
    <ele>12.1</ele>
    <time>2019-08-13T21:30:16.000Z</time>
   </trkpt>
   <trkpt lat="-8.048761" lon="-34.896501">
    <ele>11.9</ele>
    <time>2019-08-13T21:30:17.000Z</time>
   </trkpt>
   <trkpt lat="-8.048719" lon="-34.8965">
    <ele>11.8</ele>
    <time>2019-08-13T21:30:18.000Z</time>
   </trkpt>
   <trkpt lat="-8.048691" lon="-34.896504">
    <ele>11.7</ele>
    <time>2019-08-13T21:30:19.000Z</time>
   </trkpt>
   <trkpt lat="-8.048686" lon="-34.896533">
    <ele>11.6</ele>
    <time>2019-08-13T21:30:20.000Z</time>
   </trkpt>
   <trkpt lat="-8.048668" lon="-34.896561">
    <ele>11.5</ele>
    <time>2019-08-13T21:30:22.000Z</time>
   </trkpt>
   <trkpt lat="-8.048687" lon="-34.896591">
    <ele>11.4</ele>
    <time>2019-08-13T21:30:46.000Z</time>
   </trkpt>
   <trkpt lat="-8.048652" lon="-34.896592">
    <ele>11.3</ele>
    <time>2019-08-13T21:30:48.000Z</time>
   </trkpt>
   <trkpt lat="-8.0486" lon="-34.896609">
    <ele>11.1</ele>
    <time>2019-08-13T21:30:50.000Z</time>
   </trkpt>
   <trkpt lat="-8.048545" lon="-34.896638">
    <ele>10.9</ele>
    <time>2019-08-13T21:30:52.000Z</time>
   </trkpt>
   <trkpt lat="-8.048519" lon="-34.896659">
    <ele>10.8</ele>
    <time>2019-08-13T21:30:53.000Z</time>
   </trkpt>
   <trkpt lat="-8.048474" lon="-34.896681">
    <ele>10.7</ele>
    <time>2019-08-13T21:30:54.000Z</time>
   </trkpt>
   <trkpt lat="-8.048441" lon="-34.896697">
    <ele>10.6</ele>
    <time>2019-08-13T21:30:55.000Z</time>
   </trkpt>
   <trkpt lat="-8.048408" lon="-34.896714">
    <ele>10.5</ele>
    <time>2019-08-13T21:30:56.000Z</time>
   </trkpt>
   <trkpt lat="-8.048365" lon="-34.896739">
    <ele>10.3</ele>
    <time>2019-08-13T21:30:57.000Z</time>
   </trkpt>
   <trkpt lat="-8.048324" lon="-34.896769">
    <ele>10.2</ele>
    <time>2019-08-13T21:30:58.000Z</time>
   </trkpt>
   <trkpt lat="-8.048252" lon="-34.8968">
    <ele>10.2</ele>
    <time>2019-08-13T21:30:59.000Z</time>
   </trkpt>
   <trkpt lat="-8.048193" lon="-34.896823">
    <ele>10.5</ele>
    <time>2019-08-13T21:31:00.000Z</time>
   </trkpt>
   <trkpt lat="-8.048148" lon="-34.896843">
    <ele>10.7</ele>
    <time>2019-08-13T21:31:01.000Z</time>
   </trkpt>
   <trkpt lat="-8.04811" lon="-34.896857">
    <ele>10.9</ele>
    <time>2019-08-13T21:31:02.000Z</time>
   </trkpt>
   <trkpt lat="-8.048102" lon="-34.896892">
    <ele>11</ele>
    <time>2019-08-13T21:31:03.000Z</time>
   </trkpt>
   <trkpt lat="-8.048075" lon="-34.896917">
    <ele>11.2</ele>
    <time>2019-08-13T21:31:04.000Z</time>
   </trkpt>
   <trkpt lat="-8.048036" lon="-34.896924">
    <ele>11.5</ele>
    <time>2019-08-13T21:31:05.000Z</time>
   </trkpt>
   <trkpt lat="-8.048004" lon="-34.896932">
    <ele>11.7</ele>
    <time>2019-08-13T21:31:06.000Z</time>
   </trkpt>
   <trkpt lat="-8.047967" lon="-34.896932">
    <ele>12</ele>
    <time>2019-08-13T21:31:07.000Z</time>
   </trkpt>
   <trkpt lat="-8.047934" lon="-34.896943">
    <ele>12.2</ele>
    <time>2019-08-13T21:31:08.000Z</time>
   </trkpt>
   <trkpt lat="-8.0479" lon="-34.896952">
    <ele>12.3</ele>
    <time>2019-08-13T21:31:09.000Z</time>
   </trkpt>
   <trkpt lat="-8.047874" lon="-34.89696">
    <ele>12.4</ele>
    <time>2019-08-13T21:31:10.000Z</time>
   </trkpt>
   <trkpt lat="-8.047838" lon="-34.896967">
    <ele>12.5</ele>
    <time>2019-08-13T21:31:12.000Z</time>
   </trkpt>
   <trkpt lat="-8.0478" lon="-34.896943">
    <ele>12.6</ele>
    <time>2019-08-13T21:31:14.000Z</time>
   </trkpt>
   <trkpt lat="-8.047769" lon="-34.896936">
    <ele>12.7</ele>
    <time>2019-08-13T21:31:15.000Z</time>
   </trkpt>
   <trkpt lat="-8.04774" lon="-34.896918">
    <ele>12.8</ele>
    <time>2019-08-13T21:31:16.000Z</time>
   </trkpt>
   <trkpt lat="-8.047719" lon="-34.896892">
    <ele>12.9</ele>
    <time>2019-08-13T21:31:17.000Z</time>
   </trkpt>
   <trkpt lat="-8.047674" lon="-34.896885">
    <ele>13</ele>
    <time>2019-08-13T21:31:18.000Z</time>
   </trkpt>
   <trkpt lat="-8.047631" lon="-34.896869">
    <ele>13.1</ele>
    <time>2019-08-13T21:31:19.000Z</time>
   </trkpt>
   <trkpt lat="-8.047596" lon="-34.896835">
    <ele>13</ele>
    <time>2019-08-13T21:31:20.000Z</time>
   </trkpt>
   <trkpt lat="-8.04757" lon="-34.896798">
    <ele>12.9</ele>
    <time>2019-08-13T21:31:21.000Z</time>
   </trkpt>
   <trkpt lat="-8.047557" lon="-34.896764">
    <ele>12.9</ele>
    <time>2019-08-13T21:31:22.000Z</time>
   </trkpt>
   <trkpt lat="-8.047526" lon="-34.896728">
    <ele>12.8</ele>
    <time>2019-08-13T21:31:23.000Z</time>
   </trkpt>
   <trkpt lat="-8.047515" lon="-34.896697">
    <ele>12.8</ele>
    <time>2019-08-13T21:31:25.000Z</time>
   </trkpt>
   <trkpt lat="-8.047507" lon="-34.89667">
    <ele>12.8</ele>
    <time>2019-08-13T21:31:26.000Z</time>
   </trkpt>
   <trkpt lat="-8.047485" lon="-34.896616">
    <ele>12.9</ele>
    <time>2019-08-13T21:31:27.000Z</time>
   </trkpt>
   <trkpt lat="-8.047477" lon="-34.896588">
    <ele>13</ele>
    <time>2019-08-13T21:31:28.000Z</time>
   </trkpt>
   <trkpt lat="-8.047464" lon="-34.896534">
    <ele>13.1</ele>
    <time>2019-08-13T21:31:30.000Z</time>
   </trkpt>
   <trkpt lat="-8.047451" lon="-34.896501">
    <ele>13.2</ele>
    <time>2019-08-13T21:31:31.000Z</time>
   </trkpt>
   <trkpt lat="-8.047359" lon="-34.896448">
    <ele>13.5</ele>
    <time>2019-08-13T21:31:32.000Z</time>
   </trkpt>
   <trkpt lat="-8.047312" lon="-34.896415">
    <ele>13.8</ele>
    <time>2019-08-13T21:31:33.000Z</time>
   </trkpt>
   <trkpt lat="-8.04724" lon="-34.896362">
    <ele>14.2</ele>
    <time>2019-08-13T21:31:34.000Z</time>
   </trkpt>
   <trkpt lat="-8.047178" lon="-34.896333">
    <ele>14.6</ele>
    <time>2019-08-13T21:31:35.000Z</time>
   </trkpt>
   <trkpt lat="-8.047144" lon="-34.896307">
    <ele>14.8</ele>
    <time>2019-08-13T21:31:36.000Z</time>
   </trkpt>
   <trkpt lat="-8.047104" lon="-34.896271">
    <ele>15.1</ele>
    <time>2019-08-13T21:31:37.000Z</time>
   </trkpt>
   <trkpt lat="-8.047061" lon="-34.896234">
    <ele>15.4</ele>
    <time>2019-08-13T21:31:38.000Z</time>
   </trkpt>
   <trkpt lat="-8.047015" lon="-34.896198">
    <ele>15.8</ele>
    <time>2019-08-13T21:31:39.000Z</time>
   </trkpt>
   <trkpt lat="-8.046978" lon="-34.896167">
    <ele>16.1</ele>
    <time>2019-08-13T21:31:40.000Z</time>
   </trkpt>
   <trkpt lat="-8.04694" lon="-34.896137">
    <ele>16.3</ele>
    <time>2019-08-13T21:31:41.000Z</time>
   </trkpt>
   <trkpt lat="-8.046912" lon="-34.89609">
    <ele>16.7</ele>
    <time>2019-08-13T21:31:42.000Z</time>
   </trkpt>
   <trkpt lat="-8.046886" lon="-34.896054">
    <ele>16.9</ele>
    <time>2019-08-13T21:31:43.000Z</time>
   </trkpt>
   <trkpt lat="-8.046863" lon="-34.896023">
    <ele>17.2</ele>
    <time>2019-08-13T21:31:44.000Z</time>
   </trkpt>
   <trkpt lat="-8.04684" lon="-34.895992">
    <ele>17.4</ele>
    <time>2019-08-13T21:31:45.000Z</time>
   </trkpt>
   <trkpt lat="-8.046811" lon="-34.895958">
    <ele>17.7</ele>
    <time>2019-08-13T21:31:46.000Z</time>
   </trkpt>
   <trkpt lat="-8.046777" lon="-34.895933">
    <ele>17.9</ele>
    <time>2019-08-13T21:31:47.000Z</time>
   </trkpt>
   <trkpt lat="-8.046733" lon="-34.895898">
    <ele>18.2</ele>
    <time>2019-08-13T21:31:48.000Z</time>
   </trkpt>
   <trkpt lat="-8.046701" lon="-34.895871">
    <ele>18.5</ele>
    <time>2019-08-13T21:31:49.000Z</time>
   </trkpt>
   <trkpt lat="-8.046666" lon="-34.895844">
    <ele>18.7</ele>
    <time>2019-08-13T21:31:50.000Z</time>
   </trkpt>
   <trkpt lat="-8.046638" lon="-34.89582">
    <ele>18.9</ele>
    <time>2019-08-13T21:31:51.000Z</time>
   </trkpt>
   <trkpt lat="-8.04661" lon="-34.8958">
    <ele>19.1</ele>
    <time>2019-08-13T21:31:52.000Z</time>
   </trkpt>
   <trkpt lat="-8.046581" lon="-34.895778">
    <ele>19.2</ele>
    <time>2019-08-13T21:31:53.000Z</time>
   </trkpt>
   <trkpt lat="-8.046536" lon="-34.895748">
    <ele>19.5</ele>
    <time>2019-08-13T21:31:54.000Z</time>
   </trkpt>
   <trkpt lat="-8.046491" lon="-34.895729">
    <ele>19.7</ele>
    <time>2019-08-13T21:31:55.000Z</time>
   </trkpt>
   <trkpt lat="-8.046455" lon="-34.895707">
    <ele>20</ele>
    <time>2019-08-13T21:31:56.000Z</time>
   </trkpt>
   <trkpt lat="-8.046414" lon="-34.895682">
    <ele>20.2</ele>
    <time>2019-08-13T21:31:57.000Z</time>
   </trkpt>
   <trkpt lat="-8.046381" lon="-34.895662">
    <ele>20.4</ele>
    <time>2019-08-13T21:31:59.000Z</time>
   </trkpt>
   <trkpt lat="-8.046353" lon="-34.895647">
    <ele>20.6</ele>
    <time>2019-08-13T21:32:00.000Z</time>
   </trkpt>
   <trkpt lat="-8.046324" lon="-34.895634">
    <ele>20.8</ele>
    <time>2019-08-13T21:32:01.000Z</time>
   </trkpt>
   <trkpt lat="-8.046293" lon="-34.895619">
    <ele>21</ele>
    <time>2019-08-13T21:32:02.000Z</time>
   </trkpt>
   <trkpt lat="-8.046271" lon="-34.895599">
    <ele>21.2</ele>
    <time>2019-08-13T21:32:04.000Z</time>
   </trkpt>
   <trkpt lat="-8.046104" lon="-34.895506">
    <ele>22.6</ele>
    <time>2019-08-13T21:32:50.000Z</time>
   </trkpt>
   <trkpt lat="-8.046055" lon="-34.895485">
    <ele>22.9</ele>
    <time>2019-08-13T21:32:52.000Z</time>
   </trkpt>
   <trkpt lat="-8.046002" lon="-34.89547">
    <ele>23.2</ele>
    <time>2019-08-13T21:32:53.000Z</time>
   </trkpt>
   <trkpt lat="-8.045976" lon="-34.895457">
    <ele>23.4</ele>
    <time>2019-08-13T21:32:54.000Z</time>
   </trkpt>
   <trkpt lat="-8.045927" lon="-34.89543">
    <ele>23.7</ele>
    <time>2019-08-13T21:32:56.000Z</time>
   </trkpt>
   <trkpt lat="-8.045901" lon="-34.895403">
    <ele>23.8</ele>
    <time>2019-08-13T21:32:57.000Z</time>
   </trkpt>
   <trkpt lat="-8.045865" lon="-34.895376">
    <ele>24</ele>
    <time>2019-08-13T21:32:58.000Z</time>
   </trkpt>
   <trkpt lat="-8.045821" lon="-34.895321">
    <ele>23.8</ele>
    <time>2019-08-13T21:32:59.000Z</time>
   </trkpt>
   <trkpt lat="-8.045782" lon="-34.895293">
    <ele>23.3</ele>
    <time>2019-08-13T21:33:00.000Z</time>
   </trkpt>
   <trkpt lat="-8.045728" lon="-34.895253">
    <ele>22.7</ele>
    <time>2019-08-13T21:33:01.000Z</time>
   </trkpt>
   <trkpt lat="-8.045676" lon="-34.895225">
    <ele>22.4</ele>
    <time>2019-08-13T21:33:02.000Z</time>
   </trkpt>
   <trkpt lat="-8.045631" lon="-34.895205">
    <ele>22.1</ele>
    <time>2019-08-13T21:33:03.000Z</time>
   </trkpt>
   <trkpt lat="-8.045594" lon="-34.895185">
    <ele>21.8</ele>
    <time>2019-08-13T21:33:04.000Z</time>
   </trkpt>
   <trkpt lat="-8.045549" lon="-34.895159">
    <ele>21.5</ele>
    <time>2019-08-13T21:33:05.000Z</time>
   </trkpt>
   <trkpt lat="-8.045514" lon="-34.895141">
    <ele>21.3</ele>
    <time>2019-08-13T21:33:06.000Z</time>
   </trkpt>
   <trkpt lat="-8.045459" lon="-34.895106">
    <ele>20.9</ele>
    <time>2019-08-13T21:33:08.000Z</time>
   </trkpt>
   <trkpt lat="-8.045435" lon="-34.895085">
    <ele>20.8</ele>
    <time>2019-08-13T21:33:09.000Z</time>
   </trkpt>
   <trkpt lat="-8.045415" lon="-34.895064">
    <ele>20.6</ele>
    <time>2019-08-13T21:33:10.000Z</time>
   </trkpt>
   <trkpt lat="-8.045378" lon="-34.895015">
    <ele>20.2</ele>
    <time>2019-08-13T21:33:12.000Z</time>
   </trkpt>
   <trkpt lat="-8.045341" lon="-34.894988">
    <ele>20</ele>
    <time>2019-08-13T21:33:13.000Z</time>
   </trkpt>
   <trkpt lat="-8.045305" lon="-34.894964">
    <ele>19.7</ele>
    <time>2019-08-13T21:33:14.000Z</time>
   </trkpt>
   <trkpt lat="-8.045276" lon="-34.894942">
    <ele>19.5</ele>
    <time>2019-08-13T21:33:15.000Z</time>
   </trkpt>
   <trkpt lat="-8.04525" lon="-34.894914">
    <ele>19.3</ele>
    <time>2019-08-13T21:33:16.000Z</time>
   </trkpt>
   <trkpt lat="-8.045215" lon="-34.894869">
    <ele>18.9</ele>
    <time>2019-08-13T21:33:17.000Z</time>
   </trkpt>
   <trkpt lat="-8.045159" lon="-34.894823">
    <ele>18.4</ele>
    <time>2019-08-13T21:33:18.000Z</time>
   </trkpt>
   <trkpt lat="-8.045132" lon="-34.894791">
    <ele>18.1</ele>
    <time>2019-08-13T21:33:19.000Z</time>
   </trkpt>
   <trkpt lat="-8.045121" lon="-34.894755">
    <ele>17.9</ele>
    <time>2019-08-13T21:33:20.000Z</time>
   </trkpt>
   <trkpt lat="-8.045091" lon="-34.894733">
    <ele>17.8</ele>
    <time>2019-08-13T21:33:21.000Z</time>
   </trkpt>
   <trkpt lat="-8.045061" lon="-34.894691">
    <ele>17.5</ele>
    <time>2019-08-13T21:33:23.000Z</time>
   </trkpt>
   <trkpt lat="-8.045051" lon="-34.89466">
    <ele>17.4</ele>
    <time>2019-08-13T21:33:25.000Z</time>
   </trkpt>
   <trkpt lat="-8.045026" lon="-34.894634">
    <ele>17.2</ele>
    <time>2019-08-13T21:33:26.000Z</time>
   </trkpt>
   <trkpt lat="-8.044996" lon="-34.894618">
    <ele>17.1</ele>
    <time>2019-08-13T21:33:27.000Z</time>
   </trkpt>
   <trkpt lat="-8.044904" lon="-34.894597">
    <ele>16.7</ele>
    <time>2019-08-13T21:33:28.000Z</time>
   </trkpt>
   <trkpt lat="-8.044829" lon="-34.894576">
    <ele>16.3</ele>
    <time>2019-08-13T21:33:29.000Z</time>
   </trkpt>
   <trkpt lat="-8.044775" lon="-34.894543">
    <ele>16</ele>
    <time>2019-08-13T21:33:30.000Z</time>
   </trkpt>
   <trkpt lat="-8.044732" lon="-34.894519">
    <ele>15.8</ele>
    <time>2019-08-13T21:33:31.000Z</time>
   </trkpt>
   <trkpt lat="-8.044696" lon="-34.894492">
    <ele>15.6</ele>
    <time>2019-08-13T21:33:32.000Z</time>
   </trkpt>
   <trkpt lat="-8.044661" lon="-34.894465">
    <ele>15.4</ele>
    <time>2019-08-13T21:33:33.000Z</time>
   </trkpt>
   <trkpt lat="-8.044634" lon="-34.894444">
    <ele>15.2</ele>
    <time>2019-08-13T21:33:34.000Z</time>
   </trkpt>
   <trkpt lat="-8.044611" lon="-34.894426">
    <ele>15.1</ele>
    <time>2019-08-13T21:33:35.000Z</time>
   </trkpt>
   <trkpt lat="-8.044576" lon="-34.894394">
    <ele>14.9</ele>
    <time>2019-08-13T21:33:36.000Z</time>
   </trkpt>
   <trkpt lat="-8.044545" lon="-34.894368">
    <ele>14.7</ele>
    <time>2019-08-13T21:33:37.000Z</time>
   </trkpt>
   <trkpt lat="-8.044481" lon="-34.894382">
    <ele>14.5</ele>
    <time>2019-08-13T21:33:38.000Z</time>
   </trkpt>
   <trkpt lat="-8.044446" lon="-34.89436">
    <ele>14.3</ele>
    <time>2019-08-13T21:33:39.000Z</time>
   </trkpt>
   <trkpt lat="-8.044429" lon="-34.8943">
    <ele>13.9</ele>
    <time>2019-08-13T21:33:40.000Z</time>
   </trkpt>
   <trkpt lat="-8.044421" lon="-34.894242">
    <ele>13.5</ele>
    <time>2019-08-13T21:33:41.000Z</time>
   </trkpt>
   <trkpt lat="-8.044426" lon="-34.894191">
    <ele>13.6</ele>
    <time>2019-08-13T21:33:42.000Z</time>
   </trkpt>
   <trkpt lat="-8.044402" lon="-34.894174">
    <ele>13.6</ele>
    <time>2019-08-13T21:33:43.000Z</time>
   </trkpt>
   <trkpt lat="-8.04438" lon="-34.894144">
    <ele>13.6</ele>
    <time>2019-08-13T21:33:44.000Z</time>
   </trkpt>
   <trkpt lat="-8.04436" lon="-34.89412">
    <ele>13.6</ele>
    <time>2019-08-13T21:33:45.000Z</time>
   </trkpt>
   <trkpt lat="-8.044359" lon="-34.894053">
    <ele>13.7</ele>
    <time>2019-08-13T21:33:48.000Z</time>
   </trkpt>
   <trkpt lat="-8.044333" lon="-34.89404">
    <ele>13.7</ele>
    <time>2019-08-13T21:33:50.000Z</time>
   </trkpt>
   <trkpt lat="-8.044301" lon="-34.894011">
    <ele>13.7</ele>
    <time>2019-08-13T21:33:51.000Z</time>
   </trkpt>
   <trkpt lat="-8.04427" lon="-34.89399">
    <ele>13.8</ele>
    <time>2019-08-13T21:33:52.000Z</time>
   </trkpt>
   <trkpt lat="-8.044232" lon="-34.893986">
    <ele>13.8</ele>
    <time>2019-08-13T21:33:53.000Z</time>
   </trkpt>
   <trkpt lat="-8.044197" lon="-34.893962">
    <ele>13.8</ele>
    <time>2019-08-13T21:33:55.000Z</time>
   </trkpt>
   <trkpt lat="-8.044166" lon="-34.89397">
    <ele>13.8</ele>
    <time>2019-08-13T21:34:01.000Z</time>
   </trkpt>
   <trkpt lat="-8.044122" lon="-34.893962">
    <ele>13.9</ele>
    <time>2019-08-13T21:34:07.000Z</time>
   </trkpt>
   <trkpt lat="-8.044094" lon="-34.893959">
    <ele>13.9</ele>
    <time>2019-08-13T21:34:08.000Z</time>
   </trkpt>
   <trkpt lat="-8.044068" lon="-34.89395">
    <ele>13.9</ele>
    <time>2019-08-13T21:34:10.000Z</time>
   </trkpt>
   <trkpt lat="-8.044046" lon="-34.89392">
    <ele>13.9</ele>
    <time>2019-08-13T21:34:30.000Z</time>
   </trkpt>
   <trkpt lat="-8.044011" lon="-34.89389">
    <ele>14</ele>
    <time>2019-08-13T21:34:32.000Z</time>
   </trkpt>
   <trkpt lat="-8.043967" lon="-34.893854">
    <ele>14.1</ele>
    <time>2019-08-13T21:34:34.000Z</time>
   </trkpt>
   <trkpt lat="-8.04394" lon="-34.893839">
    <ele>14</ele>
    <time>2019-08-13T21:34:35.000Z</time>
   </trkpt>
   <trkpt lat="-8.043915" lon="-34.893825">
    <ele>14.1</ele>
    <time>2019-08-13T21:34:36.000Z</time>
   </trkpt>
   <trkpt lat="-8.043884" lon="-34.893806">
    <ele>14.2</ele>
    <time>2019-08-13T21:34:38.000Z</time>
   </trkpt>
   <trkpt lat="-8.043862" lon="-34.893784">
    <ele>14.1</ele>
    <time>2019-08-13T21:34:39.000Z</time>
   </trkpt>
   <trkpt lat="-8.043845" lon="-34.893763">
    <ele>14.1</ele>
    <time>2019-08-13T21:34:40.000Z</time>
   </trkpt>
   <trkpt lat="-8.043813" lon="-34.893726">
    <ele>14.2</ele>
    <time>2019-08-13T21:34:42.000Z</time>
   </trkpt>
   <trkpt lat="-8.043794" lon="-34.893695">
    <ele>14.2</ele>
    <time>2019-08-13T21:34:44.000Z</time>
   </trkpt>
   <trkpt lat="-8.043776" lon="-34.89366">
    <ele>14.2</ele>
    <time>2019-08-13T21:34:46.000Z</time>
   </trkpt>
   <trkpt lat="-8.043761" lon="-34.893633">
    <ele>14.2</ele>
    <time>2019-08-13T21:34:48.000Z</time>
   </trkpt>
   <trkpt lat="-8.043744" lon="-34.893606">
    <ele>14.3</ele>
    <time>2019-08-13T21:34:51.000Z</time>
   </trkpt>
   <trkpt lat="-8.043709" lon="-34.89359">
    <ele>14.3</ele>
    <time>2019-08-13T21:35:00.000Z</time>
   </trkpt>
   <trkpt lat="-8.043678" lon="-34.893567">
    <ele>14.4</ele>
    <time>2019-08-13T21:35:02.000Z</time>
   </trkpt>
   <trkpt lat="-8.04365" lon="-34.89353">
    <ele>14.4</ele>
    <time>2019-08-13T21:35:04.000Z</time>
   </trkpt>
   <trkpt lat="-8.043615" lon="-34.893513">
    <ele>14.5</ele>
    <time>2019-08-13T21:35:05.000Z</time>
   </trkpt>
   <trkpt lat="-8.043585" lon="-34.893496">
    <ele>14.6</ele>
    <time>2019-08-13T21:35:06.000Z</time>
   </trkpt>
   <trkpt lat="-8.043553" lon="-34.893477">
    <ele>14.6</ele>
    <time>2019-08-13T21:35:07.000Z</time>
   </trkpt>
   <trkpt lat="-8.043524" lon="-34.893457">
    <ele>14.7</ele>
    <time>2019-08-13T21:35:08.000Z</time>
   </trkpt>
   <trkpt lat="-8.043499" lon="-34.893435">
    <ele>14.9</ele>
    <time>2019-08-13T21:35:09.000Z</time>
   </trkpt>
   <trkpt lat="-8.043475" lon="-34.893407">
    <ele>15.1</ele>
    <time>2019-08-13T21:35:10.000Z</time>
   </trkpt>
   <trkpt lat="-8.043438" lon="-34.893385">
    <ele>15.4</ele>
    <time>2019-08-13T21:35:11.000Z</time>
   </trkpt>
   <trkpt lat="-8.043402" lon="-34.893367">
    <ele>15.7</ele>
    <time>2019-08-13T21:35:12.000Z</time>
   </trkpt>
   <trkpt lat="-8.043368" lon="-34.89335">
    <ele>15.7</ele>
    <time>2019-08-13T21:35:13.000Z</time>
   </trkpt>
   <trkpt lat="-8.043327" lon="-34.893325">
    <ele>15.8</ele>
    <time>2019-08-13T21:35:14.000Z</time>
   </trkpt>
   <trkpt lat="-8.043289" lon="-34.893297">
    <ele>15.8</ele>
    <time>2019-08-13T21:35:15.000Z</time>
   </trkpt>
   <trkpt lat="-8.043221" lon="-34.893286">
    <ele>15.8</ele>
    <time>2019-08-13T21:35:16.000Z</time>
   </trkpt>
   <trkpt lat="-8.043172" lon="-34.893265">
    <ele>15.9</ele>
    <time>2019-08-13T21:35:17.000Z</time>
   </trkpt>
   <trkpt lat="-8.043141" lon="-34.893246">
    <ele>15.9</ele>
    <time>2019-08-13T21:35:18.000Z</time>
   </trkpt>
   <trkpt lat="-8.043111" lon="-34.893222">
    <ele>15.9</ele>
    <time>2019-08-13T21:35:19.000Z</time>
   </trkpt>
   <trkpt lat="-8.043094" lon="-34.893191">
    <ele>16</ele>
    <time>2019-08-13T21:35:20.000Z</time>
   </trkpt>
   <trkpt lat="-8.043066" lon="-34.89316">
    <ele>16</ele>
    <time>2019-08-13T21:35:21.000Z</time>
   </trkpt>
   <trkpt lat="-8.043031" lon="-34.893134">
    <ele>16</ele>
    <time>2019-08-13T21:35:22.000Z</time>
   </trkpt>
   <trkpt lat="-8.042998" lon="-34.893113">
    <ele>16.1</ele>
    <time>2019-08-13T21:35:23.000Z</time>
   </trkpt>
   <trkpt lat="-8.042963" lon="-34.893096">
    <ele>16.1</ele>
    <time>2019-08-13T21:35:24.000Z</time>
   </trkpt>
   <trkpt lat="-8.042929" lon="-34.893071">
    <ele>16.1</ele>
    <time>2019-08-13T21:35:25.000Z</time>
   </trkpt>
   <trkpt lat="-8.042884" lon="-34.893048">
    <ele>16.1</ele>
    <time>2019-08-13T21:35:27.000Z</time>
   </trkpt>
   <trkpt lat="-8.042856" lon="-34.893037">
    <ele>16.1</ele>
    <time>2019-08-13T21:35:30.000Z</time>
   </trkpt>
   <trkpt lat="-8.042817" lon="-34.893027">
    <ele>16.1</ele>
    <time>2019-08-13T21:35:32.000Z</time>
   </trkpt>
   <trkpt lat="-8.042786" lon="-34.893018">
    <ele>16.2</ele>
    <time>2019-08-13T21:35:36.000Z</time>
   </trkpt>
   <trkpt lat="-8.042746" lon="-34.893003">
    <ele>16.2</ele>
    <time>2019-08-13T21:35:38.000Z</time>
   </trkpt>
   <trkpt lat="-8.042735" lon="-34.892956">
    <ele>16.2</ele>
    <time>2019-08-13T21:35:40.000Z</time>
   </trkpt>
   <trkpt lat="-8.042743" lon="-34.892917">
    <ele>16.2</ele>
    <time>2019-08-13T21:35:41.000Z</time>
   </trkpt>
   <trkpt lat="-8.042749" lon="-34.892881">
    <ele>16.2</ele>
    <time>2019-08-13T21:35:42.000Z</time>
   </trkpt>
   <trkpt lat="-8.042769" lon="-34.892849">
    <ele>16.2</ele>
    <time>2019-08-13T21:35:47.000Z</time>
   </trkpt>
   <trkpt lat="-8.042773" lon="-34.892813">
    <ele>16.3</ele>
    <time>2019-08-13T21:35:49.000Z</time>
   </trkpt>
   <trkpt lat="-8.042763" lon="-34.892788">
    <ele>16.3</ele>
    <time>2019-08-13T21:35:51.000Z</time>
   </trkpt>
   <trkpt lat="-8.042786" lon="-34.89276">
    <ele>16.3</ele>
    <time>2019-08-13T21:35:55.000Z</time>
   </trkpt>
   <trkpt lat="-8.04281" lon="-34.892734">
    <ele>16.3</ele>
    <time>2019-08-13T21:35:58.000Z</time>
   </trkpt>
   <trkpt lat="-8.042802" lon="-34.892707">
    <ele>16.3</ele>
    <time>2019-08-13T21:36:07.000Z</time>
   </trkpt>
   <trkpt lat="-8.042771" lon="-34.892719">
    <ele>16.4</ele>
    <time>2019-08-13T21:36:21.000Z</time>
   </trkpt>
   <trkpt lat="-8.042736" lon="-34.8927">
    <ele>16.4</ele>
    <time>2019-08-13T21:36:24.000Z</time>
   </trkpt>
   <trkpt lat="-8.042719" lon="-34.892672">
    <ele>16.4</ele>
    <time>2019-08-13T21:36:25.000Z</time>
   </trkpt>
   <trkpt lat="-8.042696" lon="-34.89264">
    <ele>16.5</ele>
    <time>2019-08-13T21:36:26.000Z</time>
   </trkpt>
   <trkpt lat="-8.042667" lon="-34.892626">
    <ele>16.5</ele>
    <time>2019-08-13T21:36:27.000Z</time>
   </trkpt>
   <trkpt lat="-8.042625" lon="-34.892604">
    <ele>16.5</ele>
    <time>2019-08-13T21:36:28.000Z</time>
   </trkpt>
   <trkpt lat="-8.042576" lon="-34.892596">
    <ele>16.6</ele>
    <time>2019-08-13T21:36:29.000Z</time>
   </trkpt>
   <trkpt lat="-8.04249" lon="-34.892592">
    <ele>16.7</ele>
    <time>2019-08-13T21:36:30.000Z</time>
   </trkpt>
   <trkpt lat="-8.042432" lon="-34.892569">
    <ele>16.8</ele>
    <time>2019-08-13T21:36:31.000Z</time>
   </trkpt>
   <trkpt lat="-8.042399" lon="-34.89254">
    <ele>16.9</ele>
    <time>2019-08-13T21:36:32.000Z</time>
   </trkpt>
   <trkpt lat="-8.04237" lon="-34.892505">
    <ele>16.9</ele>
    <time>2019-08-13T21:36:33.000Z</time>
   </trkpt>
   <trkpt lat="-8.042346" lon="-34.89248">
    <ele>16.9</ele>
    <time>2019-08-13T21:36:34.000Z</time>
   </trkpt>
   <trkpt lat="-8.04232" lon="-34.892441">
    <ele>16.8</ele>
    <time>2019-08-13T21:36:36.000Z</time>
   </trkpt>
   <trkpt lat="-8.042304" lon="-34.892419">
    <ele>16.7</ele>
    <time>2019-08-13T21:36:38.000Z</time>
   </trkpt>
   <trkpt lat="-8.042258" lon="-34.89241">
    <ele>16.7</ele>
    <time>2019-08-13T21:36:41.000Z</time>
   </trkpt>
   <trkpt lat="-8.042232" lon="-34.892393">
    <ele>16.6</ele>
    <time>2019-08-13T21:36:42.000Z</time>
   </trkpt>
   <trkpt lat="-8.042202" lon="-34.892354">
    <ele>16.5</ele>
    <time>2019-08-13T21:36:44.000Z</time>
   </trkpt>
   <trkpt lat="-8.042172" lon="-34.892328">
    <ele>16.5</ele>
    <time>2019-08-13T21:36:47.000Z</time>
   </trkpt>
   <trkpt lat="-8.042141" lon="-34.892294">
    <ele>16.4</ele>
    <time>2019-08-13T21:36:49.000Z</time>
   </trkpt>
   <trkpt lat="-8.042122" lon="-34.892274">
    <ele>16.3</ele>
    <time>2019-08-13T21:36:50.000Z</time>
   </trkpt>
   <trkpt lat="-8.042102" lon="-34.892252">
    <ele>16.3</ele>
    <time>2019-08-13T21:36:51.000Z</time>
   </trkpt>
   <trkpt lat="-8.042084" lon="-34.892209">
    <ele>16.2</ele>
    <time>2019-08-13T21:36:53.000Z</time>
   </trkpt>
   <trkpt lat="-8.042075" lon="-34.892182">
    <ele>16.2</ele>
    <time>2019-08-13T21:36:54.000Z</time>
   </trkpt>
   <trkpt lat="-8.04203" lon="-34.892169">
    <ele>16.1</ele>
    <time>2019-08-13T21:36:56.000Z</time>
   </trkpt>
   <trkpt lat="-8.041985" lon="-34.892161">
    <ele>16.1</ele>
    <time>2019-08-13T21:36:57.000Z</time>
   </trkpt>
   <trkpt lat="-8.041959" lon="-34.892136">
    <ele>16</ele>
    <time>2019-08-13T21:36:58.000Z</time>
   </trkpt>
   <trkpt lat="-8.04194" lon="-34.892113">
    <ele>16</ele>
    <time>2019-08-13T21:36:59.000Z</time>
   </trkpt>
   <trkpt lat="-8.041919" lon="-34.892093">
    <ele>16</ele>
    <time>2019-08-13T21:37:00.000Z</time>
   </trkpt>
   <trkpt lat="-8.041879" lon="-34.892072">
    <ele>15.9</ele>
    <time>2019-08-13T21:37:01.000Z</time>
   </trkpt>
   <trkpt lat="-8.041831" lon="-34.892048">
    <ele>15.8</ele>
    <time>2019-08-13T21:37:02.000Z</time>
   </trkpt>
   <trkpt lat="-8.041789" lon="-34.892021">
    <ele>15.7</ele>
    <time>2019-08-13T21:37:03.000Z</time>
   </trkpt>
   <trkpt lat="-8.041757" lon="-34.891977">
    <ele>15.7</ele>
    <time>2019-08-13T21:37:04.000Z</time>
   </trkpt>
   <trkpt lat="-8.041732" lon="-34.891955">
    <ele>15.6</ele>
    <time>2019-08-13T21:37:05.000Z</time>
   </trkpt>
   <trkpt lat="-8.041707" lon="-34.891934">
    <ele>15.5</ele>
    <time>2019-08-13T21:37:06.000Z</time>
   </trkpt>
   <trkpt lat="-8.041679" lon="-34.891905">
    <ele>15.5</ele>
    <time>2019-08-13T21:37:07.000Z</time>
   </trkpt>
   <trkpt lat="-8.041655" lon="-34.891879">
    <ele>15.4</ele>
    <time>2019-08-13T21:37:08.000Z</time>
   </trkpt>
   <trkpt lat="-8.04163" lon="-34.89186">
    <ele>15.3</ele>
    <time>2019-08-13T21:37:09.000Z</time>
   </trkpt>
   <trkpt lat="-8.04162" lon="-34.891832">
    <ele>15.2</ele>
    <time>2019-08-13T21:37:10.000Z</time>
   </trkpt>
   <trkpt lat="-8.041604" lon="-34.891791">
    <ele>15.2</ele>
    <time>2019-08-13T21:37:13.000Z</time>
   </trkpt>
   <trkpt lat="-8.041599" lon="-34.891762">
    <ele>15.1</ele>
    <time>2019-08-13T21:37:15.000Z</time>
   </trkpt>
   <trkpt lat="-8.041583" lon="-34.891734">
    <ele>15</ele>
    <time>2019-08-13T21:37:17.000Z</time>
   </trkpt>
   <trkpt lat="-8.041558" lon="-34.891722">
    <ele>15</ele>
    <time>2019-08-13T21:37:22.000Z</time>
   </trkpt>
   <trkpt lat="-8.04143" lon="-34.891712">
    <ele>14.6</ele>
    <time>2019-08-13T21:38:28.000Z</time>
   </trkpt>
   <trkpt lat="-8.041406" lon="-34.891686">
    <ele>14.5</ele>
    <time>2019-08-13T21:38:30.000Z</time>
   </trkpt>
   <trkpt lat="-8.041385" lon="-34.89166">
    <ele>14.4</ele>
    <time>2019-08-13T21:38:32.000Z</time>
   </trkpt>
   <trkpt lat="-8.04137" lon="-34.891624">
    <ele>14.3</ele>
    <time>2019-08-13T21:38:33.000Z</time>
   </trkpt>
   <trkpt lat="-8.041342" lon="-34.891606">
    <ele>14.2</ele>
    <time>2019-08-13T21:38:34.000Z</time>
   </trkpt>
   <trkpt lat="-8.041323" lon="-34.891578">
    <ele>14.2</ele>
    <time>2019-08-13T21:38:35.000Z</time>
   </trkpt>
   <trkpt lat="-8.041289" lon="-34.891586">
    <ele>13.7</ele>
    <time>2019-08-13T21:38:38.000Z</time>
   </trkpt>
   <trkpt lat="-8.041232" lon="-34.891595">
    <ele>13.5</ele>
    <time>2019-08-13T21:38:40.000Z</time>
   </trkpt>
   <trkpt lat="-8.041196" lon="-34.891612">
    <ele>13.5</ele>
    <time>2019-08-13T21:38:42.000Z</time>
   </trkpt>
   <trkpt lat="-8.041167" lon="-34.891619">
    <ele>13.4</ele>
    <time>2019-08-13T21:38:46.000Z</time>
   </trkpt>
   <trkpt lat="-8.041136" lon="-34.891639">
    <ele>13.4</ele>
    <time>2019-08-13T21:38:49.000Z</time>
   </trkpt>
   <trkpt lat="-8.041102" lon="-34.891638">
    <ele>13.3</ele>
    <time>2019-08-13T21:38:51.000Z</time>
   </trkpt>
   <trkpt lat="-8.041058" lon="-34.891652">
    <ele>13.2</ele>
    <time>2019-08-13T21:38:53.000Z</time>
   </trkpt>
   <trkpt lat="-8.041024" lon="-34.89168">
    <ele>13.2</ele>
    <time>2019-08-13T21:38:55.000Z</time>
   </trkpt>
   <trkpt lat="-8.041016" lon="-34.891711">
    <ele>13.1</ele>
    <time>2019-08-13T21:38:56.000Z</time>
   </trkpt>
   <trkpt lat="-8.040972" lon="-34.891739">
    <ele>13.1</ele>
    <time>2019-08-13T21:38:58.000Z</time>
   </trkpt>
   <trkpt lat="-8.040942" lon="-34.891748">
    <ele>13</ele>
    <time>2019-08-13T21:38:59.000Z</time>
   </trkpt>
   <trkpt lat="-8.040912" lon="-34.891758">
    <ele>13</ele>
    <time>2019-08-13T21:39:01.000Z</time>
   </trkpt>
   <trkpt lat="-8.040863" lon="-34.89178">
    <ele>13</ele>
    <time>2019-08-13T21:39:03.000Z</time>
   </trkpt>
   <trkpt lat="-8.040831" lon="-34.891792">
    <ele>13</ele>
    <time>2019-08-13T21:39:04.000Z</time>
   </trkpt>
   <trkpt lat="-8.040787" lon="-34.891798">
    <ele>12.9</ele>
    <time>2019-08-13T21:39:05.000Z</time>
   </trkpt>
   <trkpt lat="-8.040759" lon="-34.891801">
    <ele>12.9</ele>
    <time>2019-08-13T21:39:06.000Z</time>
   </trkpt>
   <trkpt lat="-8.040717" lon="-34.891808">
    <ele>12.9</ele>
    <time>2019-08-13T21:39:08.000Z</time>
   </trkpt>
   <trkpt lat="-8.040683" lon="-34.891815">
    <ele>13</ele>
    <time>2019-08-13T21:39:09.000Z</time>
   </trkpt>
   <trkpt lat="-8.04065" lon="-34.891814">
    <ele>13</ele>
    <time>2019-08-13T21:39:10.000Z</time>
   </trkpt>
   <trkpt lat="-8.040601" lon="-34.891766">
    <ele>13</ele>
    <time>2019-08-13T21:39:12.000Z</time>
   </trkpt>
   <trkpt lat="-8.040574" lon="-34.891745">
    <ele>13</ele>
    <time>2019-08-13T21:39:13.000Z</time>
   </trkpt>
   <trkpt lat="-8.040544" lon="-34.891727">
    <ele>12.9</ele>
    <time>2019-08-13T21:39:14.000Z</time>
   </trkpt>
   <trkpt lat="-8.040514" lon="-34.891714">
    <ele>12.9</ele>
    <time>2019-08-13T21:39:15.000Z</time>
   </trkpt>
   <trkpt lat="-8.040486" lon="-34.891693">
    <ele>12.8</ele>
    <time>2019-08-13T21:39:16.000Z</time>
   </trkpt>
   <trkpt lat="-8.040456" lon="-34.891677">
    <ele>12.8</ele>
    <time>2019-08-13T21:39:17.000Z</time>
   </trkpt>
   <trkpt lat="-8.040438" lon="-34.891643">
    <ele>12.8</ele>
    <time>2019-08-13T21:39:18.000Z</time>
   </trkpt>
   <trkpt lat="-8.040408" lon="-34.89163">
    <ele>12.7</ele>
    <time>2019-08-13T21:39:19.000Z</time>
   </trkpt>
   <trkpt lat="-8.040383" lon="-34.891595">
    <ele>12.7</ele>
    <time>2019-08-13T21:39:20.000Z</time>
   </trkpt>
   <trkpt lat="-8.040363" lon="-34.891565">
    <ele>12.7</ele>
    <time>2019-08-13T21:39:21.000Z</time>
   </trkpt>
   <trkpt lat="-8.040345" lon="-34.891542">
    <ele>12.6</ele>
    <time>2019-08-13T21:39:22.000Z</time>
   </trkpt>
   <trkpt lat="-8.040321" lon="-34.891511">
    <ele>12.6</ele>
    <time>2019-08-13T21:39:24.000Z</time>
   </trkpt>
   <trkpt lat="-8.040301" lon="-34.891483">
    <ele>12.6</ele>
    <time>2019-08-13T21:39:26.000Z</time>
   </trkpt>
   <trkpt lat="-8.040276" lon="-34.891446">
    <ele>12.5</ele>
    <time>2019-08-13T21:39:29.000Z</time>
   </trkpt>
   <trkpt lat="-8.040252" lon="-34.891431">
    <ele>12.5</ele>
    <time>2019-08-13T21:39:31.000Z</time>
   </trkpt>
   <trkpt lat="-8.040237" lon="-34.891407">
    <ele>12.5</ele>
    <time>2019-08-13T21:39:34.000Z</time>
   </trkpt>
   <trkpt lat="-8.040196" lon="-34.891391">
    <ele>12.4</ele>
    <time>2019-08-13T21:40:12.000Z</time>
   </trkpt>
   <trkpt lat="-8.040158" lon="-34.891366">
    <ele>12.4</ele>
    <time>2019-08-13T21:40:14.000Z</time>
   </trkpt>
   <trkpt lat="-8.040139" lon="-34.891346">
    <ele>12.3</ele>
    <time>2019-08-13T21:40:15.000Z</time>
   </trkpt>
   <trkpt lat="-8.040116" lon="-34.891289">
    <ele>12.3</ele>
    <time>2019-08-13T21:40:16.000Z</time>
   </trkpt>
   <trkpt lat="-8.040089" lon="-34.891255">
    <ele>12.2</ele>
    <time>2019-08-13T21:40:17.000Z</time>
   </trkpt>
   <trkpt lat="-8.040054" lon="-34.891224">
    <ele>12.2</ele>
    <time>2019-08-13T21:40:18.000Z</time>
   </trkpt>
   <trkpt lat="-8.040021" lon="-34.891192">
    <ele>12.1</ele>
    <time>2019-08-13T21:40:19.000Z</time>
   </trkpt>
   <trkpt lat="-8.04" lon="-34.891161">
    <ele>12.1</ele>
    <time>2019-08-13T21:40:20.000Z</time>
   </trkpt>
   <trkpt lat="-8.039977" lon="-34.891134">
    <ele>12</ele>
    <time>2019-08-13T21:40:21.000Z</time>
   </trkpt>
   <trkpt lat="-8.039959" lon="-34.891103">
    <ele>12</ele>
    <time>2019-08-13T21:40:22.000Z</time>
   </trkpt>
   <trkpt lat="-8.039943" lon="-34.891079">
    <ele>12</ele>
    <time>2019-08-13T21:40:23.000Z</time>
   </trkpt>
   <trkpt lat="-8.039919" lon="-34.891041">
    <ele>11.9</ele>
    <time>2019-08-13T21:40:25.000Z</time>
   </trkpt>
   <trkpt lat="-8.039898" lon="-34.89102">
    <ele>11.9</ele>
    <time>2019-08-13T21:40:26.000Z</time>
   </trkpt>
   <trkpt lat="-8.039899" lon="-34.890981">
    <ele>11.8</ele>
    <time>2019-08-13T21:40:28.000Z</time>
   </trkpt>
   <trkpt lat="-8.039879" lon="-34.89095">
    <ele>11.8</ele>
    <time>2019-08-13T21:40:30.000Z</time>
   </trkpt>
   <trkpt lat="-8.039852" lon="-34.890928">
    <ele>11.8</ele>
    <time>2019-08-13T21:40:31.000Z</time>
   </trkpt>
   <trkpt lat="-8.039824" lon="-34.890924">
    <ele>11.7</ele>
    <time>2019-08-13T21:40:33.000Z</time>
   </trkpt>
   <trkpt lat="-8.039807" lon="-34.890898">
    <ele>11.7</ele>
    <time>2019-08-13T21:40:38.000Z</time>
   </trkpt>
   <trkpt lat="-8.039781" lon="-34.890886">
    <ele>11.7</ele>
    <time>2019-08-13T21:40:41.000Z</time>
   </trkpt>
   <trkpt lat="-8.039757" lon="-34.890857">
    <ele>11.6</ele>
    <time>2019-08-13T21:41:30.000Z</time>
   </trkpt>
   <trkpt lat="-8.039745" lon="-34.890831">
    <ele>11.6</ele>
    <time>2019-08-13T21:41:31.000Z</time>
   </trkpt>
   <trkpt lat="-8.039737" lon="-34.890796">
    <ele>11.6</ele>
    <time>2019-08-13T21:41:32.000Z</time>
   </trkpt>
   <trkpt lat="-8.039727" lon="-34.89076">
    <ele>11.5</ele>
    <time>2019-08-13T21:41:33.000Z</time>
   </trkpt>
   <trkpt lat="-8.039712" lon="-34.890735">
    <ele>11.5</ele>
    <time>2019-08-13T21:41:34.000Z</time>
   </trkpt>
   <trkpt lat="-8.039679" lon="-34.890705">
    <ele>11.4</ele>
    <time>2019-08-13T21:41:35.000Z</time>
   </trkpt>
   <trkpt lat="-8.039655" lon="-34.89068">
    <ele>11.4</ele>
    <time>2019-08-13T21:41:36.000Z</time>
   </trkpt>
   <trkpt lat="-8.039626" lon="-34.890642">
    <ele>11.3</ele>
    <time>2019-08-13T21:41:37.000Z</time>
   </trkpt>
   <trkpt lat="-8.039602" lon="-34.890609">
    <ele>11.3</ele>
    <time>2019-08-13T21:41:38.000Z</time>
   </trkpt>
   <trkpt lat="-8.039561" lon="-34.890577">
    <ele>11.2</ele>
    <time>2019-08-13T21:41:39.000Z</time>
   </trkpt>
   <trkpt lat="-8.039525" lon="-34.89055">
    <ele>11.2</ele>
    <time>2019-08-13T21:41:40.000Z</time>
   </trkpt>
   <trkpt lat="-8.039483" lon="-34.89053">
    <ele>11.1</ele>
    <time>2019-08-13T21:41:41.000Z</time>
   </trkpt>
   <trkpt lat="-8.039446" lon="-34.890515">
    <ele>11.1</ele>
    <time>2019-08-13T21:41:42.000Z</time>
   </trkpt>
   <trkpt lat="-8.039403" lon="-34.890499">
    <ele>11</ele>
    <time>2019-08-13T21:41:43.000Z</time>
   </trkpt>
   <trkpt lat="-8.039358" lon="-34.890477">
    <ele>10.9</ele>
    <time>2019-08-13T21:41:44.000Z</time>
   </trkpt>
   <trkpt lat="-8.039323" lon="-34.890477">
    <ele>10.9</ele>
    <time>2019-08-13T21:41:45.000Z</time>
   </trkpt>
   <trkpt lat="-8.039278" lon="-34.89048">
    <ele>10.8</ele>
    <time>2019-08-13T21:41:46.000Z</time>
   </trkpt>
   <trkpt lat="-8.039246" lon="-34.890475">
    <ele>10.8</ele>
    <time>2019-08-13T21:41:48.000Z</time>
   </trkpt>
   <trkpt lat="-8.039216" lon="-34.890463">
    <ele>10.7</ele>
    <time>2019-08-13T21:41:53.000Z</time>
   </trkpt>
   <trkpt lat="-8.039201" lon="-34.890431">
    <ele>10.7</ele>
    <time>2019-08-13T21:41:57.000Z</time>
   </trkpt>
   <trkpt lat="-8.039169" lon="-34.890433">
    <ele>10.6</ele>
    <time>2019-08-13T21:42:14.000Z</time>
   </trkpt>
   <trkpt lat="-8.039136" lon="-34.890405">
    <ele>10.6</ele>
    <time>2019-08-13T21:42:53.000Z</time>
   </trkpt>
   <trkpt lat="-8.039102" lon="-34.890401">
    <ele>10.5</ele>
    <time>2019-08-13T21:42:54.000Z</time>
   </trkpt>
   <trkpt lat="-8.039055" lon="-34.890393">
    <ele>9.8</ele>
    <time>2019-08-13T21:42:55.000Z</time>
   </trkpt>
   <trkpt lat="-8.039007" lon="-34.890382">
    <ele>9.8</ele>
    <time>2019-08-13T21:42:56.000Z</time>
   </trkpt>
   <trkpt lat="-8.038954" lon="-34.890363">
    <ele>9.9</ele>
    <time>2019-08-13T21:42:57.000Z</time>
   </trkpt>
   <trkpt lat="-8.038898" lon="-34.890341">
    <ele>10</ele>
    <time>2019-08-13T21:42:58.000Z</time>
   </trkpt>
   <trkpt lat="-8.038854" lon="-34.890316">
    <ele>10.1</ele>
    <time>2019-08-13T21:42:59.000Z</time>
   </trkpt>
   <trkpt lat="-8.038805" lon="-34.890291">
    <ele>10.2</ele>
    <time>2019-08-13T21:43:00.000Z</time>
   </trkpt>
   <trkpt lat="-8.038746" lon="-34.890261">
    <ele>10.3</ele>
    <time>2019-08-13T21:43:01.000Z</time>
   </trkpt>
   <trkpt lat="-8.038689" lon="-34.890239">
    <ele>10.4</ele>
    <time>2019-08-13T21:43:02.000Z</time>
   </trkpt>
   <trkpt lat="-8.038629" lon="-34.890219">
    <ele>10.5</ele>
    <time>2019-08-13T21:43:03.000Z</time>
   </trkpt>
   <trkpt lat="-8.038573" lon="-34.890198">
    <ele>10.6</ele>
    <time>2019-08-13T21:43:04.000Z</time>
   </trkpt>
   <trkpt lat="-8.038523" lon="-34.890172">
    <ele>10.7</ele>
    <time>2019-08-13T21:43:05.000Z</time>
   </trkpt>
   <trkpt lat="-8.038474" lon="-34.890141">
    <ele>10.8</ele>
    <time>2019-08-13T21:43:06.000Z</time>
   </trkpt>
   <trkpt lat="-8.038426" lon="-34.890117">
    <ele>10.9</ele>
    <time>2019-08-13T21:43:07.000Z</time>
   </trkpt>
   <trkpt lat="-8.038393" lon="-34.890084">
    <ele>10.9</ele>
    <time>2019-08-13T21:43:08.000Z</time>
   </trkpt>
   <trkpt lat="-8.03834" lon="-34.890071">
    <ele>11</ele>
    <time>2019-08-13T21:43:09.000Z</time>
   </trkpt>
   <trkpt lat="-8.038295" lon="-34.890056">
    <ele>11.1</ele>
    <time>2019-08-13T21:43:10.000Z</time>
   </trkpt>
   <trkpt lat="-8.038247" lon="-34.890043">
    <ele>11.2</ele>
    <time>2019-08-13T21:43:11.000Z</time>
   </trkpt>
   <trkpt lat="-8.038185" lon="-34.890019">
    <ele>11.3</ele>
    <time>2019-08-13T21:43:12.000Z</time>
   </trkpt>
   <trkpt lat="-8.038138" lon="-34.889992">
    <ele>11.3</ele>
    <time>2019-08-13T21:43:13.000Z</time>
   </trkpt>
   <trkpt lat="-8.038081" lon="-34.889964">
    <ele>11.4</ele>
    <time>2019-08-13T21:43:14.000Z</time>
   </trkpt>
   <trkpt lat="-8.038029" lon="-34.889939">
    <ele>11.5</ele>
    <time>2019-08-13T21:43:15.000Z</time>
   </trkpt>
   <trkpt lat="-8.037981" lon="-34.88992">
    <ele>11.6</ele>
    <time>2019-08-13T21:43:16.000Z</time>
   </trkpt>
   <trkpt lat="-8.037934" lon="-34.889899">
    <ele>11.7</ele>
    <time>2019-08-13T21:43:17.000Z</time>
   </trkpt>
   <trkpt lat="-8.037887" lon="-34.889883">
    <ele>11.8</ele>
    <time>2019-08-13T21:43:18.000Z</time>
   </trkpt>
   <trkpt lat="-8.037836" lon="-34.889876">
    <ele>11.8</ele>
    <time>2019-08-13T21:43:19.000Z</time>
   </trkpt>
   <trkpt lat="-8.037775" lon="-34.889869">
    <ele>12</ele>
    <time>2019-08-13T21:43:20.000Z</time>
   </trkpt>
   <trkpt lat="-8.037723" lon="-34.88988">
    <ele>11.9</ele>
    <time>2019-08-13T21:43:21.000Z</time>
   </trkpt>
   <trkpt lat="-8.037683" lon="-34.889917">
    <ele>11.8</ele>
    <time>2019-08-13T21:43:22.000Z</time>
   </trkpt>
   <trkpt lat="-8.037657" lon="-34.889974">
    <ele>11.7</ele>
    <time>2019-08-13T21:43:23.000Z</time>
   </trkpt>
   <trkpt lat="-8.037633" lon="-34.890028">
    <ele>11.5</ele>
    <time>2019-08-13T21:43:24.000Z</time>
   </trkpt>
   <trkpt lat="-8.037617" lon="-34.890083">
    <ele>11.4</ele>
    <time>2019-08-13T21:43:25.000Z</time>
   </trkpt>
   <trkpt lat="-8.037604" lon="-34.890142">
    <ele>11.3</ele>
    <time>2019-08-13T21:43:26.000Z</time>
   </trkpt>
   <trkpt lat="-8.03759" lon="-34.890181">
    <ele>11.2</ele>
    <time>2019-08-13T21:43:27.000Z</time>
   </trkpt>
   <trkpt lat="-8.037561" lon="-34.890228">
    <ele>11.3</ele>
    <time>2019-08-13T21:43:28.000Z</time>
   </trkpt>
   <trkpt lat="-8.037534" lon="-34.890281">
    <ele>11.3</ele>
    <time>2019-08-13T21:43:29.000Z</time>
   </trkpt>
   <trkpt lat="-8.037512" lon="-34.890317">
    <ele>11.4</ele>
    <time>2019-08-13T21:43:30.000Z</time>
   </trkpt>
   <trkpt lat="-8.037485" lon="-34.89036">
    <ele>11.6</ele>
    <time>2019-08-13T21:43:31.000Z</time>
   </trkpt>
   <trkpt lat="-8.037459" lon="-34.890403">
    <ele>11.9</ele>
    <time>2019-08-13T21:43:32.000Z</time>
   </trkpt>
   <trkpt lat="-8.037442" lon="-34.890448">
    <ele>12.2</ele>
    <time>2019-08-13T21:43:33.000Z</time>
   </trkpt>
   <trkpt lat="-8.037413" lon="-34.890495">
    <ele>12.2</ele>
    <time>2019-08-13T21:43:34.000Z</time>
   </trkpt>
   <trkpt lat="-8.037378" lon="-34.890535">
    <ele>12.1</ele>
    <time>2019-08-13T21:43:35.000Z</time>
   </trkpt>
   <trkpt lat="-8.037348" lon="-34.890571">
    <ele>11.9</ele>
    <time>2019-08-13T21:43:36.000Z</time>
   </trkpt>
   <trkpt lat="-8.037319" lon="-34.890604">
    <ele>11.6</ele>
    <time>2019-08-13T21:43:37.000Z</time>
   </trkpt>
   <trkpt lat="-8.037293" lon="-34.890641">
    <ele>11.4</ele>
    <time>2019-08-13T21:43:38.000Z</time>
   </trkpt>
   <trkpt lat="-8.037265" lon="-34.890671">
    <ele>11.1</ele>
    <time>2019-08-13T21:43:39.000Z</time>
   </trkpt>
   <trkpt lat="-8.03723" lon="-34.890697">
    <ele>10.9</ele>
    <time>2019-08-13T21:43:40.000Z</time>
   </trkpt>
   <trkpt lat="-8.037206" lon="-34.890723">
    <ele>10.7</ele>
    <time>2019-08-13T21:43:41.000Z</time>
   </trkpt>
   <trkpt lat="-8.037174" lon="-34.890751">
    <ele>10.4</ele>
    <time>2019-08-13T21:43:42.000Z</time>
   </trkpt>
   <trkpt lat="-8.037153" lon="-34.890787">
    <ele>10.2</ele>
    <time>2019-08-13T21:43:43.000Z</time>
   </trkpt>
   <trkpt lat="-8.037145" lon="-34.890821">
    <ele>9.6</ele>
    <time>2019-08-13T21:43:44.000Z</time>
   </trkpt>
   <trkpt lat="-8.037151" lon="-34.890867">
    <ele>8.8</ele>
    <time>2019-08-13T21:43:45.000Z</time>
   </trkpt>
   <trkpt lat="-8.037144" lon="-34.890901">
    <ele>8.3</ele>
    <time>2019-08-13T21:43:46.000Z</time>
   </trkpt>
   <trkpt lat="-8.037143" lon="-34.890949">
    <ele>7</ele>
    <time>2019-08-13T21:43:47.000Z</time>
   </trkpt>
   <trkpt lat="-8.03712" lon="-34.890991">
    <ele>6.9</ele>
    <time>2019-08-13T21:43:48.000Z</time>
   </trkpt>
   <trkpt lat="-8.037089" lon="-34.891022">
    <ele>6.9</ele>
    <time>2019-08-13T21:43:49.000Z</time>
   </trkpt>
   <trkpt lat="-8.037075" lon="-34.891051">
    <ele>6.8</ele>
    <time>2019-08-13T21:43:50.000Z</time>
   </trkpt>
   <trkpt lat="-8.037071" lon="-34.891097">
    <ele>7.5</ele>
    <time>2019-08-13T21:43:52.000Z</time>
   </trkpt>
   <trkpt lat="-8.037097" lon="-34.891136">
    <ele>7.4</ele>
    <time>2019-08-13T21:43:54.000Z</time>
   </trkpt>
   <trkpt lat="-8.037125" lon="-34.891157">
    <ele>7.3</ele>
    <time>2019-08-13T21:43:55.000Z</time>
   </trkpt>
   <trkpt lat="-8.037157" lon="-34.891174">
    <ele>7.2</ele>
    <time>2019-08-13T21:43:56.000Z</time>
   </trkpt>
   <trkpt lat="-8.037193" lon="-34.891191">
    <ele>7.1</ele>
    <time>2019-08-13T21:43:57.000Z</time>
   </trkpt>
   <trkpt lat="-8.037235" lon="-34.891215">
    <ele>7.9</ele>
    <time>2019-08-13T21:43:58.000Z</time>
   </trkpt>
   <trkpt lat="-8.037273" lon="-34.891244">
    <ele>8.4</ele>
    <time>2019-08-13T21:43:59.000Z</time>
   </trkpt>
   <trkpt lat="-8.037315" lon="-34.891262">
    <ele>8.9</ele>
    <time>2019-08-13T21:44:00.000Z</time>
   </trkpt>
   <trkpt lat="-8.037358" lon="-34.891286">
    <ele>9.4</ele>
    <time>2019-08-13T21:44:01.000Z</time>
   </trkpt>
   <trkpt lat="-8.037397" lon="-34.89131">
    <ele>9.8</ele>
    <time>2019-08-13T21:44:02.000Z</time>
   </trkpt>
   <trkpt lat="-8.037441" lon="-34.891336">
    <ele>10.1</ele>
    <time>2019-08-13T21:44:03.000Z</time>
   </trkpt>
   <trkpt lat="-8.037478" lon="-34.891364">
    <ele>10.4</ele>
    <time>2019-08-13T21:44:04.000Z</time>
   </trkpt>
   <trkpt lat="-8.037512" lon="-34.891389">
    <ele>10.7</ele>
    <time>2019-08-13T21:44:05.000Z</time>
   </trkpt>
   <trkpt lat="-8.037544" lon="-34.891415">
    <ele>10.9</ele>
    <time>2019-08-13T21:44:06.000Z</time>
   </trkpt>
   <trkpt lat="-8.037582" lon="-34.891425">
    <ele>11.1</ele>
    <time>2019-08-13T21:44:07.000Z</time>
   </trkpt>
   <trkpt lat="-8.037613" lon="-34.891439">
    <ele>11.2</ele>
    <time>2019-08-13T21:44:08.000Z</time>
   </trkpt>
   <trkpt lat="-8.037643" lon="-34.891448">
    <ele>11.4</ele>
    <time>2019-08-13T21:44:09.000Z</time>
   </trkpt>
   <trkpt lat="-8.037673" lon="-34.891457">
    <ele>11.5</ele>
    <time>2019-08-13T21:44:10.000Z</time>
   </trkpt>
   <trkpt lat="-8.037699" lon="-34.891471">
    <ele>11.6</ele>
    <time>2019-08-13T21:44:11.000Z</time>
   </trkpt>
   <trkpt lat="-8.037724" lon="-34.891485">
    <ele>11.8</ele>
    <time>2019-08-13T21:44:12.000Z</time>
   </trkpt>
   <trkpt lat="-8.037756" lon="-34.891516">
    <ele>11.9</ele>
    <time>2019-08-13T21:44:14.000Z</time>
   </trkpt>
   <trkpt lat="-8.037774" lon="-34.891547">
    <ele>12.1</ele>
    <time>2019-08-13T21:44:15.000Z</time>
   </trkpt>
   <trkpt lat="-8.037773" lon="-34.891593">
    <ele>12</ele>
    <time>2019-08-13T21:44:17.000Z</time>
   </trkpt>
   <trkpt lat="-8.037757" lon="-34.891617">
    <ele>11.7</ele>
    <time>2019-08-13T21:44:18.000Z</time>
   </trkpt>
   <trkpt lat="-8.037743" lon="-34.891647">
    <ele>11.4</ele>
    <time>2019-08-13T21:44:19.000Z</time>
   </trkpt>
   <trkpt lat="-8.037723" lon="-34.891679">
    <ele>11.1</ele>
    <time>2019-08-13T21:44:20.000Z</time>
   </trkpt>
   <trkpt lat="-8.037689" lon="-34.891699">
    <ele>10.8</ele>
    <time>2019-08-13T21:44:21.000Z</time>
   </trkpt>
   <trkpt lat="-8.037656" lon="-34.891738">
    <ele>10.5</ele>
    <time>2019-08-13T21:44:22.000Z</time>
   </trkpt>
   <trkpt lat="-8.037622" lon="-34.891772">
    <ele>10.3</ele>
    <time>2019-08-13T21:44:23.000Z</time>
   </trkpt>
   <trkpt lat="-8.037584" lon="-34.891798">
    <ele>10.2</ele>
    <time>2019-08-13T21:44:24.000Z</time>
   </trkpt>
   <trkpt lat="-8.037545" lon="-34.89183">
    <ele>10.1</ele>
    <time>2019-08-13T21:44:25.000Z</time>
   </trkpt>
   <trkpt lat="-8.037506" lon="-34.891866">
    <ele>10</ele>
    <time>2019-08-13T21:44:26.000Z</time>
   </trkpt>
   <trkpt lat="-8.037464" lon="-34.891896">
    <ele>9.7</ele>
    <time>2019-08-13T21:44:27.000Z</time>
   </trkpt>
   <trkpt lat="-8.037435" lon="-34.891931">
    <ele>9.4</ele>
    <time>2019-08-13T21:44:28.000Z</time>
   </trkpt>
   <trkpt lat="-8.037424" lon="-34.891988">
    <ele>9.1</ele>
    <time>2019-08-13T21:44:29.000Z</time>
   </trkpt>
   <trkpt lat="-8.03742" lon="-34.892043">
    <ele>8.8</ele>
    <time>2019-08-13T21:44:30.000Z</time>
   </trkpt>
   <trkpt lat="-8.037414" lon="-34.892086">
    <ele>8.5</ele>
    <time>2019-08-13T21:44:31.000Z</time>
   </trkpt>
   <trkpt lat="-8.037412" lon="-34.892127">
    <ele>8.6</ele>
    <time>2019-08-13T21:44:32.000Z</time>
   </trkpt>
   <trkpt lat="-8.037415" lon="-34.892169">
    <ele>8.8</ele>
    <time>2019-08-13T21:44:33.000Z</time>
   </trkpt>
   <trkpt lat="-8.037415" lon="-34.892212">
    <ele>8.9</ele>
    <time>2019-08-13T21:44:34.000Z</time>
   </trkpt>
   <trkpt lat="-8.037427" lon="-34.892259">
    <ele>9.1</ele>
    <time>2019-08-13T21:44:35.000Z</time>
   </trkpt>
   <trkpt lat="-8.037425" lon="-34.892303">
    <ele>9.2</ele>
    <time>2019-08-13T21:44:36.000Z</time>
   </trkpt>
   <trkpt lat="-8.037424" lon="-34.892357">
    <ele>9.4</ele>
    <time>2019-08-13T21:44:37.000Z</time>
   </trkpt>
   <trkpt lat="-8.037428" lon="-34.892426">
    <ele>9.6</ele>
    <time>2019-08-13T21:44:38.000Z</time>
   </trkpt>
   <trkpt lat="-8.037436" lon="-34.892479">
    <ele>9.8</ele>
    <time>2019-08-13T21:44:39.000Z</time>
   </trkpt>
   <trkpt lat="-8.037435" lon="-34.892531">
    <ele>10</ele>
    <time>2019-08-13T21:44:40.000Z</time>
   </trkpt>
   <trkpt lat="-8.037434" lon="-34.89258">
    <ele>10.1</ele>
    <time>2019-08-13T21:44:41.000Z</time>
   </trkpt>
   <trkpt lat="-8.037433" lon="-34.892622">
    <ele>10.2</ele>
    <time>2019-08-13T21:44:42.000Z</time>
   </trkpt>
   <trkpt lat="-8.037427" lon="-34.892668">
    <ele>10.3</ele>
    <time>2019-08-13T21:44:43.000Z</time>
   </trkpt>
   <trkpt lat="-8.037426" lon="-34.892712">
    <ele>10.4</ele>
    <time>2019-08-13T21:44:44.000Z</time>
   </trkpt>
   <trkpt lat="-8.037418" lon="-34.892758">
    <ele>10.4</ele>
    <time>2019-08-13T21:44:45.000Z</time>
   </trkpt>
   <trkpt lat="-8.0374" lon="-34.892803">
    <ele>10.4</ele>
    <time>2019-08-13T21:44:46.000Z</time>
   </trkpt>
   <trkpt lat="-8.037379" lon="-34.89283">
    <ele>10.4</ele>
    <time>2019-08-13T21:44:47.000Z</time>
   </trkpt>
   <trkpt lat="-8.037344" lon="-34.892835">
    <ele>10.3</ele>
    <time>2019-08-13T21:44:48.000Z</time>
   </trkpt>
   <trkpt lat="-8.0373" lon="-34.892844">
    <ele>10.2</ele>
    <time>2019-08-13T21:44:49.000Z</time>
   </trkpt>
   <trkpt lat="-8.037265" lon="-34.892842">
    <ele>10</ele>
    <time>2019-08-13T21:44:50.000Z</time>
   </trkpt>
   <trkpt lat="-8.037216" lon="-34.892821">
    <ele>10</ele>
    <time>2019-08-13T21:44:52.000Z</time>
   </trkpt>
   <trkpt lat="-8.037187" lon="-34.892812">
    <ele>10</ele>
    <time>2019-08-13T21:44:53.000Z</time>
   </trkpt>
   <trkpt lat="-8.03716" lon="-34.892792">
    <ele>10</ele>
    <time>2019-08-13T21:44:54.000Z</time>
   </trkpt>
   <trkpt lat="-8.03713" lon="-34.892776">
    <ele>10</ele>
    <time>2019-08-13T21:44:55.000Z</time>
   </trkpt>
   <trkpt lat="-8.037094" lon="-34.89276">
    <ele>10</ele>
    <time>2019-08-13T21:44:56.000Z</time>
   </trkpt>
   <trkpt lat="-8.037063" lon="-34.892752">
    <ele>10</ele>
    <time>2019-08-13T21:44:57.000Z</time>
   </trkpt>
   <trkpt lat="-8.037025" lon="-34.89273">
    <ele>10</ele>
    <time>2019-08-13T21:44:59.000Z</time>
   </trkpt>
   <trkpt lat="-8.036998" lon="-34.892724">
    <ele>10</ele>
    <time>2019-08-13T21:45:00.000Z</time>
   </trkpt>
   <trkpt lat="-8.036943" lon="-34.892736">
    <ele>10</ele>
    <time>2019-08-13T21:45:02.000Z</time>
   </trkpt>
   <trkpt lat="-8.036906" lon="-34.892745">
    <ele>10</ele>
    <time>2019-08-13T21:45:03.000Z</time>
   </trkpt>
   <trkpt lat="-8.036887" lon="-34.892785">
    <ele>10</ele>
    <time>2019-08-13T21:45:04.000Z</time>
   </trkpt>
   <trkpt lat="-8.036844" lon="-34.892812">
    <ele>10</ele>
    <time>2019-08-13T21:45:07.000Z</time>
   </trkpt>
   <trkpt lat="-8.036823" lon="-34.892846">
    <ele>10</ele>
    <time>2019-08-13T21:45:09.000Z</time>
   </trkpt>
   <trkpt lat="-8.0368" lon="-34.892877">
    <ele>9.8</ele>
    <time>2019-08-13T21:45:11.000Z</time>
   </trkpt>
  </trkseg>
 </trk>
</gpx>
