<?xml version="1.0" encoding="UTF-8"?>
<gpx creator="StravaGPX" version="1.1" xmlns="http://www.topografix.com/GPX/1/1">
 <metadata>
  <time>2020-01-07T23:10:08Z</time>
 </metadata>
 <trk>
  <name>Evening Ride</name>
  <type>1</type>
  <trkseg>
   <trkpt lat="-8.065248" lon="-34.896901">
    <ele>5</ele>
    <time>2020-01-07T23:10:08.000Z</time>
   </trkpt>
   <trkpt lat="-8.0652" lon="-34.896902">
    <ele>5</ele>
    <time>2020-01-07T23:10:14.000Z</time>
   </trkpt>
   <trkpt lat="-8.065096" lon="-34.896908">
    <ele>5</ele>
    <time>2020-01-07T23:10:16.000Z</time>
   </trkpt>
   <trkpt lat="-8.065027" lon="-34.896922">
    <ele>5.1</ele>
    <time>2020-01-07T23:10:17.000Z</time>
   </trkpt>
   <trkpt lat="-8.064961" lon="-34.896928">
    <ele>5.1</ele>
    <time>2020-01-07T23:10:18.000Z</time>
   </trkpt>
   <trkpt lat="-8.064887" lon="-34.896945">
    <ele>5.2</ele>
    <time>2020-01-07T23:10:19.000Z</time>
   </trkpt>
   <trkpt lat="-8.064835" lon="-34.896963">
    <ele>5.2</ele>
    <time>2020-01-07T23:10:20.000Z</time>
   </trkpt>
   <trkpt lat="-8.064787" lon="-34.896964">
    <ele>5.2</ele>
    <time>2020-01-07T23:10:21.000Z</time>
   </trkpt>
   <trkpt lat="-8.064713" lon="-34.896976">
    <ele>5.3</ele>
    <time>2020-01-07T23:10:22.000Z</time>
   </trkpt>
   <trkpt lat="-8.064661" lon="-34.896979">
    <ele>5.3</ele>
    <time>2020-01-07T23:10:23.000Z</time>
   </trkpt>
   <trkpt lat="-8.064606" lon="-34.896989">
    <ele>5.2</ele>
    <time>2020-01-07T23:10:24.000Z</time>
   </trkpt>
   <trkpt lat="-8.064577" lon="-34.897006">
    <ele>5.2</ele>
    <time>2020-01-07T23:10:25.000Z</time>
   </trkpt>
   <trkpt lat="-8.064524" lon="-34.897012">
    <ele>5.1</ele>
    <time>2020-01-07T23:10:26.000Z</time>
   </trkpt>
   <trkpt lat="-8.064478" lon="-34.897018">
    <ele>5.1</ele>
    <time>2020-01-07T23:10:27.000Z</time>
   </trkpt>
   <trkpt lat="-8.064442" lon="-34.897025">
    <ele>5</ele>
    <time>2020-01-07T23:10:28.000Z</time>
   </trkpt>
   <trkpt lat="-8.064429" lon="-34.897024">
    <ele>5</ele>
    <time>2020-01-07T23:10:29.000Z</time>
   </trkpt>
   <trkpt lat="-8.064345" lon="-34.897078">
    <ele>5.3</ele>
    <time>2020-01-07T23:10:31.000Z</time>
   </trkpt>
   <trkpt lat="-8.064335" lon="-34.897111">
    <ele>5.3</ele>
    <time>2020-01-07T23:10:32.000Z</time>
   </trkpt>
   <trkpt lat="-8.0643" lon="-34.897126">
    <ele>5.3</ele>
    <time>2020-01-07T23:10:33.000Z</time>
   </trkpt>
   <trkpt lat="-8.064247" lon="-34.897141">
    <ele>5.4</ele>
    <time>2020-01-07T23:10:34.000Z</time>
   </trkpt>
   <trkpt lat="-8.064201" lon="-34.897162">
    <ele>5.5</ele>
    <time>2020-01-07T23:10:35.000Z</time>
   </trkpt>
   <trkpt lat="-8.06415" lon="-34.897181">
    <ele>5.5</ele>
    <time>2020-01-07T23:10:36.000Z</time>
   </trkpt>
   <trkpt lat="-8.064093" lon="-34.897216">
    <ele>5.5</ele>
    <time>2020-01-07T23:10:37.000Z</time>
   </trkpt>
   <trkpt lat="-8.064053" lon="-34.897237">
    <ele>5.6</ele>
    <time>2020-01-07T23:10:38.000Z</time>
   </trkpt>
   <trkpt lat="-8.064008" lon="-34.897262">
    <ele>5.6</ele>
    <time>2020-01-07T23:10:39.000Z</time>
   </trkpt>
   <trkpt lat="-8.063947" lon="-34.897275">
    <ele>5.6</ele>
    <time>2020-01-07T23:10:40.000Z</time>
   </trkpt>
   <trkpt lat="-8.063888" lon="-34.897273">
    <ele>5.6</ele>
    <time>2020-01-07T23:10:41.000Z</time>
   </trkpt>
   <trkpt lat="-8.063833" lon="-34.897273">
    <ele>5.6</ele>
    <time>2020-01-07T23:10:42.000Z</time>
   </trkpt>
   <trkpt lat="-8.063773" lon="-34.897277">
    <ele>5.6</ele>
    <time>2020-01-07T23:10:43.000Z</time>
   </trkpt>
   <trkpt lat="-8.063718" lon="-34.89726">
    <ele>5.5</ele>
    <time>2020-01-07T23:10:44.000Z</time>
   </trkpt>
   <trkpt lat="-8.063673" lon="-34.897254">
    <ele>5.5</ele>
    <time>2020-01-07T23:10:45.000Z</time>
   </trkpt>
   <trkpt lat="-8.063618" lon="-34.897243">
    <ele>5.4</ele>
    <time>2020-01-07T23:10:46.000Z</time>
   </trkpt>
   <trkpt lat="-8.063573" lon="-34.89724">
    <ele>5.3</ele>
    <time>2020-01-07T23:10:47.000Z</time>
   </trkpt>
   <trkpt lat="-8.063532" lon="-34.897246">
    <ele>5.3</ele>
    <time>2020-01-07T23:10:48.000Z</time>
   </trkpt>
   <trkpt lat="-8.063482" lon="-34.897245">
    <ele>5.2</ele>
    <time>2020-01-07T23:10:49.000Z</time>
   </trkpt>
   <trkpt lat="-8.063428" lon="-34.897246">
    <ele>5.2</ele>
    <time>2020-01-07T23:10:50.000Z</time>
   </trkpt>
   <trkpt lat="-8.063392" lon="-34.897259">
    <ele>5.1</ele>
    <time>2020-01-07T23:10:51.000Z</time>
   </trkpt>
   <trkpt lat="-8.063342" lon="-34.897259">
    <ele>5.1</ele>
    <time>2020-01-07T23:10:52.000Z</time>
   </trkpt>
   <trkpt lat="-8.06329" lon="-34.897262">
    <ele>5</ele>
    <time>2020-01-07T23:10:53.000Z</time>
   </trkpt>
   <trkpt lat="-8.063226" lon="-34.897271">
    <ele>4.9</ele>
    <time>2020-01-07T23:10:54.000Z</time>
   </trkpt>
   <trkpt lat="-8.063183" lon="-34.897277">
    <ele>4.8</ele>
    <time>2020-01-07T23:10:55.000Z</time>
   </trkpt>
   <trkpt lat="-8.063142" lon="-34.897282">
    <ele>4.7</ele>
    <time>2020-01-07T23:10:56.000Z</time>
   </trkpt>
   <trkpt lat="-8.063098" lon="-34.897288">
    <ele>4.6</ele>
    <time>2020-01-07T23:10:57.000Z</time>
   </trkpt>
   <trkpt lat="-8.063057" lon="-34.897299">
    <ele>4.5</ele>
    <time>2020-01-07T23:10:58.000Z</time>
   </trkpt>
   <trkpt lat="-8.063031" lon="-34.897301">
    <ele>4.4</ele>
    <time>2020-01-07T23:10:59.000Z</time>
   </trkpt>
   <trkpt lat="-8.062969" lon="-34.897303">
    <ele>4.2</ele>
    <time>2020-01-07T23:11:01.000Z</time>
   </trkpt>
   <trkpt lat="-8.062889" lon="-34.897306">
    <ele>4</ele>
    <time>2020-01-07T23:11:03.000Z</time>
   </trkpt>
   <trkpt lat="-8.062857" lon="-34.897299">
    <ele>3.9</ele>
    <time>2020-01-07T23:11:04.000Z</time>
   </trkpt>
   <trkpt lat="-8.062831" lon="-34.89729">
    <ele>3.8</ele>
    <time>2020-01-07T23:11:05.000Z</time>
   </trkpt>
   <trkpt lat="-8.062758" lon="-34.897275">
    <ele>3.6</ele>
    <time>2020-01-07T23:11:07.000Z</time>
   </trkpt>
   <trkpt lat="-8.062722" lon="-34.897265">
    <ele>3.5</ele>
    <time>2020-01-07T23:11:08.000Z</time>
   </trkpt>
   <trkpt lat="-8.062703" lon="-34.897263">
    <ele>3.5</ele>
    <time>2020-01-07T23:11:09.000Z</time>
   </trkpt>
   <trkpt lat="-8.062651" lon="-34.897248">
    <ele>3.4</ele>
    <time>2020-01-07T23:11:11.000Z</time>
   </trkpt>
   <trkpt lat="-8.062629" lon="-34.897248">
    <ele>3.3</ele>
    <time>2020-01-07T23:11:13.000Z</time>
   </trkpt>
   <trkpt lat="-8.062655" lon="-34.897225">
    <ele>3.3</ele>
    <time>2020-01-07T23:11:17.000Z</time>
   </trkpt>
   <trkpt lat="-8.062585" lon="-34.897238">
    <ele>3.2</ele>
    <time>2020-01-07T23:11:20.000Z</time>
   </trkpt>
   <trkpt lat="-8.062555" lon="-34.897239">
    <ele>3.2</ele>
    <time>2020-01-07T23:11:21.000Z</time>
   </trkpt>
   <trkpt lat="-8.062512" lon="-34.897241">
    <ele>3.1</ele>
    <time>2020-01-07T23:11:22.000Z</time>
   </trkpt>
   <trkpt lat="-8.062464" lon="-34.897239">
    <ele>3.1</ele>
    <time>2020-01-07T23:11:23.000Z</time>
   </trkpt>
   <trkpt lat="-8.062417" lon="-34.89725">
    <ele>3</ele>
    <time>2020-01-07T23:11:24.000Z</time>
   </trkpt>
   <trkpt lat="-8.062357" lon="-34.897254">
    <ele>3.4</ele>
    <time>2020-01-07T23:11:25.000Z</time>
   </trkpt>
   <trkpt lat="-8.062321" lon="-34.897264">
    <ele>3.6</ele>
    <time>2020-01-07T23:11:26.000Z</time>
   </trkpt>
   <trkpt lat="-8.062262" lon="-34.897282">
    <ele>3.8</ele>
    <time>2020-01-07T23:11:27.000Z</time>
   </trkpt>
   <trkpt lat="-8.062196" lon="-34.897294">
    <ele>4.1</ele>
    <time>2020-01-07T23:11:28.000Z</time>
   </trkpt>
   <trkpt lat="-8.06212" lon="-34.897308">
    <ele>4.4</ele>
    <time>2020-01-07T23:11:29.000Z</time>
   </trkpt>
   <trkpt lat="-8.062045" lon="-34.897319">
    <ele>4.7</ele>
    <time>2020-01-07T23:11:30.000Z</time>
   </trkpt>
   <trkpt lat="-8.061974" lon="-34.897322">
    <ele>5.1</ele>
    <time>2020-01-07T23:11:31.000Z</time>
   </trkpt>
   <trkpt lat="-8.061895" lon="-34.897328">
    <ele>5.4</ele>
    <time>2020-01-07T23:11:32.000Z</time>
   </trkpt>
   <trkpt lat="-8.061818" lon="-34.897335">
    <ele>5.7</ele>
    <time>2020-01-07T23:11:33.000Z</time>
   </trkpt>
   <trkpt lat="-8.061747" lon="-34.897344">
    <ele>6</ele>
    <time>2020-01-07T23:11:34.000Z</time>
   </trkpt>
   <trkpt lat="-8.06167" lon="-34.897354">
    <ele>6.2</ele>
    <time>2020-01-07T23:11:35.000Z</time>
   </trkpt>
   <trkpt lat="-8.06159" lon="-34.897353">
    <ele>6.5</ele>
    <time>2020-01-07T23:11:36.000Z</time>
   </trkpt>
   <trkpt lat="-8.061523" lon="-34.897357">
    <ele>6.7</ele>
    <time>2020-01-07T23:11:37.000Z</time>
   </trkpt>
   <trkpt lat="-8.061454" lon="-34.897368">
    <ele>6.9</ele>
    <time>2020-01-07T23:11:38.000Z</time>
   </trkpt>
   <trkpt lat="-8.061384" lon="-34.897381">
    <ele>7.1</ele>
    <time>2020-01-07T23:11:39.000Z</time>
   </trkpt>
   <trkpt lat="-8.061315" lon="-34.897396">
    <ele>7.3</ele>
    <time>2020-01-07T23:11:40.000Z</time>
   </trkpt>
   <trkpt lat="-8.061243" lon="-34.897398">
    <ele>7.5</ele>
    <time>2020-01-07T23:11:41.000Z</time>
   </trkpt>
   <trkpt lat="-8.061152" lon="-34.897399">
    <ele>7.8</ele>
    <time>2020-01-07T23:11:42.000Z</time>
   </trkpt>
   <trkpt lat="-8.061078" lon="-34.897401">
    <ele>8</ele>
    <time>2020-01-07T23:11:43.000Z</time>
   </trkpt>
   <trkpt lat="-8.061007" lon="-34.897413">
    <ele>8.2</ele>
    <time>2020-01-07T23:11:44.000Z</time>
   </trkpt>
   <trkpt lat="-8.060945" lon="-34.897423">
    <ele>8.4</ele>
    <time>2020-01-07T23:11:45.000Z</time>
   </trkpt>
   <trkpt lat="-8.060872" lon="-34.897427">
    <ele>8.6</ele>
    <time>2020-01-07T23:11:46.000Z</time>
   </trkpt>
   <trkpt lat="-8.060801" lon="-34.897438">
    <ele>8.9</ele>
    <time>2020-01-07T23:11:47.000Z</time>
   </trkpt>
   <trkpt lat="-8.06073" lon="-34.897447">
    <ele>9.1</ele>
    <time>2020-01-07T23:11:48.000Z</time>
   </trkpt>
   <trkpt lat="-8.06065" lon="-34.897456">
    <ele>9.4</ele>
    <time>2020-01-07T23:11:49.000Z</time>
   </trkpt>
   <trkpt lat="-8.060581" lon="-34.897461">
    <ele>9.7</ele>
    <time>2020-01-07T23:11:50.000Z</time>
   </trkpt>
   <trkpt lat="-8.06051" lon="-34.897464">
    <ele>10.1</ele>
    <time>2020-01-07T23:11:51.000Z</time>
   </trkpt>
   <trkpt lat="-8.060429" lon="-34.897477">
    <ele>10.3</ele>
    <time>2020-01-07T23:11:52.000Z</time>
   </trkpt>
   <trkpt lat="-8.060363" lon="-34.897486">
    <ele>10.4</ele>
    <time>2020-01-07T23:11:53.000Z</time>
   </trkpt>
   <trkpt lat="-8.060303" lon="-34.897495">
    <ele>10.5</ele>
    <time>2020-01-07T23:11:54.000Z</time>
   </trkpt>
   <trkpt lat="-8.060233" lon="-34.897507">
    <ele>10.6</ele>
    <time>2020-01-07T23:11:55.000Z</time>
   </trkpt>
   <trkpt lat="-8.060179" lon="-34.897509">
    <ele>10.7</ele>
    <time>2020-01-07T23:11:56.000Z</time>
   </trkpt>
   <trkpt lat="-8.060117" lon="-34.897524">
    <ele>10.8</ele>
    <time>2020-01-07T23:11:57.000Z</time>
   </trkpt>
   <trkpt lat="-8.06006" lon="-34.897522">
    <ele>10.7</ele>
    <time>2020-01-07T23:11:58.000Z</time>
   </trkpt>
   <trkpt lat="-8.060007" lon="-34.897529">
    <ele>10.6</ele>
    <time>2020-01-07T23:11:59.000Z</time>
   </trkpt>
   <trkpt lat="-8.059936" lon="-34.897524">
    <ele>10.6</ele>
    <time>2020-01-07T23:12:00.000Z</time>
   </trkpt>
   <trkpt lat="-8.059883" lon="-34.897531">
    <ele>10.5</ele>
    <time>2020-01-07T23:12:01.000Z</time>
   </trkpt>
   <trkpt lat="-8.059823" lon="-34.897559">
    <ele>10.4</ele>
    <time>2020-01-07T23:12:02.000Z</time>
   </trkpt>
   <trkpt lat="-8.059741" lon="-34.897561">
    <ele>10.3</ele>
    <time>2020-01-07T23:12:03.000Z</time>
   </trkpt>
   <trkpt lat="-8.059669" lon="-34.897564">
    <ele>10.2</ele>
    <time>2020-01-07T23:12:04.000Z</time>
   </trkpt>
   <trkpt lat="-8.059593" lon="-34.89757">
    <ele>10.1</ele>
    <time>2020-01-07T23:12:05.000Z</time>
   </trkpt>
   <trkpt lat="-8.059511" lon="-34.897579">
    <ele>10</ele>
    <time>2020-01-07T23:12:06.000Z</time>
   </trkpt>
   <trkpt lat="-8.059427" lon="-34.897587">
    <ele>9.9</ele>
    <time>2020-01-07T23:12:07.000Z</time>
   </trkpt>
   <trkpt lat="-8.059343" lon="-34.897595">
    <ele>9.8</ele>
    <time>2020-01-07T23:12:08.000Z</time>
   </trkpt>
   <trkpt lat="-8.059259" lon="-34.897594">
    <ele>9.7</ele>
    <time>2020-01-07T23:12:09.000Z</time>
   </trkpt>
   <trkpt lat="-8.059189" lon="-34.897594">
    <ele>9.6</ele>
    <time>2020-01-07T23:12:10.000Z</time>
   </trkpt>
   <trkpt lat="-8.059126" lon="-34.897597">
    <ele>9.6</ele>
    <time>2020-01-07T23:12:11.000Z</time>
   </trkpt>
   <trkpt lat="-8.059062" lon="-34.897607">
    <ele>9.5</ele>
    <time>2020-01-07T23:12:12.000Z</time>
   </trkpt>
   <trkpt lat="-8.058992" lon="-34.89762">
    <ele>9.4</ele>
    <time>2020-01-07T23:12:13.000Z</time>
   </trkpt>
   <trkpt lat="-8.058929" lon="-34.897635">
    <ele>9.3</ele>
    <time>2020-01-07T23:12:14.000Z</time>
   </trkpt>
   <trkpt lat="-8.058865" lon="-34.897641">
    <ele>9.3</ele>
    <time>2020-01-07T23:12:15.000Z</time>
   </trkpt>
   <trkpt lat="-8.058795" lon="-34.897644">
    <ele>10.1</ele>
    <time>2020-01-07T23:12:16.000Z</time>
   </trkpt>
   <trkpt lat="-8.058722" lon="-34.897644">
    <ele>10.2</ele>
    <time>2020-01-07T23:12:17.000Z</time>
   </trkpt>
   <trkpt lat="-8.058655" lon="-34.89765">
    <ele>9.7</ele>
    <time>2020-01-07T23:12:18.000Z</time>
   </trkpt>
   <trkpt lat="-8.058591" lon="-34.897653">
    <ele>9.3</ele>
    <time>2020-01-07T23:12:19.000Z</time>
   </trkpt>
   <trkpt lat="-8.058524" lon="-34.897662">
    <ele>9</ele>
    <time>2020-01-07T23:12:20.000Z</time>
   </trkpt>
   <trkpt lat="-8.058457" lon="-34.897667">
    <ele>8.7</ele>
    <time>2020-01-07T23:12:21.000Z</time>
   </trkpt>
   <trkpt lat="-8.058377" lon="-34.897672">
    <ele>8.3</ele>
    <time>2020-01-07T23:12:22.000Z</time>
   </trkpt>
   <trkpt lat="-8.058294" lon="-34.897677">
    <ele>8</ele>
    <time>2020-01-07T23:12:23.000Z</time>
   </trkpt>
   <trkpt lat="-8.058219" lon="-34.897678">
    <ele>7.9</ele>
    <time>2020-01-07T23:12:24.000Z</time>
   </trkpt>
   <trkpt lat="-8.058143" lon="-34.897682">
    <ele>7.8</ele>
    <time>2020-01-07T23:12:25.000Z</time>
   </trkpt>
   <trkpt lat="-8.058076" lon="-34.897697">
    <ele>7.7</ele>
    <time>2020-01-07T23:12:26.000Z</time>
   </trkpt>
   <trkpt lat="-8.058011" lon="-34.897699">
    <ele>7.6</ele>
    <time>2020-01-07T23:12:27.000Z</time>
   </trkpt>
   <trkpt lat="-8.057943" lon="-34.897697">
    <ele>7.5</ele>
    <time>2020-01-07T23:12:28.000Z</time>
   </trkpt>
   <trkpt lat="-8.057876" lon="-34.897688">
    <ele>7.5</ele>
    <time>2020-01-07T23:12:29.000Z</time>
   </trkpt>
   <trkpt lat="-8.057792" lon="-34.897678">
    <ele>7.4</ele>
    <time>2020-01-07T23:12:30.000Z</time>
   </trkpt>
   <trkpt lat="-8.057715" lon="-34.897674">
    <ele>7.3</ele>
    <time>2020-01-07T23:12:31.000Z</time>
   </trkpt>
   <trkpt lat="-8.057645" lon="-34.897667">
    <ele>7.2</ele>
    <time>2020-01-07T23:12:32.000Z</time>
   </trkpt>
   <trkpt lat="-8.057564" lon="-34.897667">
    <ele>7.1</ele>
    <time>2020-01-07T23:12:33.000Z</time>
   </trkpt>
   <trkpt lat="-8.057496" lon="-34.897664">
    <ele>7</ele>
    <time>2020-01-07T23:12:34.000Z</time>
   </trkpt>
   <trkpt lat="-8.057427" lon="-34.897653">
    <ele>7.2</ele>
    <time>2020-01-07T23:12:35.000Z</time>
   </trkpt>
   <trkpt lat="-8.057367" lon="-34.897659">
    <ele>7.5</ele>
    <time>2020-01-07T23:12:36.000Z</time>
   </trkpt>
   <trkpt lat="-8.057302" lon="-34.897666">
    <ele>7.9</ele>
    <time>2020-01-07T23:12:37.000Z</time>
   </trkpt>
   <trkpt lat="-8.057234" lon="-34.897669">
    <ele>8.2</ele>
    <time>2020-01-07T23:12:38.000Z</time>
   </trkpt>
   <trkpt lat="-8.05717" lon="-34.897668">
    <ele>8.7</ele>
    <time>2020-01-07T23:12:39.000Z</time>
   </trkpt>
   <trkpt lat="-8.057109" lon="-34.897672">
    <ele>8.7</ele>
    <time>2020-01-07T23:12:40.000Z</time>
   </trkpt>
   <trkpt lat="-8.057042" lon="-34.897673">
    <ele>8.7</ele>
    <time>2020-01-07T23:12:41.000Z</time>
   </trkpt>
   <trkpt lat="-8.056973" lon="-34.897675">
    <ele>8.8</ele>
    <time>2020-01-07T23:12:42.000Z</time>
   </trkpt>
   <trkpt lat="-8.056902" lon="-34.897679">
    <ele>8.8</ele>
    <time>2020-01-07T23:12:43.000Z</time>
   </trkpt>
   <trkpt lat="-8.056835" lon="-34.897684">
    <ele>8.8</ele>
    <time>2020-01-07T23:12:44.000Z</time>
   </trkpt>
   <trkpt lat="-8.056747" lon="-34.897697">
    <ele>8.8</ele>
    <time>2020-01-07T23:12:45.000Z</time>
   </trkpt>
   <trkpt lat="-8.056668" lon="-34.897696">
    <ele>8.4</ele>
    <time>2020-01-07T23:12:46.000Z</time>
   </trkpt>
   <trkpt lat="-8.056598" lon="-34.897682">
    <ele>7.8</ele>
    <time>2020-01-07T23:12:47.000Z</time>
   </trkpt>
   <trkpt lat="-8.056532" lon="-34.897675">
    <ele>7.3</ele>
    <time>2020-01-07T23:12:48.000Z</time>
   </trkpt>
   <trkpt lat="-8.056469" lon="-34.897678">
    <ele>6.8</ele>
    <time>2020-01-07T23:12:49.000Z</time>
   </trkpt>
   <trkpt lat="-8.056403" lon="-34.897681">
    <ele>6.2</ele>
    <time>2020-01-07T23:12:50.000Z</time>
   </trkpt>
   <trkpt lat="-8.056325" lon="-34.897684">
    <ele>5.9</ele>
    <time>2020-01-07T23:12:51.000Z</time>
   </trkpt>
   <trkpt lat="-8.056246" lon="-34.897675">
    <ele>5.8</ele>
    <time>2020-01-07T23:12:52.000Z</time>
   </trkpt>
   <trkpt lat="-8.056171" lon="-34.897672">
    <ele>5.9</ele>
    <time>2020-01-07T23:12:53.000Z</time>
   </trkpt>
   <trkpt lat="-8.056088" lon="-34.897663">
    <ele>6</ele>
    <time>2020-01-07T23:12:54.000Z</time>
   </trkpt>
   <trkpt lat="-8.056001" lon="-34.897656">
    <ele>6.3</ele>
    <time>2020-01-07T23:12:55.000Z</time>
   </trkpt>
   <trkpt lat="-8.055907" lon="-34.897647">
    <ele>6.4</ele>
    <time>2020-01-07T23:12:56.000Z</time>
   </trkpt>
   <trkpt lat="-8.055814" lon="-34.897631">
    <ele>7.3</ele>
    <time>2020-01-07T23:12:57.000Z</time>
   </trkpt>
   <trkpt lat="-8.05574" lon="-34.897605">
    <ele>8.2</ele>
    <time>2020-01-07T23:12:58.000Z</time>
   </trkpt>
   <trkpt lat="-8.055662" lon="-34.897574">
    <ele>9</ele>
    <time>2020-01-07T23:12:59.000Z</time>
   </trkpt>
   <trkpt lat="-8.055591" lon="-34.897541">
    <ele>9.9</ele>
    <time>2020-01-07T23:13:00.000Z</time>
   </trkpt>
   <trkpt lat="-8.055514" lon="-34.897505">
    <ele>10.7</ele>
    <time>2020-01-07T23:13:01.000Z</time>
   </trkpt>
   <trkpt lat="-8.055439" lon="-34.897472">
    <ele>10.6</ele>
    <time>2020-01-07T23:13:02.000Z</time>
   </trkpt>
   <trkpt lat="-8.055362" lon="-34.897443">
    <ele>10.6</ele>
    <time>2020-01-07T23:13:03.000Z</time>
   </trkpt>
   <trkpt lat="-8.055286" lon="-34.897409">
    <ele>10.5</ele>
    <time>2020-01-07T23:13:04.000Z</time>
   </trkpt>
   <trkpt lat="-8.055208" lon="-34.897379">
    <ele>10.4</ele>
    <time>2020-01-07T23:13:05.000Z</time>
   </trkpt>
   <trkpt lat="-8.055129" lon="-34.897345">
    <ele>10.4</ele>
    <time>2020-01-07T23:13:06.000Z</time>
   </trkpt>
   <trkpt lat="-8.055052" lon="-34.897308">
    <ele>10.3</ele>
    <time>2020-01-07T23:13:07.000Z</time>
   </trkpt>
   <trkpt lat="-8.05498" lon="-34.897266">
    <ele>10.3</ele>
    <time>2020-01-07T23:13:08.000Z</time>
   </trkpt>
   <trkpt lat="-8.054916" lon="-34.897217">
    <ele>10.3</ele>
    <time>2020-01-07T23:13:09.000Z</time>
   </trkpt>
   <trkpt lat="-8.054857" lon="-34.897171">
    <ele>10.2</ele>
    <time>2020-01-07T23:13:10.000Z</time>
   </trkpt>
   <trkpt lat="-8.0548" lon="-34.897118">
    <ele>10.1</ele>
    <time>2020-01-07T23:13:11.000Z</time>
   </trkpt>
   <trkpt lat="-8.054746" lon="-34.897072">
    <ele>10.1</ele>
    <time>2020-01-07T23:13:12.000Z</time>
   </trkpt>
   <trkpt lat="-8.054698" lon="-34.897036">
    <ele>10</ele>
    <time>2020-01-07T23:13:13.000Z</time>
   </trkpt>
   <trkpt lat="-8.054657" lon="-34.89701">
    <ele>9.9</ele>
    <time>2020-01-07T23:13:14.000Z</time>
   </trkpt>
   <trkpt lat="-8.054623" lon="-34.896987">
    <ele>9.9</ele>
    <time>2020-01-07T23:13:15.000Z</time>
   </trkpt>
   <trkpt lat="-8.054592" lon="-34.896967">
    <ele>9.8</ele>
    <time>2020-01-07T23:13:16.000Z</time>
   </trkpt>
   <trkpt lat="-8.054563" lon="-34.896952">
    <ele>9.8</ele>
    <time>2020-01-07T23:13:17.000Z</time>
   </trkpt>
   <trkpt lat="-8.054535" lon="-34.896938">
    <ele>9.8</ele>
    <time>2020-01-07T23:13:18.000Z</time>
   </trkpt>
   <trkpt lat="-8.054502" lon="-34.896925">
    <ele>9.7</ele>
    <time>2020-01-07T23:13:19.000Z</time>
   </trkpt>
   <trkpt lat="-8.054488" lon="-34.896911">
    <ele>9.7</ele>
    <time>2020-01-07T23:13:20.000Z</time>
   </trkpt>
   <trkpt lat="-8.054432" lon="-34.896862">
    <ele>9.5</ele>
    <time>2020-01-07T23:13:22.000Z</time>
   </trkpt>
   <trkpt lat="-8.054392" lon="-34.896838">
    <ele>9.4</ele>
    <time>2020-01-07T23:13:23.000Z</time>
   </trkpt>
   <trkpt lat="-8.054347" lon="-34.896821">
    <ele>9.2</ele>
    <time>2020-01-07T23:13:24.000Z</time>
   </trkpt>
   <trkpt lat="-8.054305" lon="-34.896798">
    <ele>9.1</ele>
    <time>2020-01-07T23:13:25.000Z</time>
   </trkpt>
   <trkpt lat="-8.054266" lon="-34.896771">
    <ele>8.9</ele>
    <time>2020-01-07T23:13:26.000Z</time>
   </trkpt>
   <trkpt lat="-8.054214" lon="-34.896734">
    <ele>8.8</ele>
    <time>2020-01-07T23:13:27.000Z</time>
   </trkpt>
   <trkpt lat="-8.054173" lon="-34.896702">
    <ele>8.6</ele>
    <time>2020-01-07T23:13:28.000Z</time>
   </trkpt>
   <trkpt lat="-8.054131" lon="-34.896667">
    <ele>8.5</ele>
    <time>2020-01-07T23:13:29.000Z</time>
   </trkpt>
   <trkpt lat="-8.054083" lon="-34.896627">
    <ele>8.3</ele>
    <time>2020-01-07T23:13:30.000Z</time>
   </trkpt>
   <trkpt lat="-8.054029" lon="-34.896591">
    <ele>8</ele>
    <time>2020-01-07T23:13:31.000Z</time>
   </trkpt>
   <trkpt lat="-8.053972" lon="-34.896558">
    <ele>7.8</ele>
    <time>2020-01-07T23:13:32.000Z</time>
   </trkpt>
   <trkpt lat="-8.053931" lon="-34.896518">
    <ele>7.6</ele>
    <time>2020-01-07T23:13:33.000Z</time>
   </trkpt>
   <trkpt lat="-8.053883" lon="-34.896484">
    <ele>7.2</ele>
    <time>2020-01-07T23:13:34.000Z</time>
   </trkpt>
   <trkpt lat="-8.053831" lon="-34.896447">
    <ele>6.8</ele>
    <time>2020-01-07T23:13:35.000Z</time>
   </trkpt>
   <trkpt lat="-8.053781" lon="-34.896413">
    <ele>6.4</ele>
    <time>2020-01-07T23:13:36.000Z</time>
   </trkpt>
   <trkpt lat="-8.053735" lon="-34.896378">
    <ele>6</ele>
    <time>2020-01-07T23:13:37.000Z</time>
   </trkpt>
   <trkpt lat="-8.053697" lon="-34.896338">
    <ele>5.7</ele>
    <time>2020-01-07T23:13:38.000Z</time>
   </trkpt>
   <trkpt lat="-8.053669" lon="-34.896306">
    <ele>5.4</ele>
    <time>2020-01-07T23:13:39.000Z</time>
   </trkpt>
   <trkpt lat="-8.05364" lon="-34.896287">
    <ele>5.3</ele>
    <time>2020-01-07T23:13:40.000Z</time>
   </trkpt>
   <trkpt lat="-8.053621" lon="-34.89627">
    <ele>5.1</ele>
    <time>2020-01-07T23:13:41.000Z</time>
   </trkpt>
   <trkpt lat="-8.053584" lon="-34.896251">
    <ele>4.9</ele>
    <time>2020-01-07T23:13:43.000Z</time>
   </trkpt>
   <trkpt lat="-8.053607" lon="-34.896253">
    <ele>4.8</ele>
    <time>2020-01-07T23:13:45.000Z</time>
   </trkpt>
   <trkpt lat="-8.053601" lon="-34.896243">
    <ele>4.7</ele>
    <time>2020-01-07T23:13:48.000Z</time>
   </trkpt>
   <trkpt lat="-8.053586" lon="-34.896268">
    <ele>4.6</ele>
    <time>2020-01-07T23:13:52.000Z</time>
   </trkpt>
   <trkpt lat="-8.053527" lon="-34.896314">
    <ele>4</ele>
    <time>2020-01-07T23:14:00.000Z</time>
   </trkpt>
   <trkpt lat="-8.053506" lon="-34.896337">
    <ele>4</ele>
    <time>2020-01-07T23:14:01.000Z</time>
   </trkpt>
   <trkpt lat="-8.053491" lon="-34.896354">
    <ele>4</ele>
    <time>2020-01-07T23:14:02.000Z</time>
   </trkpt>
   <trkpt lat="-8.053453" lon="-34.896389">
    <ele>4</ele>
    <time>2020-01-07T23:14:04.000Z</time>
   </trkpt>
   <trkpt lat="-8.053432" lon="-34.896394">
    <ele>4</ele>
    <time>2020-01-07T23:14:05.000Z</time>
   </trkpt>
   <trkpt lat="-8.0534" lon="-34.896413">
    <ele>4.4</ele>
    <time>2020-01-07T23:14:07.000Z</time>
   </trkpt>
   <trkpt lat="-8.053365" lon="-34.896428">
    <ele>4.6</ele>
    <time>2020-01-07T23:14:09.000Z</time>
   </trkpt>
   <trkpt lat="-8.053326" lon="-34.896453">
    <ele>4.8</ele>
    <time>2020-01-07T23:14:11.000Z</time>
   </trkpt>
   <trkpt lat="-8.053271" lon="-34.896519">
    <ele>5.3</ele>
    <time>2020-01-07T23:14:13.000Z</time>
   </trkpt>
   <trkpt lat="-8.053236" lon="-34.896557">
    <ele>6.1</ele>
    <time>2020-01-07T23:14:14.000Z</time>
   </trkpt>
   <trkpt lat="-8.053205" lon="-34.896593">
    <ele>6.7</ele>
    <time>2020-01-07T23:14:15.000Z</time>
   </trkpt>
   <trkpt lat="-8.053166" lon="-34.896644">
    <ele>7.6</ele>
    <time>2020-01-07T23:14:16.000Z</time>
   </trkpt>
   <trkpt lat="-8.053125" lon="-34.896694">
    <ele>8.4</ele>
    <time>2020-01-07T23:14:17.000Z</time>
   </trkpt>
   <trkpt lat="-8.053092" lon="-34.896746">
    <ele>9.1</ele>
    <time>2020-01-07T23:14:18.000Z</time>
   </trkpt>
   <trkpt lat="-8.053054" lon="-34.896808">
    <ele>10</ele>
    <time>2020-01-07T23:14:19.000Z</time>
   </trkpt>
   <trkpt lat="-8.053027" lon="-34.896853">
    <ele>10.6</ele>
    <time>2020-01-07T23:14:20.000Z</time>
   </trkpt>
   <trkpt lat="-8.053002" lon="-34.896904">
    <ele>11.3</ele>
    <time>2020-01-07T23:14:21.000Z</time>
   </trkpt>
   <trkpt lat="-8.052982" lon="-34.896955">
    <ele>11.9</ele>
    <time>2020-01-07T23:14:22.000Z</time>
   </trkpt>
   <trkpt lat="-8.052956" lon="-34.897012">
    <ele>12.2</ele>
    <time>2020-01-07T23:14:23.000Z</time>
   </trkpt>
   <trkpt lat="-8.052937" lon="-34.897075">
    <ele>12.1</ele>
    <time>2020-01-07T23:14:24.000Z</time>
   </trkpt>
   <trkpt lat="-8.052905" lon="-34.897132">
    <ele>11.9</ele>
    <time>2020-01-07T23:14:25.000Z</time>
   </trkpt>
   <trkpt lat="-8.052882" lon="-34.897186">
    <ele>11.8</ele>
    <time>2020-01-07T23:14:26.000Z</time>
   </trkpt>
   <trkpt lat="-8.052859" lon="-34.897255">
    <ele>11.7</ele>
    <time>2020-01-07T23:14:27.000Z</time>
   </trkpt>
   <trkpt lat="-8.052838" lon="-34.897317">
    <ele>11.5</ele>
    <time>2020-01-07T23:14:28.000Z</time>
   </trkpt>
   <trkpt lat="-8.052826" lon="-34.89738">
    <ele>11.4</ele>
    <time>2020-01-07T23:14:29.000Z</time>
   </trkpt>
   <trkpt lat="-8.052824" lon="-34.897442">
    <ele>11.2</ele>
    <time>2020-01-07T23:14:30.000Z</time>
   </trkpt>
   <trkpt lat="-8.052803" lon="-34.897512">
    <ele>11</ele>
    <time>2020-01-07T23:14:31.000Z</time>
   </trkpt>
   <trkpt lat="-8.052789" lon="-34.897563">
    <ele>10.9</ele>
    <time>2020-01-07T23:14:32.000Z</time>
   </trkpt>
   <trkpt lat="-8.052775" lon="-34.897628">
    <ele>10.8</ele>
    <time>2020-01-07T23:14:33.000Z</time>
   </trkpt>
   <trkpt lat="-8.052756" lon="-34.897683">
    <ele>10.6</ele>
    <time>2020-01-07T23:14:34.000Z</time>
   </trkpt>
   <trkpt lat="-8.052733" lon="-34.897744">
    <ele>10.5</ele>
    <time>2020-01-07T23:14:35.000Z</time>
   </trkpt>
   <trkpt lat="-8.052717" lon="-34.897796">
    <ele>10.3</ele>
    <time>2020-01-07T23:14:36.000Z</time>
   </trkpt>
   <trkpt lat="-8.052703" lon="-34.897849">
    <ele>10.2</ele>
    <time>2020-01-07T23:14:37.000Z</time>
   </trkpt>
   <trkpt lat="-8.052684" lon="-34.897917">
    <ele>10.1</ele>
    <time>2020-01-07T23:14:38.000Z</time>
   </trkpt>
   <trkpt lat="-8.052664" lon="-34.897966">
    <ele>10</ele>
    <time>2020-01-07T23:14:39.000Z</time>
   </trkpt>
   <trkpt lat="-8.052645" lon="-34.898047">
    <ele>9.8</ele>
    <time>2020-01-07T23:14:40.000Z</time>
   </trkpt>
   <trkpt lat="-8.052623" lon="-34.898104">
    <ele>9.7</ele>
    <time>2020-01-07T23:14:41.000Z</time>
   </trkpt>
   <trkpt lat="-8.052605" lon="-34.898156">
    <ele>9.5</ele>
    <time>2020-01-07T23:14:42.000Z</time>
   </trkpt>
   <trkpt lat="-8.052584" lon="-34.898225">
    <ele>9.4</ele>
    <time>2020-01-07T23:14:43.000Z</time>
   </trkpt>
   <trkpt lat="-8.052554" lon="-34.898288">
    <ele>9.2</ele>
    <time>2020-01-07T23:14:44.000Z</time>
   </trkpt>
   <trkpt lat="-8.052535" lon="-34.898364">
    <ele>9</ele>
    <time>2020-01-07T23:14:45.000Z</time>
   </trkpt>
   <trkpt lat="-8.052524" lon="-34.898427">
    <ele>8.9</ele>
    <time>2020-01-07T23:14:46.000Z</time>
   </trkpt>
   <trkpt lat="-8.052515" lon="-34.898507">
    <ele>8.9</ele>
    <time>2020-01-07T23:14:47.000Z</time>
   </trkpt>
   <trkpt lat="-8.052496" lon="-34.898566">
    <ele>9</ele>
    <time>2020-01-07T23:14:48.000Z</time>
   </trkpt>
   <trkpt lat="-8.052485" lon="-34.898623">
    <ele>9.1</ele>
    <time>2020-01-07T23:14:49.000Z</time>
   </trkpt>
   <trkpt lat="-8.052467" lon="-34.898684">
    <ele>9.2</ele>
    <time>2020-01-07T23:14:50.000Z</time>
   </trkpt>
   <trkpt lat="-8.052451" lon="-34.898748">
    <ele>9.3</ele>
    <time>2020-01-07T23:14:51.000Z</time>
   </trkpt>
   <trkpt lat="-8.052443" lon="-34.898814">
    <ele>9.4</ele>
    <time>2020-01-07T23:14:52.000Z</time>
   </trkpt>
   <trkpt lat="-8.052438" lon="-34.898866">
    <ele>9.5</ele>
    <time>2020-01-07T23:14:53.000Z</time>
   </trkpt>
   <trkpt lat="-8.052428" lon="-34.898924">
    <ele>9.6</ele>
    <time>2020-01-07T23:14:54.000Z</time>
   </trkpt>
   <trkpt lat="-8.052427" lon="-34.898981">
    <ele>9.7</ele>
    <time>2020-01-07T23:14:55.000Z</time>
   </trkpt>
   <trkpt lat="-8.052424" lon="-34.899046">
    <ele>9.8</ele>
    <time>2020-01-07T23:14:56.000Z</time>
   </trkpt>
   <trkpt lat="-8.052423" lon="-34.899102">
    <ele>10</ele>
    <time>2020-01-07T23:14:57.000Z</time>
   </trkpt>
   <trkpt lat="-8.052428" lon="-34.899152">
    <ele>10.2</ele>
    <time>2020-01-07T23:14:58.000Z</time>
   </trkpt>
   <trkpt lat="-8.052441" lon="-34.899209">
    <ele>10.5</ele>
    <time>2020-01-07T23:14:59.000Z</time>
   </trkpt>
   <trkpt lat="-8.052446" lon="-34.899268">
    <ele>10.9</ele>
    <time>2020-01-07T23:15:00.000Z</time>
   </trkpt>
   <trkpt lat="-8.052447" lon="-34.899316">
    <ele>11.2</ele>
    <time>2020-01-07T23:15:01.000Z</time>
   </trkpt>
   <trkpt lat="-8.052449" lon="-34.899334">
    <ele>11.3</ele>
    <time>2020-01-07T23:15:02.000Z</time>
   </trkpt>
   <trkpt lat="-8.052423" lon="-34.899446">
    <ele>11.9</ele>
    <time>2020-01-07T23:15:04.000Z</time>
   </trkpt>
   <trkpt lat="-8.052377" lon="-34.89946">
    <ele>12.1</ele>
    <time>2020-01-07T23:15:05.000Z</time>
   </trkpt>
   <trkpt lat="-8.052341" lon="-34.899456">
    <ele>11.6</ele>
    <time>2020-01-07T23:15:06.000Z</time>
   </trkpt>
   <trkpt lat="-8.0523" lon="-34.89942">
    <ele>11.7</ele>
    <time>2020-01-07T23:15:07.000Z</time>
   </trkpt>
   <trkpt lat="-8.052243" lon="-34.899387">
    <ele>11.8</ele>
    <time>2020-01-07T23:15:08.000Z</time>
   </trkpt>
   <trkpt lat="-8.052195" lon="-34.899358">
    <ele>11.9</ele>
    <time>2020-01-07T23:15:09.000Z</time>
   </trkpt>
   <trkpt lat="-8.052134" lon="-34.899334">
    <ele>12</ele>
    <time>2020-01-07T23:15:10.000Z</time>
   </trkpt>
   <trkpt lat="-8.05207" lon="-34.899312">
    <ele>12.1</ele>
    <time>2020-01-07T23:15:11.000Z</time>
   </trkpt>
   <trkpt lat="-8.052003" lon="-34.899297">
    <ele>12.2</ele>
    <time>2020-01-07T23:15:12.000Z</time>
   </trkpt>
   <trkpt lat="-8.051945" lon="-34.899283">
    <ele>12.3</ele>
    <time>2020-01-07T23:15:13.000Z</time>
   </trkpt>
   <trkpt lat="-8.051894" lon="-34.899261">
    <ele>12.4</ele>
    <time>2020-01-07T23:15:14.000Z</time>
   </trkpt>
   <trkpt lat="-8.051844" lon="-34.899229">
    <ele>12.4</ele>
    <time>2020-01-07T23:15:15.000Z</time>
   </trkpt>
   <trkpt lat="-8.051794" lon="-34.899198">
    <ele>12.5</ele>
    <time>2020-01-07T23:15:16.000Z</time>
   </trkpt>
   <trkpt lat="-8.051745" lon="-34.899167">
    <ele>12.6</ele>
    <time>2020-01-07T23:15:17.000Z</time>
   </trkpt>
   <trkpt lat="-8.051699" lon="-34.899138">
    <ele>12.7</ele>
    <time>2020-01-07T23:15:18.000Z</time>
   </trkpt>
   <trkpt lat="-8.051648" lon="-34.899109">
    <ele>13.6</ele>
    <time>2020-01-07T23:15:19.000Z</time>
   </trkpt>
   <trkpt lat="-8.051591" lon="-34.899066">
    <ele>15.1</ele>
    <time>2020-01-07T23:15:20.000Z</time>
   </trkpt>
   <trkpt lat="-8.051538" lon="-34.899027">
    <ele>16.4</ele>
    <time>2020-01-07T23:15:21.000Z</time>
   </trkpt>
   <trkpt lat="-8.05148" lon="-34.89898">
    <ele>17.7</ele>
    <time>2020-01-07T23:15:22.000Z</time>
   </trkpt>
   <trkpt lat="-8.051423" lon="-34.898936">
    <ele>18.7</ele>
    <time>2020-01-07T23:15:23.000Z</time>
   </trkpt>
   <trkpt lat="-8.051364" lon="-34.898912">
    <ele>19.2</ele>
    <time>2020-01-07T23:15:24.000Z</time>
   </trkpt>
   <trkpt lat="-8.051309" lon="-34.898869">
    <ele>18.9</ele>
    <time>2020-01-07T23:15:25.000Z</time>
   </trkpt>
   <trkpt lat="-8.051237" lon="-34.898837">
    <ele>17.5</ele>
    <time>2020-01-07T23:15:26.000Z</time>
   </trkpt>
   <trkpt lat="-8.051179" lon="-34.898799">
    <ele>16.6</ele>
    <time>2020-01-07T23:15:27.000Z</time>
   </trkpt>
   <trkpt lat="-8.051124" lon="-34.898765">
    <ele>16.6</ele>
    <time>2020-01-07T23:15:28.000Z</time>
   </trkpt>
   <trkpt lat="-8.05107" lon="-34.898733">
    <ele>17.4</ele>
    <time>2020-01-07T23:15:29.000Z</time>
   </trkpt>
   <trkpt lat="-8.051023" lon="-34.898708">
    <ele>17.5</ele>
    <time>2020-01-07T23:15:30.000Z</time>
   </trkpt>
   <trkpt lat="-8.050971" lon="-34.898691">
    <ele>17.2</ele>
    <time>2020-01-07T23:15:31.000Z</time>
   </trkpt>
   <trkpt lat="-8.050921" lon="-34.898664">
    <ele>16.3</ele>
    <time>2020-01-07T23:15:32.000Z</time>
   </trkpt>
   <trkpt lat="-8.05087" lon="-34.898637">
    <ele>15.4</ele>
    <time>2020-01-07T23:15:33.000Z</time>
   </trkpt>
   <trkpt lat="-8.050825" lon="-34.898612">
    <ele>14.6</ele>
    <time>2020-01-07T23:15:34.000Z</time>
   </trkpt>
   <trkpt lat="-8.050766" lon="-34.898602">
    <ele>14.1</ele>
    <time>2020-01-07T23:15:35.000Z</time>
   </trkpt>
   <trkpt lat="-8.050715" lon="-34.898567">
    <ele>13.5</ele>
    <time>2020-01-07T23:15:36.000Z</time>
   </trkpt>
   <trkpt lat="-8.050666" lon="-34.898532">
    <ele>12.8</ele>
    <time>2020-01-07T23:15:37.000Z</time>
   </trkpt>
   <trkpt lat="-8.050615" lon="-34.898503">
    <ele>12.4</ele>
    <time>2020-01-07T23:15:38.000Z</time>
   </trkpt>
   <trkpt lat="-8.050582" lon="-34.898491">
    <ele>12.2</ele>
    <time>2020-01-07T23:15:39.000Z</time>
   </trkpt>
   <trkpt lat="-8.050535" lon="-34.898468">
    <ele>12</ele>
    <time>2020-01-07T23:15:40.000Z</time>
   </trkpt>
   <trkpt lat="-8.050485" lon="-34.898447">
    <ele>11.9</ele>
    <time>2020-01-07T23:15:41.000Z</time>
   </trkpt>
   <trkpt lat="-8.050438" lon="-34.898427">
    <ele>11.8</ele>
    <time>2020-01-07T23:15:42.000Z</time>
   </trkpt>
   <trkpt lat="-8.050399" lon="-34.898413">
    <ele>11.8</ele>
    <time>2020-01-07T23:15:43.000Z</time>
   </trkpt>
   <trkpt lat="-8.050342" lon="-34.898407">
    <ele>11.7</ele>
    <time>2020-01-07T23:15:44.000Z</time>
   </trkpt>
   <trkpt lat="-8.050287" lon="-34.898393">
    <ele>11.5</ele>
    <time>2020-01-07T23:15:45.000Z</time>
   </trkpt>
   <trkpt lat="-8.050243" lon="-34.898373">
    <ele>11.5</ele>
    <time>2020-01-07T23:15:46.000Z</time>
   </trkpt>
   <trkpt lat="-8.0502" lon="-34.898345">
    <ele>11.9</ele>
    <time>2020-01-07T23:15:47.000Z</time>
   </trkpt>
   <trkpt lat="-8.050165" lon="-34.898318">
    <ele>12.1</ele>
    <time>2020-01-07T23:15:48.000Z</time>
   </trkpt>
   <trkpt lat="-8.050132" lon="-34.898286">
    <ele>12.4</ele>
    <time>2020-01-07T23:15:49.000Z</time>
   </trkpt>
   <trkpt lat="-8.050088" lon="-34.898257">
    <ele>12.7</ele>
    <time>2020-01-07T23:15:50.000Z</time>
   </trkpt>
   <trkpt lat="-8.050049" lon="-34.898225">
    <ele>13.1</ele>
    <time>2020-01-07T23:15:51.000Z</time>
   </trkpt>
   <trkpt lat="-8.050034" lon="-34.898196">
    <ele>13.3</ele>
    <time>2020-01-07T23:15:52.000Z</time>
   </trkpt>
   <trkpt lat="-8.050008" lon="-34.89817">
    <ele>13.4</ele>
    <time>2020-01-07T23:15:53.000Z</time>
   </trkpt>
   <trkpt lat="-8.049982" lon="-34.89814">
    <ele>13.5</ele>
    <time>2020-01-07T23:15:54.000Z</time>
   </trkpt>
   <trkpt lat="-8.049972" lon="-34.898127">
    <ele>13.5</ele>
    <time>2020-01-07T23:15:55.000Z</time>
   </trkpt>
   <trkpt lat="-8.049965" lon="-34.898115">
    <ele>13.5</ele>
    <time>2020-01-07T23:15:57.000Z</time>
   </trkpt>
   <trkpt lat="-8.04997" lon="-34.898102">
    <ele>13.5</ele>
    <time>2020-01-07T23:16:01.000Z</time>
   </trkpt>
   <trkpt lat="-8.049929" lon="-34.898022">
    <ele>13.2</ele>
    <time>2020-01-07T23:16:27.000Z</time>
   </trkpt>
   <trkpt lat="-8.049959" lon="-34.897927">
    <ele>12.4</ele>
    <time>2020-01-07T23:16:29.000Z</time>
   </trkpt>
   <trkpt lat="-8.04998" lon="-34.897868">
    <ele>12.4</ele>
    <time>2020-01-07T23:16:30.000Z</time>
   </trkpt>
   <trkpt lat="-8.049997" lon="-34.897824">
    <ele>12.2</ele>
    <time>2020-01-07T23:16:31.000Z</time>
   </trkpt>
   <trkpt lat="-8.050008" lon="-34.897773">
    <ele>12.3</ele>
    <time>2020-01-07T23:16:32.000Z</time>
   </trkpt>
   <trkpt lat="-8.050002" lon="-34.897722">
    <ele>12.6</ele>
    <time>2020-01-07T23:16:33.000Z</time>
   </trkpt>
   <trkpt lat="-8.050016" lon="-34.897681">
    <ele>12.7</ele>
    <time>2020-01-07T23:16:34.000Z</time>
   </trkpt>
   <trkpt lat="-8.05001" lon="-34.897654">
    <ele>12.7</ele>
    <time>2020-01-07T23:16:35.000Z</time>
   </trkpt>
   <trkpt lat="-8.050001" lon="-34.897588">
    <ele>13</ele>
    <time>2020-01-07T23:16:36.000Z</time>
   </trkpt>
   <trkpt lat="-8.050006" lon="-34.897534">
    <ele>13.2</ele>
    <time>2020-01-07T23:16:37.000Z</time>
   </trkpt>
   <trkpt lat="-8.050014" lon="-34.89748">
    <ele>13.1</ele>
    <time>2020-01-07T23:16:38.000Z</time>
   </trkpt>
   <trkpt lat="-8.05003" lon="-34.897403">
    <ele>12.9</ele>
    <time>2020-01-07T23:16:39.000Z</time>
   </trkpt>
   <trkpt lat="-8.050051" lon="-34.89732">
    <ele>13</ele>
    <time>2020-01-07T23:16:40.000Z</time>
   </trkpt>
   <trkpt lat="-8.050062" lon="-34.897245">
    <ele>13.1</ele>
    <time>2020-01-07T23:16:41.000Z</time>
   </trkpt>
   <trkpt lat="-8.050073" lon="-34.897175">
    <ele>13.3</ele>
    <time>2020-01-07T23:16:42.000Z</time>
   </trkpt>
   <trkpt lat="-8.050081" lon="-34.897114">
    <ele>13.4</ele>
    <time>2020-01-07T23:16:43.000Z</time>
   </trkpt>
   <trkpt lat="-8.050092" lon="-34.897051">
    <ele>13.6</ele>
    <time>2020-01-07T23:16:44.000Z</time>
   </trkpt>
   <trkpt lat="-8.050099" lon="-34.896991">
    <ele>13.7</ele>
    <time>2020-01-07T23:16:45.000Z</time>
   </trkpt>
   <trkpt lat="-8.050118" lon="-34.896941">
    <ele>13.9</ele>
    <time>2020-01-07T23:16:46.000Z</time>
   </trkpt>
   <trkpt lat="-8.050123" lon="-34.896884">
    <ele>14.2</ele>
    <time>2020-01-07T23:16:47.000Z</time>
   </trkpt>
   <trkpt lat="-8.050131" lon="-34.89683">
    <ele>14.4</ele>
    <time>2020-01-07T23:16:48.000Z</time>
   </trkpt>
   <trkpt lat="-8.050128" lon="-34.896783">
    <ele>14.5</ele>
    <time>2020-01-07T23:16:49.000Z</time>
   </trkpt>
   <trkpt lat="-8.050126" lon="-34.896756">
    <ele>14.6</ele>
    <time>2020-01-07T23:16:50.000Z</time>
   </trkpt>
   <trkpt lat="-8.050117" lon="-34.896746">
    <ele>14.7</ele>
    <time>2020-01-07T23:16:51.000Z</time>
   </trkpt>
   <trkpt lat="-8.050088" lon="-34.896721">
    <ele>14.8</ele>
    <time>2020-01-07T23:16:53.000Z</time>
   </trkpt>
   <trkpt lat="-8.050019" lon="-34.896699">
    <ele>14.4</ele>
    <time>2020-01-07T23:16:55.000Z</time>
   </trkpt>
   <trkpt lat="-8.049973" lon="-34.896677">
    <ele>14.2</ele>
    <time>2020-01-07T23:16:56.000Z</time>
   </trkpt>
   <trkpt lat="-8.049931" lon="-34.896658">
    <ele>14.1</ele>
    <time>2020-01-07T23:16:57.000Z</time>
   </trkpt>
   <trkpt lat="-8.049886" lon="-34.896653">
    <ele>14</ele>
    <time>2020-01-07T23:16:58.000Z</time>
   </trkpt>
   <trkpt lat="-8.049839" lon="-34.896645">
    <ele>13.9</ele>
    <time>2020-01-07T23:16:59.000Z</time>
   </trkpt>
   <trkpt lat="-8.04979" lon="-34.896636">
    <ele>13.7</ele>
    <time>2020-01-07T23:17:00.000Z</time>
   </trkpt>
   <trkpt lat="-8.049742" lon="-34.896622">
    <ele>13.6</ele>
    <time>2020-01-07T23:17:01.000Z</time>
   </trkpt>
   <trkpt lat="-8.049694" lon="-34.896607">
    <ele>13.5</ele>
    <time>2020-01-07T23:17:02.000Z</time>
   </trkpt>
   <trkpt lat="-8.049643" lon="-34.896596">
    <ele>13.5</ele>
    <time>2020-01-07T23:17:03.000Z</time>
   </trkpt>
   <trkpt lat="-8.049584" lon="-34.896572">
    <ele>13.4</ele>
    <time>2020-01-07T23:17:04.000Z</time>
   </trkpt>
   <trkpt lat="-8.049527" lon="-34.896558">
    <ele>13.3</ele>
    <time>2020-01-07T23:17:05.000Z</time>
   </trkpt>
   <trkpt lat="-8.049469" lon="-34.896541">
    <ele>13.3</ele>
    <time>2020-01-07T23:17:06.000Z</time>
   </trkpt>
   <trkpt lat="-8.049413" lon="-34.896526">
    <ele>13.2</ele>
    <time>2020-01-07T23:17:07.000Z</time>
   </trkpt>
   <trkpt lat="-8.049349" lon="-34.896511">
    <ele>13.2</ele>
    <time>2020-01-07T23:17:08.000Z</time>
   </trkpt>
   <trkpt lat="-8.049299" lon="-34.896501">
    <ele>13.1</ele>
    <time>2020-01-07T23:17:09.000Z</time>
   </trkpt>
   <trkpt lat="-8.049237" lon="-34.896496">
    <ele>13.1</ele>
    <time>2020-01-07T23:17:10.000Z</time>
   </trkpt>
   <trkpt lat="-8.049183" lon="-34.896494">
    <ele>13</ele>
    <time>2020-01-07T23:17:11.000Z</time>
   </trkpt>
   <trkpt lat="-8.049128" lon="-34.896487">
    <ele>13</ele>
    <time>2020-01-07T23:17:12.000Z</time>
   </trkpt>
   <trkpt lat="-8.049077" lon="-34.896483">
    <ele>12.9</ele>
    <time>2020-01-07T23:17:13.000Z</time>
   </trkpt>
   <trkpt lat="-8.04902" lon="-34.896483">
    <ele>12.7</ele>
    <time>2020-01-07T23:17:14.000Z</time>
   </trkpt>
   <trkpt lat="-8.048973" lon="-34.896493">
    <ele>12.6</ele>
    <time>2020-01-07T23:17:15.000Z</time>
   </trkpt>
   <trkpt lat="-8.048922" lon="-34.896508">
    <ele>12.4</ele>
    <time>2020-01-07T23:17:16.000Z</time>
   </trkpt>
   <trkpt lat="-8.048866" lon="-34.896531">
    <ele>12.2</ele>
    <time>2020-01-07T23:17:17.000Z</time>
   </trkpt>
   <trkpt lat="-8.048801" lon="-34.896549">
    <ele>12</ele>
    <time>2020-01-07T23:17:18.000Z</time>
   </trkpt>
   <trkpt lat="-8.048739" lon="-34.896577">
    <ele>11.6</ele>
    <time>2020-01-07T23:17:19.000Z</time>
   </trkpt>
   <trkpt lat="-8.048674" lon="-34.8966">
    <ele>11.3</ele>
    <time>2020-01-07T23:17:20.000Z</time>
   </trkpt>
   <trkpt lat="-8.048618" lon="-34.896626">
    <ele>11.1</ele>
    <time>2020-01-07T23:17:21.000Z</time>
   </trkpt>
   <trkpt lat="-8.048559" lon="-34.896648">
    <ele>10.9</ele>
    <time>2020-01-07T23:17:22.000Z</time>
   </trkpt>
   <trkpt lat="-8.048495" lon="-34.89668">
    <ele>10.7</ele>
    <time>2020-01-07T23:17:23.000Z</time>
   </trkpt>
   <trkpt lat="-8.048432" lon="-34.896721">
    <ele>10.5</ele>
    <time>2020-01-07T23:17:24.000Z</time>
   </trkpt>
   <trkpt lat="-8.048373" lon="-34.896749">
    <ele>10.3</ele>
    <time>2020-01-07T23:17:25.000Z</time>
   </trkpt>
   <trkpt lat="-8.048322" lon="-34.896771">
    <ele>10.2</ele>
    <time>2020-01-07T23:17:26.000Z</time>
   </trkpt>
   <trkpt lat="-8.048271" lon="-34.896794">
    <ele>10.1</ele>
    <time>2020-01-07T23:17:27.000Z</time>
   </trkpt>
   <trkpt lat="-8.048211" lon="-34.896821">
    <ele>10.4</ele>
    <time>2020-01-07T23:17:28.000Z</time>
   </trkpt>
   <trkpt lat="-8.048153" lon="-34.896846">
    <ele>10.7</ele>
    <time>2020-01-07T23:17:29.000Z</time>
   </trkpt>
   <trkpt lat="-8.048103" lon="-34.896867">
    <ele>11</ele>
    <time>2020-01-07T23:17:30.000Z</time>
   </trkpt>
   <trkpt lat="-8.048032" lon="-34.896891">
    <ele>11.5</ele>
    <time>2020-01-07T23:17:31.000Z</time>
   </trkpt>
   <trkpt lat="-8.047973" lon="-34.896905">
    <ele>11.9</ele>
    <time>2020-01-07T23:17:32.000Z</time>
   </trkpt>
   <trkpt lat="-8.047925" lon="-34.89692">
    <ele>12.2</ele>
    <time>2020-01-07T23:17:33.000Z</time>
   </trkpt>
   <trkpt lat="-8.04787" lon="-34.896949">
    <ele>12.4</ele>
    <time>2020-01-07T23:17:34.000Z</time>
   </trkpt>
   <trkpt lat="-8.047818" lon="-34.896972">
    <ele>12.6</ele>
    <time>2020-01-07T23:17:35.000Z</time>
   </trkpt>
   <trkpt lat="-8.047756" lon="-34.896987">
    <ele>12.8</ele>
    <time>2020-01-07T23:17:36.000Z</time>
   </trkpt>
   <trkpt lat="-8.047703" lon="-34.896991">
    <ele>12.9</ele>
    <time>2020-01-07T23:17:37.000Z</time>
   </trkpt>
   <trkpt lat="-8.047649" lon="-34.897001">
    <ele>13.1</ele>
    <time>2020-01-07T23:17:38.000Z</time>
   </trkpt>
   <trkpt lat="-8.047598" lon="-34.89699">
    <ele>13.3</ele>
    <time>2020-01-07T23:17:39.000Z</time>
   </trkpt>
   <trkpt lat="-8.04755" lon="-34.896955">
    <ele>13.5</ele>
    <time>2020-01-07T23:17:40.000Z</time>
   </trkpt>
   <trkpt lat="-8.047521" lon="-34.896907">
    <ele>13.8</ele>
    <time>2020-01-07T23:17:41.000Z</time>
   </trkpt>
   <trkpt lat="-8.047495" lon="-34.896859">
    <ele>14</ele>
    <time>2020-01-07T23:17:42.000Z</time>
   </trkpt>
   <trkpt lat="-8.04747" lon="-34.896823">
    <ele>14.2</ele>
    <time>2020-01-07T23:17:43.000Z</time>
   </trkpt>
   <trkpt lat="-8.047446" lon="-34.896782">
    <ele>14.4</ele>
    <time>2020-01-07T23:17:44.000Z</time>
   </trkpt>
   <trkpt lat="-8.04742" lon="-34.896737">
    <ele>14.6</ele>
    <time>2020-01-07T23:17:45.000Z</time>
   </trkpt>
   <trkpt lat="-8.047389" lon="-34.896688">
    <ele>14.8</ele>
    <time>2020-01-07T23:17:46.000Z</time>
   </trkpt>
   <trkpt lat="-8.047354" lon="-34.896634">
    <ele>15.1</ele>
    <time>2020-01-07T23:17:47.000Z</time>
   </trkpt>
   <trkpt lat="-8.04729" lon="-34.896564">
    <ele>15.5</ele>
    <time>2020-01-07T23:17:48.000Z</time>
   </trkpt>
   <trkpt lat="-8.047262" lon="-34.896518">
    <ele>15.8</ele>
    <time>2020-01-07T23:17:49.000Z</time>
   </trkpt>
   <trkpt lat="-8.047215" lon="-34.896452">
    <ele>16.3</ele>
    <time>2020-01-07T23:17:50.000Z</time>
   </trkpt>
   <trkpt lat="-8.047183" lon="-34.896413">
    <ele>16.6</ele>
    <time>2020-01-07T23:17:51.000Z</time>
   </trkpt>
   <trkpt lat="-8.047145" lon="-34.896366">
    <ele>17.1</ele>
    <time>2020-01-07T23:17:52.000Z</time>
   </trkpt>
   <trkpt lat="-8.047116" lon="-34.896331">
    <ele>17.3</ele>
    <time>2020-01-07T23:17:53.000Z</time>
   </trkpt>
   <trkpt lat="-8.047078" lon="-34.896293">
    <ele>17.6</ele>
    <time>2020-01-07T23:17:54.000Z</time>
   </trkpt>
   <trkpt lat="-8.04705" lon="-34.896264">
    <ele>17.8</ele>
    <time>2020-01-07T23:17:55.000Z</time>
   </trkpt>
   <trkpt lat="-8.047014" lon="-34.896239">
    <ele>18</ele>
    <time>2020-01-07T23:17:56.000Z</time>
   </trkpt>
   <trkpt lat="-8.04698" lon="-34.896203">
    <ele>18.3</ele>
    <time>2020-01-07T23:17:57.000Z</time>
   </trkpt>
   <trkpt lat="-8.046939" lon="-34.896157">
    <ele>18.6</ele>
    <time>2020-01-07T23:17:58.000Z</time>
   </trkpt>
   <trkpt lat="-8.046898" lon="-34.896109">
    <ele>18.9</ele>
    <time>2020-01-07T23:17:59.000Z</time>
   </trkpt>
   <trkpt lat="-8.04684" lon="-34.896053">
    <ele>19.3</ele>
    <time>2020-01-07T23:18:00.000Z</time>
   </trkpt>
   <trkpt lat="-8.04679" lon="-34.896009">
    <ele>19.6</ele>
    <time>2020-01-07T23:18:01.000Z</time>
   </trkpt>
   <trkpt lat="-8.046743" lon="-34.895977">
    <ele>19.9</ele>
    <time>2020-01-07T23:18:02.000Z</time>
   </trkpt>
   <trkpt lat="-8.046701" lon="-34.895948">
    <ele>20.1</ele>
    <time>2020-01-07T23:18:03.000Z</time>
   </trkpt>
   <trkpt lat="-8.046661" lon="-34.895919">
    <ele>20.4</ele>
    <time>2020-01-07T23:18:04.000Z</time>
   </trkpt>
   <trkpt lat="-8.046623" lon="-34.895898">
    <ele>20.6</ele>
    <time>2020-01-07T23:18:05.000Z</time>
   </trkpt>
   <trkpt lat="-8.046591" lon="-34.895875">
    <ele>20.7</ele>
    <time>2020-01-07T23:18:06.000Z</time>
   </trkpt>
   <trkpt lat="-8.046557" lon="-34.895845">
    <ele>21</ele>
    <time>2020-01-07T23:18:07.000Z</time>
   </trkpt>
   <trkpt lat="-8.046527" lon="-34.895822">
    <ele>21.2</ele>
    <time>2020-01-07T23:18:08.000Z</time>
   </trkpt>
   <trkpt lat="-8.046499" lon="-34.895799">
    <ele>21.4</ele>
    <time>2020-01-07T23:18:09.000Z</time>
   </trkpt>
   <trkpt lat="-8.046469" lon="-34.895785">
    <ele>21.5</ele>
    <time>2020-01-07T23:18:10.000Z</time>
   </trkpt>
   <trkpt lat="-8.046434" lon="-34.89578">
    <ele>21.6</ele>
    <time>2020-01-07T23:18:11.000Z</time>
   </trkpt>
   <trkpt lat="-8.046399" lon="-34.895767">
    <ele>21.8</ele>
    <time>2020-01-07T23:18:12.000Z</time>
   </trkpt>
   <trkpt lat="-8.046361" lon="-34.895743">
    <ele>22</ele>
    <time>2020-01-07T23:18:13.000Z</time>
   </trkpt>
   <trkpt lat="-8.046341" lon="-34.895732">
    <ele>22.1</ele>
    <time>2020-01-07T23:18:14.000Z</time>
   </trkpt>
   <trkpt lat="-8.04629" lon="-34.895687">
    <ele>22.3</ele>
    <time>2020-01-07T23:18:16.000Z</time>
   </trkpt>
   <trkpt lat="-8.046261" lon="-34.895661">
    <ele>22.4</ele>
    <time>2020-01-07T23:18:17.000Z</time>
   </trkpt>
   <trkpt lat="-8.046236" lon="-34.895646">
    <ele>22.5</ele>
    <time>2020-01-07T23:18:18.000Z</time>
   </trkpt>
   <trkpt lat="-8.046239" lon="-34.895604">
    <ele>22.6</ele>
    <time>2020-01-07T23:18:19.000Z</time>
   </trkpt>
   <trkpt lat="-8.046217" lon="-34.895586">
    <ele>22.7</ele>
    <time>2020-01-07T23:18:20.000Z</time>
   </trkpt>
   <trkpt lat="-8.04619" lon="-34.895573">
    <ele>22.7</ele>
    <time>2020-01-07T23:18:21.000Z</time>
   </trkpt>
   <trkpt lat="-8.046152" lon="-34.895553">
    <ele>22.8</ele>
    <time>2020-01-07T23:18:22.000Z</time>
   </trkpt>
   <trkpt lat="-8.046123" lon="-34.895531">
    <ele>22.9</ele>
    <time>2020-01-07T23:18:23.000Z</time>
   </trkpt>
   <trkpt lat="-8.046097" lon="-34.895508">
    <ele>23</ele>
    <time>2020-01-07T23:18:24.000Z</time>
   </trkpt>
   <trkpt lat="-8.046076" lon="-34.895492">
    <ele>23.1</ele>
    <time>2020-01-07T23:18:25.000Z</time>
   </trkpt>
   <trkpt lat="-8.046036" lon="-34.895464">
    <ele>23.2</ele>
    <time>2020-01-07T23:18:27.000Z</time>
   </trkpt>
   <trkpt lat="-8.046022" lon="-34.895453">
    <ele>23.3</ele>
    <time>2020-01-07T23:18:28.000Z</time>
   </trkpt>
   <trkpt lat="-8.045977" lon="-34.89543">
    <ele>23.5</ele>
    <time>2020-01-07T23:18:30.000Z</time>
   </trkpt>
   <trkpt lat="-8.04592" lon="-34.895435">
    <ele>23.7</ele>
    <time>2020-01-07T23:18:32.000Z</time>
   </trkpt>
   <trkpt lat="-8.045864" lon="-34.895416">
    <ele>24</ele>
    <time>2020-01-07T23:18:33.000Z</time>
   </trkpt>
   <trkpt lat="-8.045807" lon="-34.89539">
    <ele>24.1</ele>
    <time>2020-01-07T23:18:34.000Z</time>
   </trkpt>
   <trkpt lat="-8.045728" lon="-34.895345">
    <ele>23.2</ele>
    <time>2020-01-07T23:18:35.000Z</time>
   </trkpt>
   <trkpt lat="-8.045686" lon="-34.895319">
    <ele>22.8</ele>
    <time>2020-01-07T23:18:36.000Z</time>
   </trkpt>
   <trkpt lat="-8.045651" lon="-34.895302">
    <ele>22.4</ele>
    <time>2020-01-07T23:18:37.000Z</time>
   </trkpt>
   <trkpt lat="-8.045618" lon="-34.895283">
    <ele>22.1</ele>
    <time>2020-01-07T23:18:38.000Z</time>
   </trkpt>
   <trkpt lat="-8.045583" lon="-34.895255">
    <ele>21.8</ele>
    <time>2020-01-07T23:18:39.000Z</time>
   </trkpt>
   <trkpt lat="-8.045538" lon="-34.895227">
    <ele>21.4</ele>
    <time>2020-01-07T23:18:40.000Z</time>
   </trkpt>
   <trkpt lat="-8.045505" lon="-34.895212">
    <ele>21.2</ele>
    <time>2020-01-07T23:18:41.000Z</time>
   </trkpt>
   <trkpt lat="-8.045516" lon="-34.895184">
    <ele>21</ele>
    <time>2020-01-07T23:18:42.000Z</time>
   </trkpt>
   <trkpt lat="-8.045486" lon="-34.895159">
    <ele>20.8</ele>
    <time>2020-01-07T23:18:43.000Z</time>
   </trkpt>
   <trkpt lat="-8.04544" lon="-34.895131">
    <ele>20.6</ele>
    <time>2020-01-07T23:18:44.000Z</time>
   </trkpt>
   <trkpt lat="-8.045407" lon="-34.895087">
    <ele>20.3</ele>
    <time>2020-01-07T23:18:45.000Z</time>
   </trkpt>
   <trkpt lat="-8.045368" lon="-34.895036">
    <ele>19.9</ele>
    <time>2020-01-07T23:18:46.000Z</time>
   </trkpt>
   <trkpt lat="-8.04533" lon="-34.894991">
    <ele>19.5</ele>
    <time>2020-01-07T23:18:47.000Z</time>
   </trkpt>
   <trkpt lat="-8.045287" lon="-34.894944">
    <ele>19</ele>
    <time>2020-01-07T23:18:48.000Z</time>
   </trkpt>
   <trkpt lat="-8.045244" lon="-34.894905">
    <ele>18.7</ele>
    <time>2020-01-07T23:18:49.000Z</time>
   </trkpt>
   <trkpt lat="-8.045197" lon="-34.894871">
    <ele>18.3</ele>
    <time>2020-01-07T23:18:50.000Z</time>
   </trkpt>
   <trkpt lat="-8.045157" lon="-34.894815">
    <ele>18</ele>
    <time>2020-01-07T23:18:51.000Z</time>
   </trkpt>
   <trkpt lat="-8.045092" lon="-34.894778">
    <ele>17.6</ele>
    <time>2020-01-07T23:18:52.000Z</time>
   </trkpt>
   <trkpt lat="-8.045048" lon="-34.894725">
    <ele>17.3</ele>
    <time>2020-01-07T23:18:53.000Z</time>
   </trkpt>
   <trkpt lat="-8.045003" lon="-34.89467">
    <ele>17</ele>
    <time>2020-01-07T23:18:54.000Z</time>
   </trkpt>
   <trkpt lat="-8.044946" lon="-34.894612">
    <ele>16.6</ele>
    <time>2020-01-07T23:18:55.000Z</time>
   </trkpt>
   <trkpt lat="-8.044885" lon="-34.894578">
    <ele>16.2</ele>
    <time>2020-01-07T23:18:56.000Z</time>
   </trkpt>
   <trkpt lat="-8.044835" lon="-34.89455">
    <ele>15.9</ele>
    <time>2020-01-07T23:18:57.000Z</time>
   </trkpt>
   <trkpt lat="-8.044778" lon="-34.894531">
    <ele>15.6</ele>
    <time>2020-01-07T23:18:58.000Z</time>
   </trkpt>
   <trkpt lat="-8.044733" lon="-34.894502">
    <ele>15.3</ele>
    <time>2020-01-07T23:18:59.000Z</time>
   </trkpt>
   <trkpt lat="-8.044687" lon="-34.894472">
    <ele>15.1</ele>
    <time>2020-01-07T23:19:00.000Z</time>
   </trkpt>
   <trkpt lat="-8.044648" lon="-34.894436">
    <ele>14.8</ele>
    <time>2020-01-07T23:19:01.000Z</time>
   </trkpt>
   <trkpt lat="-8.044615" lon="-34.894408">
    <ele>14.6</ele>
    <time>2020-01-07T23:19:02.000Z</time>
   </trkpt>
   <trkpt lat="-8.044581" lon="-34.894377">
    <ele>14.4</ele>
    <time>2020-01-07T23:19:03.000Z</time>
   </trkpt>
   <trkpt lat="-8.044545" lon="-34.894351">
    <ele>14.2</ele>
    <time>2020-01-07T23:19:04.000Z</time>
   </trkpt>
   <trkpt lat="-8.044472" lon="-34.894312">
    <ele>13.9</ele>
    <time>2020-01-07T23:19:05.000Z</time>
   </trkpt>
   <trkpt lat="-8.044431" lon="-34.894313">
    <ele>13.8</ele>
    <time>2020-01-07T23:19:06.000Z</time>
   </trkpt>
   <trkpt lat="-8.044392" lon="-34.894291">
    <ele>13.6</ele>
    <time>2020-01-07T23:19:07.000Z</time>
   </trkpt>
   <trkpt lat="-8.04436" lon="-34.894269">
    <ele>13.6</ele>
    <time>2020-01-07T23:19:08.000Z</time>
   </trkpt>
   <trkpt lat="-8.044323" lon="-34.894229">
    <ele>13.7</ele>
    <time>2020-01-07T23:19:09.000Z</time>
   </trkpt>
   <trkpt lat="-8.044328" lon="-34.894173">
    <ele>13.8</ele>
    <time>2020-01-07T23:19:10.000Z</time>
   </trkpt>
   <trkpt lat="-8.044279" lon="-34.894115">
    <ele>14</ele>
    <time>2020-01-07T23:19:11.000Z</time>
   </trkpt>
   <trkpt lat="-8.044229" lon="-34.894067">
    <ele>14.2</ele>
    <time>2020-01-07T23:19:12.000Z</time>
   </trkpt>
   <trkpt lat="-8.04417" lon="-34.894032">
    <ele>14.4</ele>
    <time>2020-01-07T23:19:13.000Z</time>
   </trkpt>
   <trkpt lat="-8.044122" lon="-34.894005">
    <ele>14.4</ele>
    <time>2020-01-07T23:19:14.000Z</time>
   </trkpt>
   <trkpt lat="-8.044102" lon="-34.893969">
    <ele>14.5</ele>
    <time>2020-01-07T23:19:15.000Z</time>
   </trkpt>
   <trkpt lat="-8.044045" lon="-34.893936">
    <ele>14.5</ele>
    <time>2020-01-07T23:19:16.000Z</time>
   </trkpt>
   <trkpt lat="-8.044025" lon="-34.893911">
    <ele>14.6</ele>
    <time>2020-01-07T23:19:17.000Z</time>
   </trkpt>
   <trkpt lat="-8.043968" lon="-34.893873">
    <ele>14.6</ele>
    <time>2020-01-07T23:19:18.000Z</time>
   </trkpt>
   <trkpt lat="-8.043939" lon="-34.893838">
    <ele>14.6</ele>
    <time>2020-01-07T23:19:19.000Z</time>
   </trkpt>
   <trkpt lat="-8.043905" lon="-34.893805">
    <ele>14.6</ele>
    <time>2020-01-07T23:19:20.000Z</time>
   </trkpt>
   <trkpt lat="-8.04386" lon="-34.893764">
    <ele>14.6</ele>
    <time>2020-01-07T23:19:21.000Z</time>
   </trkpt>
   <trkpt lat="-8.043826" lon="-34.89373">
    <ele>14.7</ele>
    <time>2020-01-07T23:19:22.000Z</time>
   </trkpt>
   <trkpt lat="-8.043796" lon="-34.893709">
    <ele>14.7</ele>
    <time>2020-01-07T23:19:23.000Z</time>
   </trkpt>
   <trkpt lat="-8.043763" lon="-34.893682">
    <ele>14.7</ele>
    <time>2020-01-07T23:19:24.000Z</time>
   </trkpt>
   <trkpt lat="-8.043736" lon="-34.893658">
    <ele>14.8</ele>
    <time>2020-01-07T23:19:25.000Z</time>
   </trkpt>
   <trkpt lat="-8.043719" lon="-34.893625">
    <ele>14.9</ele>
    <time>2020-01-07T23:19:26.000Z</time>
   </trkpt>
   <trkpt lat="-8.043685" lon="-34.893595">
    <ele>15</ele>
    <time>2020-01-07T23:19:27.000Z</time>
   </trkpt>
   <trkpt lat="-8.043644" lon="-34.893551">
    <ele>15.1</ele>
    <time>2020-01-07T23:19:28.000Z</time>
   </trkpt>
   <trkpt lat="-8.043611" lon="-34.89351">
    <ele>15.2</ele>
    <time>2020-01-07T23:19:29.000Z</time>
   </trkpt>
   <trkpt lat="-8.043578" lon="-34.893494">
    <ele>15.3</ele>
    <time>2020-01-07T23:19:30.000Z</time>
   </trkpt>
   <trkpt lat="-8.043541" lon="-34.893487">
    <ele>15.4</ele>
    <time>2020-01-07T23:19:31.000Z</time>
   </trkpt>
   <trkpt lat="-8.043527" lon="-34.893477">
    <ele>15.5</ele>
    <time>2020-01-07T23:19:32.000Z</time>
   </trkpt>
   <trkpt lat="-8.043515" lon="-34.893452">
    <ele>15.5</ele>
    <time>2020-01-07T23:19:34.000Z</time>
   </trkpt>
   <trkpt lat="-8.043494" lon="-34.893425">
    <ele>15.5</ele>
    <time>2020-01-07T23:19:36.000Z</time>
   </trkpt>
   <trkpt lat="-8.043456" lon="-34.893398">
    <ele>15.6</ele>
    <time>2020-01-07T23:19:38.000Z</time>
   </trkpt>
   <trkpt lat="-8.043413" lon="-34.893361">
    <ele>15.7</ele>
    <time>2020-01-07T23:19:40.000Z</time>
   </trkpt>
   <trkpt lat="-8.043398" lon="-34.893348">
    <ele>15.7</ele>
    <time>2020-01-07T23:19:41.000Z</time>
   </trkpt>
   <trkpt lat="-8.043309" lon="-34.893347">
    <ele>15.7</ele>
    <time>2020-01-07T23:19:43.000Z</time>
   </trkpt>
   <trkpt lat="-8.043284" lon="-34.893346">
    <ele>15.7</ele>
    <time>2020-01-07T23:19:44.000Z</time>
   </trkpt>
   <trkpt lat="-8.043246" lon="-34.893334">
    <ele>15.7</ele>
    <time>2020-01-07T23:19:45.000Z</time>
   </trkpt>
   <trkpt lat="-8.043215" lon="-34.893308">
    <ele>15.8</ele>
    <time>2020-01-07T23:19:46.000Z</time>
   </trkpt>
   <trkpt lat="-8.04317" lon="-34.893285">
    <ele>15.8</ele>
    <time>2020-01-07T23:19:47.000Z</time>
   </trkpt>
   <trkpt lat="-8.043136" lon="-34.893257">
    <ele>15.8</ele>
    <time>2020-01-07T23:19:48.000Z</time>
   </trkpt>
   <trkpt lat="-8.043094" lon="-34.893224">
    <ele>15.9</ele>
    <time>2020-01-07T23:19:49.000Z</time>
   </trkpt>
   <trkpt lat="-8.043067" lon="-34.893186">
    <ele>15.9</ele>
    <time>2020-01-07T23:19:50.000Z</time>
   </trkpt>
   <trkpt lat="-8.043028" lon="-34.893151">
    <ele>16</ele>
    <time>2020-01-07T23:19:51.000Z</time>
   </trkpt>
   <trkpt lat="-8.042974" lon="-34.89312">
    <ele>16.2</ele>
    <time>2020-01-07T23:19:52.000Z</time>
   </trkpt>
   <trkpt lat="-8.042942" lon="-34.893091">
    <ele>16.3</ele>
    <time>2020-01-07T23:19:53.000Z</time>
   </trkpt>
   <trkpt lat="-8.042903" lon="-34.893065">
    <ele>16.4</ele>
    <time>2020-01-07T23:19:54.000Z</time>
   </trkpt>
   <trkpt lat="-8.042863" lon="-34.893034">
    <ele>16.5</ele>
    <time>2020-01-07T23:19:55.000Z</time>
   </trkpt>
   <trkpt lat="-8.042822" lon="-34.893004">
    <ele>16.6</ele>
    <time>2020-01-07T23:19:56.000Z</time>
   </trkpt>
   <trkpt lat="-8.042768" lon="-34.892967">
    <ele>16.7</ele>
    <time>2020-01-07T23:19:57.000Z</time>
   </trkpt>
   <trkpt lat="-8.042714" lon="-34.892934">
    <ele>16.8</ele>
    <time>2020-01-07T23:19:58.000Z</time>
   </trkpt>
   <trkpt lat="-8.042661" lon="-34.892898">
    <ele>16.8</ele>
    <time>2020-01-07T23:19:59.000Z</time>
   </trkpt>
   <trkpt lat="-8.042624" lon="-34.892871">
    <ele>16.8</ele>
    <time>2020-01-07T23:20:00.000Z</time>
   </trkpt>
   <trkpt lat="-8.042591" lon="-34.892842">
    <ele>16.8</ele>
    <time>2020-01-07T23:20:01.000Z</time>
   </trkpt>
   <trkpt lat="-8.042564" lon="-34.892811">
    <ele>16.9</ele>
    <time>2020-01-07T23:20:02.000Z</time>
   </trkpt>
   <trkpt lat="-8.042536" lon="-34.892778">
    <ele>16.9</ele>
    <time>2020-01-07T23:20:03.000Z</time>
   </trkpt>
   <trkpt lat="-8.042502" lon="-34.892748">
    <ele>16.9</ele>
    <time>2020-01-07T23:20:04.000Z</time>
   </trkpt>
   <trkpt lat="-8.042465" lon="-34.892715">
    <ele>16.9</ele>
    <time>2020-01-07T23:20:05.000Z</time>
   </trkpt>
   <trkpt lat="-8.042427" lon="-34.892701">
    <ele>16.9</ele>
    <time>2020-01-07T23:20:06.000Z</time>
   </trkpt>
   <trkpt lat="-8.042391" lon="-34.892685">
    <ele>16.9</ele>
    <time>2020-01-07T23:20:07.000Z</time>
   </trkpt>
   <trkpt lat="-8.042363" lon="-34.892678">
    <ele>16.9</ele>
    <time>2020-01-07T23:20:08.000Z</time>
   </trkpt>
   <trkpt lat="-8.042348" lon="-34.892674">
    <ele>16.9</ele>
    <time>2020-01-07T23:20:09.000Z</time>
   </trkpt>
   <trkpt lat="-8.042325" lon="-34.892676">
    <ele>16.9</ele>
    <time>2020-01-07T23:20:11.000Z</time>
   </trkpt>
   <trkpt lat="-8.04229" lon="-34.892667">
    <ele>16.9</ele>
    <time>2020-01-07T23:20:14.000Z</time>
   </trkpt>
   <trkpt lat="-8.042305" lon="-34.892649">
    <ele>16.9</ele>
    <time>2020-01-07T23:20:18.000Z</time>
   </trkpt>
   <trkpt lat="-8.04229" lon="-34.892611">
    <ele>16.9</ele>
    <time>2020-01-07T23:20:20.000Z</time>
   </trkpt>
   <trkpt lat="-8.042248" lon="-34.892566">
    <ele>17</ele>
    <time>2020-01-07T23:20:21.000Z</time>
   </trkpt>
   <trkpt lat="-8.042203" lon="-34.892523">
    <ele>16.8</ele>
    <time>2020-01-07T23:20:22.000Z</time>
   </trkpt>
   <trkpt lat="-8.042172" lon="-34.892459">
    <ele>16.7</ele>
    <time>2020-01-07T23:20:23.000Z</time>
   </trkpt>
   <trkpt lat="-8.042134" lon="-34.892421">
    <ele>16.6</ele>
    <time>2020-01-07T23:20:24.000Z</time>
   </trkpt>
   <trkpt lat="-8.042057" lon="-34.892382">
    <ele>16.4</ele>
    <time>2020-01-07T23:20:25.000Z</time>
   </trkpt>
   <trkpt lat="-8.042025" lon="-34.892357">
    <ele>16.3</ele>
    <time>2020-01-07T23:20:26.000Z</time>
   </trkpt>
   <trkpt lat="-8.041989" lon="-34.892331">
    <ele>16.2</ele>
    <time>2020-01-07T23:20:27.000Z</time>
   </trkpt>
   <trkpt lat="-8.041955" lon="-34.892295">
    <ele>16.1</ele>
    <time>2020-01-07T23:20:28.000Z</time>
   </trkpt>
   <trkpt lat="-8.041928" lon="-34.892272">
    <ele>16</ele>
    <time>2020-01-07T23:20:29.000Z</time>
   </trkpt>
   <trkpt lat="-8.041905" lon="-34.892233">
    <ele>16</ele>
    <time>2020-01-07T23:20:30.000Z</time>
   </trkpt>
   <trkpt lat="-8.041876" lon="-34.892223">
    <ele>15.9</ele>
    <time>2020-01-07T23:20:31.000Z</time>
   </trkpt>
   <trkpt lat="-8.041855" lon="-34.892187">
    <ele>15.9</ele>
    <time>2020-01-07T23:20:32.000Z</time>
   </trkpt>
   <trkpt lat="-8.041808" lon="-34.892137">
    <ele>15.9</ele>
    <time>2020-01-07T23:20:33.000Z</time>
   </trkpt>
   <trkpt lat="-8.041763" lon="-34.892077">
    <ele>15.8</ele>
    <time>2020-01-07T23:20:34.000Z</time>
   </trkpt>
   <trkpt lat="-8.041728" lon="-34.892021">
    <ele>15.7</ele>
    <time>2020-01-07T23:20:35.000Z</time>
   </trkpt>
   <trkpt lat="-8.04169" lon="-34.891968">
    <ele>15.5</ele>
    <time>2020-01-07T23:20:36.000Z</time>
   </trkpt>
   <trkpt lat="-8.041658" lon="-34.891932">
    <ele>15.4</ele>
    <time>2020-01-07T23:20:37.000Z</time>
   </trkpt>
   <trkpt lat="-8.041635" lon="-34.89191">
    <ele>15.3</ele>
    <time>2020-01-07T23:20:38.000Z</time>
   </trkpt>
   <trkpt lat="-8.041617" lon="-34.891891">
    <ele>15.2</ele>
    <time>2020-01-07T23:20:39.000Z</time>
   </trkpt>
   <trkpt lat="-8.041584" lon="-34.891848">
    <ele>15.1</ele>
    <time>2020-01-07T23:20:41.000Z</time>
   </trkpt>
   <trkpt lat="-8.04156" lon="-34.891825">
    <ele>15</ele>
    <time>2020-01-07T23:20:42.000Z</time>
   </trkpt>
   <trkpt lat="-8.041529" lon="-34.891795">
    <ele>14.9</ele>
    <time>2020-01-07T23:20:43.000Z</time>
   </trkpt>
   <trkpt lat="-8.041499" lon="-34.891759">
    <ele>14.8</ele>
    <time>2020-01-07T23:20:44.000Z</time>
   </trkpt>
   <trkpt lat="-8.041444" lon="-34.891698">
    <ele>14.7</ele>
    <time>2020-01-07T23:20:45.000Z</time>
   </trkpt>
   <trkpt lat="-8.041412" lon="-34.891657">
    <ele>14.6</ele>
    <time>2020-01-07T23:20:46.000Z</time>
   </trkpt>
   <trkpt lat="-8.041371" lon="-34.891596">
    <ele>14.3</ele>
    <time>2020-01-07T23:20:47.000Z</time>
   </trkpt>
   <trkpt lat="-8.041346" lon="-34.891571">
    <ele>14.2</ele>
    <time>2020-01-07T23:20:48.000Z</time>
   </trkpt>
   <trkpt lat="-8.041326" lon="-34.891531">
    <ele>14.1</ele>
    <time>2020-01-07T23:20:49.000Z</time>
   </trkpt>
   <trkpt lat="-8.041315" lon="-34.89151">
    <ele>14</ele>
    <time>2020-01-07T23:20:50.000Z</time>
   </trkpt>
   <trkpt lat="-8.041234" lon="-34.891561">
    <ele>13.5</ele>
    <time>2020-01-07T23:20:52.000Z</time>
   </trkpt>
   <trkpt lat="-8.041182" lon="-34.891585">
    <ele>13.4</ele>
    <time>2020-01-07T23:20:53.000Z</time>
   </trkpt>
   <trkpt lat="-8.041128" lon="-34.891621">
    <ele>13.2</ele>
    <time>2020-01-07T23:20:54.000Z</time>
   </trkpt>
   <trkpt lat="-8.041075" lon="-34.891647">
    <ele>13.1</ele>
    <time>2020-01-07T23:20:55.000Z</time>
   </trkpt>
   <trkpt lat="-8.040997" lon="-34.891654">
    <ele>13</ele>
    <time>2020-01-07T23:20:56.000Z</time>
   </trkpt>
   <trkpt lat="-8.040941" lon="-34.891682">
    <ele>13</ele>
    <time>2020-01-07T23:20:57.000Z</time>
   </trkpt>
   <trkpt lat="-8.0409" lon="-34.8917">
    <ele>13</ele>
    <time>2020-01-07T23:20:58.000Z</time>
   </trkpt>
   <trkpt lat="-8.040855" lon="-34.891731">
    <ele>13</ele>
    <time>2020-01-07T23:20:59.000Z</time>
   </trkpt>
   <trkpt lat="-8.040811" lon="-34.89176">
    <ele>13</ele>
    <time>2020-01-07T23:21:00.000Z</time>
   </trkpt>
   <trkpt lat="-8.040763" lon="-34.891788">
    <ele>13</ele>
    <time>2020-01-07T23:21:01.000Z</time>
   </trkpt>
   <trkpt lat="-8.040685" lon="-34.891804">
    <ele>13</ele>
    <time>2020-01-07T23:21:02.000Z</time>
   </trkpt>
   <trkpt lat="-8.040634" lon="-34.891811">
    <ele>13</ele>
    <time>2020-01-07T23:21:03.000Z</time>
   </trkpt>
   <trkpt lat="-8.040575" lon="-34.891794">
    <ele>13</ele>
    <time>2020-01-07T23:21:04.000Z</time>
   </trkpt>
   <trkpt lat="-8.040531" lon="-34.891753">
    <ele>12.9</ele>
    <time>2020-01-07T23:21:05.000Z</time>
   </trkpt>
   <trkpt lat="-8.040485" lon="-34.891696">
    <ele>12.7</ele>
    <time>2020-01-07T23:21:06.000Z</time>
   </trkpt>
   <trkpt lat="-8.040443" lon="-34.891641">
    <ele>12.4</ele>
    <time>2020-01-07T23:21:07.000Z</time>
   </trkpt>
   <trkpt lat="-8.040405" lon="-34.891585">
    <ele>12.2</ele>
    <time>2020-01-07T23:21:08.000Z</time>
   </trkpt>
   <trkpt lat="-8.040368" lon="-34.891542">
    <ele>12</ele>
    <time>2020-01-07T23:21:09.000Z</time>
   </trkpt>
   <trkpt lat="-8.040338" lon="-34.8915">
    <ele>11.9</ele>
    <time>2020-01-07T23:21:10.000Z</time>
   </trkpt>
   <trkpt lat="-8.040321" lon="-34.891446">
    <ele>11.7</ele>
    <time>2020-01-07T23:21:11.000Z</time>
   </trkpt>
   <trkpt lat="-8.040291" lon="-34.891391">
    <ele>11.5</ele>
    <time>2020-01-07T23:21:12.000Z</time>
   </trkpt>
   <trkpt lat="-8.040251" lon="-34.891336">
    <ele>11.2</ele>
    <time>2020-01-07T23:21:13.000Z</time>
   </trkpt>
   <trkpt lat="-8.040206" lon="-34.891292">
    <ele>11</ele>
    <time>2020-01-07T23:21:14.000Z</time>
   </trkpt>
   <trkpt lat="-8.040165" lon="-34.891248">
    <ele>10.8</ele>
    <time>2020-01-07T23:21:15.000Z</time>
   </trkpt>
   <trkpt lat="-8.040132" lon="-34.891192">
    <ele>10.7</ele>
    <time>2020-01-07T23:21:16.000Z</time>
   </trkpt>
   <trkpt lat="-8.040085" lon="-34.891144">
    <ele>10.5</ele>
    <time>2020-01-07T23:21:17.000Z</time>
   </trkpt>
   <trkpt lat="-8.040048" lon="-34.89109">
    <ele>10.9</ele>
    <time>2020-01-07T23:21:18.000Z</time>
   </trkpt>
   <trkpt lat="-8.04001" lon="-34.89104">
    <ele>11.3</ele>
    <time>2020-01-07T23:21:19.000Z</time>
   </trkpt>
   <trkpt lat="-8.039983" lon="-34.890981">
    <ele>11.8</ele>
    <time>2020-01-07T23:21:20.000Z</time>
   </trkpt>
   <trkpt lat="-8.03994" lon="-34.890936">
    <ele>12.2</ele>
    <time>2020-01-07T23:21:21.000Z</time>
   </trkpt>
   <trkpt lat="-8.039885" lon="-34.890877">
    <ele>12.5</ele>
    <time>2020-01-07T23:21:22.000Z</time>
   </trkpt>
   <trkpt lat="-8.039848" lon="-34.890827">
    <ele>12.8</ele>
    <time>2020-01-07T23:21:23.000Z</time>
   </trkpt>
   <trkpt lat="-8.039806" lon="-34.890777">
    <ele>13</ele>
    <time>2020-01-07T23:21:24.000Z</time>
   </trkpt>
   <trkpt lat="-8.039758" lon="-34.890731">
    <ele>12.8</ele>
    <time>2020-01-07T23:21:25.000Z</time>
   </trkpt>
   <trkpt lat="-8.039727" lon="-34.890688">
    <ele>12.6</ele>
    <time>2020-01-07T23:21:26.000Z</time>
   </trkpt>
   <trkpt lat="-8.039695" lon="-34.890638">
    <ele>12.3</ele>
    <time>2020-01-07T23:21:27.000Z</time>
   </trkpt>
   <trkpt lat="-8.039659" lon="-34.890595">
    <ele>12.1</ele>
    <time>2020-01-07T23:21:28.000Z</time>
   </trkpt>
   <trkpt lat="-8.039622" lon="-34.890553">
    <ele>11.9</ele>
    <time>2020-01-07T23:21:29.000Z</time>
   </trkpt>
   <trkpt lat="-8.039586" lon="-34.890514">
    <ele>11.7</ele>
    <time>2020-01-07T23:21:30.000Z</time>
   </trkpt>
   <trkpt lat="-8.039538" lon="-34.890478">
    <ele>11.5</ele>
    <time>2020-01-07T23:21:31.000Z</time>
   </trkpt>
   <trkpt lat="-8.039482" lon="-34.890446">
    <ele>11.2</ele>
    <time>2020-01-07T23:21:32.000Z</time>
   </trkpt>
   <trkpt lat="-8.03942" lon="-34.890406">
    <ele>11</ele>
    <time>2020-01-07T23:21:33.000Z</time>
   </trkpt>
   <trkpt lat="-8.039354" lon="-34.890371">
    <ele>10.9</ele>
    <time>2020-01-07T23:21:34.000Z</time>
   </trkpt>
   <trkpt lat="-8.039274" lon="-34.890348">
    <ele>10.8</ele>
    <time>2020-01-07T23:21:35.000Z</time>
   </trkpt>
   <trkpt lat="-8.039203" lon="-34.890334">
    <ele>10.6</ele>
    <time>2020-01-07T23:21:36.000Z</time>
   </trkpt>
   <trkpt lat="-8.039124" lon="-34.890322">
    <ele>10.3</ele>
    <time>2020-01-07T23:21:37.000Z</time>
   </trkpt>
   <trkpt lat="-8.039043" lon="-34.890317">
    <ele>9.7</ele>
    <time>2020-01-07T23:21:38.000Z</time>
   </trkpt>
   <trkpt lat="-8.038967" lon="-34.890311">
    <ele>8.9</ele>
    <time>2020-01-07T23:21:39.000Z</time>
   </trkpt>
   <trkpt lat="-8.038903" lon="-34.890297">
    <ele>8.7</ele>
    <time>2020-01-07T23:21:40.000Z</time>
   </trkpt>
   <trkpt lat="-8.038844" lon="-34.890268">
    <ele>8.7</ele>
    <time>2020-01-07T23:21:41.000Z</time>
   </trkpt>
   <trkpt lat="-8.038781" lon="-34.890238">
    <ele>8.8</ele>
    <time>2020-01-07T23:21:42.000Z</time>
   </trkpt>
   <trkpt lat="-8.038717" lon="-34.890207">
    <ele>8.8</ele>
    <time>2020-01-07T23:21:43.000Z</time>
   </trkpt>
   <trkpt lat="-8.038656" lon="-34.890174">
    <ele>9</ele>
    <time>2020-01-07T23:21:44.000Z</time>
   </trkpt>
   <trkpt lat="-8.038597" lon="-34.890149">
    <ele>9.6</ele>
    <time>2020-01-07T23:21:45.000Z</time>
   </trkpt>
   <trkpt lat="-8.03853" lon="-34.890118">
    <ele>10.5</ele>
    <time>2020-01-07T23:21:46.000Z</time>
   </trkpt>
   <trkpt lat="-8.038463" lon="-34.890093">
    <ele>11.3</ele>
    <time>2020-01-07T23:21:47.000Z</time>
   </trkpt>
   <trkpt lat="-8.038402" lon="-34.890066">
    <ele>11.6</ele>
    <time>2020-01-07T23:21:48.000Z</time>
   </trkpt>
   <trkpt lat="-8.03834" lon="-34.890037">
    <ele>11.7</ele>
    <time>2020-01-07T23:21:49.000Z</time>
   </trkpt>
   <trkpt lat="-8.038277" lon="-34.890007">
    <ele>11.7</ele>
    <time>2020-01-07T23:21:50.000Z</time>
   </trkpt>
   <trkpt lat="-8.03821" lon="-34.889983">
    <ele>11.9</ele>
    <time>2020-01-07T23:21:51.000Z</time>
   </trkpt>
   <trkpt lat="-8.038145" lon="-34.889966">
    <ele>12.3</ele>
    <time>2020-01-07T23:21:52.000Z</time>
   </trkpt>
   <trkpt lat="-8.038082" lon="-34.889947">
    <ele>12.6</ele>
    <time>2020-01-07T23:21:53.000Z</time>
   </trkpt>
   <trkpt lat="-8.038016" lon="-34.889923">
    <ele>12.6</ele>
    <time>2020-01-07T23:21:54.000Z</time>
   </trkpt>
   <trkpt lat="-8.037953" lon="-34.889899">
    <ele>12.5</ele>
    <time>2020-01-07T23:21:55.000Z</time>
   </trkpt>
   <trkpt lat="-8.037902" lon="-34.889875">
    <ele>12.3</ele>
    <time>2020-01-07T23:21:56.000Z</time>
   </trkpt>
   <trkpt lat="-8.037849" lon="-34.889853">
    <ele>12.2</ele>
    <time>2020-01-07T23:21:57.000Z</time>
   </trkpt>
   <trkpt lat="-8.037797" lon="-34.889846">
    <ele>12.1</ele>
    <time>2020-01-07T23:21:58.000Z</time>
   </trkpt>
   <trkpt lat="-8.037752" lon="-34.889846">
    <ele>12</ele>
    <time>2020-01-07T23:21:59.000Z</time>
   </trkpt>
   <trkpt lat="-8.037721" lon="-34.889881">
    <ele>11.9</ele>
    <time>2020-01-07T23:22:00.000Z</time>
   </trkpt>
   <trkpt lat="-8.037696" lon="-34.889939">
    <ele>11.7</ele>
    <time>2020-01-07T23:22:01.000Z</time>
   </trkpt>
   <trkpt lat="-8.037667" lon="-34.889994">
    <ele>11.5</ele>
    <time>2020-01-07T23:22:02.000Z</time>
   </trkpt>
   <trkpt lat="-8.037648" lon="-34.890042">
    <ele>11.4</ele>
    <time>2020-01-07T23:22:03.000Z</time>
   </trkpt>
   <trkpt lat="-8.037625" lon="-34.890102">
    <ele>11.2</ele>
    <time>2020-01-07T23:22:04.000Z</time>
   </trkpt>
   <trkpt lat="-8.037611" lon="-34.890166">
    <ele>11</ele>
    <time>2020-01-07T23:22:05.000Z</time>
   </trkpt>
   <trkpt lat="-8.037578" lon="-34.890224">
    <ele>11.2</ele>
    <time>2020-01-07T23:22:06.000Z</time>
   </trkpt>
   <trkpt lat="-8.037542" lon="-34.890263">
    <ele>11.3</ele>
    <time>2020-01-07T23:22:07.000Z</time>
   </trkpt>
   <trkpt lat="-8.037513" lon="-34.890315">
    <ele>11.5</ele>
    <time>2020-01-07T23:22:08.000Z</time>
   </trkpt>
   <trkpt lat="-8.037487" lon="-34.890357">
    <ele>11.6</ele>
    <time>2020-01-07T23:22:09.000Z</time>
   </trkpt>
   <trkpt lat="-8.037462" lon="-34.890404">
    <ele>11.8</ele>
    <time>2020-01-07T23:22:10.000Z</time>
   </trkpt>
   <trkpt lat="-8.037433" lon="-34.890471">
    <ele>11.9</ele>
    <time>2020-01-07T23:22:11.000Z</time>
   </trkpt>
   <trkpt lat="-8.03741" lon="-34.890533">
    <ele>12.2</ele>
    <time>2020-01-07T23:22:12.000Z</time>
   </trkpt>
   <trkpt lat="-8.037385" lon="-34.890578">
    <ele>11.9</ele>
    <time>2020-01-07T23:22:13.000Z</time>
   </trkpt>
   <trkpt lat="-8.037369" lon="-34.89061">
    <ele>11.6</ele>
    <time>2020-01-07T23:22:14.000Z</time>
   </trkpt>
   <trkpt lat="-8.037348" lon="-34.890636">
    <ele>11.4</ele>
    <time>2020-01-07T23:22:15.000Z</time>
   </trkpt>
   <trkpt lat="-8.037317" lon="-34.890675">
    <ele>11.1</ele>
    <time>2020-01-07T23:22:16.000Z</time>
   </trkpt>
   <trkpt lat="-8.037285" lon="-34.890721">
    <ele>10.8</ele>
    <time>2020-01-07T23:22:17.000Z</time>
   </trkpt>
   <trkpt lat="-8.037257" lon="-34.89077">
    <ele>10.5</ele>
    <time>2020-01-07T23:22:18.000Z</time>
   </trkpt>
   <trkpt lat="-8.037232" lon="-34.890832">
    <ele>9.8</ele>
    <time>2020-01-07T23:22:19.000Z</time>
   </trkpt>
   <trkpt lat="-8.037211" lon="-34.89088">
    <ele>9.6</ele>
    <time>2020-01-07T23:22:20.000Z</time>
   </trkpt>
   <trkpt lat="-8.037206" lon="-34.890906">
    <ele>8.3</ele>
    <time>2020-01-07T23:22:21.000Z</time>
   </trkpt>
   <trkpt lat="-8.037162" lon="-34.890972">
    <ele>7.9</ele>
    <time>2020-01-07T23:22:23.000Z</time>
   </trkpt>
   <trkpt lat="-8.037127" lon="-34.89101">
    <ele>7.1</ele>
    <time>2020-01-07T23:22:24.000Z</time>
   </trkpt>
   <trkpt lat="-8.037109" lon="-34.891029">
    <ele>7.1</ele>
    <time>2020-01-07T23:22:25.000Z</time>
   </trkpt>
   <trkpt lat="-8.037079" lon="-34.89106">
    <ele>7</ele>
    <time>2020-01-07T23:22:27.000Z</time>
   </trkpt>
   <trkpt lat="-8.037075" lon="-34.891101">
    <ele>7</ele>
    <time>2020-01-07T23:22:29.000Z</time>
   </trkpt>
   <trkpt lat="-8.037098" lon="-34.891128">
    <ele>7.1</ele>
    <time>2020-01-07T23:22:31.000Z</time>
   </trkpt>
   <trkpt lat="-8.037161" lon="-34.89116">
    <ele>7.8</ele>
    <time>2020-01-07T23:22:33.000Z</time>
   </trkpt>
   <trkpt lat="-8.037191" lon="-34.891176">
    <ele>8.2</ele>
    <time>2020-01-07T23:22:34.000Z</time>
   </trkpt>
   <trkpt lat="-8.037225" lon="-34.891191">
    <ele>8.6</ele>
    <time>2020-01-07T23:22:35.000Z</time>
   </trkpt>
   <trkpt lat="-8.037264" lon="-34.891203">
    <ele>8.9</ele>
    <time>2020-01-07T23:22:36.000Z</time>
   </trkpt>
   <trkpt lat="-8.037294" lon="-34.891217">
    <ele>9.2</ele>
    <time>2020-01-07T23:22:37.000Z</time>
   </trkpt>
   <trkpt lat="-8.037322" lon="-34.89123">
    <ele>9.4</ele>
    <time>2020-01-07T23:22:38.000Z</time>
   </trkpt>
   <trkpt lat="-8.037358" lon="-34.891251">
    <ele>9.7</ele>
    <time>2020-01-07T23:22:39.000Z</time>
   </trkpt>
   <trkpt lat="-8.037395" lon="-34.891284">
    <ele>10.1</ele>
    <time>2020-01-07T23:22:40.000Z</time>
   </trkpt>
   <trkpt lat="-8.037434" lon="-34.891313">
    <ele>10.4</ele>
    <time>2020-01-07T23:22:41.000Z</time>
   </trkpt>
   <trkpt lat="-8.037471" lon="-34.891343">
    <ele>10.6</ele>
    <time>2020-01-07T23:22:42.000Z</time>
   </trkpt>
   <trkpt lat="-8.037513" lon="-34.891371">
    <ele>10.9</ele>
    <time>2020-01-07T23:22:43.000Z</time>
   </trkpt>
   <trkpt lat="-8.03755" lon="-34.891392">
    <ele>11.1</ele>
    <time>2020-01-07T23:22:44.000Z</time>
   </trkpt>
   <trkpt lat="-8.037585" lon="-34.89142">
    <ele>11.3</ele>
    <time>2020-01-07T23:22:45.000Z</time>
   </trkpt>
   <trkpt lat="-8.037617" lon="-34.891442">
    <ele>11.4</ele>
    <time>2020-01-07T23:22:46.000Z</time>
   </trkpt>
   <trkpt lat="-8.03765" lon="-34.891463">
    <ele>11.5</ele>
    <time>2020-01-07T23:22:47.000Z</time>
   </trkpt>
   <trkpt lat="-8.037676" lon="-34.891481">
    <ele>11.6</ele>
    <time>2020-01-07T23:22:48.000Z</time>
   </trkpt>
   <trkpt lat="-8.0377" lon="-34.8915">
    <ele>11.7</ele>
    <time>2020-01-07T23:22:49.000Z</time>
   </trkpt>
   <trkpt lat="-8.037723" lon="-34.891507">
    <ele>11.8</ele>
    <time>2020-01-07T23:22:50.000Z</time>
   </trkpt>
   <trkpt lat="-8.03777" lon="-34.891525">
    <ele>12</ele>
    <time>2020-01-07T23:22:52.000Z</time>
   </trkpt>
   <trkpt lat="-8.037801" lon="-34.891542">
    <ele>12.1</ele>
    <time>2020-01-07T23:22:54.000Z</time>
   </trkpt>
   <trkpt lat="-8.037789" lon="-34.891546">
    <ele>12.1</ele>
    <time>2020-01-07T23:22:56.000Z</time>
   </trkpt>
   <trkpt lat="-8.03779" lon="-34.891583">
    <ele>11.8</ele>
    <time>2020-01-07T23:23:00.000Z</time>
   </trkpt>
   <trkpt lat="-8.037744" lon="-34.891631">
    <ele>11.5</ele>
    <time>2020-01-07T23:23:02.000Z</time>
   </trkpt>
   <trkpt lat="-8.037707" lon="-34.891661">
    <ele>11.2</ele>
    <time>2020-01-07T23:23:03.000Z</time>
   </trkpt>
   <trkpt lat="-8.037671" lon="-34.891695">
    <ele>10.9</ele>
    <time>2020-01-07T23:23:04.000Z</time>
   </trkpt>
   <trkpt lat="-8.037638" lon="-34.891728">
    <ele>10.7</ele>
    <time>2020-01-07T23:23:05.000Z</time>
   </trkpt>
   <trkpt lat="-8.037609" lon="-34.891759">
    <ele>10.6</ele>
    <time>2020-01-07T23:23:06.000Z</time>
   </trkpt>
   <trkpt lat="-8.037581" lon="-34.891786">
    <ele>10.4</ele>
    <time>2020-01-07T23:23:07.000Z</time>
   </trkpt>
   <trkpt lat="-8.037557" lon="-34.891802">
    <ele>10.3</ele>
    <time>2020-01-07T23:23:08.000Z</time>
   </trkpt>
   <trkpt lat="-8.037548" lon="-34.891801">
    <ele>10.3</ele>
    <time>2020-01-07T23:23:09.000Z</time>
   </trkpt>
   <trkpt lat="-8.037491" lon="-34.89186">
    <ele>10</ele>
    <time>2020-01-07T23:23:12.000Z</time>
   </trkpt>
   <trkpt lat="-8.037456" lon="-34.891909">
    <ele>9.6</ele>
    <time>2020-01-07T23:23:13.000Z</time>
   </trkpt>
   <trkpt lat="-8.03742" lon="-34.891953">
    <ele>9.3</ele>
    <time>2020-01-07T23:23:14.000Z</time>
   </trkpt>
   <trkpt lat="-8.037397" lon="-34.892004">
    <ele>8.9</ele>
    <time>2020-01-07T23:23:15.000Z</time>
   </trkpt>
   <trkpt lat="-8.037375" lon="-34.892066">
    <ele>8.5</ele>
    <time>2020-01-07T23:23:16.000Z</time>
   </trkpt>
   <trkpt lat="-8.037389" lon="-34.892156">
    <ele>8.6</ele>
    <time>2020-01-07T23:23:17.000Z</time>
   </trkpt>
   <trkpt lat="-8.037395" lon="-34.892217">
    <ele>8.7</ele>
    <time>2020-01-07T23:23:18.000Z</time>
   </trkpt>
   <trkpt lat="-8.037398" lon="-34.892273">
    <ele>8.8</ele>
    <time>2020-01-07T23:23:19.000Z</time>
   </trkpt>
   <trkpt lat="-8.037398" lon="-34.892338">
    <ele>9</ele>
    <time>2020-01-07T23:23:20.000Z</time>
   </trkpt>
   <trkpt lat="-8.03741" lon="-34.892389">
    <ele>9.1</ele>
    <time>2020-01-07T23:23:21.000Z</time>
   </trkpt>
   <trkpt lat="-8.037413" lon="-34.89243">
    <ele>9.1</ele>
    <time>2020-01-07T23:23:22.000Z</time>
   </trkpt>
   <trkpt lat="-8.037409" lon="-34.892481">
    <ele>9.2</ele>
    <time>2020-01-07T23:23:23.000Z</time>
   </trkpt>
   <trkpt lat="-8.037411" lon="-34.892531">
    <ele>9.3</ele>
    <time>2020-01-07T23:23:24.000Z</time>
   </trkpt>
   <trkpt lat="-8.037418" lon="-34.892582">
    <ele>9.4</ele>
    <time>2020-01-07T23:23:25.000Z</time>
   </trkpt>
   <trkpt lat="-8.037417" lon="-34.892637">
    <ele>9.5</ele>
    <time>2020-01-07T23:23:26.000Z</time>
   </trkpt>
   <trkpt lat="-8.037407" lon="-34.892685">
    <ele>9.6</ele>
    <time>2020-01-07T23:23:27.000Z</time>
   </trkpt>
   <trkpt lat="-8.037395" lon="-34.892721">
    <ele>9.7</ele>
    <time>2020-01-07T23:23:28.000Z</time>
   </trkpt>
   <trkpt lat="-8.037384" lon="-34.892768">
    <ele>9.8</ele>
    <time>2020-01-07T23:23:29.000Z</time>
   </trkpt>
   <trkpt lat="-8.037376" lon="-34.892791">
    <ele>9.8</ele>
    <time>2020-01-07T23:23:30.000Z</time>
   </trkpt>
   <trkpt lat="-8.037319" lon="-34.89286">
    <ele>9.8</ele>
    <time>2020-01-07T23:23:32.000Z</time>
   </trkpt>
   <trkpt lat="-8.037283" lon="-34.892864">
    <ele>9.7</ele>
    <time>2020-01-07T23:23:33.000Z</time>
   </trkpt>
   <trkpt lat="-8.037251" lon="-34.892845">
    <ele>9.6</ele>
    <time>2020-01-07T23:23:34.000Z</time>
   </trkpt>
   <trkpt lat="-8.037214" lon="-34.892825">
    <ele>9.6</ele>
    <time>2020-01-07T23:23:35.000Z</time>
   </trkpt>
   <trkpt lat="-8.037174" lon="-34.892807">
    <ele>9.5</ele>
    <time>2020-01-07T23:23:36.000Z</time>
   </trkpt>
   <trkpt lat="-8.037145" lon="-34.892795">
    <ele>9.4</ele>
    <time>2020-01-07T23:23:37.000Z</time>
   </trkpt>
   <trkpt lat="-8.037113" lon="-34.892778">
    <ele>9.3</ele>
    <time>2020-01-07T23:23:38.000Z</time>
   </trkpt>
   <trkpt lat="-8.03708" lon="-34.892759">
    <ele>9.3</ele>
    <time>2020-01-07T23:23:39.000Z</time>
   </trkpt>
   <trkpt lat="-8.03705" lon="-34.892742">
    <ele>9.2</ele>
    <time>2020-01-07T23:23:40.000Z</time>
   </trkpt>
   <trkpt lat="-8.037017" lon="-34.892728">
    <ele>9.2</ele>
    <time>2020-01-07T23:23:41.000Z</time>
   </trkpt>
   <trkpt lat="-8.036978" lon="-34.892719">
    <ele>9.1</ele>
    <time>2020-01-07T23:23:42.000Z</time>
   </trkpt>
   <trkpt lat="-8.036943" lon="-34.892713">
    <ele>9</ele>
    <time>2020-01-07T23:23:43.000Z</time>
   </trkpt>
   <trkpt lat="-8.036902" lon="-34.892712">
    <ele>8.9</ele>
    <time>2020-01-07T23:23:44.000Z</time>
   </trkpt>
   <trkpt lat="-8.036882" lon="-34.892731">
    <ele>8.9</ele>
    <time>2020-01-07T23:23:45.000Z</time>
   </trkpt>
   <trkpt lat="-8.036881" lon="-34.892778">
    <ele>8.8</ele>
    <time>2020-01-07T23:23:47.000Z</time>
   </trkpt>
   <trkpt lat="-8.036877" lon="-34.892807">
    <ele>8.7</ele>
    <time>2020-01-07T23:23:49.000Z</time>
   </trkpt>
   <trkpt lat="-8.036851" lon="-34.892847">
    <ele>8.7</ele>
    <time>2020-01-07T23:23:51.000Z</time>
   </trkpt>
   <trkpt lat="-8.036832" lon="-34.892873">
    <ele>8.6</ele>
    <time>2020-01-07T23:23:52.000Z</time>
   </trkpt>
   <trkpt lat="-8.036805" lon="-34.892922">
    <ele>8.5</ele>
    <time>2020-01-07T23:23:56.000Z</time>
   </trkpt>
   <trkpt lat="-8.036854" lon="-34.892803">
    <ele>8.3</ele>
    <time>2020-01-07T23:25:00.000Z</time>
   </trkpt>
   <trkpt lat="-8.036918" lon="-34.892841">
    <ele>8.2</ele>
    <time>2020-01-07T23:25:04.000Z</time>
   </trkpt>
   <trkpt lat="-8.036954" lon="-34.892833">
    <ele>8.1</ele>
    <time>2020-01-07T23:25:06.000Z</time>
   </trkpt>
  </trkseg>
 </trk>
</gpx>
