<?xml version="1.0" encoding="UTF-8"?>
<gpx creator="StravaGPX" version="1.1" xmlns="http://www.topografix.com/GPX/1/1">
 <metadata>
  <time>2019-09-09T12:51:16Z</time>
 </metadata>
 <trk>
  <name>Morning Ride</name>
  <type>1</type>
  <trkseg>
   <trkpt lat="-8.03697" lon="-34.892583">
    <ele>10</ele>
    <time>2019-09-09T12:51:16.000Z</time>
   </trkpt>
   <trkpt lat="-8.036794" lon="-34.892806">
    <ele>10</ele>
    <time>2019-09-09T12:53:04.000Z</time>
   </trkpt>
   <trkpt lat="-8.036838" lon="-34.892781">
    <ele>10</ele>
    <time>2019-09-09T12:53:09.000Z</time>
   </trkpt>
   <trkpt lat="-8.036869" lon="-34.89279">
    <ele>10</ele>
    <time>2019-09-09T12:53:11.000Z</time>
   </trkpt>
   <trkpt lat="-8.036906" lon="-34.892798">
    <ele>10</ele>
    <time>2019-09-09T12:53:12.000Z</time>
   </trkpt>
   <trkpt lat="-8.036947" lon="-34.8928">
    <ele>10</ele>
    <time>2019-09-09T12:53:14.000Z</time>
   </trkpt>
   <trkpt lat="-8.036975" lon="-34.89281">
    <ele>10</ele>
    <time>2019-09-09T12:53:15.000Z</time>
   </trkpt>
   <trkpt lat="-8.037008" lon="-34.892823">
    <ele>10</ele>
    <time>2019-09-09T12:53:16.000Z</time>
   </trkpt>
   <trkpt lat="-8.037049" lon="-34.892827">
    <ele>10</ele>
    <time>2019-09-09T12:53:17.000Z</time>
   </trkpt>
   <trkpt lat="-8.037088" lon="-34.89284">
    <ele>10</ele>
    <time>2019-09-09T12:53:18.000Z</time>
   </trkpt>
   <trkpt lat="-8.037138" lon="-34.892856">
    <ele>10</ele>
    <time>2019-09-09T12:53:19.000Z</time>
   </trkpt>
   <trkpt lat="-8.037171" lon="-34.892867">
    <ele>10</ele>
    <time>2019-09-09T12:53:20.000Z</time>
   </trkpt>
   <trkpt lat="-8.037208" lon="-34.892881">
    <ele>10</ele>
    <time>2019-09-09T12:53:21.000Z</time>
   </trkpt>
   <trkpt lat="-8.037235" lon="-34.892892">
    <ele>10</ele>
    <time>2019-09-09T12:53:22.000Z</time>
   </trkpt>
   <trkpt lat="-8.037272" lon="-34.892903">
    <ele>10</ele>
    <time>2019-09-09T12:53:23.000Z</time>
   </trkpt>
   <trkpt lat="-8.037305" lon="-34.892909">
    <ele>10</ele>
    <time>2019-09-09T12:53:24.000Z</time>
   </trkpt>
   <trkpt lat="-8.037335" lon="-34.892927">
    <ele>10</ele>
    <time>2019-09-09T12:53:25.000Z</time>
   </trkpt>
   <trkpt lat="-8.037346" lon="-34.892978">
    <ele>10</ele>
    <time>2019-09-09T12:53:27.000Z</time>
   </trkpt>
   <trkpt lat="-8.037329" lon="-34.893022">
    <ele>10</ele>
    <time>2019-09-09T12:53:29.000Z</time>
   </trkpt>
   <trkpt lat="-8.037308" lon="-34.89307">
    <ele>10</ele>
    <time>2019-09-09T12:53:31.000Z</time>
   </trkpt>
   <trkpt lat="-8.037292" lon="-34.893123">
    <ele>10</ele>
    <time>2019-09-09T12:53:33.000Z</time>
   </trkpt>
   <trkpt lat="-8.037274" lon="-34.893164">
    <ele>10</ele>
    <time>2019-09-09T12:53:35.000Z</time>
   </trkpt>
   <trkpt lat="-8.037263" lon="-34.89319">
    <ele>10</ele>
    <time>2019-09-09T12:53:36.000Z</time>
   </trkpt>
   <trkpt lat="-8.037248" lon="-34.893215">
    <ele>10</ele>
    <time>2019-09-09T12:53:37.000Z</time>
   </trkpt>
   <trkpt lat="-8.037225" lon="-34.893248">
    <ele>10</ele>
    <time>2019-09-09T12:53:38.000Z</time>
   </trkpt>
   <trkpt lat="-8.037211" lon="-34.893281">
    <ele>9.9</ele>
    <time>2019-09-09T12:53:39.000Z</time>
   </trkpt>
   <trkpt lat="-8.037198" lon="-34.893307">
    <ele>9.9</ele>
    <time>2019-09-09T12:53:40.000Z</time>
   </trkpt>
   <trkpt lat="-8.037188" lon="-34.893332">
    <ele>9.8</ele>
    <time>2019-09-09T12:53:41.000Z</time>
   </trkpt>
   <trkpt lat="-8.03718" lon="-34.89336">
    <ele>9.7</ele>
    <time>2019-09-09T12:53:42.000Z</time>
   </trkpt>
   <trkpt lat="-8.037164" lon="-34.893384">
    <ele>9.5</ele>
    <time>2019-09-09T12:53:43.000Z</time>
   </trkpt>
   <trkpt lat="-8.037151" lon="-34.893414">
    <ele>9.4</ele>
    <time>2019-09-09T12:53:44.000Z</time>
   </trkpt>
   <trkpt lat="-8.03714" lon="-34.893444">
    <ele>9.1</ele>
    <time>2019-09-09T12:53:45.000Z</time>
   </trkpt>
   <trkpt lat="-8.037128" lon="-34.89348">
    <ele>8.8</ele>
    <time>2019-09-09T12:53:46.000Z</time>
   </trkpt>
   <trkpt lat="-8.037114" lon="-34.893528">
    <ele>8.5</ele>
    <time>2019-09-09T12:53:47.000Z</time>
   </trkpt>
   <trkpt lat="-8.037106" lon="-34.893571">
    <ele>8.4</ele>
    <time>2019-09-09T12:53:48.000Z</time>
   </trkpt>
   <trkpt lat="-8.0371" lon="-34.893616">
    <ele>8.3</ele>
    <time>2019-09-09T12:53:49.000Z</time>
   </trkpt>
   <trkpt lat="-8.03708" lon="-34.893666">
    <ele>8.1</ele>
    <time>2019-09-09T12:53:50.000Z</time>
   </trkpt>
   <trkpt lat="-8.037063" lon="-34.893709">
    <ele>8.4</ele>
    <time>2019-09-09T12:53:51.000Z</time>
   </trkpt>
   <trkpt lat="-8.037049" lon="-34.893751">
    <ele>8.7</ele>
    <time>2019-09-09T12:53:52.000Z</time>
   </trkpt>
   <trkpt lat="-8.037035" lon="-34.893793">
    <ele>9</ele>
    <time>2019-09-09T12:53:53.000Z</time>
   </trkpt>
   <trkpt lat="-8.037026" lon="-34.893824">
    <ele>9.3</ele>
    <time>2019-09-09T12:53:54.000Z</time>
   </trkpt>
   <trkpt lat="-8.03699" lon="-34.893891">
    <ele>9.5</ele>
    <time>2019-09-09T12:53:56.000Z</time>
   </trkpt>
   <trkpt lat="-8.036973" lon="-34.893929">
    <ele>9.5</ele>
    <time>2019-09-09T12:53:57.000Z</time>
   </trkpt>
   <trkpt lat="-8.036974" lon="-34.893979">
    <ele>9.7</ele>
    <time>2019-09-09T12:53:58.000Z</time>
   </trkpt>
   <trkpt lat="-8.036971" lon="-34.894039">
    <ele>9.8</ele>
    <time>2019-09-09T12:53:59.000Z</time>
   </trkpt>
   <trkpt lat="-8.036951" lon="-34.894086">
    <ele>9.8</ele>
    <time>2019-09-09T12:54:00.000Z</time>
   </trkpt>
   <trkpt lat="-8.036931" lon="-34.89413">
    <ele>9.7</ele>
    <time>2019-09-09T12:54:01.000Z</time>
   </trkpt>
   <trkpt lat="-8.036919" lon="-34.894171">
    <ele>9.7</ele>
    <time>2019-09-09T12:54:02.000Z</time>
   </trkpt>
   <trkpt lat="-8.036918" lon="-34.89422">
    <ele>8.8</ele>
    <time>2019-09-09T12:54:04.000Z</time>
   </trkpt>
   <trkpt lat="-8.036927" lon="-34.89426">
    <ele>8.7</ele>
    <time>2019-09-09T12:54:06.000Z</time>
   </trkpt>
   <trkpt lat="-8.036933" lon="-34.894297">
    <ele>8.6</ele>
    <time>2019-09-09T12:54:08.000Z</time>
   </trkpt>
   <trkpt lat="-8.036917" lon="-34.894265">
    <ele>8.5</ele>
    <time>2019-09-09T12:54:15.000Z</time>
   </trkpt>
   <trkpt lat="-8.036938" lon="-34.894226">
    <ele>8.5</ele>
    <time>2019-09-09T12:54:35.000Z</time>
   </trkpt>
   <trkpt lat="-8.036966" lon="-34.89423">
    <ele>8.4</ele>
    <time>2019-09-09T12:54:37.000Z</time>
   </trkpt>
   <trkpt lat="-8.036999" lon="-34.894251">
    <ele>8.2</ele>
    <time>2019-09-09T12:54:39.000Z</time>
   </trkpt>
   <trkpt lat="-8.03703" lon="-34.894256">
    <ele>8</ele>
    <time>2019-09-09T12:54:40.000Z</time>
   </trkpt>
   <trkpt lat="-8.037071" lon="-34.894249">
    <ele>7.9</ele>
    <time>2019-09-09T12:54:41.000Z</time>
   </trkpt>
   <trkpt lat="-8.037109" lon="-34.894236">
    <ele>7.4</ele>
    <time>2019-09-09T12:54:42.000Z</time>
   </trkpt>
   <trkpt lat="-8.037142" lon="-34.894221">
    <ele>7.3</ele>
    <time>2019-09-09T12:54:43.000Z</time>
   </trkpt>
   <trkpt lat="-8.037172" lon="-34.894204">
    <ele>7.2</ele>
    <time>2019-09-09T12:54:44.000Z</time>
   </trkpt>
   <trkpt lat="-8.037202" lon="-34.894183">
    <ele>7.1</ele>
    <time>2019-09-09T12:54:45.000Z</time>
   </trkpt>
   <trkpt lat="-8.037225" lon="-34.894159">
    <ele>7.1</ele>
    <time>2019-09-09T12:54:46.000Z</time>
   </trkpt>
   <trkpt lat="-8.037249" lon="-34.894132">
    <ele>7</ele>
    <time>2019-09-09T12:54:47.000Z</time>
   </trkpt>
   <trkpt lat="-8.037284" lon="-34.894102">
    <ele>6.9</ele>
    <time>2019-09-09T12:54:48.000Z</time>
   </trkpt>
   <trkpt lat="-8.037309" lon="-34.894072">
    <ele>6.8</ele>
    <time>2019-09-09T12:54:49.000Z</time>
   </trkpt>
   <trkpt lat="-8.037329" lon="-34.894033">
    <ele>6.7</ele>
    <time>2019-09-09T12:54:50.000Z</time>
   </trkpt>
   <trkpt lat="-8.037367" lon="-34.894011">
    <ele>6.5</ele>
    <time>2019-09-09T12:54:51.000Z</time>
   </trkpt>
   <trkpt lat="-8.037404" lon="-34.893993">
    <ele>6.4</ele>
    <time>2019-09-09T12:54:52.000Z</time>
   </trkpt>
   <trkpt lat="-8.037432" lon="-34.893982">
    <ele>6.3</ele>
    <time>2019-09-09T12:54:53.000Z</time>
   </trkpt>
   <trkpt lat="-8.037465" lon="-34.893984">
    <ele>6.2</ele>
    <time>2019-09-09T12:54:54.000Z</time>
   </trkpt>
   <trkpt lat="-8.03751" lon="-34.893986">
    <ele>6.1</ele>
    <time>2019-09-09T12:54:55.000Z</time>
   </trkpt>
   <trkpt lat="-8.037545" lon="-34.893998">
    <ele>5.9</ele>
    <time>2019-09-09T12:54:56.000Z</time>
   </trkpt>
   <trkpt lat="-8.03758" lon="-34.894004">
    <ele>5.8</ele>
    <time>2019-09-09T12:54:57.000Z</time>
   </trkpt>
   <trkpt lat="-8.037615" lon="-34.894008">
    <ele>5.6</ele>
    <time>2019-09-09T12:54:58.000Z</time>
   </trkpt>
   <trkpt lat="-8.037648" lon="-34.894017">
    <ele>5.5</ele>
    <time>2019-09-09T12:54:59.000Z</time>
   </trkpt>
   <trkpt lat="-8.037679" lon="-34.894027">
    <ele>5.4</ele>
    <time>2019-09-09T12:55:00.000Z</time>
   </trkpt>
   <trkpt lat="-8.037707" lon="-34.894033">
    <ele>5.3</ele>
    <time>2019-09-09T12:55:01.000Z</time>
   </trkpt>
   <trkpt lat="-8.037739" lon="-34.894023">
    <ele>5.2</ele>
    <time>2019-09-09T12:55:02.000Z</time>
   </trkpt>
   <trkpt lat="-8.03777" lon="-34.894027">
    <ele>5.4</ele>
    <time>2019-09-09T12:55:03.000Z</time>
   </trkpt>
   <trkpt lat="-8.037809" lon="-34.894028">
    <ele>5.6</ele>
    <time>2019-09-09T12:55:04.000Z</time>
   </trkpt>
   <trkpt lat="-8.037852" lon="-34.894038">
    <ele>5.8</ele>
    <time>2019-09-09T12:55:05.000Z</time>
   </trkpt>
   <trkpt lat="-8.037895" lon="-34.894063">
    <ele>6</ele>
    <time>2019-09-09T12:55:06.000Z</time>
   </trkpt>
   <trkpt lat="-8.037924" lon="-34.894082">
    <ele>6.2</ele>
    <time>2019-09-09T12:55:07.000Z</time>
   </trkpt>
   <trkpt lat="-8.037952" lon="-34.894098">
    <ele>6.3</ele>
    <time>2019-09-09T12:55:08.000Z</time>
   </trkpt>
   <trkpt lat="-8.037984" lon="-34.89411">
    <ele>6.5</ele>
    <time>2019-09-09T12:55:09.000Z</time>
   </trkpt>
   <trkpt lat="-8.038022" lon="-34.894123">
    <ele>6.8</ele>
    <time>2019-09-09T12:55:10.000Z</time>
   </trkpt>
   <trkpt lat="-8.038057" lon="-34.894137">
    <ele>7</ele>
    <time>2019-09-09T12:55:11.000Z</time>
   </trkpt>
   <trkpt lat="-8.038091" lon="-34.894151">
    <ele>7.2</ele>
    <time>2019-09-09T12:55:12.000Z</time>
   </trkpt>
   <trkpt lat="-8.038126" lon="-34.894167">
    <ele>7.4</ele>
    <time>2019-09-09T12:55:13.000Z</time>
   </trkpt>
   <trkpt lat="-8.038162" lon="-34.894179">
    <ele>7.6</ele>
    <time>2019-09-09T12:55:14.000Z</time>
   </trkpt>
   <trkpt lat="-8.0382" lon="-34.894193">
    <ele>7.9</ele>
    <time>2019-09-09T12:55:15.000Z</time>
   </trkpt>
   <trkpt lat="-8.038233" lon="-34.894206">
    <ele>8.1</ele>
    <time>2019-09-09T12:55:16.000Z</time>
   </trkpt>
   <trkpt lat="-8.038264" lon="-34.894208">
    <ele>8.3</ele>
    <time>2019-09-09T12:55:17.000Z</time>
   </trkpt>
   <trkpt lat="-8.03831" lon="-34.89423">
    <ele>8.6</ele>
    <time>2019-09-09T12:55:19.000Z</time>
   </trkpt>
   <trkpt lat="-8.038337" lon="-34.89425">
    <ele>8.8</ele>
    <time>2019-09-09T12:55:20.000Z</time>
   </trkpt>
   <trkpt lat="-8.03837" lon="-34.89427">
    <ele>8.9</ele>
    <time>2019-09-09T12:55:21.000Z</time>
   </trkpt>
   <trkpt lat="-8.038403" lon="-34.894284">
    <ele>9</ele>
    <time>2019-09-09T12:55:22.000Z</time>
   </trkpt>
   <trkpt lat="-8.038443" lon="-34.894302">
    <ele>9.1</ele>
    <time>2019-09-09T12:55:23.000Z</time>
   </trkpt>
   <trkpt lat="-8.038484" lon="-34.894314">
    <ele>9.3</ele>
    <time>2019-09-09T12:55:24.000Z</time>
   </trkpt>
   <trkpt lat="-8.038524" lon="-34.894329">
    <ele>9.5</ele>
    <time>2019-09-09T12:55:25.000Z</time>
   </trkpt>
   <trkpt lat="-8.038565" lon="-34.894354">
    <ele>9.7</ele>
    <time>2019-09-09T12:55:26.000Z</time>
   </trkpt>
   <trkpt lat="-8.038607" lon="-34.894391">
    <ele>9.7</ele>
    <time>2019-09-09T12:55:27.000Z</time>
   </trkpt>
   <trkpt lat="-8.038648" lon="-34.894392">
    <ele>9.6</ele>
    <time>2019-09-09T12:55:28.000Z</time>
   </trkpt>
   <trkpt lat="-8.038688" lon="-34.894399">
    <ele>9.6</ele>
    <time>2019-09-09T12:55:29.000Z</time>
   </trkpt>
   <trkpt lat="-8.038718" lon="-34.894411">
    <ele>9.6</ele>
    <time>2019-09-09T12:55:30.000Z</time>
   </trkpt>
   <trkpt lat="-8.038759" lon="-34.894434">
    <ele>9.5</ele>
    <time>2019-09-09T12:55:31.000Z</time>
   </trkpt>
   <trkpt lat="-8.038796" lon="-34.894436">
    <ele>9.5</ele>
    <time>2019-09-09T12:55:32.000Z</time>
   </trkpt>
   <trkpt lat="-8.038831" lon="-34.894437">
    <ele>9.5</ele>
    <time>2019-09-09T12:55:33.000Z</time>
   </trkpt>
   <trkpt lat="-8.038866" lon="-34.894445">
    <ele>9.5</ele>
    <time>2019-09-09T12:55:34.000Z</time>
   </trkpt>
   <trkpt lat="-8.038896" lon="-34.894449">
    <ele>9.6</ele>
    <time>2019-09-09T12:55:35.000Z</time>
   </trkpt>
   <trkpt lat="-8.038925" lon="-34.894457">
    <ele>9.7</ele>
    <time>2019-09-09T12:55:36.000Z</time>
   </trkpt>
   <trkpt lat="-8.038955" lon="-34.894463">
    <ele>9.9</ele>
    <time>2019-09-09T12:55:37.000Z</time>
   </trkpt>
   <trkpt lat="-8.038993" lon="-34.894467">
    <ele>10.1</ele>
    <time>2019-09-09T12:55:38.000Z</time>
   </trkpt>
   <trkpt lat="-8.039016" lon="-34.894491">
    <ele>10.3</ele>
    <time>2019-09-09T12:55:39.000Z</time>
   </trkpt>
   <trkpt lat="-8.039047" lon="-34.894495">
    <ele>10.4</ele>
    <time>2019-09-09T12:55:40.000Z</time>
   </trkpt>
   <trkpt lat="-8.039079" lon="-34.894496">
    <ele>10.5</ele>
    <time>2019-09-09T12:55:41.000Z</time>
   </trkpt>
   <trkpt lat="-8.03911" lon="-34.894502">
    <ele>10.3</ele>
    <time>2019-09-09T12:55:42.000Z</time>
   </trkpt>
   <trkpt lat="-8.039138" lon="-34.894514">
    <ele>10.1</ele>
    <time>2019-09-09T12:55:43.000Z</time>
   </trkpt>
   <trkpt lat="-8.039168" lon="-34.894521">
    <ele>9.8</ele>
    <time>2019-09-09T12:55:44.000Z</time>
   </trkpt>
   <trkpt lat="-8.039225" lon="-34.894527">
    <ele>9.5</ele>
    <time>2019-09-09T12:55:46.000Z</time>
   </trkpt>
   <trkpt lat="-8.039259" lon="-34.894534">
    <ele>9.4</ele>
    <time>2019-09-09T12:55:47.000Z</time>
   </trkpt>
   <trkpt lat="-8.03929" lon="-34.894534">
    <ele>9.3</ele>
    <time>2019-09-09T12:55:48.000Z</time>
   </trkpt>
   <trkpt lat="-8.03932" lon="-34.894546">
    <ele>9.3</ele>
    <time>2019-09-09T12:55:49.000Z</time>
   </trkpt>
   <trkpt lat="-8.039348" lon="-34.894571">
    <ele>9.3</ele>
    <time>2019-09-09T12:55:50.000Z</time>
   </trkpt>
   <trkpt lat="-8.039382" lon="-34.894591">
    <ele>10</ele>
    <time>2019-09-09T12:55:51.000Z</time>
   </trkpt>
   <trkpt lat="-8.039412" lon="-34.894606">
    <ele>10.4</ele>
    <time>2019-09-09T12:55:52.000Z</time>
   </trkpt>
   <trkpt lat="-8.039465" lon="-34.894615">
    <ele>11</ele>
    <time>2019-09-09T12:55:53.000Z</time>
   </trkpt>
   <trkpt lat="-8.039502" lon="-34.894626">
    <ele>11.4</ele>
    <time>2019-09-09T12:55:54.000Z</time>
   </trkpt>
   <trkpt lat="-8.03955" lon="-34.89464">
    <ele>11.9</ele>
    <time>2019-09-09T12:55:55.000Z</time>
   </trkpt>
   <trkpt lat="-8.039599" lon="-34.894653">
    <ele>12.5</ele>
    <time>2019-09-09T12:55:56.000Z</time>
   </trkpt>
   <trkpt lat="-8.039641" lon="-34.894679">
    <ele>13</ele>
    <time>2019-09-09T12:55:57.000Z</time>
   </trkpt>
   <trkpt lat="-8.039686" lon="-34.894703">
    <ele>13.6</ele>
    <time>2019-09-09T12:55:58.000Z</time>
   </trkpt>
   <trkpt lat="-8.039718" lon="-34.894718">
    <ele>14</ele>
    <time>2019-09-09T12:55:59.000Z</time>
   </trkpt>
   <trkpt lat="-8.039748" lon="-34.894722">
    <ele>14.3</ele>
    <time>2019-09-09T12:56:00.000Z</time>
   </trkpt>
   <trkpt lat="-8.039788" lon="-34.894735">
    <ele>14.8</ele>
    <time>2019-09-09T12:56:01.000Z</time>
   </trkpt>
   <trkpt lat="-8.039831" lon="-34.894739">
    <ele>15.2</ele>
    <time>2019-09-09T12:56:02.000Z</time>
   </trkpt>
   <trkpt lat="-8.039874" lon="-34.894747">
    <ele>15.7</ele>
    <time>2019-09-09T12:56:03.000Z</time>
   </trkpt>
   <trkpt lat="-8.039916" lon="-34.894765">
    <ele>16.2</ele>
    <time>2019-09-09T12:56:04.000Z</time>
   </trkpt>
   <trkpt lat="-8.03995" lon="-34.894788">
    <ele>16.7</ele>
    <time>2019-09-09T12:56:05.000Z</time>
   </trkpt>
   <trkpt lat="-8.039995" lon="-34.894802">
    <ele>17.2</ele>
    <time>2019-09-09T12:56:06.000Z</time>
   </trkpt>
   <trkpt lat="-8.04003" lon="-34.894815">
    <ele>17.7</ele>
    <time>2019-09-09T12:56:07.000Z</time>
   </trkpt>
   <trkpt lat="-8.040088" lon="-34.894814">
    <ele>18.1</ele>
    <time>2019-09-09T12:56:09.000Z</time>
   </trkpt>
   <trkpt lat="-8.040111" lon="-34.894797">
    <ele>18.3</ele>
    <time>2019-09-09T12:56:10.000Z</time>
   </trkpt>
   <trkpt lat="-8.040136" lon="-34.894769">
    <ele>18.5</ele>
    <time>2019-09-09T12:56:11.000Z</time>
   </trkpt>
   <trkpt lat="-8.040172" lon="-34.894742">
    <ele>18.7</ele>
    <time>2019-09-09T12:56:12.000Z</time>
   </trkpt>
   <trkpt lat="-8.040212" lon="-34.894726">
    <ele>18.9</ele>
    <time>2019-09-09T12:56:13.000Z</time>
   </trkpt>
   <trkpt lat="-8.040247" lon="-34.894731">
    <ele>19.1</ele>
    <time>2019-09-09T12:56:14.000Z</time>
   </trkpt>
   <trkpt lat="-8.040291" lon="-34.894741">
    <ele>19.3</ele>
    <time>2019-09-09T12:56:15.000Z</time>
   </trkpt>
   <trkpt lat="-8.040336" lon="-34.89475">
    <ele>19.4</ele>
    <time>2019-09-09T12:56:16.000Z</time>
   </trkpt>
   <trkpt lat="-8.040373" lon="-34.894737">
    <ele>19.3</ele>
    <time>2019-09-09T12:56:17.000Z</time>
   </trkpt>
   <trkpt lat="-8.040406" lon="-34.894693">
    <ele>19.1</ele>
    <time>2019-09-09T12:56:18.000Z</time>
   </trkpt>
   <trkpt lat="-8.040435" lon="-34.894664">
    <ele>19</ele>
    <time>2019-09-09T12:56:19.000Z</time>
   </trkpt>
   <trkpt lat="-8.040463" lon="-34.894641">
    <ele>18.9</ele>
    <time>2019-09-09T12:56:20.000Z</time>
   </trkpt>
   <trkpt lat="-8.040492" lon="-34.89462">
    <ele>18.8</ele>
    <time>2019-09-09T12:56:21.000Z</time>
   </trkpt>
   <trkpt lat="-8.040519" lon="-34.894593">
    <ele>18.7</ele>
    <time>2019-09-09T12:56:22.000Z</time>
   </trkpt>
   <trkpt lat="-8.040546" lon="-34.894564">
    <ele>18.6</ele>
    <time>2019-09-09T12:56:23.000Z</time>
   </trkpt>
   <trkpt lat="-8.040602" lon="-34.894552">
    <ele>18.4</ele>
    <time>2019-09-09T12:56:24.000Z</time>
   </trkpt>
   <trkpt lat="-8.040664" lon="-34.894553">
    <ele>18.3</ele>
    <time>2019-09-09T12:56:25.000Z</time>
   </trkpt>
   <trkpt lat="-8.040722" lon="-34.894553">
    <ele>18.1</ele>
    <time>2019-09-09T12:56:26.000Z</time>
   </trkpt>
   <trkpt lat="-8.040757" lon="-34.894551">
    <ele>18</ele>
    <time>2019-09-09T12:56:27.000Z</time>
   </trkpt>
   <trkpt lat="-8.040805" lon="-34.894545">
    <ele>17.9</ele>
    <time>2019-09-09T12:56:28.000Z</time>
   </trkpt>
   <trkpt lat="-8.04085" lon="-34.894538">
    <ele>17.8</ele>
    <time>2019-09-09T12:56:29.000Z</time>
   </trkpt>
   <trkpt lat="-8.040892" lon="-34.894524">
    <ele>17.6</ele>
    <time>2019-09-09T12:56:30.000Z</time>
   </trkpt>
   <trkpt lat="-8.040931" lon="-34.894512">
    <ele>17.5</ele>
    <time>2019-09-09T12:56:31.000Z</time>
   </trkpt>
   <trkpt lat="-8.040959" lon="-34.894488">
    <ele>17.4</ele>
    <time>2019-09-09T12:56:32.000Z</time>
   </trkpt>
   <trkpt lat="-8.040989" lon="-34.894465">
    <ele>17.3</ele>
    <time>2019-09-09T12:56:33.000Z</time>
   </trkpt>
   <trkpt lat="-8.041016" lon="-34.894446">
    <ele>17.4</ele>
    <time>2019-09-09T12:56:34.000Z</time>
   </trkpt>
   <trkpt lat="-8.041049" lon="-34.894424">
    <ele>17.8</ele>
    <time>2019-09-09T12:56:35.000Z</time>
   </trkpt>
   <trkpt lat="-8.041076" lon="-34.894398">
    <ele>18</ele>
    <time>2019-09-09T12:56:36.000Z</time>
   </trkpt>
   <trkpt lat="-8.041102" lon="-34.894371">
    <ele>18.1</ele>
    <time>2019-09-09T12:56:37.000Z</time>
   </trkpt>
   <trkpt lat="-8.041119" lon="-34.894333">
    <ele>18.3</ele>
    <time>2019-09-09T12:56:38.000Z</time>
   </trkpt>
   <trkpt lat="-8.04112" lon="-34.894294">
    <ele>18.5</ele>
    <time>2019-09-09T12:56:39.000Z</time>
   </trkpt>
   <trkpt lat="-8.041131" lon="-34.894263">
    <ele>18.6</ele>
    <time>2019-09-09T12:56:40.000Z</time>
   </trkpt>
   <trkpt lat="-8.041142" lon="-34.894231">
    <ele>18.7</ele>
    <time>2019-09-09T12:56:41.000Z</time>
   </trkpt>
   <trkpt lat="-8.041161" lon="-34.894196">
    <ele>18.9</ele>
    <time>2019-09-09T12:56:42.000Z</time>
   </trkpt>
   <trkpt lat="-8.041171" lon="-34.894156">
    <ele>19</ele>
    <time>2019-09-09T12:56:43.000Z</time>
   </trkpt>
   <trkpt lat="-8.041195" lon="-34.894111">
    <ele>19.1</ele>
    <time>2019-09-09T12:56:44.000Z</time>
   </trkpt>
   <trkpt lat="-8.041211" lon="-34.894071">
    <ele>19.1</ele>
    <time>2019-09-09T12:56:45.000Z</time>
   </trkpt>
   <trkpt lat="-8.041228" lon="-34.89403">
    <ele>19</ele>
    <time>2019-09-09T12:56:46.000Z</time>
   </trkpt>
   <trkpt lat="-8.041249" lon="-34.894007">
    <ele>18.9</ele>
    <time>2019-09-09T12:56:47.000Z</time>
   </trkpt>
   <trkpt lat="-8.041275" lon="-34.893996">
    <ele>18.9</ele>
    <time>2019-09-09T12:56:48.000Z</time>
   </trkpt>
   <trkpt lat="-8.041301" lon="-34.893976">
    <ele>18.8</ele>
    <time>2019-09-09T12:56:50.000Z</time>
   </trkpt>
   <trkpt lat="-8.041319" lon="-34.893955">
    <ele>18.8</ele>
    <time>2019-09-09T12:56:52.000Z</time>
   </trkpt>
   <trkpt lat="-8.041323" lon="-34.893928">
    <ele>18.7</ele>
    <time>2019-09-09T12:57:00.000Z</time>
   </trkpt>
   <trkpt lat="-8.041354" lon="-34.893902">
    <ele>18.6</ele>
    <time>2019-09-09T12:57:39.000Z</time>
   </trkpt>
   <trkpt lat="-8.041389" lon="-34.893876">
    <ele>18.5</ele>
    <time>2019-09-09T12:57:41.000Z</time>
   </trkpt>
   <trkpt lat="-8.041421" lon="-34.893883">
    <ele>18.4</ele>
    <time>2019-09-09T12:57:42.000Z</time>
   </trkpt>
   <trkpt lat="-8.041461" lon="-34.893889">
    <ele>18.3</ele>
    <time>2019-09-09T12:57:43.000Z</time>
   </trkpt>
   <trkpt lat="-8.041512" lon="-34.893909">
    <ele>17.5</ele>
    <time>2019-09-09T12:57:44.000Z</time>
   </trkpt>
   <trkpt lat="-8.041552" lon="-34.893936">
    <ele>17.1</ele>
    <time>2019-09-09T12:57:45.000Z</time>
   </trkpt>
   <trkpt lat="-8.041588" lon="-34.893954">
    <ele>16.7</ele>
    <time>2019-09-09T12:57:46.000Z</time>
   </trkpt>
   <trkpt lat="-8.041624" lon="-34.893971">
    <ele>16.4</ele>
    <time>2019-09-09T12:57:47.000Z</time>
   </trkpt>
   <trkpt lat="-8.041657" lon="-34.893976">
    <ele>16.2</ele>
    <time>2019-09-09T12:57:48.000Z</time>
   </trkpt>
   <trkpt lat="-8.041691" lon="-34.893992">
    <ele>15.9</ele>
    <time>2019-09-09T12:57:49.000Z</time>
   </trkpt>
   <trkpt lat="-8.041719" lon="-34.894006">
    <ele>15.8</ele>
    <time>2019-09-09T12:57:50.000Z</time>
   </trkpt>
   <trkpt lat="-8.04175" lon="-34.894027">
    <ele>15.5</ele>
    <time>2019-09-09T12:57:51.000Z</time>
   </trkpt>
   <trkpt lat="-8.041784" lon="-34.89405">
    <ele>15.4</ele>
    <time>2019-09-09T12:57:52.000Z</time>
   </trkpt>
   <trkpt lat="-8.041824" lon="-34.894083">
    <ele>15.1</ele>
    <time>2019-09-09T12:57:53.000Z</time>
   </trkpt>
   <trkpt lat="-8.041874" lon="-34.894119">
    <ele>14.9</ele>
    <time>2019-09-09T12:57:54.000Z</time>
   </trkpt>
   <trkpt lat="-8.041915" lon="-34.894144">
    <ele>14.7</ele>
    <time>2019-09-09T12:57:55.000Z</time>
   </trkpt>
   <trkpt lat="-8.041956" lon="-34.894164">
    <ele>14.6</ele>
    <time>2019-09-09T12:57:56.000Z</time>
   </trkpt>
   <trkpt lat="-8.041987" lon="-34.894176">
    <ele>14.5</ele>
    <time>2019-09-09T12:57:57.000Z</time>
   </trkpt>
   <trkpt lat="-8.042017" lon="-34.894191">
    <ele>14.4</ele>
    <time>2019-09-09T12:57:58.000Z</time>
   </trkpt>
   <trkpt lat="-8.042047" lon="-34.894208">
    <ele>14.3</ele>
    <time>2019-09-09T12:57:59.000Z</time>
   </trkpt>
   <trkpt lat="-8.042074" lon="-34.894226">
    <ele>14.2</ele>
    <time>2019-09-09T12:58:00.000Z</time>
   </trkpt>
   <trkpt lat="-8.042107" lon="-34.894235">
    <ele>14.1</ele>
    <time>2019-09-09T12:58:01.000Z</time>
   </trkpt>
   <trkpt lat="-8.042136" lon="-34.894253">
    <ele>14</ele>
    <time>2019-09-09T12:58:02.000Z</time>
   </trkpt>
   <trkpt lat="-8.042167" lon="-34.894285">
    <ele>13.9</ele>
    <time>2019-09-09T12:58:03.000Z</time>
   </trkpt>
   <trkpt lat="-8.042191" lon="-34.894311">
    <ele>13.8</ele>
    <time>2019-09-09T12:58:04.000Z</time>
   </trkpt>
   <trkpt lat="-8.042214" lon="-34.894337">
    <ele>13.7</ele>
    <time>2019-09-09T12:58:05.000Z</time>
   </trkpt>
   <trkpt lat="-8.04224" lon="-34.894363">
    <ele>13.6</ele>
    <time>2019-09-09T12:58:06.000Z</time>
   </trkpt>
   <trkpt lat="-8.042264" lon="-34.894391">
    <ele>13.8</ele>
    <time>2019-09-09T12:58:07.000Z</time>
   </trkpt>
   <trkpt lat="-8.042283" lon="-34.894421">
    <ele>14</ele>
    <time>2019-09-09T12:58:08.000Z</time>
   </trkpt>
   <trkpt lat="-8.042311" lon="-34.894448">
    <ele>14.2</ele>
    <time>2019-09-09T12:58:09.000Z</time>
   </trkpt>
   <trkpt lat="-8.042336" lon="-34.894475">
    <ele>14.4</ele>
    <time>2019-09-09T12:58:10.000Z</time>
   </trkpt>
   <trkpt lat="-8.042369" lon="-34.894501">
    <ele>14.7</ele>
    <time>2019-09-09T12:58:11.000Z</time>
   </trkpt>
   <trkpt lat="-8.0424" lon="-34.894529">
    <ele>14.9</ele>
    <time>2019-09-09T12:58:12.000Z</time>
   </trkpt>
   <trkpt lat="-8.042426" lon="-34.894549">
    <ele>15.1</ele>
    <time>2019-09-09T12:58:13.000Z</time>
   </trkpt>
   <trkpt lat="-8.042458" lon="-34.894573">
    <ele>15.3</ele>
    <time>2019-09-09T12:58:14.000Z</time>
   </trkpt>
   <trkpt lat="-8.042487" lon="-34.894585">
    <ele>15.5</ele>
    <time>2019-09-09T12:58:15.000Z</time>
   </trkpt>
   <trkpt lat="-8.042512" lon="-34.894611">
    <ele>15.7</ele>
    <time>2019-09-09T12:58:16.000Z</time>
   </trkpt>
   <trkpt lat="-8.042535" lon="-34.894636">
    <ele>15.9</ele>
    <time>2019-09-09T12:58:17.000Z</time>
   </trkpt>
   <trkpt lat="-8.042557" lon="-34.894661">
    <ele>16.1</ele>
    <time>2019-09-09T12:58:18.000Z</time>
   </trkpt>
   <trkpt lat="-8.042584" lon="-34.894684">
    <ele>16.3</ele>
    <time>2019-09-09T12:58:19.000Z</time>
   </trkpt>
   <trkpt lat="-8.042612" lon="-34.894711">
    <ele>16.5</ele>
    <time>2019-09-09T12:58:20.000Z</time>
   </trkpt>
   <trkpt lat="-8.042628" lon="-34.894751">
    <ele>17.1</ele>
    <time>2019-09-09T12:58:21.000Z</time>
   </trkpt>
   <trkpt lat="-8.042654" lon="-34.894784">
    <ele>17.3</ele>
    <time>2019-09-09T12:58:22.000Z</time>
   </trkpt>
   <trkpt lat="-8.042686" lon="-34.894809">
    <ele>17.6</ele>
    <time>2019-09-09T12:58:23.000Z</time>
   </trkpt>
   <trkpt lat="-8.042723" lon="-34.894821">
    <ele>17.8</ele>
    <time>2019-09-09T12:58:24.000Z</time>
   </trkpt>
   <trkpt lat="-8.042752" lon="-34.894846">
    <ele>18</ele>
    <time>2019-09-09T12:58:25.000Z</time>
   </trkpt>
   <trkpt lat="-8.042777" lon="-34.894876">
    <ele>18.2</ele>
    <time>2019-09-09T12:58:26.000Z</time>
   </trkpt>
   <trkpt lat="-8.042802" lon="-34.894905">
    <ele>18.5</ele>
    <time>2019-09-09T12:58:27.000Z</time>
   </trkpt>
   <trkpt lat="-8.042834" lon="-34.894941">
    <ele>18.9</ele>
    <time>2019-09-09T12:58:28.000Z</time>
   </trkpt>
   <trkpt lat="-8.042864" lon="-34.894981">
    <ele>19.2</ele>
    <time>2019-09-09T12:58:29.000Z</time>
   </trkpt>
   <trkpt lat="-8.042884" lon="-34.895015">
    <ele>19.4</ele>
    <time>2019-09-09T12:58:30.000Z</time>
   </trkpt>
   <trkpt lat="-8.042919" lon="-34.895047">
    <ele>19.6</ele>
    <time>2019-09-09T12:58:31.000Z</time>
   </trkpt>
   <trkpt lat="-8.042932" lon="-34.895087">
    <ele>19.8</ele>
    <time>2019-09-09T12:58:32.000Z</time>
   </trkpt>
   <trkpt lat="-8.042947" lon="-34.895111">
    <ele>19.9</ele>
    <time>2019-09-09T12:58:33.000Z</time>
   </trkpt>
   <trkpt lat="-8.042956" lon="-34.895153">
    <ele>20.1</ele>
    <time>2019-09-09T12:58:34.000Z</time>
   </trkpt>
   <trkpt lat="-8.042966" lon="-34.895198">
    <ele>20.2</ele>
    <time>2019-09-09T12:58:35.000Z</time>
   </trkpt>
   <trkpt lat="-8.042986" lon="-34.895235">
    <ele>20.3</ele>
    <time>2019-09-09T12:58:36.000Z</time>
   </trkpt>
   <trkpt lat="-8.042999" lon="-34.895268">
    <ele>20.3</ele>
    <time>2019-09-09T12:58:37.000Z</time>
   </trkpt>
   <trkpt lat="-8.042986" lon="-34.895323">
    <ele>20.4</ele>
    <time>2019-09-09T12:58:38.000Z</time>
   </trkpt>
   <trkpt lat="-8.042996" lon="-34.895351">
    <ele>20.5</ele>
    <time>2019-09-09T12:58:39.000Z</time>
   </trkpt>
   <trkpt lat="-8.043002" lon="-34.895394">
    <ele>20.6</ele>
    <time>2019-09-09T12:58:40.000Z</time>
   </trkpt>
   <trkpt lat="-8.043008" lon="-34.895437">
    <ele>20.6</ele>
    <time>2019-09-09T12:58:41.000Z</time>
   </trkpt>
   <trkpt lat="-8.043025" lon="-34.89548">
    <ele>20.7</ele>
    <time>2019-09-09T12:58:42.000Z</time>
   </trkpt>
   <trkpt lat="-8.043047" lon="-34.895519">
    <ele>20.8</ele>
    <time>2019-09-09T12:58:43.000Z</time>
   </trkpt>
   <trkpt lat="-8.043076" lon="-34.895555">
    <ele>20.8</ele>
    <time>2019-09-09T12:58:44.000Z</time>
   </trkpt>
   <trkpt lat="-8.043115" lon="-34.895583">
    <ele>20.9</ele>
    <time>2019-09-09T12:58:45.000Z</time>
   </trkpt>
   <trkpt lat="-8.043144" lon="-34.895608">
    <ele>20.9</ele>
    <time>2019-09-09T12:58:46.000Z</time>
   </trkpt>
   <trkpt lat="-8.043169" lon="-34.895636">
    <ele>21</ele>
    <time>2019-09-09T12:58:47.000Z</time>
   </trkpt>
   <trkpt lat="-8.043193" lon="-34.895672">
    <ele>21</ele>
    <time>2019-09-09T12:58:48.000Z</time>
   </trkpt>
   <trkpt lat="-8.043214" lon="-34.895716">
    <ele>21.1</ele>
    <time>2019-09-09T12:58:49.000Z</time>
   </trkpt>
   <trkpt lat="-8.04322" lon="-34.895761">
    <ele>21.1</ele>
    <time>2019-09-09T12:58:50.000Z</time>
   </trkpt>
   <trkpt lat="-8.043239" lon="-34.8958">
    <ele>21.2</ele>
    <time>2019-09-09T12:58:51.000Z</time>
   </trkpt>
   <trkpt lat="-8.043264" lon="-34.89584">
    <ele>21.1</ele>
    <time>2019-09-09T12:58:52.000Z</time>
   </trkpt>
   <trkpt lat="-8.043281" lon="-34.895877">
    <ele>21</ele>
    <time>2019-09-09T12:58:53.000Z</time>
   </trkpt>
   <trkpt lat="-8.043292" lon="-34.895913">
    <ele>21</ele>
    <time>2019-09-09T12:58:54.000Z</time>
   </trkpt>
   <trkpt lat="-8.043298" lon="-34.895947">
    <ele>21</ele>
    <time>2019-09-09T12:58:55.000Z</time>
   </trkpt>
   <trkpt lat="-8.043288" lon="-34.895986">
    <ele>20.9</ele>
    <time>2019-09-09T12:58:56.000Z</time>
   </trkpt>
   <trkpt lat="-8.043316" lon="-34.896036">
    <ele>20.9</ele>
    <time>2019-09-09T12:58:58.000Z</time>
   </trkpt>
   <trkpt lat="-8.043357" lon="-34.89608">
    <ele>20.8</ele>
    <time>2019-09-09T12:58:59.000Z</time>
   </trkpt>
   <trkpt lat="-8.043383" lon="-34.896136">
    <ele>20.8</ele>
    <time>2019-09-09T12:59:00.000Z</time>
   </trkpt>
   <trkpt lat="-8.043396" lon="-34.896193">
    <ele>20.7</ele>
    <time>2019-09-09T12:59:01.000Z</time>
   </trkpt>
   <trkpt lat="-8.043391" lon="-34.896252">
    <ele>20.6</ele>
    <time>2019-09-09T12:59:02.000Z</time>
   </trkpt>
   <trkpt lat="-8.04341" lon="-34.896305">
    <ele>20.6</ele>
    <time>2019-09-09T12:59:03.000Z</time>
   </trkpt>
   <trkpt lat="-8.043434" lon="-34.896351">
    <ele>20.5</ele>
    <time>2019-09-09T12:59:04.000Z</time>
   </trkpt>
   <trkpt lat="-8.043446" lon="-34.896394">
    <ele>20.4</ele>
    <time>2019-09-09T12:59:05.000Z</time>
   </trkpt>
   <trkpt lat="-8.043455" lon="-34.896446">
    <ele>20.3</ele>
    <time>2019-09-09T12:59:06.000Z</time>
   </trkpt>
   <trkpt lat="-8.043508" lon="-34.89651">
    <ele>20.2</ele>
    <time>2019-09-09T12:59:07.000Z</time>
   </trkpt>
   <trkpt lat="-8.043508" lon="-34.896561">
    <ele>20</ele>
    <time>2019-09-09T12:59:08.000Z</time>
   </trkpt>
   <trkpt lat="-8.04352" lon="-34.896599">
    <ele>19.6</ele>
    <time>2019-09-09T12:59:09.000Z</time>
   </trkpt>
   <trkpt lat="-8.043521" lon="-34.896643">
    <ele>19.3</ele>
    <time>2019-09-09T12:59:10.000Z</time>
   </trkpt>
   <trkpt lat="-8.043518" lon="-34.896692">
    <ele>18.9</ele>
    <time>2019-09-09T12:59:11.000Z</time>
   </trkpt>
   <trkpt lat="-8.043493" lon="-34.896731">
    <ele>18.6</ele>
    <time>2019-09-09T12:59:12.000Z</time>
   </trkpt>
   <trkpt lat="-8.043487" lon="-34.896758">
    <ele>18.4</ele>
    <time>2019-09-09T12:59:13.000Z</time>
   </trkpt>
   <trkpt lat="-8.043472" lon="-34.896806">
    <ele>18.1</ele>
    <time>2019-09-09T12:59:15.000Z</time>
   </trkpt>
   <trkpt lat="-8.043465" lon="-34.896846">
    <ele>17.8</ele>
    <time>2019-09-09T12:59:16.000Z</time>
   </trkpt>
   <trkpt lat="-8.043461" lon="-34.896874">
    <ele>17.6</ele>
    <time>2019-09-09T12:59:17.000Z</time>
   </trkpt>
   <trkpt lat="-8.043473" lon="-34.896903">
    <ele>17.4</ele>
    <time>2019-09-09T12:59:18.000Z</time>
   </trkpt>
   <trkpt lat="-8.043473" lon="-34.896934">
    <ele>17.1</ele>
    <time>2019-09-09T12:59:19.000Z</time>
   </trkpt>
   <trkpt lat="-8.043475" lon="-34.89697">
    <ele>16.8</ele>
    <time>2019-09-09T12:59:20.000Z</time>
   </trkpt>
   <trkpt lat="-8.043477" lon="-34.896998">
    <ele>16.5</ele>
    <time>2019-09-09T12:59:21.000Z</time>
   </trkpt>
   <trkpt lat="-8.043478" lon="-34.897026">
    <ele>16.2</ele>
    <time>2019-09-09T12:59:22.000Z</time>
   </trkpt>
   <trkpt lat="-8.043485" lon="-34.897059">
    <ele>15.8</ele>
    <time>2019-09-09T12:59:23.000Z</time>
   </trkpt>
   <trkpt lat="-8.043552" lon="-34.897083">
    <ele>15.4</ele>
    <time>2019-09-09T12:59:24.000Z</time>
   </trkpt>
   <trkpt lat="-8.043605" lon="-34.89712">
    <ele>15</ele>
    <time>2019-09-09T12:59:25.000Z</time>
   </trkpt>
   <trkpt lat="-8.043629" lon="-34.897148">
    <ele>14.7</ele>
    <time>2019-09-09T12:59:26.000Z</time>
   </trkpt>
   <trkpt lat="-8.043669" lon="-34.897197">
    <ele>14.3</ele>
    <time>2019-09-09T12:59:28.000Z</time>
   </trkpt>
   <trkpt lat="-8.043667" lon="-34.897243">
    <ele>13.8</ele>
    <time>2019-09-09T12:59:29.000Z</time>
   </trkpt>
   <trkpt lat="-8.043689" lon="-34.89728">
    <ele>13.3</ele>
    <time>2019-09-09T12:59:30.000Z</time>
   </trkpt>
   <trkpt lat="-8.043691" lon="-34.897327">
    <ele>12.2</ele>
    <time>2019-09-09T12:59:31.000Z</time>
   </trkpt>
   <trkpt lat="-8.043694" lon="-34.89737">
    <ele>12.5</ele>
    <time>2019-09-09T12:59:32.000Z</time>
   </trkpt>
   <trkpt lat="-8.043696" lon="-34.897426">
    <ele>12.8</ele>
    <time>2019-09-09T12:59:33.000Z</time>
   </trkpt>
   <trkpt lat="-8.043696" lon="-34.897483">
    <ele>13.2</ele>
    <time>2019-09-09T12:59:34.000Z</time>
   </trkpt>
   <trkpt lat="-8.043698" lon="-34.897542">
    <ele>13.5</ele>
    <time>2019-09-09T12:59:35.000Z</time>
   </trkpt>
   <trkpt lat="-8.043689" lon="-34.897589">
    <ele>13.7</ele>
    <time>2019-09-09T12:59:36.000Z</time>
   </trkpt>
   <trkpt lat="-8.043706" lon="-34.897654">
    <ele>13.9</ele>
    <time>2019-09-09T12:59:37.000Z</time>
   </trkpt>
   <trkpt lat="-8.043729" lon="-34.897709">
    <ele>14</ele>
    <time>2019-09-09T12:59:38.000Z</time>
   </trkpt>
   <trkpt lat="-8.04374" lon="-34.897763">
    <ele>14.1</ele>
    <time>2019-09-09T12:59:39.000Z</time>
   </trkpt>
   <trkpt lat="-8.043749" lon="-34.897811">
    <ele>14.1</ele>
    <time>2019-09-09T12:59:40.000Z</time>
   </trkpt>
   <trkpt lat="-8.043761" lon="-34.897855">
    <ele>14.2</ele>
    <time>2019-09-09T12:59:41.000Z</time>
   </trkpt>
   <trkpt lat="-8.043768" lon="-34.8979">
    <ele>14.2</ele>
    <time>2019-09-09T12:59:42.000Z</time>
   </trkpt>
   <trkpt lat="-8.043811" lon="-34.897937">
    <ele>14.2</ele>
    <time>2019-09-09T12:59:43.000Z</time>
   </trkpt>
   <trkpt lat="-8.043843" lon="-34.897969">
    <ele>14.3</ele>
    <time>2019-09-09T12:59:44.000Z</time>
   </trkpt>
   <trkpt lat="-8.043866" lon="-34.898002">
    <ele>14.3</ele>
    <time>2019-09-09T12:59:45.000Z</time>
   </trkpt>
   <trkpt lat="-8.043884" lon="-34.898031">
    <ele>14.3</ele>
    <time>2019-09-09T12:59:46.000Z</time>
   </trkpt>
   <trkpt lat="-8.043939" lon="-34.898088">
    <ele>14.4</ele>
    <time>2019-09-09T12:59:47.000Z</time>
   </trkpt>
   <trkpt lat="-8.043952" lon="-34.898139">
    <ele>14.4</ele>
    <time>2019-09-09T12:59:48.000Z</time>
   </trkpt>
   <trkpt lat="-8.043978" lon="-34.898182">
    <ele>14.4</ele>
    <time>2019-09-09T12:59:49.000Z</time>
   </trkpt>
   <trkpt lat="-8.044006" lon="-34.898216">
    <ele>14.4</ele>
    <time>2019-09-09T12:59:50.000Z</time>
   </trkpt>
   <trkpt lat="-8.044044" lon="-34.898245">
    <ele>14.4</ele>
    <time>2019-09-09T12:59:51.000Z</time>
   </trkpt>
   <trkpt lat="-8.044083" lon="-34.898262">
    <ele>14.3</ele>
    <time>2019-09-09T12:59:52.000Z</time>
   </trkpt>
   <trkpt lat="-8.044117" lon="-34.89825">
    <ele>14.3</ele>
    <time>2019-09-09T12:59:53.000Z</time>
   </trkpt>
   <trkpt lat="-8.044148" lon="-34.89821">
    <ele>14.1</ele>
    <time>2019-09-09T12:59:54.000Z</time>
   </trkpt>
   <trkpt lat="-8.04418" lon="-34.898197">
    <ele>13.9</ele>
    <time>2019-09-09T12:59:55.000Z</time>
   </trkpt>
   <trkpt lat="-8.044218" lon="-34.898191">
    <ele>13.8</ele>
    <time>2019-09-09T12:59:56.000Z</time>
   </trkpt>
   <trkpt lat="-8.044256" lon="-34.898183">
    <ele>13.7</ele>
    <time>2019-09-09T12:59:57.000Z</time>
   </trkpt>
   <trkpt lat="-8.0443" lon="-34.898172">
    <ele>13.5</ele>
    <time>2019-09-09T12:59:58.000Z</time>
   </trkpt>
   <trkpt lat="-8.044347" lon="-34.898165">
    <ele>13.4</ele>
    <time>2019-09-09T12:59:59.000Z</time>
   </trkpt>
   <trkpt lat="-8.044392" lon="-34.898177">
    <ele>13.3</ele>
    <time>2019-09-09T13:00:00.000Z</time>
   </trkpt>
   <trkpt lat="-8.044434" lon="-34.898177">
    <ele>13.4</ele>
    <time>2019-09-09T13:00:01.000Z</time>
   </trkpt>
   <trkpt lat="-8.04447" lon="-34.898179">
    <ele>13.5</ele>
    <time>2019-09-09T13:00:02.000Z</time>
   </trkpt>
   <trkpt lat="-8.044503" lon="-34.898182">
    <ele>13.6</ele>
    <time>2019-09-09T13:00:03.000Z</time>
   </trkpt>
   <trkpt lat="-8.044532" lon="-34.898177">
    <ele>13.7</ele>
    <time>2019-09-09T13:00:04.000Z</time>
   </trkpt>
   <trkpt lat="-8.044561" lon="-34.898186">
    <ele>13.8</ele>
    <time>2019-09-09T13:00:05.000Z</time>
   </trkpt>
   <trkpt lat="-8.044595" lon="-34.89818">
    <ele>13.9</ele>
    <time>2019-09-09T13:00:07.000Z</time>
   </trkpt>
   <trkpt lat="-8.044627" lon="-34.89817">
    <ele>14</ele>
    <time>2019-09-09T13:00:10.000Z</time>
   </trkpt>
   <trkpt lat="-8.044681" lon="-34.898165">
    <ele>14.1</ele>
    <time>2019-09-09T13:00:12.000Z</time>
   </trkpt>
   <trkpt lat="-8.044714" lon="-34.898167">
    <ele>14.3</ele>
    <time>2019-09-09T13:00:13.000Z</time>
   </trkpt>
   <trkpt lat="-8.044751" lon="-34.898173">
    <ele>14.6</ele>
    <time>2019-09-09T13:00:14.000Z</time>
   </trkpt>
   <trkpt lat="-8.044788" lon="-34.898186">
    <ele>14.9</ele>
    <time>2019-09-09T13:00:15.000Z</time>
   </trkpt>
   <trkpt lat="-8.044826" lon="-34.898197">
    <ele>15.2</ele>
    <time>2019-09-09T13:00:16.000Z</time>
   </trkpt>
   <trkpt lat="-8.044863" lon="-34.898207">
    <ele>15.5</ele>
    <time>2019-09-09T13:00:17.000Z</time>
   </trkpt>
   <trkpt lat="-8.044905" lon="-34.898218">
    <ele>15.8</ele>
    <time>2019-09-09T13:00:18.000Z</time>
   </trkpt>
   <trkpt lat="-8.044944" lon="-34.898227">
    <ele>16.2</ele>
    <time>2019-09-09T13:00:19.000Z</time>
   </trkpt>
   <trkpt lat="-8.044988" lon="-34.898241">
    <ele>16.5</ele>
    <time>2019-09-09T13:00:20.000Z</time>
   </trkpt>
   <trkpt lat="-8.045038" lon="-34.898256">
    <ele>16.7</ele>
    <time>2019-09-09T13:00:21.000Z</time>
   </trkpt>
   <trkpt lat="-8.045084" lon="-34.898265">
    <ele>16.9</ele>
    <time>2019-09-09T13:00:22.000Z</time>
   </trkpt>
   <trkpt lat="-8.045116" lon="-34.898268">
    <ele>17.3</ele>
    <time>2019-09-09T13:00:23.000Z</time>
   </trkpt>
   <trkpt lat="-8.045163" lon="-34.898258">
    <ele>17.3</ele>
    <time>2019-09-09T13:00:25.000Z</time>
   </trkpt>
   <trkpt lat="-8.045181" lon="-34.898235">
    <ele>17.3</ele>
    <time>2019-09-09T13:00:26.000Z</time>
   </trkpt>
   <trkpt lat="-8.045182" lon="-34.8982">
    <ele>17.3</ele>
    <time>2019-09-09T13:00:27.000Z</time>
   </trkpt>
   <trkpt lat="-8.045194" lon="-34.898162">
    <ele>17.3</ele>
    <time>2019-09-09T13:00:28.000Z</time>
   </trkpt>
   <trkpt lat="-8.045202" lon="-34.898117">
    <ele>17.3</ele>
    <time>2019-09-09T13:00:29.000Z</time>
   </trkpt>
   <trkpt lat="-8.045187" lon="-34.898069">
    <ele>17.3</ele>
    <time>2019-09-09T13:00:31.000Z</time>
   </trkpt>
   <trkpt lat="-8.045188" lon="-34.89803">
    <ele>17.2</ele>
    <time>2019-09-09T13:00:32.000Z</time>
   </trkpt>
   <trkpt lat="-8.045185" lon="-34.897992">
    <ele>17.2</ele>
    <time>2019-09-09T13:00:33.000Z</time>
   </trkpt>
   <trkpt lat="-8.045188" lon="-34.897956">
    <ele>17.2</ele>
    <time>2019-09-09T13:00:34.000Z</time>
   </trkpt>
   <trkpt lat="-8.045195" lon="-34.897925">
    <ele>17.2</ele>
    <time>2019-09-09T13:00:35.000Z</time>
   </trkpt>
   <trkpt lat="-8.0452" lon="-34.897897">
    <ele>17.2</ele>
    <time>2019-09-09T13:00:36.000Z</time>
   </trkpt>
   <trkpt lat="-8.045224" lon="-34.897837">
    <ele>17.2</ele>
    <time>2019-09-09T13:00:38.000Z</time>
   </trkpt>
   <trkpt lat="-8.04528" lon="-34.897809">
    <ele>17.2</ele>
    <time>2019-09-09T13:00:39.000Z</time>
   </trkpt>
   <trkpt lat="-8.045309" lon="-34.897764">
    <ele>17.2</ele>
    <time>2019-09-09T13:00:40.000Z</time>
   </trkpt>
   <trkpt lat="-8.04533" lon="-34.897739">
    <ele>17.2</ele>
    <time>2019-09-09T13:00:41.000Z</time>
   </trkpt>
   <trkpt lat="-8.045356" lon="-34.897728">
    <ele>17.1</ele>
    <time>2019-09-09T13:00:42.000Z</time>
   </trkpt>
   <trkpt lat="-8.045396" lon="-34.897717">
    <ele>17</ele>
    <time>2019-09-09T13:00:44.000Z</time>
   </trkpt>
   <trkpt lat="-8.045429" lon="-34.897728">
    <ele>17</ele>
    <time>2019-09-09T13:00:45.000Z</time>
   </trkpt>
   <trkpt lat="-8.045485" lon="-34.897733">
    <ele>16.9</ele>
    <time>2019-09-09T13:00:47.000Z</time>
   </trkpt>
   <trkpt lat="-8.045519" lon="-34.89774">
    <ele>16.8</ele>
    <time>2019-09-09T13:00:48.000Z</time>
   </trkpt>
   <trkpt lat="-8.04555" lon="-34.897744">
    <ele>16.7</ele>
    <time>2019-09-09T13:00:49.000Z</time>
   </trkpt>
   <trkpt lat="-8.045586" lon="-34.897765">
    <ele>16.6</ele>
    <time>2019-09-09T13:00:50.000Z</time>
   </trkpt>
   <trkpt lat="-8.045622" lon="-34.897772">
    <ele>16.6</ele>
    <time>2019-09-09T13:00:51.000Z</time>
   </trkpt>
   <trkpt lat="-8.045659" lon="-34.897774">
    <ele>16.5</ele>
    <time>2019-09-09T13:00:52.000Z</time>
   </trkpt>
   <trkpt lat="-8.045703" lon="-34.89778">
    <ele>16.3</ele>
    <time>2019-09-09T13:00:53.000Z</time>
   </trkpt>
   <trkpt lat="-8.045748" lon="-34.897777">
    <ele>16.2</ele>
    <time>2019-09-09T13:00:54.000Z</time>
   </trkpt>
   <trkpt lat="-8.045789" lon="-34.897783">
    <ele>16.1</ele>
    <time>2019-09-09T13:00:55.000Z</time>
   </trkpt>
   <trkpt lat="-8.045832" lon="-34.897793">
    <ele>16</ele>
    <time>2019-09-09T13:00:56.000Z</time>
   </trkpt>
   <trkpt lat="-8.045882" lon="-34.897789">
    <ele>15.8</ele>
    <time>2019-09-09T13:00:57.000Z</time>
   </trkpt>
   <trkpt lat="-8.045929" lon="-34.897814">
    <ele>15.6</ele>
    <time>2019-09-09T13:00:58.000Z</time>
   </trkpt>
   <trkpt lat="-8.045975" lon="-34.897822">
    <ele>15.4</ele>
    <time>2019-09-09T13:00:59.000Z</time>
   </trkpt>
   <trkpt lat="-8.046027" lon="-34.897824">
    <ele>15.2</ele>
    <time>2019-09-09T13:01:00.000Z</time>
   </trkpt>
   <trkpt lat="-8.046078" lon="-34.89783">
    <ele>15</ele>
    <time>2019-09-09T13:01:01.000Z</time>
   </trkpt>
   <trkpt lat="-8.046113" lon="-34.897827">
    <ele>14.9</ele>
    <time>2019-09-09T13:01:02.000Z</time>
   </trkpt>
   <trkpt lat="-8.046146" lon="-34.897832">
    <ele>14.8</ele>
    <time>2019-09-09T13:01:03.000Z</time>
   </trkpt>
   <trkpt lat="-8.046175" lon="-34.897839">
    <ele>14.7</ele>
    <time>2019-09-09T13:01:04.000Z</time>
   </trkpt>
   <trkpt lat="-8.046223" lon="-34.897838">
    <ele>14.7</ele>
    <time>2019-09-09T13:01:06.000Z</time>
   </trkpt>
   <trkpt lat="-8.046278" lon="-34.897838">
    <ele>14.7</ele>
    <time>2019-09-09T13:01:08.000Z</time>
   </trkpt>
   <trkpt lat="-8.046327" lon="-34.89786">
    <ele>14.7</ele>
    <time>2019-09-09T13:01:09.000Z</time>
   </trkpt>
   <trkpt lat="-8.046372" lon="-34.897908">
    <ele>14.8</ele>
    <time>2019-09-09T13:01:10.000Z</time>
   </trkpt>
   <trkpt lat="-8.046411" lon="-34.897917">
    <ele>14.8</ele>
    <time>2019-09-09T13:01:11.000Z</time>
   </trkpt>
   <trkpt lat="-8.046445" lon="-34.89793">
    <ele>14.8</ele>
    <time>2019-09-09T13:01:12.000Z</time>
   </trkpt>
   <trkpt lat="-8.046487" lon="-34.897935">
    <ele>14.8</ele>
    <time>2019-09-09T13:01:13.000Z</time>
   </trkpt>
   <trkpt lat="-8.046524" lon="-34.897939">
    <ele>14.8</ele>
    <time>2019-09-09T13:01:14.000Z</time>
   </trkpt>
   <trkpt lat="-8.046553" lon="-34.897949">
    <ele>14.8</ele>
    <time>2019-09-09T13:01:15.000Z</time>
   </trkpt>
   <trkpt lat="-8.046591" lon="-34.897963">
    <ele>14.8</ele>
    <time>2019-09-09T13:01:16.000Z</time>
   </trkpt>
   <trkpt lat="-8.046638" lon="-34.897978">
    <ele>14.8</ele>
    <time>2019-09-09T13:01:17.000Z</time>
   </trkpt>
   <trkpt lat="-8.046679" lon="-34.898004">
    <ele>14.8</ele>
    <time>2019-09-09T13:01:18.000Z</time>
   </trkpt>
   <trkpt lat="-8.046715" lon="-34.898017">
    <ele>14.7</ele>
    <time>2019-09-09T13:01:19.000Z</time>
   </trkpt>
   <trkpt lat="-8.046756" lon="-34.898028">
    <ele>14.7</ele>
    <time>2019-09-09T13:01:20.000Z</time>
   </trkpt>
   <trkpt lat="-8.046798" lon="-34.898034">
    <ele>14.6</ele>
    <time>2019-09-09T13:01:21.000Z</time>
   </trkpt>
   <trkpt lat="-8.046843" lon="-34.898048">
    <ele>14.6</ele>
    <time>2019-09-09T13:01:22.000Z</time>
   </trkpt>
   <trkpt lat="-8.046887" lon="-34.898064">
    <ele>14.5</ele>
    <time>2019-09-09T13:01:23.000Z</time>
   </trkpt>
   <trkpt lat="-8.046916" lon="-34.898071">
    <ele>14.4</ele>
    <time>2019-09-09T13:01:24.000Z</time>
   </trkpt>
   <trkpt lat="-8.046951" lon="-34.898066">
    <ele>14.4</ele>
    <time>2019-09-09T13:01:25.000Z</time>
   </trkpt>
   <trkpt lat="-8.046982" lon="-34.898073">
    <ele>14.3</ele>
    <time>2019-09-09T13:01:26.000Z</time>
   </trkpt>
   <trkpt lat="-8.047014" lon="-34.898079">
    <ele>14.2</ele>
    <time>2019-09-09T13:01:27.000Z</time>
   </trkpt>
   <trkpt lat="-8.047048" lon="-34.898071">
    <ele>14.2</ele>
    <time>2019-09-09T13:01:28.000Z</time>
   </trkpt>
   <trkpt lat="-8.047083" lon="-34.89807">
    <ele>14.1</ele>
    <time>2019-09-09T13:01:29.000Z</time>
   </trkpt>
   <trkpt lat="-8.047122" lon="-34.898069">
    <ele>14</ele>
    <time>2019-09-09T13:01:30.000Z</time>
   </trkpt>
   <trkpt lat="-8.047147" lon="-34.898081">
    <ele>14</ele>
    <time>2019-09-09T13:01:31.000Z</time>
   </trkpt>
   <trkpt lat="-8.047172" lon="-34.898113">
    <ele>13.9</ele>
    <time>2019-09-09T13:01:33.000Z</time>
   </trkpt>
   <trkpt lat="-8.047204" lon="-34.898166">
    <ele>14.3</ele>
    <time>2019-09-09T13:01:35.000Z</time>
   </trkpt>
   <trkpt lat="-8.047222" lon="-34.898192">
    <ele>14.6</ele>
    <time>2019-09-09T13:01:36.000Z</time>
   </trkpt>
   <trkpt lat="-8.047239" lon="-34.898223">
    <ele>14.9</ele>
    <time>2019-09-09T13:01:37.000Z</time>
   </trkpt>
   <trkpt lat="-8.047234" lon="-34.898257">
    <ele>15.2</ele>
    <time>2019-09-09T13:01:38.000Z</time>
   </trkpt>
   <trkpt lat="-8.047238" lon="-34.898297">
    <ele>15.5</ele>
    <time>2019-09-09T13:01:39.000Z</time>
   </trkpt>
   <trkpt lat="-8.047238" lon="-34.89834">
    <ele>15.6</ele>
    <time>2019-09-09T13:01:40.000Z</time>
   </trkpt>
   <trkpt lat="-8.047226" lon="-34.898391">
    <ele>15.8</ele>
    <time>2019-09-09T13:01:41.000Z</time>
   </trkpt>
   <trkpt lat="-8.047227" lon="-34.898429">
    <ele>15.9</ele>
    <time>2019-09-09T13:01:42.000Z</time>
   </trkpt>
   <trkpt lat="-8.047225" lon="-34.898483">
    <ele>16</ele>
    <time>2019-09-09T13:01:43.000Z</time>
   </trkpt>
   <trkpt lat="-8.047223" lon="-34.898534">
    <ele>16</ele>
    <time>2019-09-09T13:01:44.000Z</time>
   </trkpt>
   <trkpt lat="-8.047227" lon="-34.89857">
    <ele>16</ele>
    <time>2019-09-09T13:01:45.000Z</time>
   </trkpt>
   <trkpt lat="-8.047233" lon="-34.898607">
    <ele>15.9</ele>
    <time>2019-09-09T13:01:46.000Z</time>
   </trkpt>
   <trkpt lat="-8.047261" lon="-34.898651">
    <ele>15.8</ele>
    <time>2019-09-09T13:01:47.000Z</time>
   </trkpt>
   <trkpt lat="-8.04727" lon="-34.89869">
    <ele>15.8</ele>
    <time>2019-09-09T13:01:48.000Z</time>
   </trkpt>
   <trkpt lat="-8.04728" lon="-34.898731">
    <ele>15.8</ele>
    <time>2019-09-09T13:01:49.000Z</time>
   </trkpt>
   <trkpt lat="-8.047285" lon="-34.898758">
    <ele>15.8</ele>
    <time>2019-09-09T13:01:50.000Z</time>
   </trkpt>
   <trkpt lat="-8.047294" lon="-34.898796">
    <ele>15.8</ele>
    <time>2019-09-09T13:01:51.000Z</time>
   </trkpt>
   <trkpt lat="-8.047283" lon="-34.89883">
    <ele>15.8</ele>
    <time>2019-09-09T13:01:52.000Z</time>
   </trkpt>
   <trkpt lat="-8.047278" lon="-34.89888">
    <ele>15.7</ele>
    <time>2019-09-09T13:01:53.000Z</time>
   </trkpt>
   <trkpt lat="-8.047278" lon="-34.898931">
    <ele>15.5</ele>
    <time>2019-09-09T13:01:54.000Z</time>
   </trkpt>
   <trkpt lat="-8.0473" lon="-34.89903">
    <ele>15.3</ele>
    <time>2019-09-09T13:01:55.000Z</time>
   </trkpt>
   <trkpt lat="-8.047301" lon="-34.899094">
    <ele>15.2</ele>
    <time>2019-09-09T13:01:56.000Z</time>
   </trkpt>
   <trkpt lat="-8.047296" lon="-34.899154">
    <ele>15.1</ele>
    <time>2019-09-09T13:01:57.000Z</time>
   </trkpt>
   <trkpt lat="-8.047274" lon="-34.899203">
    <ele>15</ele>
    <time>2019-09-09T13:01:58.000Z</time>
   </trkpt>
   <trkpt lat="-8.047257" lon="-34.899259">
    <ele>14.9</ele>
    <time>2019-09-09T13:01:59.000Z</time>
   </trkpt>
   <trkpt lat="-8.047239" lon="-34.899316">
    <ele>14.7</ele>
    <time>2019-09-09T13:02:00.000Z</time>
   </trkpt>
   <trkpt lat="-8.047214" lon="-34.899373">
    <ele>14.6</ele>
    <time>2019-09-09T13:02:01.000Z</time>
   </trkpt>
   <trkpt lat="-8.047216" lon="-34.89943">
    <ele>14.5</ele>
    <time>2019-09-09T13:02:02.000Z</time>
   </trkpt>
   <trkpt lat="-8.047214" lon="-34.899469">
    <ele>14.4</ele>
    <time>2019-09-09T13:02:03.000Z</time>
   </trkpt>
   <trkpt lat="-8.047218" lon="-34.899518">
    <ele>14.3</ele>
    <time>2019-09-09T13:02:04.000Z</time>
   </trkpt>
   <trkpt lat="-8.047226" lon="-34.899547">
    <ele>14.3</ele>
    <time>2019-09-09T13:02:05.000Z</time>
   </trkpt>
   <trkpt lat="-8.047243" lon="-34.899582">
    <ele>14.2</ele>
    <time>2019-09-09T13:02:06.000Z</time>
   </trkpt>
   <trkpt lat="-8.047252" lon="-34.899621">
    <ele>14.2</ele>
    <time>2019-09-09T13:02:07.000Z</time>
   </trkpt>
   <trkpt lat="-8.047256" lon="-34.899654">
    <ele>14.1</ele>
    <time>2019-09-09T13:02:08.000Z</time>
   </trkpt>
   <trkpt lat="-8.047265" lon="-34.899681">
    <ele>13.9</ele>
    <time>2019-09-09T13:02:09.000Z</time>
   </trkpt>
   <trkpt lat="-8.047296" lon="-34.8997">
    <ele>13.8</ele>
    <time>2019-09-09T13:02:11.000Z</time>
   </trkpt>
   <trkpt lat="-8.047327" lon="-34.899691">
    <ele>13.8</ele>
    <time>2019-09-09T13:02:13.000Z</time>
   </trkpt>
   <trkpt lat="-8.047361" lon="-34.899682">
    <ele>13.7</ele>
    <time>2019-09-09T13:02:15.000Z</time>
   </trkpt>
   <trkpt lat="-8.0474" lon="-34.899694">
    <ele>13.6</ele>
    <time>2019-09-09T13:02:17.000Z</time>
   </trkpt>
   <trkpt lat="-8.047429" lon="-34.899718">
    <ele>13.6</ele>
    <time>2019-09-09T13:02:19.000Z</time>
   </trkpt>
   <trkpt lat="-8.047445" lon="-34.899751">
    <ele>13.5</ele>
    <time>2019-09-09T13:02:24.000Z</time>
   </trkpt>
   <trkpt lat="-8.047429" lon="-34.899778">
    <ele>13.5</ele>
    <time>2019-09-09T13:02:29.000Z</time>
   </trkpt>
   <trkpt lat="-8.047452" lon="-34.899826">
    <ele>13.4</ele>
    <time>2019-09-09T13:03:38.000Z</time>
   </trkpt>
   <trkpt lat="-8.047494" lon="-34.899847">
    <ele>13.3</ele>
    <time>2019-09-09T13:03:40.000Z</time>
   </trkpt>
   <trkpt lat="-8.047543" lon="-34.899872">
    <ele>13.2</ele>
    <time>2019-09-09T13:03:42.000Z</time>
   </trkpt>
   <trkpt lat="-8.047594" lon="-34.899889">
    <ele>13.2</ele>
    <time>2019-09-09T13:03:44.000Z</time>
   </trkpt>
   <trkpt lat="-8.047625" lon="-34.899896">
    <ele>13.1</ele>
    <time>2019-09-09T13:03:45.000Z</time>
   </trkpt>
   <trkpt lat="-8.047661" lon="-34.899913">
    <ele>13.2</ele>
    <time>2019-09-09T13:03:46.000Z</time>
   </trkpt>
   <trkpt lat="-8.0477" lon="-34.89993">
    <ele>13.2</ele>
    <time>2019-09-09T13:03:47.000Z</time>
   </trkpt>
   <trkpt lat="-8.047741" lon="-34.899956">
    <ele>13.3</ele>
    <time>2019-09-09T13:03:48.000Z</time>
   </trkpt>
   <trkpt lat="-8.047786" lon="-34.899979">
    <ele>13.4</ele>
    <time>2019-09-09T13:03:49.000Z</time>
   </trkpt>
   <trkpt lat="-8.04783" lon="-34.900005">
    <ele>13.4</ele>
    <time>2019-09-09T13:03:50.000Z</time>
   </trkpt>
   <trkpt lat="-8.047877" lon="-34.900032">
    <ele>13.5</ele>
    <time>2019-09-09T13:03:51.000Z</time>
   </trkpt>
   <trkpt lat="-8.04791" lon="-34.900051">
    <ele>13.5</ele>
    <time>2019-09-09T13:03:52.000Z</time>
   </trkpt>
   <trkpt lat="-8.047947" lon="-34.900072">
    <ele>13.6</ele>
    <time>2019-09-09T13:03:53.000Z</time>
   </trkpt>
   <trkpt lat="-8.047979" lon="-34.900098">
    <ele>13.7</ele>
    <time>2019-09-09T13:03:54.000Z</time>
   </trkpt>
   <trkpt lat="-8.048014" lon="-34.900129">
    <ele>13.7</ele>
    <time>2019-09-09T13:03:55.000Z</time>
   </trkpt>
   <trkpt lat="-8.048049" lon="-34.900152">
    <ele>13.8</ele>
    <time>2019-09-09T13:03:56.000Z</time>
   </trkpt>
   <trkpt lat="-8.048097" lon="-34.900161">
    <ele>13.8</ele>
    <time>2019-09-09T13:03:57.000Z</time>
   </trkpt>
   <trkpt lat="-8.048139" lon="-34.900182">
    <ele>13.9</ele>
    <time>2019-09-09T13:03:58.000Z</time>
   </trkpt>
   <trkpt lat="-8.04818" lon="-34.900214">
    <ele>13.9</ele>
    <time>2019-09-09T13:03:59.000Z</time>
   </trkpt>
   <trkpt lat="-8.04821" lon="-34.900249">
    <ele>14</ele>
    <time>2019-09-09T13:04:00.000Z</time>
   </trkpt>
   <trkpt lat="-8.048241" lon="-34.90028">
    <ele>14</ele>
    <time>2019-09-09T13:04:01.000Z</time>
   </trkpt>
   <trkpt lat="-8.048272" lon="-34.900315">
    <ele>14.1</ele>
    <time>2019-09-09T13:04:02.000Z</time>
   </trkpt>
   <trkpt lat="-8.048314" lon="-34.900342">
    <ele>14.2</ele>
    <time>2019-09-09T13:04:03.000Z</time>
   </trkpt>
   <trkpt lat="-8.048359" lon="-34.900368">
    <ele>14.2</ele>
    <time>2019-09-09T13:04:04.000Z</time>
   </trkpt>
   <trkpt lat="-8.048402" lon="-34.90039">
    <ele>14.3</ele>
    <time>2019-09-09T13:04:05.000Z</time>
   </trkpt>
   <trkpt lat="-8.048433" lon="-34.900413">
    <ele>14.3</ele>
    <time>2019-09-09T13:04:06.000Z</time>
   </trkpt>
   <trkpt lat="-8.048471" lon="-34.900433">
    <ele>14.4</ele>
    <time>2019-09-09T13:04:07.000Z</time>
   </trkpt>
   <trkpt lat="-8.048508" lon="-34.900448">
    <ele>14.4</ele>
    <time>2019-09-09T13:04:08.000Z</time>
   </trkpt>
   <trkpt lat="-8.048549" lon="-34.900456">
    <ele>14.5</ele>
    <time>2019-09-09T13:04:09.000Z</time>
   </trkpt>
   <trkpt lat="-8.048584" lon="-34.900462">
    <ele>14.5</ele>
    <time>2019-09-09T13:04:10.000Z</time>
   </trkpt>
   <trkpt lat="-8.048614" lon="-34.90046">
    <ele>14.6</ele>
    <time>2019-09-09T13:04:11.000Z</time>
   </trkpt>
   <trkpt lat="-8.048663" lon="-34.900462">
    <ele>14.6</ele>
    <time>2019-09-09T13:04:12.000Z</time>
   </trkpt>
   <trkpt lat="-8.048713" lon="-34.900466">
    <ele>14.7</ele>
    <time>2019-09-09T13:04:13.000Z</time>
   </trkpt>
   <trkpt lat="-8.048759" lon="-34.900478">
    <ele>14.7</ele>
    <time>2019-09-09T13:04:14.000Z</time>
   </trkpt>
   <trkpt lat="-8.048806" lon="-34.900493">
    <ele>14.8</ele>
    <time>2019-09-09T13:04:15.000Z</time>
   </trkpt>
   <trkpt lat="-8.048853" lon="-34.900513">
    <ele>14.9</ele>
    <time>2019-09-09T13:04:16.000Z</time>
   </trkpt>
   <trkpt lat="-8.048903" lon="-34.900528">
    <ele>14.9</ele>
    <time>2019-09-09T13:04:17.000Z</time>
   </trkpt>
   <trkpt lat="-8.048927" lon="-34.900567">
    <ele>15</ele>
    <time>2019-09-09T13:04:18.000Z</time>
   </trkpt>
   <trkpt lat="-8.048974" lon="-34.900592">
    <ele>15</ele>
    <time>2019-09-09T13:04:19.000Z</time>
   </trkpt>
   <trkpt lat="-8.049025" lon="-34.900611">
    <ele>14.9</ele>
    <time>2019-09-09T13:04:20.000Z</time>
   </trkpt>
   <trkpt lat="-8.049063" lon="-34.900636">
    <ele>14.9</ele>
    <time>2019-09-09T13:04:21.000Z</time>
   </trkpt>
   <trkpt lat="-8.049101" lon="-34.900662">
    <ele>14.9</ele>
    <time>2019-09-09T13:04:22.000Z</time>
   </trkpt>
   <trkpt lat="-8.049143" lon="-34.900683">
    <ele>14.9</ele>
    <time>2019-09-09T13:04:23.000Z</time>
   </trkpt>
   <trkpt lat="-8.04918" lon="-34.900723">
    <ele>14.8</ele>
    <time>2019-09-09T13:04:24.000Z</time>
   </trkpt>
   <trkpt lat="-8.049227" lon="-34.900746">
    <ele>14.7</ele>
    <time>2019-09-09T13:04:25.000Z</time>
   </trkpt>
   <trkpt lat="-8.049259" lon="-34.900774">
    <ele>14.5</ele>
    <time>2019-09-09T13:04:26.000Z</time>
   </trkpt>
   <trkpt lat="-8.049296" lon="-34.900803">
    <ele>14.4</ele>
    <time>2019-09-09T13:04:27.000Z</time>
   </trkpt>
   <trkpt lat="-8.049338" lon="-34.900823">
    <ele>14.1</ele>
    <time>2019-09-09T13:04:28.000Z</time>
   </trkpt>
   <trkpt lat="-8.04938" lon="-34.900841">
    <ele>13.9</ele>
    <time>2019-09-09T13:04:29.000Z</time>
   </trkpt>
   <trkpt lat="-8.04942" lon="-34.900861">
    <ele>13.7</ele>
    <time>2019-09-09T13:04:30.000Z</time>
   </trkpt>
   <trkpt lat="-8.049453" lon="-34.900882">
    <ele>13.5</ele>
    <time>2019-09-09T13:04:31.000Z</time>
   </trkpt>
   <trkpt lat="-8.049491" lon="-34.900906">
    <ele>13.3</ele>
    <time>2019-09-09T13:04:32.000Z</time>
   </trkpt>
   <trkpt lat="-8.049546" lon="-34.90093">
    <ele>13.2</ele>
    <time>2019-09-09T13:04:33.000Z</time>
   </trkpt>
   <trkpt lat="-8.049593" lon="-34.900954">
    <ele>13.1</ele>
    <time>2019-09-09T13:04:34.000Z</time>
   </trkpt>
   <trkpt lat="-8.049629" lon="-34.900969">
    <ele>13</ele>
    <time>2019-09-09T13:04:35.000Z</time>
   </trkpt>
   <trkpt lat="-8.049659" lon="-34.900984">
    <ele>13</ele>
    <time>2019-09-09T13:04:36.000Z</time>
   </trkpt>
   <trkpt lat="-8.049696" lon="-34.900993">
    <ele>13</ele>
    <time>2019-09-09T13:04:37.000Z</time>
   </trkpt>
   <trkpt lat="-8.049734" lon="-34.900998">
    <ele>13</ele>
    <time>2019-09-09T13:04:38.000Z</time>
   </trkpt>
   <trkpt lat="-8.049763" lon="-34.90101">
    <ele>12.9</ele>
    <time>2019-09-09T13:04:39.000Z</time>
   </trkpt>
   <trkpt lat="-8.049801" lon="-34.901022">
    <ele>12.9</ele>
    <time>2019-09-09T13:04:40.000Z</time>
   </trkpt>
   <trkpt lat="-8.049836" lon="-34.901029">
    <ele>12.9</ele>
    <time>2019-09-09T13:04:41.000Z</time>
   </trkpt>
   <trkpt lat="-8.049877" lon="-34.901037">
    <ele>12.9</ele>
    <time>2019-09-09T13:04:42.000Z</time>
   </trkpt>
   <trkpt lat="-8.049915" lon="-34.901043">
    <ele>12.9</ele>
    <time>2019-09-09T13:04:43.000Z</time>
   </trkpt>
   <trkpt lat="-8.049954" lon="-34.901055">
    <ele>12.8</ele>
    <time>2019-09-09T13:04:44.000Z</time>
   </trkpt>
   <trkpt lat="-8.04999" lon="-34.901058">
    <ele>12.8</ele>
    <time>2019-09-09T13:04:45.000Z</time>
   </trkpt>
   <trkpt lat="-8.050034" lon="-34.901055">
    <ele>12.8</ele>
    <time>2019-09-09T13:04:46.000Z</time>
   </trkpt>
   <trkpt lat="-8.050081" lon="-34.901054">
    <ele>12.8</ele>
    <time>2019-09-09T13:04:47.000Z</time>
   </trkpt>
   <trkpt lat="-8.050125" lon="-34.901061">
    <ele>12.8</ele>
    <time>2019-09-09T13:04:48.000Z</time>
   </trkpt>
   <trkpt lat="-8.050173" lon="-34.901065">
    <ele>12.7</ele>
    <time>2019-09-09T13:04:49.000Z</time>
   </trkpt>
   <trkpt lat="-8.050221" lon="-34.901069">
    <ele>12.7</ele>
    <time>2019-09-09T13:04:50.000Z</time>
   </trkpt>
   <trkpt lat="-8.050267" lon="-34.901077">
    <ele>12.7</ele>
    <time>2019-09-09T13:04:51.000Z</time>
   </trkpt>
   <trkpt lat="-8.050313" lon="-34.901082">
    <ele>12.7</ele>
    <time>2019-09-09T13:04:52.000Z</time>
   </trkpt>
   <trkpt lat="-8.050358" lon="-34.901084">
    <ele>12.6</ele>
    <time>2019-09-09T13:04:53.000Z</time>
   </trkpt>
   <trkpt lat="-8.05039" lon="-34.901084">
    <ele>12.6</ele>
    <time>2019-09-09T13:04:54.000Z</time>
   </trkpt>
   <trkpt lat="-8.050441" lon="-34.901084">
    <ele>12.6</ele>
    <time>2019-09-09T13:04:56.000Z</time>
   </trkpt>
   <trkpt lat="-8.050484" lon="-34.901092">
    <ele>12.6</ele>
    <time>2019-09-09T13:04:58.000Z</time>
   </trkpt>
   <trkpt lat="-8.050511" lon="-34.901086">
    <ele>12.6</ele>
    <time>2019-09-09T13:04:59.000Z</time>
   </trkpt>
   <trkpt lat="-8.050561" lon="-34.901073">
    <ele>12.5</ele>
    <time>2019-09-09T13:05:01.000Z</time>
   </trkpt>
   <trkpt lat="-8.050588" lon="-34.901065">
    <ele>12.5</ele>
    <time>2019-09-09T13:05:02.000Z</time>
   </trkpt>
   <trkpt lat="-8.050614" lon="-34.901056">
    <ele>12.5</ele>
    <time>2019-09-09T13:05:03.000Z</time>
   </trkpt>
   <trkpt lat="-8.050637" lon="-34.901041">
    <ele>12.5</ele>
    <time>2019-09-09T13:05:04.000Z</time>
   </trkpt>
   <trkpt lat="-8.050665" lon="-34.901036">
    <ele>12.5</ele>
    <time>2019-09-09T13:05:06.000Z</time>
   </trkpt>
   <trkpt lat="-8.050697" lon="-34.901059">
    <ele>12.5</ele>
    <time>2019-09-09T13:05:09.000Z</time>
   </trkpt>
   <trkpt lat="-8.050721" lon="-34.901046">
    <ele>12.4</ele>
    <time>2019-09-09T13:05:13.000Z</time>
   </trkpt>
   <trkpt lat="-8.050777" lon="-34.90104">
    <ele>12.4</ele>
    <time>2019-09-09T13:05:15.000Z</time>
   </trkpt>
   <trkpt lat="-8.05083" lon="-34.901069">
    <ele>12.4</ele>
    <time>2019-09-09T13:05:16.000Z</time>
   </trkpt>
   <trkpt lat="-8.050876" lon="-34.901104">
    <ele>12.4</ele>
    <time>2019-09-09T13:05:17.000Z</time>
   </trkpt>
   <trkpt lat="-8.050899" lon="-34.901134">
    <ele>12.4</ele>
    <time>2019-09-09T13:05:18.000Z</time>
   </trkpt>
   <trkpt lat="-8.050904" lon="-34.901166">
    <ele>12.5</ele>
    <time>2019-09-09T13:05:19.000Z</time>
   </trkpt>
   <trkpt lat="-8.050916" lon="-34.901199">
    <ele>12.5</ele>
    <time>2019-09-09T13:05:20.000Z</time>
   </trkpt>
   <trkpt lat="-8.050922" lon="-34.901233">
    <ele>12.5</ele>
    <time>2019-09-09T13:05:21.000Z</time>
   </trkpt>
   <trkpt lat="-8.050909" lon="-34.901279">
    <ele>12.6</ele>
    <time>2019-09-09T13:05:22.000Z</time>
   </trkpt>
   <trkpt lat="-8.050908" lon="-34.901328">
    <ele>12.6</ele>
    <time>2019-09-09T13:05:23.000Z</time>
   </trkpt>
   <trkpt lat="-8.050915" lon="-34.901389">
    <ele>12.7</ele>
    <time>2019-09-09T13:05:24.000Z</time>
   </trkpt>
   <trkpt lat="-8.050925" lon="-34.901438">
    <ele>12.7</ele>
    <time>2019-09-09T13:05:25.000Z</time>
   </trkpt>
   <trkpt lat="-8.050928" lon="-34.90147">
    <ele>12.7</ele>
    <time>2019-09-09T13:05:26.000Z</time>
   </trkpt>
   <trkpt lat="-8.05093" lon="-34.901499">
    <ele>12.8</ele>
    <time>2019-09-09T13:05:27.000Z</time>
   </trkpt>
   <trkpt lat="-8.050938" lon="-34.901525">
    <ele>12.8</ele>
    <time>2019-09-09T13:05:28.000Z</time>
   </trkpt>
   <trkpt lat="-8.050934" lon="-34.90156">
    <ele>12.8</ele>
    <time>2019-09-09T13:05:29.000Z</time>
   </trkpt>
   <trkpt lat="-8.050929" lon="-34.901589">
    <ele>12.9</ele>
    <time>2019-09-09T13:05:30.000Z</time>
   </trkpt>
   <trkpt lat="-8.050925" lon="-34.901621">
    <ele>12.9</ele>
    <time>2019-09-09T13:05:32.000Z</time>
   </trkpt>
   <trkpt lat="-8.050906" lon="-34.901665">
    <ele>12.9</ele>
    <time>2019-09-09T13:05:34.000Z</time>
   </trkpt>
   <trkpt lat="-8.050885" lon="-34.901718">
    <ele>13</ele>
    <time>2019-09-09T13:05:36.000Z</time>
   </trkpt>
   <trkpt lat="-8.050871" lon="-34.901776">
    <ele>13.1</ele>
    <time>2019-09-09T13:05:38.000Z</time>
   </trkpt>
   <trkpt lat="-8.050879" lon="-34.901812">
    <ele>13.4</ele>
    <time>2019-09-09T13:05:39.000Z</time>
   </trkpt>
   <trkpt lat="-8.05089" lon="-34.901846">
    <ele>13.7</ele>
    <time>2019-09-09T13:05:40.000Z</time>
   </trkpt>
   <trkpt lat="-8.050916" lon="-34.901872">
    <ele>14.9</ele>
    <time>2019-09-09T13:05:41.000Z</time>
   </trkpt>
   <trkpt lat="-8.050951" lon="-34.901887">
    <ele>14.8</ele>
    <time>2019-09-09T13:05:42.000Z</time>
   </trkpt>
   <trkpt lat="-8.050983" lon="-34.901903">
    <ele>14.8</ele>
    <time>2019-09-09T13:05:43.000Z</time>
   </trkpt>
   <trkpt lat="-8.051016" lon="-34.901921">
    <ele>14.7</ele>
    <time>2019-09-09T13:05:44.000Z</time>
   </trkpt>
   <trkpt lat="-8.051048" lon="-34.901943">
    <ele>14.6</ele>
    <time>2019-09-09T13:05:45.000Z</time>
   </trkpt>
   <trkpt lat="-8.051084" lon="-34.901952">
    <ele>14.6</ele>
    <time>2019-09-09T13:05:46.000Z</time>
   </trkpt>
   <trkpt lat="-8.051125" lon="-34.901957">
    <ele>14.5</ele>
    <time>2019-09-09T13:05:47.000Z</time>
   </trkpt>
   <trkpt lat="-8.051162" lon="-34.901965">
    <ele>14.5</ele>
    <time>2019-09-09T13:05:48.000Z</time>
   </trkpt>
   <trkpt lat="-8.051203" lon="-34.901972">
    <ele>14.4</ele>
    <time>2019-09-09T13:05:49.000Z</time>
   </trkpt>
   <trkpt lat="-8.051246" lon="-34.901983">
    <ele>14.3</ele>
    <time>2019-09-09T13:05:50.000Z</time>
   </trkpt>
   <trkpt lat="-8.051288" lon="-34.901988">
    <ele>14.3</ele>
    <time>2019-09-09T13:05:51.000Z</time>
   </trkpt>
   <trkpt lat="-8.051325" lon="-34.901995">
    <ele>14.2</ele>
    <time>2019-09-09T13:05:52.000Z</time>
   </trkpt>
   <trkpt lat="-8.051359" lon="-34.902002">
    <ele>14.2</ele>
    <time>2019-09-09T13:05:53.000Z</time>
   </trkpt>
   <trkpt lat="-8.051397" lon="-34.902012">
    <ele>14.1</ele>
    <time>2019-09-09T13:05:54.000Z</time>
   </trkpt>
   <trkpt lat="-8.05143" lon="-34.902014">
    <ele>14.1</ele>
    <time>2019-09-09T13:05:55.000Z</time>
   </trkpt>
   <trkpt lat="-8.051466" lon="-34.902017">
    <ele>14</ele>
    <time>2019-09-09T13:05:56.000Z</time>
   </trkpt>
   <trkpt lat="-8.0515" lon="-34.902022">
    <ele>14</ele>
    <time>2019-09-09T13:05:57.000Z</time>
   </trkpt>
   <trkpt lat="-8.051537" lon="-34.902025">
    <ele>13.9</ele>
    <time>2019-09-09T13:05:58.000Z</time>
   </trkpt>
   <trkpt lat="-8.05157" lon="-34.902024">
    <ele>13.8</ele>
    <time>2019-09-09T13:05:59.000Z</time>
   </trkpt>
   <trkpt lat="-8.051598" lon="-34.902053">
    <ele>13.7</ele>
    <time>2019-09-09T13:06:00.000Z</time>
   </trkpt>
   <trkpt lat="-8.051626" lon="-34.902091">
    <ele>13.5</ele>
    <time>2019-09-09T13:06:01.000Z</time>
   </trkpt>
   <trkpt lat="-8.051657" lon="-34.902086">
    <ele>13.3</ele>
    <time>2019-09-09T13:06:02.000Z</time>
   </trkpt>
   <trkpt lat="-8.051687" lon="-34.902077">
    <ele>13.1</ele>
    <time>2019-09-09T13:06:03.000Z</time>
   </trkpt>
   <trkpt lat="-8.05172" lon="-34.902072">
    <ele>13</ele>
    <time>2019-09-09T13:06:04.000Z</time>
   </trkpt>
   <trkpt lat="-8.05176" lon="-34.902071">
    <ele>12.7</ele>
    <time>2019-09-09T13:06:05.000Z</time>
   </trkpt>
   <trkpt lat="-8.051792" lon="-34.902081">
    <ele>12.5</ele>
    <time>2019-09-09T13:06:06.000Z</time>
   </trkpt>
   <trkpt lat="-8.051821" lon="-34.902092">
    <ele>12.4</ele>
    <time>2019-09-09T13:06:07.000Z</time>
   </trkpt>
   <trkpt lat="-8.051877" lon="-34.902107">
    <ele>12.1</ele>
    <time>2019-09-09T13:06:09.000Z</time>
   </trkpt>
   <trkpt lat="-8.051906" lon="-34.902112">
    <ele>12</ele>
    <time>2019-09-09T13:06:10.000Z</time>
   </trkpt>
   <trkpt lat="-8.051946" lon="-34.902124">
    <ele>11.8</ele>
    <time>2019-09-09T13:06:11.000Z</time>
   </trkpt>
   <trkpt lat="-8.051985" lon="-34.902141">
    <ele>11.7</ele>
    <time>2019-09-09T13:06:12.000Z</time>
   </trkpt>
   <trkpt lat="-8.052022" lon="-34.902155">
    <ele>11.6</ele>
    <time>2019-09-09T13:06:13.000Z</time>
   </trkpt>
   <trkpt lat="-8.052063" lon="-34.902167">
    <ele>11.5</ele>
    <time>2019-09-09T13:06:14.000Z</time>
   </trkpt>
   <trkpt lat="-8.052102" lon="-34.902176">
    <ele>11.5</ele>
    <time>2019-09-09T13:06:15.000Z</time>
   </trkpt>
   <trkpt lat="-8.052142" lon="-34.902171">
    <ele>11.4</ele>
    <time>2019-09-09T13:06:16.000Z</time>
   </trkpt>
   <trkpt lat="-8.052184" lon="-34.902167">
    <ele>11.3</ele>
    <time>2019-09-09T13:06:17.000Z</time>
   </trkpt>
   <trkpt lat="-8.052223" lon="-34.902178">
    <ele>11.3</ele>
    <time>2019-09-09T13:06:18.000Z</time>
   </trkpt>
   <trkpt lat="-8.052267" lon="-34.902182">
    <ele>11.2</ele>
    <time>2019-09-09T13:06:19.000Z</time>
   </trkpt>
   <trkpt lat="-8.052307" lon="-34.902188">
    <ele>11.2</ele>
    <time>2019-09-09T13:06:20.000Z</time>
   </trkpt>
   <trkpt lat="-8.052346" lon="-34.902191">
    <ele>11.1</ele>
    <time>2019-09-09T13:06:21.000Z</time>
   </trkpt>
   <trkpt lat="-8.052381" lon="-34.902188">
    <ele>11</ele>
    <time>2019-09-09T13:06:22.000Z</time>
   </trkpt>
   <trkpt lat="-8.052412" lon="-34.902194">
    <ele>11</ele>
    <time>2019-09-09T13:06:23.000Z</time>
   </trkpt>
   <trkpt lat="-8.052441" lon="-34.902203">
    <ele>11</ele>
    <time>2019-09-09T13:06:24.000Z</time>
   </trkpt>
   <trkpt lat="-8.052476" lon="-34.90221">
    <ele>11</ele>
    <time>2019-09-09T13:06:25.000Z</time>
   </trkpt>
   <trkpt lat="-8.052529" lon="-34.902209">
    <ele>11</ele>
    <time>2019-09-09T13:06:27.000Z</time>
   </trkpt>
   <trkpt lat="-8.052558" lon="-34.902211">
    <ele>11</ele>
    <time>2019-09-09T13:06:29.000Z</time>
   </trkpt>
   <trkpt lat="-8.052588" lon="-34.90222">
    <ele>11</ele>
    <time>2019-09-09T13:06:39.000Z</time>
   </trkpt>
   <trkpt lat="-8.052622" lon="-34.902223">
    <ele>11</ele>
    <time>2019-09-09T13:06:42.000Z</time>
   </trkpt>
   <trkpt lat="-8.052654" lon="-34.902228">
    <ele>11</ele>
    <time>2019-09-09T13:06:45.000Z</time>
   </trkpt>
   <trkpt lat="-8.05268" lon="-34.902239">
    <ele>11</ele>
    <time>2019-09-09T13:06:47.000Z</time>
   </trkpt>
   <trkpt lat="-8.052727" lon="-34.902234">
    <ele>11</ele>
    <time>2019-09-09T13:07:51.000Z</time>
   </trkpt>
   <trkpt lat="-8.052769" lon="-34.902242">
    <ele>11</ele>
    <time>2019-09-09T13:07:53.000Z</time>
   </trkpt>
   <trkpt lat="-8.052821" lon="-34.902236">
    <ele>11</ele>
    <time>2019-09-09T13:07:55.000Z</time>
   </trkpt>
   <trkpt lat="-8.052849" lon="-34.902235">
    <ele>11.2</ele>
    <time>2019-09-09T13:07:56.000Z</time>
   </trkpt>
   <trkpt lat="-8.052876" lon="-34.902245">
    <ele>11.6</ele>
    <time>2019-09-09T13:07:57.000Z</time>
   </trkpt>
   <trkpt lat="-8.052903" lon="-34.902234">
    <ele>12.1</ele>
    <time>2019-09-09T13:07:58.000Z</time>
   </trkpt>
   <trkpt lat="-8.052937" lon="-34.902225">
    <ele>12.4</ele>
    <time>2019-09-09T13:07:59.000Z</time>
   </trkpt>
   <trkpt lat="-8.052973" lon="-34.902217">
    <ele>12.9</ele>
    <time>2019-09-09T13:08:00.000Z</time>
   </trkpt>
   <trkpt lat="-8.053019" lon="-34.902206">
    <ele>13.7</ele>
    <time>2019-09-09T13:08:01.000Z</time>
   </trkpt>
   <trkpt lat="-8.053064" lon="-34.902199">
    <ele>13.9</ele>
    <time>2019-09-09T13:08:02.000Z</time>
   </trkpt>
   <trkpt lat="-8.053099" lon="-34.902193">
    <ele>14.1</ele>
    <time>2019-09-09T13:08:03.000Z</time>
   </trkpt>
   <trkpt lat="-8.053132" lon="-34.902189">
    <ele>14.5</ele>
    <time>2019-09-09T13:08:04.000Z</time>
   </trkpt>
   <trkpt lat="-8.053166" lon="-34.902181">
    <ele>14.9</ele>
    <time>2019-09-09T13:08:05.000Z</time>
   </trkpt>
   <trkpt lat="-8.053203" lon="-34.902168">
    <ele>14.9</ele>
    <time>2019-09-09T13:08:06.000Z</time>
   </trkpt>
   <trkpt lat="-8.053238" lon="-34.902147">
    <ele>14.9</ele>
    <time>2019-09-09T13:08:07.000Z</time>
   </trkpt>
   <trkpt lat="-8.053273" lon="-34.902116">
    <ele>15.1</ele>
    <time>2019-09-09T13:08:08.000Z</time>
   </trkpt>
   <trkpt lat="-8.05331" lon="-34.90209">
    <ele>15.3</ele>
    <time>2019-09-09T13:08:09.000Z</time>
   </trkpt>
   <trkpt lat="-8.05335" lon="-34.90207">
    <ele>15.5</ele>
    <time>2019-09-09T13:08:10.000Z</time>
   </trkpt>
   <trkpt lat="-8.053389" lon="-34.902058">
    <ele>15.6</ele>
    <time>2019-09-09T13:08:11.000Z</time>
   </trkpt>
   <trkpt lat="-8.053431" lon="-34.902045">
    <ele>15.8</ele>
    <time>2019-09-09T13:08:12.000Z</time>
   </trkpt>
   <trkpt lat="-8.053477" lon="-34.902039">
    <ele>16</ele>
    <time>2019-09-09T13:08:13.000Z</time>
   </trkpt>
   <trkpt lat="-8.053523" lon="-34.902036">
    <ele>16.2</ele>
    <time>2019-09-09T13:08:14.000Z</time>
   </trkpt>
   <trkpt lat="-8.053568" lon="-34.902025">
    <ele>16.3</ele>
    <time>2019-09-09T13:08:15.000Z</time>
   </trkpt>
   <trkpt lat="-8.053615" lon="-34.902018">
    <ele>16.5</ele>
    <time>2019-09-09T13:08:16.000Z</time>
   </trkpt>
   <trkpt lat="-8.053656" lon="-34.902004">
    <ele>16.6</ele>
    <time>2019-09-09T13:08:17.000Z</time>
   </trkpt>
   <trkpt lat="-8.053704" lon="-34.901991">
    <ele>16.9</ele>
    <time>2019-09-09T13:08:18.000Z</time>
   </trkpt>
   <trkpt lat="-8.053746" lon="-34.901977">
    <ele>16.1</ele>
    <time>2019-09-09T13:08:19.000Z</time>
   </trkpt>
   <trkpt lat="-8.0538" lon="-34.90196">
    <ele>15.1</ele>
    <time>2019-09-09T13:08:20.000Z</time>
   </trkpt>
   <trkpt lat="-8.053858" lon="-34.901934">
    <ele>13.9</ele>
    <time>2019-09-09T13:08:21.000Z</time>
   </trkpt>
   <trkpt lat="-8.053915" lon="-34.901922">
    <ele>12.9</ele>
    <time>2019-09-09T13:08:22.000Z</time>
   </trkpt>
   <trkpt lat="-8.053964" lon="-34.901903">
    <ele>11.9</ele>
    <time>2019-09-09T13:08:23.000Z</time>
   </trkpt>
   <trkpt lat="-8.054014" lon="-34.901887">
    <ele>11</ele>
    <time>2019-09-09T13:08:24.000Z</time>
   </trkpt>
   <trkpt lat="-8.054048" lon="-34.901873">
    <ele>9.9</ele>
    <time>2019-09-09T13:08:25.000Z</time>
   </trkpt>
   <trkpt lat="-8.054093" lon="-34.901859">
    <ele>9.7</ele>
    <time>2019-09-09T13:08:26.000Z</time>
   </trkpt>
   <trkpt lat="-8.054153" lon="-34.901844">
    <ele>9.5</ele>
    <time>2019-09-09T13:08:27.000Z</time>
   </trkpt>
   <trkpt lat="-8.054208" lon="-34.90184">
    <ele>9.1</ele>
    <time>2019-09-09T13:08:28.000Z</time>
   </trkpt>
   <trkpt lat="-8.054261" lon="-34.90183">
    <ele>9.2</ele>
    <time>2019-09-09T13:08:29.000Z</time>
   </trkpt>
   <trkpt lat="-8.054314" lon="-34.90182">
    <ele>9.4</ele>
    <time>2019-09-09T13:08:30.000Z</time>
   </trkpt>
   <trkpt lat="-8.054375" lon="-34.901814">
    <ele>9.7</ele>
    <time>2019-09-09T13:08:31.000Z</time>
   </trkpt>
   <trkpt lat="-8.054429" lon="-34.901828">
    <ele>9.9</ele>
    <time>2019-09-09T13:08:32.000Z</time>
   </trkpt>
   <trkpt lat="-8.05446" lon="-34.90183">
    <ele>10</ele>
    <time>2019-09-09T13:08:33.000Z</time>
   </trkpt>
   <trkpt lat="-8.054496" lon="-34.901816">
    <ele>10.1</ele>
    <time>2019-09-09T13:08:34.000Z</time>
   </trkpt>
   <trkpt lat="-8.054534" lon="-34.90179">
    <ele>10</ele>
    <time>2019-09-09T13:08:35.000Z</time>
   </trkpt>
   <trkpt lat="-8.05454" lon="-34.901757">
    <ele>9.9</ele>
    <time>2019-09-09T13:08:36.000Z</time>
   </trkpt>
   <trkpt lat="-8.054542" lon="-34.901716">
    <ele>9.7</ele>
    <time>2019-09-09T13:08:37.000Z</time>
   </trkpt>
   <trkpt lat="-8.054514" lon="-34.901679">
    <ele>9.7</ele>
    <time>2019-09-09T13:08:38.000Z</time>
   </trkpt>
   <trkpt lat="-8.054512" lon="-34.90165">
    <ele>9.6</ele>
    <time>2019-09-09T13:08:39.000Z</time>
   </trkpt>
   <trkpt lat="-8.054497" lon="-34.901582">
    <ele>9.5</ele>
    <time>2019-09-09T13:08:41.000Z</time>
   </trkpt>
   <trkpt lat="-8.05449" lon="-34.901539">
    <ele>9.5</ele>
    <time>2019-09-09T13:08:42.000Z</time>
   </trkpt>
   <trkpt lat="-8.054497" lon="-34.901502">
    <ele>9.9</ele>
    <time>2019-09-09T13:08:43.000Z</time>
   </trkpt>
   <trkpt lat="-8.054523" lon="-34.901472">
    <ele>10.3</ele>
    <time>2019-09-09T13:08:44.000Z</time>
   </trkpt>
   <trkpt lat="-8.054551" lon="-34.901442">
    <ele>10.7</ele>
    <time>2019-09-09T13:08:45.000Z</time>
   </trkpt>
   <trkpt lat="-8.054578" lon="-34.901411">
    <ele>11.1</ele>
    <time>2019-09-09T13:08:46.000Z</time>
   </trkpt>
   <trkpt lat="-8.054605" lon="-34.901374">
    <ele>11.4</ele>
    <time>2019-09-09T13:08:47.000Z</time>
   </trkpt>
   <trkpt lat="-8.05463" lon="-34.901351">
    <ele>11.7</ele>
    <time>2019-09-09T13:08:48.000Z</time>
   </trkpt>
   <trkpt lat="-8.054658" lon="-34.901323">
    <ele>11.9</ele>
    <time>2019-09-09T13:08:49.000Z</time>
   </trkpt>
   <trkpt lat="-8.054681" lon="-34.9013">
    <ele>12.1</ele>
    <time>2019-09-09T13:08:50.000Z</time>
   </trkpt>
   <trkpt lat="-8.054707" lon="-34.901282">
    <ele>12.2</ele>
    <time>2019-09-09T13:08:51.000Z</time>
   </trkpt>
   <trkpt lat="-8.054751" lon="-34.901241">
    <ele>12.6</ele>
    <time>2019-09-09T13:08:53.000Z</time>
   </trkpt>
   <trkpt lat="-8.054788" lon="-34.901207">
    <ele>13</ele>
    <time>2019-09-09T13:08:55.000Z</time>
   </trkpt>
   <trkpt lat="-8.054813" lon="-34.901186">
    <ele>13.2</ele>
    <time>2019-09-09T13:08:56.000Z</time>
   </trkpt>
   <trkpt lat="-8.054838" lon="-34.90116">
    <ele>13.5</ele>
    <time>2019-09-09T13:08:57.000Z</time>
   </trkpt>
   <trkpt lat="-8.054861" lon="-34.901138">
    <ele>13.7</ele>
    <time>2019-09-09T13:08:58.000Z</time>
   </trkpt>
   <trkpt lat="-8.054882" lon="-34.901102">
    <ele>14</ele>
    <time>2019-09-09T13:08:59.000Z</time>
   </trkpt>
   <trkpt lat="-8.054906" lon="-34.901069">
    <ele>14.2</ele>
    <time>2019-09-09T13:09:00.000Z</time>
   </trkpt>
   <trkpt lat="-8.05493" lon="-34.901034">
    <ele>14.4</ele>
    <time>2019-09-09T13:09:01.000Z</time>
   </trkpt>
   <trkpt lat="-8.054949" lon="-34.901004">
    <ele>14.6</ele>
    <time>2019-09-09T13:09:02.000Z</time>
   </trkpt>
   <trkpt lat="-8.05497" lon="-34.900979">
    <ele>14.7</ele>
    <time>2019-09-09T13:09:03.000Z</time>
   </trkpt>
   <trkpt lat="-8.054991" lon="-34.900951">
    <ele>14.7</ele>
    <time>2019-09-09T13:09:04.000Z</time>
   </trkpt>
   <trkpt lat="-8.055017" lon="-34.900911">
    <ele>14.8</ele>
    <time>2019-09-09T13:09:05.000Z</time>
   </trkpt>
   <trkpt lat="-8.055054" lon="-34.900878">
    <ele>14.8</ele>
    <time>2019-09-09T13:09:06.000Z</time>
   </trkpt>
   <trkpt lat="-8.055089" lon="-34.900851">
    <ele>14.7</ele>
    <time>2019-09-09T13:09:07.000Z</time>
   </trkpt>
   <trkpt lat="-8.055125" lon="-34.900821">
    <ele>14.6</ele>
    <time>2019-09-09T13:09:08.000Z</time>
   </trkpt>
   <trkpt lat="-8.055163" lon="-34.900785">
    <ele>14.4</ele>
    <time>2019-09-09T13:09:09.000Z</time>
   </trkpt>
   <trkpt lat="-8.055198" lon="-34.900749">
    <ele>14.3</ele>
    <time>2019-09-09T13:09:10.000Z</time>
   </trkpt>
   <trkpt lat="-8.055232" lon="-34.900711">
    <ele>14.2</ele>
    <time>2019-09-09T13:09:11.000Z</time>
   </trkpt>
   <trkpt lat="-8.055264" lon="-34.900668">
    <ele>14</ele>
    <time>2019-09-09T13:09:12.000Z</time>
   </trkpt>
   <trkpt lat="-8.055283" lon="-34.900628">
    <ele>13.9</ele>
    <time>2019-09-09T13:09:13.000Z</time>
   </trkpt>
   <trkpt lat="-8.055294" lon="-34.900585">
    <ele>13.7</ele>
    <time>2019-09-09T13:09:14.000Z</time>
   </trkpt>
   <trkpt lat="-8.0553" lon="-34.900541">
    <ele>13.6</ele>
    <time>2019-09-09T13:09:15.000Z</time>
   </trkpt>
   <trkpt lat="-8.055299" lon="-34.900505">
    <ele>13.4</ele>
    <time>2019-09-09T13:09:16.000Z</time>
   </trkpt>
   <trkpt lat="-8.055306" lon="-34.900463">
    <ele>13.3</ele>
    <time>2019-09-09T13:09:17.000Z</time>
   </trkpt>
   <trkpt lat="-8.055305" lon="-34.900425">
    <ele>13.2</ele>
    <time>2019-09-09T13:09:18.000Z</time>
   </trkpt>
   <trkpt lat="-8.055296" lon="-34.900385">
    <ele>13</ele>
    <time>2019-09-09T13:09:19.000Z</time>
   </trkpt>
   <trkpt lat="-8.055279" lon="-34.900359">
    <ele>12.9</ele>
    <time>2019-09-09T13:09:20.000Z</time>
   </trkpt>
   <trkpt lat="-8.055267" lon="-34.90033">
    <ele>12.8</ele>
    <time>2019-09-09T13:09:21.000Z</time>
   </trkpt>
   <trkpt lat="-8.055257" lon="-34.900289">
    <ele>12.7</ele>
    <time>2019-09-09T13:09:22.000Z</time>
   </trkpt>
   <trkpt lat="-8.055255" lon="-34.900253">
    <ele>12.6</ele>
    <time>2019-09-09T13:09:23.000Z</time>
   </trkpt>
   <trkpt lat="-8.055259" lon="-34.900213">
    <ele>12.1</ele>
    <time>2019-09-09T13:09:24.000Z</time>
   </trkpt>
   <trkpt lat="-8.055271" lon="-34.900178">
    <ele>12.1</ele>
    <time>2019-09-09T13:09:25.000Z</time>
   </trkpt>
   <trkpt lat="-8.055306" lon="-34.900149">
    <ele>12</ele>
    <time>2019-09-09T13:09:26.000Z</time>
   </trkpt>
   <trkpt lat="-8.055344" lon="-34.900124">
    <ele>11.4</ele>
    <time>2019-09-09T13:09:27.000Z</time>
   </trkpt>
   <trkpt lat="-8.055382" lon="-34.900109">
    <ele>11.5</ele>
    <time>2019-09-09T13:09:28.000Z</time>
   </trkpt>
   <trkpt lat="-8.055426" lon="-34.900104">
    <ele>11.6</ele>
    <time>2019-09-09T13:09:29.000Z</time>
   </trkpt>
   <trkpt lat="-8.055471" lon="-34.900098">
    <ele>11.8</ele>
    <time>2019-09-09T13:09:30.000Z</time>
   </trkpt>
   <trkpt lat="-8.055521" lon="-34.900092">
    <ele>11.9</ele>
    <time>2019-09-09T13:09:31.000Z</time>
   </trkpt>
   <trkpt lat="-8.05557" lon="-34.900091">
    <ele>12</ele>
    <time>2019-09-09T13:09:32.000Z</time>
   </trkpt>
   <trkpt lat="-8.055624" lon="-34.900081">
    <ele>12.1</ele>
    <time>2019-09-09T13:09:33.000Z</time>
   </trkpt>
   <trkpt lat="-8.055667" lon="-34.900078">
    <ele>12.3</ele>
    <time>2019-09-09T13:09:34.000Z</time>
   </trkpt>
   <trkpt lat="-8.055707" lon="-34.900067">
    <ele>12.4</ele>
    <time>2019-09-09T13:09:35.000Z</time>
   </trkpt>
   <trkpt lat="-8.055748" lon="-34.900064">
    <ele>12.5</ele>
    <time>2019-09-09T13:09:36.000Z</time>
   </trkpt>
   <trkpt lat="-8.055787" lon="-34.900062">
    <ele>12.6</ele>
    <time>2019-09-09T13:09:37.000Z</time>
   </trkpt>
   <trkpt lat="-8.055832" lon="-34.90006">
    <ele>12.8</ele>
    <time>2019-09-09T13:09:38.000Z</time>
   </trkpt>
   <trkpt lat="-8.055871" lon="-34.900061">
    <ele>12.9</ele>
    <time>2019-09-09T13:09:39.000Z</time>
   </trkpt>
   <trkpt lat="-8.05591" lon="-34.900065">
    <ele>13</ele>
    <time>2019-09-09T13:09:40.000Z</time>
   </trkpt>
   <trkpt lat="-8.055943" lon="-34.900064">
    <ele>13.1</ele>
    <time>2019-09-09T13:09:41.000Z</time>
   </trkpt>
   <trkpt lat="-8.055975" lon="-34.90006">
    <ele>12.9</ele>
    <time>2019-09-09T13:09:42.000Z</time>
   </trkpt>
   <trkpt lat="-8.056003" lon="-34.900059">
    <ele>12.8</ele>
    <time>2019-09-09T13:09:43.000Z</time>
   </trkpt>
   <trkpt lat="-8.056032" lon="-34.900057">
    <ele>12.7</ele>
    <time>2019-09-09T13:09:44.000Z</time>
   </trkpt>
   <trkpt lat="-8.056077" lon="-34.900056">
    <ele>12.5</ele>
    <time>2019-09-09T13:09:46.000Z</time>
   </trkpt>
   <trkpt lat="-8.056117" lon="-34.900056">
    <ele>12.3</ele>
    <time>2019-09-09T13:09:48.000Z</time>
   </trkpt>
   <trkpt lat="-8.056166" lon="-34.900047">
    <ele>12.1</ele>
    <time>2019-09-09T13:09:50.000Z</time>
   </trkpt>
   <trkpt lat="-8.056194" lon="-34.900046">
    <ele>12</ele>
    <time>2019-09-09T13:09:52.000Z</time>
   </trkpt>
   <trkpt lat="-8.056232" lon="-34.900052">
    <ele>11.9</ele>
    <time>2019-09-09T13:09:54.000Z</time>
   </trkpt>
   <trkpt lat="-8.05626" lon="-34.900056">
    <ele>11.8</ele>
    <time>2019-09-09T13:09:56.000Z</time>
   </trkpt>
   <trkpt lat="-8.056286" lon="-34.900049">
    <ele>11.6</ele>
    <time>2019-09-09T13:09:58.000Z</time>
   </trkpt>
   <trkpt lat="-8.056317" lon="-34.900059">
    <ele>11.5</ele>
    <time>2019-09-09T13:10:00.000Z</time>
   </trkpt>
   <trkpt lat="-8.056361" lon="-34.900051">
    <ele>11.3</ele>
    <time>2019-09-09T13:10:02.000Z</time>
   </trkpt>
   <trkpt lat="-8.056388" lon="-34.900046">
    <ele>11.2</ele>
    <time>2019-09-09T13:10:03.000Z</time>
   </trkpt>
   <trkpt lat="-8.056442" lon="-34.900043">
    <ele>11.1</ele>
    <time>2019-09-09T13:10:05.000Z</time>
   </trkpt>
   <trkpt lat="-8.056477" lon="-34.900043">
    <ele>11.1</ele>
    <time>2019-09-09T13:10:06.000Z</time>
   </trkpt>
   <trkpt lat="-8.056516" lon="-34.900047">
    <ele>11</ele>
    <time>2019-09-09T13:10:07.000Z</time>
   </trkpt>
   <trkpt lat="-8.056546" lon="-34.900051">
    <ele>10.9</ele>
    <time>2019-09-09T13:10:08.000Z</time>
   </trkpt>
   <trkpt lat="-8.056589" lon="-34.900052">
    <ele>10.7</ele>
    <time>2019-09-09T13:10:09.000Z</time>
   </trkpt>
   <trkpt lat="-8.056631" lon="-34.900066">
    <ele>10.5</ele>
    <time>2019-09-09T13:10:10.000Z</time>
   </trkpt>
   <trkpt lat="-8.056668" lon="-34.900058">
    <ele>10.3</ele>
    <time>2019-09-09T13:10:11.000Z</time>
   </trkpt>
   <trkpt lat="-8.056699" lon="-34.900057">
    <ele>10.1</ele>
    <time>2019-09-09T13:10:12.000Z</time>
   </trkpt>
   <trkpt lat="-8.056737" lon="-34.900058">
    <ele>10</ele>
    <time>2019-09-09T13:10:13.000Z</time>
   </trkpt>
   <trkpt lat="-8.056776" lon="-34.900056">
    <ele>9.8</ele>
    <time>2019-09-09T13:10:14.000Z</time>
   </trkpt>
   <trkpt lat="-8.056808" lon="-34.900062">
    <ele>9.6</ele>
    <time>2019-09-09T13:10:15.000Z</time>
   </trkpt>
   <trkpt lat="-8.056843" lon="-34.900067">
    <ele>9.5</ele>
    <time>2019-09-09T13:10:16.000Z</time>
   </trkpt>
   <trkpt lat="-8.05689" lon="-34.900063">
    <ele>9.3</ele>
    <time>2019-09-09T13:10:17.000Z</time>
   </trkpt>
   <trkpt lat="-8.056936" lon="-34.900054">
    <ele>9</ele>
    <time>2019-09-09T13:10:18.000Z</time>
   </trkpt>
   <trkpt lat="-8.05698" lon="-34.900053">
    <ele>8.8</ele>
    <time>2019-09-09T13:10:19.000Z</time>
   </trkpt>
   <trkpt lat="-8.057021" lon="-34.900048">
    <ele>8.8</ele>
    <time>2019-09-09T13:10:20.000Z</time>
   </trkpt>
   <trkpt lat="-8.057062" lon="-34.900045">
    <ele>8.8</ele>
    <time>2019-09-09T13:10:21.000Z</time>
   </trkpt>
   <trkpt lat="-8.0571" lon="-34.900054">
    <ele>8.8</ele>
    <time>2019-09-09T13:10:22.000Z</time>
   </trkpt>
   <trkpt lat="-8.057129" lon="-34.900067">
    <ele>8.9</ele>
    <time>2019-09-09T13:10:23.000Z</time>
   </trkpt>
   <trkpt lat="-8.057156" lon="-34.900074">
    <ele>9</ele>
    <time>2019-09-09T13:10:24.000Z</time>
   </trkpt>
   <trkpt lat="-8.057213" lon="-34.900075">
    <ele>9.1</ele>
    <time>2019-09-09T13:10:26.000Z</time>
   </trkpt>
   <trkpt lat="-8.057246" lon="-34.900067">
    <ele>9.2</ele>
    <time>2019-09-09T13:10:27.000Z</time>
   </trkpt>
   <trkpt lat="-8.057301" lon="-34.900068">
    <ele>9.3</ele>
    <time>2019-09-09T13:10:29.000Z</time>
   </trkpt>
   <trkpt lat="-8.057333" lon="-34.90007">
    <ele>9.4</ele>
    <time>2019-09-09T13:10:30.000Z</time>
   </trkpt>
   <trkpt lat="-8.057376" lon="-34.900063">
    <ele>9.5</ele>
    <time>2019-09-09T13:10:32.000Z</time>
   </trkpt>
   <trkpt lat="-8.057392" lon="-34.900088">
    <ele>9.6</ele>
    <time>2019-09-09T13:10:38.000Z</time>
   </trkpt>
   <trkpt lat="-8.057409" lon="-34.900057">
    <ele>9.6</ele>
    <time>2019-09-09T13:11:05.000Z</time>
   </trkpt>
   <trkpt lat="-8.057419" lon="-34.90003">
    <ele>9.7</ele>
    <time>2019-09-09T13:11:06.000Z</time>
   </trkpt>
   <trkpt lat="-8.057433" lon="-34.899996">
    <ele>9.8</ele>
    <time>2019-09-09T13:11:07.000Z</time>
   </trkpt>
   <trkpt lat="-8.057446" lon="-34.899957">
    <ele>9.4</ele>
    <time>2019-09-09T13:11:08.000Z</time>
   </trkpt>
   <trkpt lat="-8.057461" lon="-34.89991">
    <ele>9.1</ele>
    <time>2019-09-09T13:11:09.000Z</time>
   </trkpt>
   <trkpt lat="-8.057474" lon="-34.899863">
    <ele>8.8</ele>
    <time>2019-09-09T13:11:10.000Z</time>
   </trkpt>
   <trkpt lat="-8.057483" lon="-34.899813">
    <ele>8.5</ele>
    <time>2019-09-09T13:11:11.000Z</time>
   </trkpt>
   <trkpt lat="-8.057491" lon="-34.899767">
    <ele>8.3</ele>
    <time>2019-09-09T13:11:12.000Z</time>
   </trkpt>
   <trkpt lat="-8.057499" lon="-34.899726">
    <ele>8.1</ele>
    <time>2019-09-09T13:11:13.000Z</time>
   </trkpt>
   <trkpt lat="-8.0575" lon="-34.899685">
    <ele>7.9</ele>
    <time>2019-09-09T13:11:14.000Z</time>
   </trkpt>
   <trkpt lat="-8.057495" lon="-34.899646">
    <ele>7.6</ele>
    <time>2019-09-09T13:11:15.000Z</time>
   </trkpt>
   <trkpt lat="-8.057493" lon="-34.899603">
    <ele>7.3</ele>
    <time>2019-09-09T13:11:16.000Z</time>
   </trkpt>
   <trkpt lat="-8.057489" lon="-34.899562">
    <ele>7.2</ele>
    <time>2019-09-09T13:11:17.000Z</time>
   </trkpt>
   <trkpt lat="-8.057484" lon="-34.899527">
    <ele>7.2</ele>
    <time>2019-09-09T13:11:18.000Z</time>
   </trkpt>
   <trkpt lat="-8.057494" lon="-34.899496">
    <ele>7.2</ele>
    <time>2019-09-09T13:11:19.000Z</time>
   </trkpt>
   <trkpt lat="-8.057504" lon="-34.899468">
    <ele>7.1</ele>
    <time>2019-09-09T13:11:20.000Z</time>
   </trkpt>
   <trkpt lat="-8.057505" lon="-34.899435">
    <ele>7</ele>
    <time>2019-09-09T13:11:21.000Z</time>
   </trkpt>
   <trkpt lat="-8.057496" lon="-34.899403">
    <ele>6.9</ele>
    <time>2019-09-09T13:11:22.000Z</time>
   </trkpt>
   <trkpt lat="-8.057501" lon="-34.899368">
    <ele>6.8</ele>
    <time>2019-09-09T13:11:24.000Z</time>
   </trkpt>
   <trkpt lat="-8.057507" lon="-34.899339">
    <ele>6.8</ele>
    <time>2019-09-09T13:11:26.000Z</time>
   </trkpt>
   <trkpt lat="-8.057505" lon="-34.899294">
    <ele>6.7</ele>
    <time>2019-09-09T13:11:28.000Z</time>
   </trkpt>
   <trkpt lat="-8.057524" lon="-34.899255">
    <ele>6.6</ele>
    <time>2019-09-09T13:11:30.000Z</time>
   </trkpt>
   <trkpt lat="-8.057525" lon="-34.899212">
    <ele>6.5</ele>
    <time>2019-09-09T13:11:35.000Z</time>
   </trkpt>
   <trkpt lat="-8.057555" lon="-34.89919">
    <ele>6.4</ele>
    <time>2019-09-09T13:11:38.000Z</time>
   </trkpt>
   <trkpt lat="-8.057591" lon="-34.899167">
    <ele>6.3</ele>
    <time>2019-09-09T13:11:40.000Z</time>
   </trkpt>
   <trkpt lat="-8.057611" lon="-34.899147">
    <ele>6.3</ele>
    <time>2019-09-09T13:11:42.000Z</time>
   </trkpt>
   <trkpt lat="-8.057655" lon="-34.89915">
    <ele>6.3</ele>
    <time>2019-09-09T13:11:45.000Z</time>
   </trkpt>
   <trkpt lat="-8.057707" lon="-34.89915">
    <ele>6.4</ele>
    <time>2019-09-09T13:11:48.000Z</time>
   </trkpt>
   <trkpt lat="-8.057739" lon="-34.899148">
    <ele>6.4</ele>
    <time>2019-09-09T13:11:51.000Z</time>
   </trkpt>
   <trkpt lat="-8.057766" lon="-34.899153">
    <ele>6.4</ele>
    <time>2019-09-09T13:11:57.000Z</time>
   </trkpt>
   <trkpt lat="-8.057791" lon="-34.899131">
    <ele>6.4</ele>
    <time>2019-09-09T13:12:02.000Z</time>
   </trkpt>
   <trkpt lat="-8.057944" lon="-34.899055">
    <ele>6.6</ele>
    <time>2019-09-09T13:12:24.000Z</time>
   </trkpt>
   <trkpt lat="-8.057962" lon="-34.899031">
    <ele>6.6</ele>
    <time>2019-09-09T13:12:28.000Z</time>
   </trkpt>
   <trkpt lat="-8.057987" lon="-34.89901">
    <ele>6.7</ele>
    <time>2019-09-09T13:12:31.000Z</time>
   </trkpt>
   <trkpt lat="-8.058029" lon="-34.898947">
    <ele>6.9</ele>
    <time>2019-09-09T13:12:35.000Z</time>
   </trkpt>
  </trkseg>
 </trk>
</gpx>
