<?xml version="1.0" encoding="UTF-8"?>
<gpx creator="StravaGPX" version="1.1" xmlns="http://www.topografix.com/GPX/1/1">
 <metadata>
  <time>2025-05-19T15:52:48Z</time>
 </metadata>
 <trk>
  <name>Afternoon Ride</name>
  <type>1</type>
  <trkseg>
   <trkpt lat="52.475248" lon="13.476262">
    <ele>38</ele>
    <time>2025-05-19T15:52:48.000Z</time>
   </trkpt>
   <trkpt lat="52.475248" lon="13.476262">
    <ele>35.6</ele>
    <time>2025-05-19T15:52:54.000Z</time>
   </trkpt>
   <trkpt lat="52.475248" lon="13.476262">
    <ele>36.2</ele>
    <time>2025-05-19T15:53:03.000Z</time>
   </trkpt>
   <trkpt lat="52.475248" lon="13.476262">
    <ele>36.6</ele>
    <time>2025-05-19T15:53:11.000Z</time>
   </trkpt>
   <trkpt lat="52.475248" lon="13.476262">
    <ele>36.8</ele>
    <time>2025-05-19T15:53:16.000Z</time>
   </trkpt>
   <trkpt lat="52.475248" lon="13.476262">
    <ele>36.8</ele>
    <time>2025-05-19T15:53:34.000Z</time>
   </trkpt>
   <trkpt lat="52.475248" lon="13.476262">
    <ele>36.6</ele>
    <time>2025-05-19T15:53:52.000Z</time>
   </trkpt>
   <trkpt lat="52.475248" lon="13.476262">
    <ele>36.6</ele>
    <time>2025-05-19T15:53:57.000Z</time>
   </trkpt>
   <trkpt lat="52.475248" lon="13.476262">
    <ele>36.4</ele>
    <time>2025-05-19T15:54:12.000Z</time>
   </trkpt>
   <trkpt lat="52.475248" lon="13.476262">
    <ele>36.4</ele>
    <time>2025-05-19T15:54:16.000Z</time>
   </trkpt>
   <trkpt lat="52.475248" lon="13.476262">
    <ele>36.4</ele>
    <time>2025-05-19T15:54:19.000Z</time>
   </trkpt>
   <trkpt lat="52.475248" lon="13.476262">
    <ele>36.4</ele>
    <time>2025-05-19T15:54:20.000Z</time>
   </trkpt>
   <trkpt lat="52.475248" lon="13.476262">
    <ele>36.6</ele>
    <time>2025-05-19T15:54:24.000Z</time>
   </trkpt>
   <trkpt lat="52.475248" lon="13.476262">
    <ele>36.6</ele>
    <time>2025-05-19T15:54:25.000Z</time>
   </trkpt>
   <trkpt lat="52.475248" lon="13.476262">
    <ele>36.6</ele>
    <time>2025-05-19T15:54:26.000Z</time>
   </trkpt>
   <trkpt lat="52.475248" lon="13.476262">
    <ele>36.4</ele>
    <time>2025-05-19T15:56:56.000Z</time>
   </trkpt>
   <trkpt lat="52.475251" lon="13.476272">
    <ele>36.4</ele>
    <time>2025-05-19T15:56:57.000Z</time>
   </trkpt>
   <trkpt lat="52.47529" lon="13.476241">
    <ele>36.4</ele>
    <time>2025-05-19T15:56:58.000Z</time>
   </trkpt>
   <trkpt lat="52.475306" lon="13.476232">
    <ele>36.4</ele>
    <time>2025-05-19T15:57:02.000Z</time>
   </trkpt>
   <trkpt lat="52.475323" lon="13.476241">
    <ele>36.4</ele>
    <time>2025-05-19T15:57:03.000Z</time>
   </trkpt>
   <trkpt lat="52.475356" lon="13.476243">
    <ele>36.4</ele>
    <time>2025-05-19T15:57:06.000Z</time>
   </trkpt>
   <trkpt lat="52.475362" lon="13.476237">
    <ele>36.2</ele>
    <time>2025-05-19T15:57:07.000Z</time>
   </trkpt>
   <trkpt lat="52.475391" lon="13.476155">
    <ele>36.2</ele>
    <time>2025-05-19T15:57:10.000Z</time>
   </trkpt>
   <trkpt lat="52.475418" lon="13.476124">
    <ele>36</ele>
    <time>2025-05-19T15:57:11.000Z</time>
   </trkpt>
   <trkpt lat="52.475458" lon="13.476063">
    <ele>36</ele>
    <time>2025-05-19T15:57:13.000Z</time>
   </trkpt>
   <trkpt lat="52.475458" lon="13.476044">
    <ele>36</ele>
    <time>2025-05-19T15:57:14.000Z</time>
   </trkpt>
   <trkpt lat="52.475453" lon="13.476017">
    <ele>36</ele>
    <time>2025-05-19T15:57:15.000Z</time>
   </trkpt>
   <trkpt lat="52.475498" lon="13.475931">
    <ele>36.2</ele>
    <time>2025-05-19T15:57:18.000Z</time>
   </trkpt>
   <trkpt lat="52.475561" lon="13.475807">
    <ele>36.2</ele>
    <time>2025-05-19T15:57:23.000Z</time>
   </trkpt>
   <trkpt lat="52.475555" lon="13.475792">
    <ele>36.2</ele>
    <time>2025-05-19T15:57:24.000Z</time>
   </trkpt>
   <trkpt lat="52.475562" lon="13.475732">
    <ele>36.2</ele>
    <time>2025-05-19T15:57:27.000Z</time>
   </trkpt>
   <trkpt lat="52.47557" lon="13.475729">
    <ele>36.2</ele>
    <time>2025-05-19T15:57:28.000Z</time>
   </trkpt>
   <trkpt lat="52.475657" lon="13.475802">
    <ele>36.2</ele>
    <time>2025-05-19T15:57:32.000Z</time>
   </trkpt>
   <trkpt lat="52.475674" lon="13.475832">
    <ele>36.2</ele>
    <time>2025-05-19T15:57:33.000Z</time>
   </trkpt>
   <trkpt lat="52.475701" lon="13.475844">
    <ele>36.2</ele>
    <time>2025-05-19T15:57:35.000Z</time>
   </trkpt>
   <trkpt lat="52.47571" lon="13.47578">
    <ele>36.2</ele>
    <time>2025-05-19T15:57:39.000Z</time>
   </trkpt>
   <trkpt lat="52.475787" lon="13.475759">
    <ele>36.2</ele>
    <time>2025-05-19T15:57:41.000Z</time>
   </trkpt>
   <trkpt lat="52.475831" lon="13.475804">
    <ele>36.2</ele>
    <time>2025-05-19T15:57:43.000Z</time>
   </trkpt>
   <trkpt lat="52.475861" lon="13.47583">
    <ele>36.2</ele>
    <time>2025-05-19T15:57:44.000Z</time>
   </trkpt>
   <trkpt lat="52.476156" lon="13.476">
    <ele>36.2</ele>
    <time>2025-05-19T15:57:47.000Z</time>
   </trkpt>
   <trkpt lat="52.476219" lon="13.47604">
    <ele>36.2</ele>
    <time>2025-05-19T15:57:48.000Z</time>
   </trkpt>
   <trkpt lat="52.476361" lon="13.476144">
    <ele>36</ele>
    <time>2025-05-19T15:57:51.000Z</time>
   </trkpt>
   <trkpt lat="52.476554" lon="13.476311">
    <ele>36</ele>
    <time>2025-05-19T15:57:53.000Z</time>
   </trkpt>
   <trkpt lat="52.476626" lon="13.476442">
    <ele>36</ele>
    <time>2025-05-19T15:57:55.000Z</time>
   </trkpt>
   <trkpt lat="52.476947" lon="13.476799">
    <ele>36.4</ele>
    <time>2025-05-19T15:58:01.000Z</time>
   </trkpt>
   <trkpt lat="52.477071" lon="13.476951">
    <ele>36.6</ele>
    <time>2025-05-19T15:58:03.000Z</time>
   </trkpt>
   <trkpt lat="52.477206" lon="13.477234">
    <ele>36.6</ele>
    <time>2025-05-19T15:58:07.000Z</time>
   </trkpt>
   <trkpt lat="52.477255" lon="13.477294">
    <ele>36.6</ele>
    <time>2025-05-19T15:58:08.000Z</time>
   </trkpt>
   <trkpt lat="52.477454" lon="13.477489">
    <ele>36.8</ele>
    <time>2025-05-19T15:58:12.000Z</time>
   </trkpt>
   <trkpt lat="52.477453" lon="13.477589">
    <ele>36.8</ele>
    <time>2025-05-19T15:58:13.000Z</time>
   </trkpt>
   <trkpt lat="52.477418" lon="13.477807">
    <ele>36.6</ele>
    <time>2025-05-19T15:58:15.000Z</time>
   </trkpt>
   <trkpt lat="52.477378" lon="13.47797">
    <ele>36.8</ele>
    <time>2025-05-19T15:58:17.000Z</time>
   </trkpt>
   <trkpt lat="52.477351" lon="13.478059">
    <ele>36.8</ele>
    <time>2025-05-19T15:58:18.000Z</time>
   </trkpt>
   <trkpt lat="52.477384" lon="13.478173">
    <ele>37</ele>
    <time>2025-05-19T15:58:20.000Z</time>
   </trkpt>
   <trkpt lat="52.477418" lon="13.47833">
    <ele>37</ele>
    <time>2025-05-19T15:58:22.000Z</time>
   </trkpt>
   <trkpt lat="52.477457" lon="13.478466">
    <ele>37</ele>
    <time>2025-05-19T15:58:26.000Z</time>
   </trkpt>
   <trkpt lat="52.477468" lon="13.478473">
    <ele>37</ele>
    <time>2025-05-19T15:58:27.000Z</time>
   </trkpt>
   <trkpt lat="52.477471" lon="13.4785">
    <ele>37.2</ele>
    <time>2025-05-19T15:58:29.000Z</time>
   </trkpt>
   <trkpt lat="52.477479" lon="13.478571">
    <ele>37</ele>
    <time>2025-05-19T15:59:19.000Z</time>
   </trkpt>
   <trkpt lat="52.477546" lon="13.478732">
    <ele>37</ele>
    <time>2025-05-19T15:59:23.000Z</time>
   </trkpt>
   <trkpt lat="52.477626" lon="13.478873">
    <ele>37.2</ele>
    <time>2025-05-19T15:59:26.000Z</time>
   </trkpt>
   <trkpt lat="52.477689" lon="13.478958">
    <ele>37.2</ele>
    <time>2025-05-19T15:59:28.000Z</time>
   </trkpt>
   <trkpt lat="52.47775" lon="13.479041">
    <ele>37.2</ele>
    <time>2025-05-19T15:59:30.000Z</time>
   </trkpt>
   <trkpt lat="52.47784" lon="13.479223">
    <ele>37.2</ele>
    <time>2025-05-19T15:59:34.000Z</time>
   </trkpt>
   <trkpt lat="52.477929" lon="13.479425">
    <ele>37</ele>
    <time>2025-05-19T15:59:38.000Z</time>
   </trkpt>
   <trkpt lat="52.477994" lon="13.479569">
    <ele>37</ele>
    <time>2025-05-19T15:59:41.000Z</time>
   </trkpt>
   <trkpt lat="52.478135" lon="13.479816">
    <ele>36.8</ele>
    <time>2025-05-19T15:59:46.000Z</time>
   </trkpt>
   <trkpt lat="52.478211" lon="13.479929">
    <ele>37</ele>
    <time>2025-05-19T15:59:48.000Z</time>
   </trkpt>
   <trkpt lat="52.478503" lon="13.4805">
    <ele>37</ele>
    <time>2025-05-19T15:59:57.000Z</time>
   </trkpt>
   <trkpt lat="52.478656" lon="13.480804">
    <ele>37</ele>
    <time>2025-05-19T16:00:02.000Z</time>
   </trkpt>
   <trkpt lat="52.478716" lon="13.480917">
    <ele>37</ele>
    <time>2025-05-19T16:00:04.000Z</time>
   </trkpt>
   <trkpt lat="52.478743" lon="13.480994">
    <ele>37</ele>
    <time>2025-05-19T16:00:05.000Z</time>
   </trkpt>
   <trkpt lat="52.478867" lon="13.481255">
    <ele>37.2</ele>
    <time>2025-05-19T16:00:09.000Z</time>
   </trkpt>
   <trkpt lat="52.478897" lon="13.481313">
    <ele>37.2</ele>
    <time>2025-05-19T16:00:10.000Z</time>
   </trkpt>
   <trkpt lat="52.478955" lon="13.481422">
    <ele>37.2</ele>
    <time>2025-05-19T16:00:12.000Z</time>
   </trkpt>
   <trkpt lat="52.479011" lon="13.481523">
    <ele>37.2</ele>
    <time>2025-05-19T16:00:14.000Z</time>
   </trkpt>
   <trkpt lat="52.479284" lon="13.482019">
    <ele>37.2</ele>
    <time>2025-05-19T16:00:23.000Z</time>
   </trkpt>
   <trkpt lat="52.479329" lon="13.482116">
    <ele>37.2</ele>
    <time>2025-05-19T16:00:25.000Z</time>
   </trkpt>
   <trkpt lat="52.479383" lon="13.482198">
    <ele>37.2</ele>
    <time>2025-05-19T16:00:27.000Z</time>
   </trkpt>
   <trkpt lat="52.479405" lon="13.482244">
    <ele>37.2</ele>
    <time>2025-05-19T16:00:28.000Z</time>
   </trkpt>
   <trkpt lat="52.479445" lon="13.482351">
    <ele>37.2</ele>
    <time>2025-05-19T16:00:30.000Z</time>
   </trkpt>
   <trkpt lat="52.479605" lon="13.482634">
    <ele>37.4</ele>
    <time>2025-05-19T16:00:35.000Z</time>
   </trkpt>
   <trkpt lat="52.479844" lon="13.483097">
    <ele>37.4</ele>
    <time>2025-05-19T16:00:43.000Z</time>
   </trkpt>
   <trkpt lat="52.479868" lon="13.483148">
    <ele>37.4</ele>
    <time>2025-05-19T16:00:44.000Z</time>
   </trkpt>
   <trkpt lat="52.479994" lon="13.483421">
    <ele>37.2</ele>
    <time>2025-05-19T16:00:50.000Z</time>
   </trkpt>
   <trkpt lat="52.480088" lon="13.483521">
    <ele>37.4</ele>
    <time>2025-05-19T16:00:56.000Z</time>
   </trkpt>
   <trkpt lat="52.480121" lon="13.48352">
    <ele>37.4</ele>
    <time>2025-05-19T16:00:57.000Z</time>
   </trkpt>
   <trkpt lat="52.480194" lon="13.483477">
    <ele>37.4</ele>
    <time>2025-05-19T16:00:59.000Z</time>
   </trkpt>
   <trkpt lat="52.480414" lon="13.483264">
    <ele>37.4</ele>
    <time>2025-05-19T16:01:04.000Z</time>
   </trkpt>
   <trkpt lat="52.480814" lon="13.4829">
    <ele>37.2</ele>
    <time>2025-05-19T16:01:12.000Z</time>
   </trkpt>
   <trkpt lat="52.480967" lon="13.482768">
    <ele>37.2</ele>
    <time>2025-05-19T16:01:15.000Z</time>
   </trkpt>
   <trkpt lat="52.481167" lon="13.482581">
    <ele>37</ele>
    <time>2025-05-19T16:01:19.000Z</time>
   </trkpt>
   <trkpt lat="52.481461" lon="13.482323">
    <ele>37</ele>
    <time>2025-05-19T16:01:25.000Z</time>
   </trkpt>
   <trkpt lat="52.481559" lon="13.482237">
    <ele>37.2</ele>
    <time>2025-05-19T16:01:27.000Z</time>
   </trkpt>
   <trkpt lat="52.481605" lon="13.482194">
    <ele>37.2</ele>
    <time>2025-05-19T16:01:28.000Z</time>
   </trkpt>
   <trkpt lat="52.481902" lon="13.481944">
    <ele>37.4</ele>
    <time>2025-05-19T16:01:34.000Z</time>
   </trkpt>
   <trkpt lat="52.48204" lon="13.481803">
    <ele>37.2</ele>
    <time>2025-05-19T16:01:37.000Z</time>
   </trkpt>
   <trkpt lat="52.48213" lon="13.481707">
    <ele>37.4</ele>
    <time>2025-05-19T16:01:39.000Z</time>
   </trkpt>
   <trkpt lat="52.482179" lon="13.481664">
    <ele>37.4</ele>
    <time>2025-05-19T16:01:40.000Z</time>
   </trkpt>
   <trkpt lat="52.482577" lon="13.481321">
    <ele>37.2</ele>
    <time>2025-05-19T16:01:48.000Z</time>
   </trkpt>
   <trkpt lat="52.482985" lon="13.480956">
    <ele>37.4</ele>
    <time>2025-05-19T16:01:56.000Z</time>
   </trkpt>
   <trkpt lat="52.48332" lon="13.480636">
    <ele>37.4</ele>
    <time>2025-05-19T16:02:03.000Z</time>
   </trkpt>
   <trkpt lat="52.483731" lon="13.480231">
    <ele>37.4</ele>
    <time>2025-05-19T16:02:11.000Z</time>
   </trkpt>
   <trkpt lat="52.484217" lon="13.479847">
    <ele>37</ele>
    <time>2025-05-19T16:02:21.000Z</time>
   </trkpt>
   <trkpt lat="52.484262" lon="13.479807">
    <ele>37</ele>
    <time>2025-05-19T16:02:22.000Z</time>
   </trkpt>
   <trkpt lat="52.484634" lon="13.479477">
    <ele>37</ele>
    <time>2025-05-19T16:02:29.000Z</time>
   </trkpt>
   <trkpt lat="52.485065" lon="13.479096">
    <ele>36.8</ele>
    <time>2025-05-19T16:02:39.000Z</time>
   </trkpt>
   <trkpt lat="52.485161" lon="13.479012">
    <ele>36.8</ele>
    <time>2025-05-19T16:02:40.000Z</time>
   </trkpt>
   <trkpt lat="52.485594" lon="13.478588">
    <ele>36.8</ele>
    <time>2025-05-19T16:02:49.000Z</time>
   </trkpt>
   <trkpt lat="52.485944" lon="13.478281">
    <ele>37</ele>
    <time>2025-05-19T16:02:57.000Z</time>
   </trkpt>
   <trkpt lat="52.486169" lon="13.478066">
    <ele>37</ele>
    <time>2025-05-19T16:03:02.000Z</time>
   </trkpt>
   <trkpt lat="52.486484" lon="13.477776">
    <ele>37</ele>
    <time>2025-05-19T16:03:07.000Z</time>
   </trkpt>
   <trkpt lat="52.486827" lon="13.47745">
    <ele>37</ele>
    <time>2025-05-19T16:03:14.000Z</time>
   </trkpt>
   <trkpt lat="52.487021" lon="13.477312">
    <ele>37.2</ele>
    <time>2025-05-19T16:03:18.000Z</time>
   </trkpt>
   <trkpt lat="52.487219" lon="13.477117">
    <ele>37.2</ele>
    <time>2025-05-19T16:03:22.000Z</time>
   </trkpt>
   <trkpt lat="52.487647" lon="13.476652">
    <ele>37.2</ele>
    <time>2025-05-19T16:03:31.000Z</time>
   </trkpt>
   <trkpt lat="52.487691" lon="13.47658">
    <ele>37.2</ele>
    <time>2025-05-19T16:03:32.000Z</time>
   </trkpt>
   <trkpt lat="52.487804" lon="13.476337">
    <ele>37.2</ele>
    <time>2025-05-19T16:03:35.000Z</time>
   </trkpt>
   <trkpt lat="52.487835" lon="13.476248">
    <ele>37.2</ele>
    <time>2025-05-19T16:03:36.000Z</time>
   </trkpt>
   <trkpt lat="52.488025" lon="13.475635">
    <ele>37.2</ele>
    <time>2025-05-19T16:03:43.000Z</time>
   </trkpt>
   <trkpt lat="52.488054" lon="13.47556">
    <ele>37</ele>
    <time>2025-05-19T16:03:44.000Z</time>
   </trkpt>
   <trkpt lat="52.488162" lon="13.475223">
    <ele>37</ele>
    <time>2025-05-19T16:03:48.000Z</time>
   </trkpt>
   <trkpt lat="52.488239" lon="13.474982">
    <ele>37.2</ele>
    <time>2025-05-19T16:03:51.000Z</time>
   </trkpt>
   <trkpt lat="52.488406" lon="13.474401">
    <ele>37.2</ele>
    <time>2025-05-19T16:03:58.000Z</time>
   </trkpt>
   <trkpt lat="52.488544" lon="13.473937">
    <ele>37</ele>
    <time>2025-05-19T16:04:04.000Z</time>
   </trkpt>
   <trkpt lat="52.488564" lon="13.473856">
    <ele>37</ele>
    <time>2025-05-19T16:04:05.000Z</time>
   </trkpt>
   <trkpt lat="52.488744" lon="13.473237">
    <ele>37</ele>
    <time>2025-05-19T16:04:13.000Z</time>
   </trkpt>
   <trkpt lat="52.488937" lon="13.472573">
    <ele>37</ele>
    <time>2025-05-19T16:04:21.000Z</time>
   </trkpt>
   <trkpt lat="52.489141" lon="13.47189">
    <ele>37</ele>
    <time>2025-05-19T16:04:29.000Z</time>
   </trkpt>
   <trkpt lat="52.48932" lon="13.4713">
    <ele>36.8</ele>
    <time>2025-05-19T16:04:36.000Z</time>
   </trkpt>
   <trkpt lat="52.489368" lon="13.471144">
    <ele>36.8</ele>
    <time>2025-05-19T16:04:38.000Z</time>
   </trkpt>
   <trkpt lat="52.489485" lon="13.470718">
    <ele>37</ele>
    <time>2025-05-19T16:04:43.000Z</time>
   </trkpt>
   <trkpt lat="52.489591" lon="13.470373">
    <ele>37.2</ele>
    <time>2025-05-19T16:04:47.000Z</time>
   </trkpt>
   <trkpt lat="52.489677" lon="13.470143">
    <ele>37.4</ele>
    <time>2025-05-19T16:04:50.000Z</time>
   </trkpt>
   <trkpt lat="52.489848" lon="13.469578">
    <ele>37.2</ele>
    <time>2025-05-19T16:04:57.000Z</time>
   </trkpt>
   <trkpt lat="52.489951" lon="13.469218">
    <ele>36.8</ele>
    <time>2025-05-19T16:05:02.000Z</time>
   </trkpt>
   <trkpt lat="52.489973" lon="13.469146">
    <ele>36.8</ele>
    <time>2025-05-19T16:05:03.000Z</time>
   </trkpt>
   <trkpt lat="52.490056" lon="13.468857">
    <ele>36.8</ele>
    <time>2025-05-19T16:05:07.000Z</time>
   </trkpt>
   <trkpt lat="52.490189" lon="13.468398">
    <ele>36.8</ele>
    <time>2025-05-19T16:05:14.000Z</time>
   </trkpt>
   <trkpt lat="52.490242" lon="13.468307">
    <ele>37</ele>
    <time>2025-05-19T16:05:17.000Z</time>
   </trkpt>
   <trkpt lat="52.49026" lon="13.468302">
    <ele>37</ele>
    <time>2025-05-19T16:05:18.000Z</time>
   </trkpt>
   <trkpt lat="52.490276" lon="13.468283">
    <ele>37</ele>
    <time>2025-05-19T16:05:19.000Z</time>
   </trkpt>
   <trkpt lat="52.490299" lon="13.468217">
    <ele>37</ele>
    <time>2025-05-19T16:05:21.000Z</time>
   </trkpt>
   <trkpt lat="52.490314" lon="13.468162">
    <ele>37</ele>
    <time>2025-05-19T16:05:22.000Z</time>
   </trkpt>
   <trkpt lat="52.490396" lon="13.467844">
    <ele>37.2</ele>
    <time>2025-05-19T16:05:27.000Z</time>
   </trkpt>
   <trkpt lat="52.490435" lon="13.467708">
    <ele>37.2</ele>
    <time>2025-05-19T16:05:29.000Z</time>
   </trkpt>
   <trkpt lat="52.490486" lon="13.467557">
    <ele>37.2</ele>
    <time>2025-05-19T16:05:32.000Z</time>
   </trkpt>
   <trkpt lat="52.490499" lon="13.467498">
    <ele>37.2</ele>
    <time>2025-05-19T16:05:33.000Z</time>
   </trkpt>
   <trkpt lat="52.490539" lon="13.467344">
    <ele>37.2</ele>
    <time>2025-05-19T16:05:35.000Z</time>
   </trkpt>
   <trkpt lat="52.490659" lon="13.466967">
    <ele>37</ele>
    <time>2025-05-19T16:05:40.000Z</time>
   </trkpt>
   <trkpt lat="52.49075" lon="13.466701">
    <ele>37.2</ele>
    <time>2025-05-19T16:05:44.000Z</time>
   </trkpt>
   <trkpt lat="52.490767" lon="13.466629">
    <ele>37.2</ele>
    <time>2025-05-19T16:05:45.000Z</time>
   </trkpt>
   <trkpt lat="52.490893" lon="13.4662">
    <ele>37.2</ele>
    <time>2025-05-19T16:05:52.000Z</time>
   </trkpt>
   <trkpt lat="52.490986" lon="13.465901">
    <ele>37.4</ele>
    <time>2025-05-19T16:05:57.000Z</time>
   </trkpt>
   <trkpt lat="52.491002" lon="13.465849">
    <ele>37.4</ele>
    <time>2025-05-19T16:05:58.000Z</time>
   </trkpt>
   <trkpt lat="52.491021" lon="13.465787">
    <ele>37.2</ele>
    <time>2025-05-19T16:05:59.000Z</time>
   </trkpt>
   <trkpt lat="52.491136" lon="13.465432">
    <ele>37.2</ele>
    <time>2025-05-19T16:06:04.000Z</time>
   </trkpt>
   <trkpt lat="52.491197" lon="13.465226">
    <ele>37.2</ele>
    <time>2025-05-19T16:06:07.000Z</time>
   </trkpt>
   <trkpt lat="52.49126" lon="13.46503">
    <ele>37.4</ele>
    <time>2025-05-19T16:06:10.000Z</time>
   </trkpt>
   <trkpt lat="52.491423" lon="13.464452">
    <ele>37.4</ele>
    <time>2025-05-19T16:06:18.000Z</time>
   </trkpt>
   <trkpt lat="52.491457" lon="13.464328">
    <ele>37.4</ele>
    <time>2025-05-19T16:06:20.000Z</time>
   </trkpt>
   <trkpt lat="52.491489" lon="13.464205">
    <ele>37.4</ele>
    <time>2025-05-19T16:06:22.000Z</time>
   </trkpt>
   <trkpt lat="52.491593" lon="13.463832">
    <ele>37.4</ele>
    <time>2025-05-19T16:06:27.000Z</time>
   </trkpt>
   <trkpt lat="52.491638" lon="13.463681">
    <ele>37.4</ele>
    <time>2025-05-19T16:06:29.000Z</time>
   </trkpt>
   <trkpt lat="52.491722" lon="13.463409">
    <ele>37.4</ele>
    <time>2025-05-19T16:06:33.000Z</time>
   </trkpt>
   <trkpt lat="52.491871" lon="13.462941">
    <ele>37.6</ele>
    <time>2025-05-19T16:06:40.000Z</time>
   </trkpt>
   <trkpt lat="52.491889" lon="13.462875">
    <ele>37.6</ele>
    <time>2025-05-19T16:06:41.000Z</time>
   </trkpt>
   <trkpt lat="52.491976" lon="13.462614">
    <ele>37.6</ele>
    <time>2025-05-19T16:06:45.000Z</time>
   </trkpt>
   <trkpt lat="52.492036" lon="13.462428">
    <ele>37.6</ele>
    <time>2025-05-19T16:06:48.000Z</time>
   </trkpt>
   <trkpt lat="52.492088" lon="13.462237">
    <ele>37.6</ele>
    <time>2025-05-19T16:06:51.000Z</time>
   </trkpt>
   <trkpt lat="52.492129" lon="13.46212">
    <ele>37.4</ele>
    <time>2025-05-19T16:06:53.000Z</time>
   </trkpt>
   <trkpt lat="52.492148" lon="13.462073">
    <ele>37.4</ele>
    <time>2025-05-19T16:06:54.000Z</time>
   </trkpt>
   <trkpt lat="52.492161" lon="13.462034">
    <ele>37.4</ele>
    <time>2025-05-19T16:06:55.000Z</time>
   </trkpt>
   <trkpt lat="52.492182" lon="13.461952">
    <ele>37.4</ele>
    <time>2025-05-19T16:06:57.000Z</time>
   </trkpt>
   <trkpt lat="52.492198" lon="13.461904">
    <ele>37.4</ele>
    <time>2025-05-19T16:06:58.000Z</time>
   </trkpt>
   <trkpt lat="52.492327" lon="13.461488">
    <ele>37.4</ele>
    <time>2025-05-19T16:07:05.000Z</time>
   </trkpt>
   <trkpt lat="52.49244" lon="13.461102">
    <ele>37.4</ele>
    <time>2025-05-19T16:07:11.000Z</time>
   </trkpt>
   <trkpt lat="52.492544" lon="13.461085">
    <ele>37.2</ele>
    <time>2025-05-19T16:07:17.000Z</time>
   </trkpt>
   <trkpt lat="52.492571" lon="13.460929">
    <ele>37.2</ele>
    <time>2025-05-19T16:07:18.000Z</time>
   </trkpt>
   <trkpt lat="52.492608" lon="13.46064">
    <ele>37.2</ele>
    <time>2025-05-19T16:07:21.000Z</time>
   </trkpt>
   <trkpt lat="52.492709" lon="13.460303">
    <ele>37.4</ele>
    <time>2025-05-19T16:07:27.000Z</time>
   </trkpt>
   <trkpt lat="52.492808" lon="13.460189">
    <ele>37.4</ele>
    <time>2025-05-19T16:07:32.000Z</time>
   </trkpt>
   <trkpt lat="52.492839" lon="13.460129">
    <ele>37.2</ele>
    <time>2025-05-19T16:07:34.000Z</time>
   </trkpt>
   <trkpt lat="52.492827" lon="13.460053">
    <ele>37.2</ele>
    <time>2025-05-19T16:07:36.000Z</time>
   </trkpt>
   <trkpt lat="52.492811" lon="13.459904">
    <ele>37.2</ele>
    <time>2025-05-19T16:07:40.000Z</time>
   </trkpt>
   <trkpt lat="52.492811" lon="13.459838">
    <ele>37.2</ele>
    <time>2025-05-19T16:07:42.000Z</time>
   </trkpt>
   <trkpt lat="52.492818" lon="13.459778">
    <ele>37.6</ele>
    <time>2025-05-19T16:07:47.000Z</time>
   </trkpt>
   <trkpt lat="52.492843" lon="13.459711">
    <ele>37.8</ele>
    <time>2025-05-19T16:08:14.000Z</time>
   </trkpt>
   <trkpt lat="52.492876" lon="13.459632">
    <ele>37.6</ele>
    <time>2025-05-19T16:08:16.000Z</time>
   </trkpt>
   <trkpt lat="52.492971" lon="13.459293">
    <ele>37.6</ele>
    <time>2025-05-19T16:08:22.000Z</time>
   </trkpt>
   <trkpt lat="52.493028" lon="13.459043">
    <ele>37.6</ele>
    <time>2025-05-19T16:08:26.000Z</time>
   </trkpt>
   <trkpt lat="52.493073" lon="13.458945">
    <ele>37.6</ele>
    <time>2025-05-19T16:08:28.000Z</time>
   </trkpt>
   <trkpt lat="52.493116" lon="13.458833">
    <ele>37.8</ele>
    <time>2025-05-19T16:08:30.000Z</time>
   </trkpt>
   <trkpt lat="52.493209" lon="13.458542">
    <ele>37.8</ele>
    <time>2025-05-19T16:08:35.000Z</time>
   </trkpt>
   <trkpt lat="52.493227" lon="13.458484">
    <ele>37.8</ele>
    <time>2025-05-19T16:08:36.000Z</time>
   </trkpt>
   <trkpt lat="52.493282" lon="13.458251">
    <ele>37.6</ele>
    <time>2025-05-19T16:08:40.000Z</time>
   </trkpt>
   <trkpt lat="52.4934" lon="13.457878">
    <ele>37.6</ele>
    <time>2025-05-19T16:08:47.000Z</time>
   </trkpt>
   <trkpt lat="52.493438" lon="13.457742">
    <ele>37.6</ele>
    <time>2025-05-19T16:08:49.000Z</time>
   </trkpt>
   <trkpt lat="52.493482" lon="13.45756">
    <ele>37.6</ele>
    <time>2025-05-19T16:08:52.000Z</time>
   </trkpt>
   <trkpt lat="52.493494" lon="13.457503">
    <ele>37.6</ele>
    <time>2025-05-19T16:08:53.000Z</time>
   </trkpt>
   <trkpt lat="52.493507" lon="13.457438">
    <ele>37.6</ele>
    <time>2025-05-19T16:08:54.000Z</time>
   </trkpt>
   <trkpt lat="52.493603" lon="13.457116">
    <ele>37.6</ele>
    <time>2025-05-19T16:08:59.000Z</time>
   </trkpt>
   <trkpt lat="52.493693" lon="13.456859">
    <ele>37.6</ele>
    <time>2025-05-19T16:09:04.000Z</time>
   </trkpt>
   <trkpt lat="52.493754" lon="13.456723">
    <ele>37.6</ele>
    <time>2025-05-19T16:09:09.000Z</time>
   </trkpt>
   <trkpt lat="52.493779" lon="13.45666">
    <ele>37.6</ele>
    <time>2025-05-19T16:09:13.000Z</time>
   </trkpt>
   <trkpt lat="52.493787" lon="13.456636">
    <ele>37.6</ele>
    <time>2025-05-19T16:09:14.000Z</time>
   </trkpt>
   <trkpt lat="52.493823" lon="13.45649">
    <ele>37.6</ele>
    <time>2025-05-19T16:09:17.000Z</time>
   </trkpt>
   <trkpt lat="52.49385" lon="13.45636">
    <ele>37.6</ele>
    <time>2025-05-19T16:09:19.000Z</time>
   </trkpt>
   <trkpt lat="52.49389" lon="13.456226">
    <ele>37.6</ele>
    <time>2025-05-19T16:09:21.000Z</time>
   </trkpt>
   <trkpt lat="52.493922" lon="13.456107">
    <ele>37.8</ele>
    <time>2025-05-19T16:09:23.000Z</time>
   </trkpt>
   <trkpt lat="52.494012" lon="13.455832">
    <ele>37.8</ele>
    <time>2025-05-19T16:09:27.000Z</time>
   </trkpt>
   <trkpt lat="52.494123" lon="13.455394">
    <ele>37.6</ele>
    <time>2025-05-19T16:09:34.000Z</time>
   </trkpt>
   <trkpt lat="52.494149" lon="13.455327">
    <ele>37.6</ele>
    <time>2025-05-19T16:09:35.000Z</time>
   </trkpt>
   <trkpt lat="52.494203" lon="13.455189">
    <ele>37.6</ele>
    <time>2025-05-19T16:09:37.000Z</time>
   </trkpt>
   <trkpt lat="52.494268" lon="13.454922">
    <ele>37.4</ele>
    <time>2025-05-19T16:09:41.000Z</time>
   </trkpt>
   <trkpt lat="52.494363" lon="13.454633">
    <ele>37.4</ele>
    <time>2025-05-19T16:09:45.000Z</time>
   </trkpt>
   <trkpt lat="52.494402" lon="13.45449">
    <ele>37.4</ele>
    <time>2025-05-19T16:09:47.000Z</time>
   </trkpt>
   <trkpt lat="52.49441" lon="13.454427">
    <ele>37.4</ele>
    <time>2025-05-19T16:09:48.000Z</time>
   </trkpt>
   <trkpt lat="52.494512" lon="13.454152">
    <ele>37.6</ele>
    <time>2025-05-19T16:09:53.000Z</time>
   </trkpt>
   <trkpt lat="52.49457" lon="13.453983">
    <ele>37.6</ele>
    <time>2025-05-19T16:09:56.000Z</time>
   </trkpt>
   <trkpt lat="52.49459" lon="13.453879">
    <ele>37.6</ele>
    <time>2025-05-19T16:09:58.000Z</time>
   </trkpt>
   <trkpt lat="52.494605" lon="13.453828">
    <ele>37.6</ele>
    <time>2025-05-19T16:09:59.000Z</time>
   </trkpt>
   <trkpt lat="52.494676" lon="13.453584">
    <ele>37.6</ele>
    <time>2025-05-19T16:10:03.000Z</time>
   </trkpt>
   <trkpt lat="52.494778" lon="13.453335">
    <ele>37.6</ele>
    <time>2025-05-19T16:10:08.000Z</time>
   </trkpt>
   <trkpt lat="52.494934" lon="13.453067">
    <ele>37.6</ele>
    <time>2025-05-19T16:10:14.000Z</time>
   </trkpt>
   <trkpt lat="52.495096" lon="13.452794">
    <ele>37.8</ele>
    <time>2025-05-19T16:10:20.000Z</time>
   </trkpt>
   <trkpt lat="52.495126" lon="13.452737">
    <ele>37.8</ele>
    <time>2025-05-19T16:10:21.000Z</time>
   </trkpt>
   <trkpt lat="52.495377" lon="13.452307">
    <ele>37.6</ele>
    <time>2025-05-19T16:10:29.000Z</time>
   </trkpt>
   <trkpt lat="52.495588" lon="13.451949">
    <ele>37.8</ele>
    <time>2025-05-19T16:10:36.000Z</time>
   </trkpt>
   <trkpt lat="52.495832" lon="13.451539">
    <ele>37.6</ele>
    <time>2025-05-19T16:10:44.000Z</time>
   </trkpt>
   <trkpt lat="52.496075" lon="13.451129">
    <ele>37.8</ele>
    <time>2025-05-19T16:10:52.000Z</time>
   </trkpt>
   <trkpt lat="52.496106" lon="13.45108">
    <ele>37.8</ele>
    <time>2025-05-19T16:10:53.000Z</time>
   </trkpt>
   <trkpt lat="52.496217" lon="13.450911">
    <ele>38.2</ele>
    <time>2025-05-19T16:10:57.000Z</time>
   </trkpt>
   <trkpt lat="52.496333" lon="13.450726">
    <ele>38.2</ele>
    <time>2025-05-19T16:11:01.000Z</time>
   </trkpt>
   <trkpt lat="52.496544" lon="13.450369">
    <ele>38.2</ele>
    <time>2025-05-19T16:11:09.000Z</time>
   </trkpt>
   <trkpt lat="52.496705" lon="13.450077">
    <ele>38.4</ele>
    <time>2025-05-19T16:11:16.000Z</time>
   </trkpt>
   <trkpt lat="52.496863" lon="13.449793">
    <ele>38.4</ele>
    <time>2025-05-19T16:11:23.000Z</time>
   </trkpt>
   <trkpt lat="52.497036" lon="13.44947">
    <ele>38.4</ele>
    <time>2025-05-19T16:11:30.000Z</time>
   </trkpt>
   <trkpt lat="52.497063" lon="13.449421">
    <ele>38.4</ele>
    <time>2025-05-19T16:11:31.000Z</time>
   </trkpt>
   <trkpt lat="52.497204" lon="13.449176">
    <ele>38.4</ele>
    <time>2025-05-19T16:11:36.000Z</time>
   </trkpt>
   <trkpt lat="52.497425" lon="13.448785">
    <ele>38.8</ele>
    <time>2025-05-19T16:11:44.000Z</time>
   </trkpt>
   <trkpt lat="52.49754" lon="13.448584">
    <ele>39.2</ele>
    <time>2025-05-19T16:11:48.000Z</time>
   </trkpt>
   <trkpt lat="52.497691" lon="13.448298">
    <ele>39.2</ele>
    <time>2025-05-19T16:11:53.000Z</time>
   </trkpt>
   <trkpt lat="52.497756" lon="13.448188">
    <ele>39.2</ele>
    <time>2025-05-19T16:11:55.000Z</time>
   </trkpt>
   <trkpt lat="52.497904" lon="13.447971">
    <ele>38.6</ele>
    <time>2025-05-19T16:11:59.000Z</time>
   </trkpt>
   <trkpt lat="52.498132" lon="13.447597">
    <ele>38</ele>
    <time>2025-05-19T16:12:05.000Z</time>
   </trkpt>
   <trkpt lat="52.498174" lon="13.44754">
    <ele>38</ele>
    <time>2025-05-19T16:12:06.000Z</time>
   </trkpt>
   <trkpt lat="52.498506" lon="13.446967">
    <ele>37.8</ele>
    <time>2025-05-19T16:12:15.000Z</time>
   </trkpt>
   <trkpt lat="52.498742" lon="13.446533">
    <ele>37.8</ele>
    <time>2025-05-19T16:12:22.000Z</time>
   </trkpt>
   <trkpt lat="52.49881" lon="13.446419">
    <ele>37.6</ele>
    <time>2025-05-19T16:12:24.000Z</time>
   </trkpt>
   <trkpt lat="52.498913" lon="13.446256">
    <ele>37.6</ele>
    <time>2025-05-19T16:12:27.000Z</time>
   </trkpt>
   <trkpt lat="52.49914" lon="13.445866">
    <ele>37.6</ele>
    <time>2025-05-19T16:12:34.000Z</time>
   </trkpt>
   <trkpt lat="52.499269" lon="13.445664">
    <ele>37.6</ele>
    <time>2025-05-19T16:12:38.000Z</time>
   </trkpt>
   <trkpt lat="52.499337" lon="13.445564">
    <ele>37.6</ele>
    <time>2025-05-19T16:12:40.000Z</time>
   </trkpt>
   <trkpt lat="52.499403" lon="13.445439">
    <ele>37.8</ele>
    <time>2025-05-19T16:12:42.000Z</time>
   </trkpt>
   <trkpt lat="52.499463" lon="13.445299">
    <ele>37.8</ele>
    <time>2025-05-19T16:12:44.000Z</time>
   </trkpt>
   <trkpt lat="52.49953" lon="13.445175">
    <ele>37.8</ele>
    <time>2025-05-19T16:12:46.000Z</time>
   </trkpt>
   <trkpt lat="52.499565" lon="13.445112">
    <ele>37.8</ele>
    <time>2025-05-19T16:12:47.000Z</time>
   </trkpt>
   <trkpt lat="52.499722" lon="13.444804">
    <ele>37.6</ele>
    <time>2025-05-19T16:12:52.000Z</time>
   </trkpt>
   <trkpt lat="52.499898" lon="13.44449">
    <ele>37.6</ele>
    <time>2025-05-19T16:12:58.000Z</time>
   </trkpt>
   <trkpt lat="52.500013" lon="13.444281">
    <ele>37.6</ele>
    <time>2025-05-19T16:13:03.000Z</time>
   </trkpt>
   <trkpt lat="52.500189" lon="13.443932">
    <ele>38</ele>
    <time>2025-05-19T16:13:10.000Z</time>
   </trkpt>
   <trkpt lat="52.500218" lon="13.443881">
    <ele>38</ele>
    <time>2025-05-19T16:13:11.000Z</time>
   </trkpt>
   <trkpt lat="52.500249" lon="13.443835">
    <ele>38</ele>
    <time>2025-05-19T16:13:12.000Z</time>
   </trkpt>
   <trkpt lat="52.500315" lon="13.443749">
    <ele>38.2</ele>
    <time>2025-05-19T16:13:14.000Z</time>
   </trkpt>
   <trkpt lat="52.500377" lon="13.443649">
    <ele>38.2</ele>
    <time>2025-05-19T16:13:16.000Z</time>
   </trkpt>
   <trkpt lat="52.500457" lon="13.443477">
    <ele>38.2</ele>
    <time>2025-05-19T16:13:19.000Z</time>
   </trkpt>
   <trkpt lat="52.500482" lon="13.443424">
    <ele>38.2</ele>
    <time>2025-05-19T16:13:20.000Z</time>
   </trkpt>
   <trkpt lat="52.50062" lon="13.443117">
    <ele>38</ele>
    <time>2025-05-19T16:13:25.000Z</time>
   </trkpt>
   <trkpt lat="52.50065" lon="13.443065">
    <ele>38</ele>
    <time>2025-05-19T16:13:26.000Z</time>
   </trkpt>
   <trkpt lat="52.500849" lon="13.442644">
    <ele>37.8</ele>
    <time>2025-05-19T16:13:33.000Z</time>
   </trkpt>
   <trkpt lat="52.501042" lon="13.442246">
    <ele>37.8</ele>
    <time>2025-05-19T16:13:40.000Z</time>
   </trkpt>
   <trkpt lat="52.501063" lon="13.442215">
    <ele>37.8</ele>
    <time>2025-05-19T16:13:41.000Z</time>
   </trkpt>
   <trkpt lat="52.501121" lon="13.442111">
    <ele>37.8</ele>
    <time>2025-05-19T16:13:43.000Z</time>
   </trkpt>
   <trkpt lat="52.50115" lon="13.442044">
    <ele>37.8</ele>
    <time>2025-05-19T16:13:44.000Z</time>
   </trkpt>
   <trkpt lat="52.50126" lon="13.441879">
    <ele>37.8</ele>
    <time>2025-05-19T16:13:48.000Z</time>
   </trkpt>
   <trkpt lat="52.501291" lon="13.441831">
    <ele>37.8</ele>
    <time>2025-05-19T16:13:49.000Z</time>
   </trkpt>
   <trkpt lat="52.501312" lon="13.441732">
    <ele>38</ele>
    <time>2025-05-19T16:13:51.000Z</time>
   </trkpt>
   <trkpt lat="52.50126" lon="13.441533">
    <ele>38</ele>
    <time>2025-05-19T16:13:55.000Z</time>
   </trkpt>
   <trkpt lat="52.501106" lon="13.441339">
    <ele>38.2</ele>
    <time>2025-05-19T16:14:01.000Z</time>
   </trkpt>
   <trkpt lat="52.501024" lon="13.441217">
    <ele>38.2</ele>
    <time>2025-05-19T16:14:04.000Z</time>
   </trkpt>
   <trkpt lat="52.500953" lon="13.441052">
    <ele>38</ele>
    <time>2025-05-19T16:14:07.000Z</time>
   </trkpt>
   <trkpt lat="52.50093" lon="13.440821">
    <ele>38.2</ele>
    <time>2025-05-19T16:14:11.000Z</time>
   </trkpt>
   <trkpt lat="52.500912" lon="13.440744">
    <ele>38.2</ele>
    <time>2025-05-19T16:14:13.000Z</time>
   </trkpt>
   <trkpt lat="52.500898" lon="13.440672">
    <ele>38.4</ele>
    <time>2025-05-19T16:14:15.000Z</time>
   </trkpt>
   <trkpt lat="52.500896" lon="13.440553">
    <ele>38.4</ele>
    <time>2025-05-19T16:14:17.000Z</time>
   </trkpt>
   <trkpt lat="52.500857" lon="13.440435">
    <ele>38.4</ele>
    <time>2025-05-19T16:14:19.000Z</time>
   </trkpt>
   <trkpt lat="52.500839" lon="13.440349">
    <ele>38.4</ele>
    <time>2025-05-19T16:14:20.000Z</time>
   </trkpt>
   <trkpt lat="52.50075" lon="13.440113">
    <ele>38.6</ele>
    <time>2025-05-19T16:14:23.000Z</time>
   </trkpt>
   <trkpt lat="52.500726" lon="13.440067">
    <ele>38.6</ele>
    <time>2025-05-19T16:14:24.000Z</time>
   </trkpt>
   <trkpt lat="52.500649" lon="13.439757">
    <ele>38.6</ele>
    <time>2025-05-19T16:14:29.000Z</time>
   </trkpt>
   <trkpt lat="52.500604" lon="13.439561">
    <ele>38.6</ele>
    <time>2025-05-19T16:14:32.000Z</time>
   </trkpt>
   <trkpt lat="52.500594" lon="13.439427">
    <ele>38.6</ele>
    <time>2025-05-19T16:14:34.000Z</time>
   </trkpt>
   <trkpt lat="52.500553" lon="13.439242">
    <ele>38.6</ele>
    <time>2025-05-19T16:14:36.000Z</time>
   </trkpt>
   <trkpt lat="52.50052" lon="13.439003">
    <ele>38.8</ele>
    <time>2025-05-19T16:14:39.000Z</time>
   </trkpt>
   <trkpt lat="52.500517" lon="13.438832">
    <ele>38.8</ele>
    <time>2025-05-19T16:14:41.000Z</time>
   </trkpt>
   <trkpt lat="52.500528" lon="13.438656">
    <ele>38.8</ele>
    <time>2025-05-19T16:14:43.000Z</time>
   </trkpt>
   <trkpt lat="52.500541" lon="13.438491">
    <ele>39</ele>
    <time>2025-05-19T16:14:45.000Z</time>
   </trkpt>
   <trkpt lat="52.500541" lon="13.438378">
    <ele>39</ele>
    <time>2025-05-19T16:14:47.000Z</time>
   </trkpt>
   <trkpt lat="52.500521" lon="13.438315">
    <ele>39</ele>
    <time>2025-05-19T16:14:48.000Z</time>
   </trkpt>
   <trkpt lat="52.500481" lon="13.438082">
    <ele>39.2</ele>
    <time>2025-05-19T16:14:53.000Z</time>
   </trkpt>
   <trkpt lat="52.500421" lon="13.437801">
    <ele>39</ele>
    <time>2025-05-19T16:14:58.000Z</time>
   </trkpt>
   <trkpt lat="52.500362" lon="13.437396">
    <ele>38.8</ele>
    <time>2025-05-19T16:15:03.000Z</time>
   </trkpt>
   <trkpt lat="52.50037" lon="13.437249">
    <ele>38.6</ele>
    <time>2025-05-19T16:15:05.000Z</time>
   </trkpt>
   <trkpt lat="52.500368" lon="13.437175">
    <ele>38.6</ele>
    <time>2025-05-19T16:15:06.000Z</time>
   </trkpt>
   <trkpt lat="52.500366" lon="13.437055">
    <ele>38.6</ele>
    <time>2025-05-19T16:15:08.000Z</time>
   </trkpt>
   <trkpt lat="52.50036" lon="13.436997">
    <ele>38.6</ele>
    <time>2025-05-19T16:15:09.000Z</time>
   </trkpt>
   <trkpt lat="52.500311" lon="13.436697">
    <ele>38.8</ele>
    <time>2025-05-19T16:15:14.000Z</time>
   </trkpt>
   <trkpt lat="52.500286" lon="13.436601">
    <ele>38.8</ele>
    <time>2025-05-19T16:15:16.000Z</time>
   </trkpt>
   <trkpt lat="52.500267" lon="13.436469">
    <ele>39</ele>
    <time>2025-05-19T16:15:18.000Z</time>
   </trkpt>
   <trkpt lat="52.50026" lon="13.436396">
    <ele>39</ele>
    <time>2025-05-19T16:15:19.000Z</time>
   </trkpt>
   <trkpt lat="52.500252" lon="13.436347">
    <ele>39</ele>
    <time>2025-05-19T16:15:20.000Z</time>
   </trkpt>
   <trkpt lat="52.500222" lon="13.436182">
    <ele>39</ele>
    <time>2025-05-19T16:15:23.000Z</time>
   </trkpt>
   <trkpt lat="52.500202" lon="13.436112">
    <ele>39</ele>
    <time>2025-05-19T16:15:24.000Z</time>
   </trkpt>
   <trkpt lat="52.50018" lon="13.436029">
    <ele>39</ele>
    <time>2025-05-19T16:15:25.000Z</time>
   </trkpt>
   <trkpt lat="52.500133" lon="13.435858">
    <ele>39</ele>
    <time>2025-05-19T16:15:27.000Z</time>
   </trkpt>
   <trkpt lat="52.500125" lon="13.435774">
    <ele>39</ele>
    <time>2025-05-19T16:15:28.000Z</time>
   </trkpt>
   <trkpt lat="52.500121" lon="13.435708">
    <ele>39</ele>
    <time>2025-05-19T16:15:29.000Z</time>
   </trkpt>
   <trkpt lat="52.500083" lon="13.435473">
    <ele>39.2</ele>
    <time>2025-05-19T16:15:32.000Z</time>
   </trkpt>
   <trkpt lat="52.500021" lon="13.435239">
    <ele>39.2</ele>
    <time>2025-05-19T16:15:35.000Z</time>
   </trkpt>
   <trkpt lat="52.499988" lon="13.434889">
    <ele>39.2</ele>
    <time>2025-05-19T16:15:38.000Z</time>
   </trkpt>
   <trkpt lat="52.499925" lon="13.434582">
    <ele>39</ele>
    <time>2025-05-19T16:15:41.000Z</time>
   </trkpt>
   <trkpt lat="52.499916" lon="13.434442">
    <ele>39</ele>
    <time>2025-05-19T16:15:43.000Z</time>
   </trkpt>
   <trkpt lat="52.499921" lon="13.43437">
    <ele>38.8</ele>
    <time>2025-05-19T16:15:44.000Z</time>
   </trkpt>
   <trkpt lat="52.499928" lon="13.434199">
    <ele>39</ele>
    <time>2025-05-19T16:15:46.000Z</time>
   </trkpt>
   <trkpt lat="52.499936" lon="13.434152">
    <ele>38.8</ele>
    <time>2025-05-19T16:15:47.000Z</time>
   </trkpt>
   <trkpt lat="52.499934" lon="13.433978">
    <ele>38.8</ele>
    <time>2025-05-19T16:15:49.000Z</time>
   </trkpt>
   <trkpt lat="52.49991" lon="13.433893">
    <ele>39.2</ele>
    <time>2025-05-19T16:15:51.000Z</time>
   </trkpt>
   <trkpt lat="52.499904" lon="13.433852">
    <ele>39.4</ele>
    <time>2025-05-19T16:15:52.000Z</time>
   </trkpt>
   <trkpt lat="52.499841" lon="13.433676">
    <ele>39.6</ele>
    <time>2025-05-19T16:15:54.000Z</time>
   </trkpt>
   <trkpt lat="52.499804" lon="13.433561">
    <ele>39.6</ele>
    <time>2025-05-19T16:15:56.000Z</time>
   </trkpt>
   <trkpt lat="52.499775" lon="13.433476">
    <ele>39.6</ele>
    <time>2025-05-19T16:15:57.000Z</time>
   </trkpt>
   <trkpt lat="52.499738" lon="13.433352">
    <ele>39.6</ele>
    <time>2025-05-19T16:15:59.000Z</time>
   </trkpt>
   <trkpt lat="52.499674" lon="13.432879">
    <ele>39.4</ele>
    <time>2025-05-19T16:16:05.000Z</time>
   </trkpt>
   <trkpt lat="52.499683" lon="13.432805">
    <ele>39.4</ele>
    <time>2025-05-19T16:16:06.000Z</time>
   </trkpt>
   <trkpt lat="52.499691" lon="13.432737">
    <ele>39.4</ele>
    <time>2025-05-19T16:16:07.000Z</time>
   </trkpt>
   <trkpt lat="52.499658" lon="13.432475">
    <ele>39.6</ele>
    <time>2025-05-19T16:16:11.000Z</time>
   </trkpt>
   <trkpt lat="52.49964" lon="13.432344">
    <ele>39.6</ele>
    <time>2025-05-19T16:16:13.000Z</time>
   </trkpt>
   <trkpt lat="52.499613" lon="13.432225">
    <ele>39.6</ele>
    <time>2025-05-19T16:16:15.000Z</time>
   </trkpt>
   <trkpt lat="52.499599" lon="13.432165">
    <ele>39.6</ele>
    <time>2025-05-19T16:16:16.000Z</time>
   </trkpt>
   <trkpt lat="52.499528" lon="13.431697">
    <ele>39.8</ele>
    <time>2025-05-19T16:16:24.000Z</time>
   </trkpt>
   <trkpt lat="52.499464" lon="13.431066">
    <ele>39.8</ele>
    <time>2025-05-19T16:16:34.000Z</time>
   </trkpt>
   <trkpt lat="52.499496" lon="13.430569">
    <ele>39.6</ele>
    <time>2025-05-19T16:16:41.000Z</time>
   </trkpt>
   <trkpt lat="52.499501" lon="13.430501">
    <ele>39.8</ele>
    <time>2025-05-19T16:16:42.000Z</time>
   </trkpt>
   <trkpt lat="52.499512" lon="13.430308">
    <ele>39.8</ele>
    <time>2025-05-19T16:16:45.000Z</time>
   </trkpt>
   <trkpt lat="52.499534" lon="13.430019">
    <ele>39.8</ele>
    <time>2025-05-19T16:16:49.000Z</time>
   </trkpt>
   <trkpt lat="52.49954" lon="13.42981">
    <ele>39.8</ele>
    <time>2025-05-19T16:16:52.000Z</time>
   </trkpt>
   <trkpt lat="52.499513" lon="13.429386">
    <ele>39.8</ele>
    <time>2025-05-19T16:16:58.000Z</time>
   </trkpt>
   <trkpt lat="52.49948" lon="13.429179">
    <ele>39.6</ele>
    <time>2025-05-19T16:17:01.000Z</time>
   </trkpt>
   <trkpt lat="52.499452" lon="13.428822">
    <ele>39.2</ele>
    <time>2025-05-19T16:17:06.000Z</time>
   </trkpt>
   <trkpt lat="52.499443" lon="13.42868">
    <ele>39.2</ele>
    <time>2025-05-19T16:17:08.000Z</time>
   </trkpt>
   <trkpt lat="52.49944" lon="13.428605">
    <ele>38.8</ele>
    <time>2025-05-19T16:17:09.000Z</time>
   </trkpt>
   <trkpt lat="52.499425" lon="13.42826">
    <ele>39.2</ele>
    <time>2025-05-19T16:17:14.000Z</time>
   </trkpt>
   <trkpt lat="52.499409" lon="13.428083">
    <ele>39.2</ele>
    <time>2025-05-19T16:17:17.000Z</time>
   </trkpt>
   <trkpt lat="52.499371" lon="13.427757">
    <ele>39.2</ele>
    <time>2025-05-19T16:17:23.000Z</time>
   </trkpt>
   <trkpt lat="52.499359" lon="13.427281">
    <ele>39</ele>
    <time>2025-05-19T16:17:31.000Z</time>
   </trkpt>
   <trkpt lat="52.499344" lon="13.427158">
    <ele>39</ele>
    <time>2025-05-19T16:17:36.000Z</time>
   </trkpt>
   <trkpt lat="52.499342" lon="13.427075">
    <ele>39.2</ele>
    <time>2025-05-19T16:18:21.000Z</time>
   </trkpt>
   <trkpt lat="52.499334" lon="13.426995">
    <ele>39.2</ele>
    <time>2025-05-19T16:18:23.000Z</time>
   </trkpt>
   <trkpt lat="52.499355" lon="13.426636">
    <ele>39.2</ele>
    <time>2025-05-19T16:18:30.000Z</time>
   </trkpt>
   <trkpt lat="52.499438" lon="13.426246">
    <ele>39</ele>
    <time>2025-05-19T16:18:36.000Z</time>
   </trkpt>
   <trkpt lat="52.499596" lon="13.425627">
    <ele>38.4</ele>
    <time>2025-05-19T16:18:45.000Z</time>
   </trkpt>
   <trkpt lat="52.499661" lon="13.425366">
    <ele>38.4</ele>
    <time>2025-05-19T16:18:49.000Z</time>
   </trkpt>
   <trkpt lat="52.499704" lon="13.42524">
    <ele>38.2</ele>
    <time>2025-05-19T16:18:51.000Z</time>
   </trkpt>
   <trkpt lat="52.499774" lon="13.425057">
    <ele>38.2</ele>
    <time>2025-05-19T16:18:54.000Z</time>
   </trkpt>
   <trkpt lat="52.499793" lon="13.424989">
    <ele>38.2</ele>
    <time>2025-05-19T16:18:55.000Z</time>
   </trkpt>
   <trkpt lat="52.499831" lon="13.424844">
    <ele>38.2</ele>
    <time>2025-05-19T16:18:57.000Z</time>
   </trkpt>
   <trkpt lat="52.499868" lon="13.424709">
    <ele>38.2</ele>
    <time>2025-05-19T16:18:59.000Z</time>
   </trkpt>
   <trkpt lat="52.499885" lon="13.42464">
    <ele>38.2</ele>
    <time>2025-05-19T16:19:00.000Z</time>
   </trkpt>
   <trkpt lat="52.499916" lon="13.424496">
    <ele>38.2</ele>
    <time>2025-05-19T16:19:02.000Z</time>
   </trkpt>
   <trkpt lat="52.499937" lon="13.424443">
    <ele>38.2</ele>
    <time>2025-05-19T16:19:03.000Z</time>
   </trkpt>
   <trkpt lat="52.500007" lon="13.42429">
    <ele>38.2</ele>
    <time>2025-05-19T16:19:06.000Z</time>
   </trkpt>
   <trkpt lat="52.500053" lon="13.424155">
    <ele>38.2</ele>
    <time>2025-05-19T16:19:08.000Z</time>
   </trkpt>
   <trkpt lat="52.500092" lon="13.423959">
    <ele>38.2</ele>
    <time>2025-05-19T16:19:11.000Z</time>
   </trkpt>
   <trkpt lat="52.500126" lon="13.423854">
    <ele>38.2</ele>
    <time>2025-05-19T16:19:13.000Z</time>
   </trkpt>
   <trkpt lat="52.500189" lon="13.423702">
    <ele>38.2</ele>
    <time>2025-05-19T16:19:16.000Z</time>
   </trkpt>
   <trkpt lat="52.500228" lon="13.4236">
    <ele>38.2</ele>
    <time>2025-05-19T16:19:18.000Z</time>
   </trkpt>
   <trkpt lat="52.500266" lon="13.423487">
    <ele>38.2</ele>
    <time>2025-05-19T16:19:20.000Z</time>
   </trkpt>
   <trkpt lat="52.500296" lon="13.423351">
    <ele>38.2</ele>
    <time>2025-05-19T16:19:22.000Z</time>
   </trkpt>
   <trkpt lat="52.500306" lon="13.42328">
    <ele>38.2</ele>
    <time>2025-05-19T16:19:23.000Z</time>
   </trkpt>
   <trkpt lat="52.500417" lon="13.422726">
    <ele>38.2</ele>
    <time>2025-05-19T16:19:30.000Z</time>
   </trkpt>
   <trkpt lat="52.500548" lon="13.422256">
    <ele>38.2</ele>
    <time>2025-05-19T16:19:35.000Z</time>
   </trkpt>
   <trkpt lat="52.500696" lon="13.421718">
    <ele>37.8</ele>
    <time>2025-05-19T16:19:41.000Z</time>
   </trkpt>
   <trkpt lat="52.500713" lon="13.42163">
    <ele>37.8</ele>
    <time>2025-05-19T16:19:42.000Z</time>
   </trkpt>
   <trkpt lat="52.500873" lon="13.421021">
    <ele>37.6</ele>
    <time>2025-05-19T16:19:49.000Z</time>
   </trkpt>
   <trkpt lat="52.500969" lon="13.420691">
    <ele>37.6</ele>
    <time>2025-05-19T16:19:53.000Z</time>
   </trkpt>
   <trkpt lat="52.501017" lon="13.420543">
    <ele>37.6</ele>
    <time>2025-05-19T16:19:55.000Z</time>
   </trkpt>
   <trkpt lat="52.501035" lon="13.420471">
    <ele>37.6</ele>
    <time>2025-05-19T16:19:56.000Z</time>
   </trkpt>
   <trkpt lat="52.501129" lon="13.420103">
    <ele>37.4</ele>
    <time>2025-05-19T16:20:02.000Z</time>
   </trkpt>
   <trkpt lat="52.501206" lon="13.419859">
    <ele>37.6</ele>
    <time>2025-05-19T16:20:07.000Z</time>
   </trkpt>
   <trkpt lat="52.501295" lon="13.419552">
    <ele>37.8</ele>
    <time>2025-05-19T16:20:13.000Z</time>
   </trkpt>
   <trkpt lat="52.50131" lon="13.419507">
    <ele>37.8</ele>
    <time>2025-05-19T16:20:14.000Z</time>
   </trkpt>
   <trkpt lat="52.501341" lon="13.419389">
    <ele>37.8</ele>
    <time>2025-05-19T16:20:16.000Z</time>
   </trkpt>
   <trkpt lat="52.501358" lon="13.419319">
    <ele>38</ele>
    <time>2025-05-19T16:20:17.000Z</time>
   </trkpt>
   <trkpt lat="52.501461" lon="13.418912">
    <ele>37.6</ele>
    <time>2025-05-19T16:20:23.000Z</time>
   </trkpt>
   <trkpt lat="52.501474" lon="13.418843">
    <ele>37.6</ele>
    <time>2025-05-19T16:20:24.000Z</time>
   </trkpt>
   <trkpt lat="52.5015" lon="13.418775">
    <ele>37.6</ele>
    <time>2025-05-19T16:20:25.000Z</time>
   </trkpt>
   <trkpt lat="52.50158" lon="13.418464">
    <ele>37.6</ele>
    <time>2025-05-19T16:20:29.000Z</time>
   </trkpt>
   <trkpt lat="52.501627" lon="13.418336">
    <ele>37.6</ele>
    <time>2025-05-19T16:20:31.000Z</time>
   </trkpt>
   <trkpt lat="52.501671" lon="13.418202">
    <ele>37.6</ele>
    <time>2025-05-19T16:20:33.000Z</time>
   </trkpt>
   <trkpt lat="52.501689" lon="13.418139">
    <ele>37.6</ele>
    <time>2025-05-19T16:20:34.000Z</time>
   </trkpt>
   <trkpt lat="52.501715" lon="13.418079">
    <ele>37.6</ele>
    <time>2025-05-19T16:20:35.000Z</time>
   </trkpt>
   <trkpt lat="52.501798" lon="13.41781">
    <ele>37.6</ele>
    <time>2025-05-19T16:20:39.000Z</time>
   </trkpt>
   <trkpt lat="52.501843" lon="13.417671">
    <ele>37.6</ele>
    <time>2025-05-19T16:20:41.000Z</time>
   </trkpt>
   <trkpt lat="52.501903" lon="13.417476">
    <ele>37.6</ele>
    <time>2025-05-19T16:20:44.000Z</time>
   </trkpt>
   <trkpt lat="52.501924" lon="13.417409">
    <ele>37.6</ele>
    <time>2025-05-19T16:20:45.000Z</time>
   </trkpt>
   <trkpt lat="52.502044" lon="13.417004">
    <ele>37.6</ele>
    <time>2025-05-19T16:20:51.000Z</time>
   </trkpt>
   <trkpt lat="52.502104" lon="13.416774">
    <ele>37.6</ele>
    <time>2025-05-19T16:20:54.000Z</time>
   </trkpt>
   <trkpt lat="52.502173" lon="13.416602">
    <ele>37.8</ele>
    <time>2025-05-19T16:20:57.000Z</time>
   </trkpt>
   <trkpt lat="52.502328" lon="13.416125">
    <ele>38</ele>
    <time>2025-05-19T16:21:04.000Z</time>
   </trkpt>
   <trkpt lat="52.502464" lon="13.415644">
    <ele>38.2</ele>
    <time>2025-05-19T16:21:12.000Z</time>
   </trkpt>
   <trkpt lat="52.502534" lon="13.415298">
    <ele>38.2</ele>
    <time>2025-05-19T16:21:19.000Z</time>
   </trkpt>
   <trkpt lat="52.502558" lon="13.415048">
    <ele>38.2</ele>
    <time>2025-05-19T16:21:24.000Z</time>
   </trkpt>
   <trkpt lat="52.502563" lon="13.414858">
    <ele>38.2</ele>
    <time>2025-05-19T16:21:27.000Z</time>
   </trkpt>
   <trkpt lat="52.502599" lon="13.41473">
    <ele>38.2</ele>
    <time>2025-05-19T16:21:29.000Z</time>
   </trkpt>
   <trkpt lat="52.502639" lon="13.414594">
    <ele>38.2</ele>
    <time>2025-05-19T16:21:31.000Z</time>
   </trkpt>
   <trkpt lat="52.502731" lon="13.41432">
    <ele>38</ele>
    <time>2025-05-19T16:21:35.000Z</time>
   </trkpt>
   <trkpt lat="52.502871" lon="13.413905">
    <ele>38.2</ele>
    <time>2025-05-19T16:21:41.000Z</time>
   </trkpt>
   <trkpt lat="52.503036" lon="13.413326">
    <ele>38.2</ele>
    <time>2025-05-19T16:21:49.000Z</time>
   </trkpt>
   <trkpt lat="52.503083" lon="13.413158">
    <ele>38</ele>
    <time>2025-05-19T16:21:51.000Z</time>
   </trkpt>
   <trkpt lat="52.503153" lon="13.412815">
    <ele>38</ele>
    <time>2025-05-19T16:21:55.000Z</time>
   </trkpt>
   <trkpt lat="52.503175" lon="13.412645">
    <ele>38</ele>
    <time>2025-05-19T16:21:57.000Z</time>
   </trkpt>
   <trkpt lat="52.503208" lon="13.412484">
    <ele>37.8</ele>
    <time>2025-05-19T16:21:59.000Z</time>
   </trkpt>
   <trkpt lat="52.503272" lon="13.412134">
    <ele>38</ele>
    <time>2025-05-19T16:22:03.000Z</time>
   </trkpt>
   <trkpt lat="52.503356" lon="13.411917">
    <ele>38</ele>
    <time>2025-05-19T16:22:06.000Z</time>
   </trkpt>
   <trkpt lat="52.503384" lon="13.411846">
    <ele>38</ele>
    <time>2025-05-19T16:22:07.000Z</time>
   </trkpt>
   <trkpt lat="52.503536" lon="13.411385">
    <ele>38</ele>
    <time>2025-05-19T16:22:13.000Z</time>
   </trkpt>
   <trkpt lat="52.503565" lon="13.411325">
    <ele>38</ele>
    <time>2025-05-19T16:22:14.000Z</time>
   </trkpt>
   <trkpt lat="52.503601" lon="13.411279">
    <ele>38</ele>
    <time>2025-05-19T16:22:15.000Z</time>
   </trkpt>
   <trkpt lat="52.503727" lon="13.411201">
    <ele>38</ele>
    <time>2025-05-19T16:22:18.000Z</time>
   </trkpt>
   <trkpt lat="52.503838" lon="13.411111">
    <ele>38</ele>
    <time>2025-05-19T16:22:21.000Z</time>
   </trkpt>
   <trkpt lat="52.503886" lon="13.410989">
    <ele>38.2</ele>
    <time>2025-05-19T16:22:23.000Z</time>
   </trkpt>
   <trkpt lat="52.503902" lon="13.41083">
    <ele>38.2</ele>
    <time>2025-05-19T16:22:25.000Z</time>
   </trkpt>
   <trkpt lat="52.503879" lon="13.410663">
    <ele>38.2</ele>
    <time>2025-05-19T16:22:27.000Z</time>
   </trkpt>
   <trkpt lat="52.503856" lon="13.410428">
    <ele>38.2</ele>
    <time>2025-05-19T16:22:30.000Z</time>
   </trkpt>
   <trkpt lat="52.503871" lon="13.410357">
    <ele>38.2</ele>
    <time>2025-05-19T16:22:31.000Z</time>
   </trkpt>
   <trkpt lat="52.503894" lon="13.410289">
    <ele>38.2</ele>
    <time>2025-05-19T16:22:32.000Z</time>
   </trkpt>
   <trkpt lat="52.50395" lon="13.410166">
    <ele>38.2</ele>
    <time>2025-05-19T16:22:34.000Z</time>
   </trkpt>
   <trkpt lat="52.503973" lon="13.410096">
    <ele>38.2</ele>
    <time>2025-05-19T16:22:35.000Z</time>
   </trkpt>
   <trkpt lat="52.503994" lon="13.410022">
    <ele>38.2</ele>
    <time>2025-05-19T16:22:36.000Z</time>
   </trkpt>
   <trkpt lat="52.50406" lon="13.409719">
    <ele>38</ele>
    <time>2025-05-19T16:22:40.000Z</time>
   </trkpt>
   <trkpt lat="52.504077" lon="13.409644">
    <ele>38</ele>
    <time>2025-05-19T16:22:41.000Z</time>
   </trkpt>
   <trkpt lat="52.504126" lon="13.4094">
    <ele>37.8</ele>
    <time>2025-05-19T16:22:44.000Z</time>
   </trkpt>
   <trkpt lat="52.504183" lon="13.409143">
    <ele>37.8</ele>
    <time>2025-05-19T16:22:47.000Z</time>
   </trkpt>
   <trkpt lat="52.504314" lon="13.408656">
    <ele>37.8</ele>
    <time>2025-05-19T16:22:53.000Z</time>
   </trkpt>
   <trkpt lat="52.504381" lon="13.408365">
    <ele>38</ele>
    <time>2025-05-19T16:22:57.000Z</time>
   </trkpt>
   <trkpt lat="52.504404" lon="13.408297">
    <ele>38</ele>
    <time>2025-05-19T16:22:58.000Z</time>
   </trkpt>
   <trkpt lat="52.504453" lon="13.408075">
    <ele>38</ele>
    <time>2025-05-19T16:23:02.000Z</time>
   </trkpt>
   <trkpt lat="52.504442" lon="13.408026">
    <ele>38</ele>
    <time>2025-05-19T16:23:03.000Z</time>
   </trkpt>
   <trkpt lat="52.504385" lon="13.407941">
    <ele>38</ele>
    <time>2025-05-19T16:23:05.000Z</time>
   </trkpt>
   <trkpt lat="52.504315" lon="13.407896">
    <ele>38</ele>
    <time>2025-05-19T16:23:07.000Z</time>
   </trkpt>
   <trkpt lat="52.504192" lon="13.407811">
    <ele>38.2</ele>
    <time>2025-05-19T16:23:10.000Z</time>
   </trkpt>
   <trkpt lat="52.504069" lon="13.40772">
    <ele>38.2</ele>
    <time>2025-05-19T16:23:13.000Z</time>
   </trkpt>
   <trkpt lat="52.503983" lon="13.407629">
    <ele>38.2</ele>
    <time>2025-05-19T16:23:15.000Z</time>
   </trkpt>
   <trkpt lat="52.503713" lon="13.407411">
    <ele>38.2</ele>
    <time>2025-05-19T16:23:22.000Z</time>
   </trkpt>
   <trkpt lat="52.503561" lon="13.407314">
    <ele>38.2</ele>
    <time>2025-05-19T16:23:27.000Z</time>
   </trkpt>
   <trkpt lat="52.503534" lon="13.407309">
    <ele>38.2</ele>
    <time>2025-05-19T16:23:30.000Z</time>
   </trkpt>
   <trkpt lat="52.503534" lon="13.407309">
    <ele>38.4</ele>
    <time>2025-05-19T16:23:47.000Z</time>
   </trkpt>
   <trkpt lat="52.503214" lon="13.408266">
    <ele>38.6</ele>
    <time>2025-05-19T16:23:49.000Z</time>
   </trkpt>
   <trkpt lat="52.503123" lon="13.408248">
    <ele>38.8</ele>
    <time>2025-05-19T16:23:50.000Z</time>
   </trkpt>
   <trkpt lat="52.503182" lon="13.408233">
    <ele>39</ele>
    <time>2025-05-19T16:23:54.000Z</time>
   </trkpt>
   <trkpt lat="52.50361" lon="13.408259">
    <ele>39</ele>
    <time>2025-05-19T16:23:57.000Z</time>
   </trkpt>
   <trkpt lat="52.503611" lon="13.408332">
    <ele>39</ele>
    <time>2025-05-19T16:24:00.000Z</time>
   </trkpt>
   <trkpt lat="52.503608" lon="13.408371">
    <ele>39</ele>
    <time>2025-05-19T16:24:03.000Z</time>
   </trkpt>
   <trkpt lat="52.50361" lon="13.40837">
    <ele>38.8</ele>
    <time>2025-05-19T16:24:06.000Z</time>
   </trkpt>
   <trkpt lat="52.503616" lon="13.408378">
    <ele>38.8</ele>
    <time>2025-05-19T16:24:07.000Z</time>
   </trkpt>
   <trkpt lat="52.503619" lon="13.408391">
    <ele>38.8</ele>
    <time>2025-05-19T16:24:11.000Z</time>
   </trkpt>
   <trkpt lat="52.503619" lon="13.408391">
    <ele>38.8</ele>
    <time>2025-05-19T16:24:13.000Z</time>
   </trkpt>
  </trkseg>
 </trk>
</gpx>
