<?xml version="1.0" encoding="UTF-8"?>
<gpx creator="StravaGPX" version="1.1" xmlns="http://www.topografix.com/GPX/1/1">
 <metadata>
  <time>2026-05-19T17:42:19Z</time>
 </metadata>
 <trk>
  <name>Evening Ride</name>
  <type>1</type>
  <trkseg>
   <trkpt lat="52.501926" lon="13.408383">
    <ele>32.8</ele>
    <time>2026-05-19T17:42:19.000Z</time>
   </trkpt>
   <trkpt lat="52.501926" lon="13.408383">
    <ele>36.4</ele>
    <time>2026-05-19T17:42:29.000Z</time>
   </trkpt>
   <trkpt lat="52.501926" lon="13.408383">
    <ele>37.4</ele>
    <time>2026-05-19T17:42:33.000Z</time>
   </trkpt>
   <trkpt lat="52.501926" lon="13.408383">
    <ele>38.8</ele>
    <time>2026-05-19T17:42:39.000Z</time>
   </trkpt>
   <trkpt lat="52.502067" lon="13.408244">
    <ele>38.8</ele>
    <time>2026-05-19T17:42:41.000Z</time>
   </trkpt>
   <trkpt lat="52.502149" lon="13.408317">
    <ele>38.8</ele>
    <time>2026-05-19T17:42:43.000Z</time>
   </trkpt>
   <trkpt lat="52.50214" lon="13.408411">
    <ele>38.6</ele>
    <time>2026-05-19T17:42:44.000Z</time>
   </trkpt>
   <trkpt lat="52.50204" lon="13.408635">
    <ele>38.6</ele>
    <time>2026-05-19T17:42:49.000Z</time>
   </trkpt>
   <trkpt lat="52.501943" lon="13.408824">
    <ele>38.6</ele>
    <time>2026-05-19T17:42:54.000Z</time>
   </trkpt>
   <trkpt lat="52.501898" lon="13.409054">
    <ele>38.6</ele>
    <time>2026-05-19T17:43:00.000Z</time>
   </trkpt>
   <trkpt lat="52.501889" lon="13.409106">
    <ele>38.6</ele>
    <time>2026-05-19T17:43:01.000Z</time>
   </trkpt>
   <trkpt lat="52.501884" lon="13.409183">
    <ele>38.6</ele>
    <time>2026-05-19T17:43:04.000Z</time>
   </trkpt>
   <trkpt lat="52.501825" lon="13.409254">
    <ele>38.4</ele>
    <time>2026-05-19T17:43:45.000Z</time>
   </trkpt>
   <trkpt lat="52.501829" lon="13.409344">
    <ele>38.4</ele>
    <time>2026-05-19T17:43:47.000Z</time>
   </trkpt>
   <trkpt lat="52.501939" lon="13.409522">
    <ele>38.4</ele>
    <time>2026-05-19T17:43:52.000Z</time>
   </trkpt>
   <trkpt lat="52.502135" lon="13.409688">
    <ele>38.2</ele>
    <time>2026-05-19T17:43:57.000Z</time>
   </trkpt>
   <trkpt lat="52.502206" lon="13.409739">
    <ele>38.2</ele>
    <time>2026-05-19T17:43:59.000Z</time>
   </trkpt>
   <trkpt lat="52.502294" lon="13.409771">
    <ele>38.2</ele>
    <time>2026-05-19T17:44:01.000Z</time>
   </trkpt>
   <trkpt lat="52.502321" lon="13.409766">
    <ele>38.2</ele>
    <time>2026-05-19T17:44:02.000Z</time>
   </trkpt>
   <trkpt lat="52.50236" lon="13.409782">
    <ele>38.4</ele>
    <time>2026-05-19T17:44:03.000Z</time>
   </trkpt>
   <trkpt lat="52.502473" lon="13.40984">
    <ele>38.2</ele>
    <time>2026-05-19T17:44:06.000Z</time>
   </trkpt>
   <trkpt lat="52.502568" lon="13.40989">
    <ele>38.2</ele>
    <time>2026-05-19T17:44:08.000Z</time>
   </trkpt>
   <trkpt lat="52.502636" lon="13.40997">
    <ele>38.2</ele>
    <time>2026-05-19T17:44:10.000Z</time>
   </trkpt>
   <trkpt lat="52.502657" lon="13.410003">
    <ele>38.2</ele>
    <time>2026-05-19T17:44:11.000Z</time>
   </trkpt>
   <trkpt lat="52.502693" lon="13.410095">
    <ele>38.2</ele>
    <time>2026-05-19T17:44:12.000Z</time>
   </trkpt>
   <trkpt lat="52.502777" lon="13.410218">
    <ele>38.2</ele>
    <time>2026-05-19T17:44:14.000Z</time>
   </trkpt>
   <trkpt lat="52.502866" lon="13.410305">
    <ele>38.2</ele>
    <time>2026-05-19T17:44:16.000Z</time>
   </trkpt>
   <trkpt lat="52.502904" lon="13.410348">
    <ele>38.2</ele>
    <time>2026-05-19T17:44:17.000Z</time>
   </trkpt>
   <trkpt lat="52.503036" lon="13.410505">
    <ele>38.2</ele>
    <time>2026-05-19T17:44:20.000Z</time>
   </trkpt>
   <trkpt lat="52.503268" lon="13.410641">
    <ele>38.2</ele>
    <time>2026-05-19T17:44:24.000Z</time>
   </trkpt>
   <trkpt lat="52.503372" lon="13.410671">
    <ele>38.4</ele>
    <time>2026-05-19T17:44:26.000Z</time>
   </trkpt>
   <trkpt lat="52.503395" lon="13.410724">
    <ele>38.4</ele>
    <time>2026-05-19T17:44:27.000Z</time>
   </trkpt>
   <trkpt lat="52.503435" lon="13.410861">
    <ele>38.4</ele>
    <time>2026-05-19T17:44:30.000Z</time>
   </trkpt>
   <trkpt lat="52.50346" lon="13.410978">
    <ele>38.4</ele>
    <time>2026-05-19T17:44:32.000Z</time>
   </trkpt>
   <trkpt lat="52.503466" lon="13.411054">
    <ele>38.2</ele>
    <time>2026-05-19T17:44:33.000Z</time>
   </trkpt>
   <trkpt lat="52.50346" lon="13.411137">
    <ele>38.2</ele>
    <time>2026-05-19T17:44:34.000Z</time>
   </trkpt>
   <trkpt lat="52.503407" lon="13.411365">
    <ele>38.2</ele>
    <time>2026-05-19T17:44:37.000Z</time>
   </trkpt>
   <trkpt lat="52.503361" lon="13.411559">
    <ele>38.2</ele>
    <time>2026-05-19T17:44:41.000Z</time>
   </trkpt>
   <trkpt lat="52.503355" lon="13.411619">
    <ele>38</ele>
    <time>2026-05-19T17:44:42.000Z</time>
   </trkpt>
   <trkpt lat="52.503324" lon="13.411744">
    <ele>38.2</ele>
    <time>2026-05-19T17:44:44.000Z</time>
   </trkpt>
   <trkpt lat="52.50329" lon="13.411866">
    <ele>38.2</ele>
    <time>2026-05-19T17:44:46.000Z</time>
   </trkpt>
   <trkpt lat="52.503221" lon="13.412117">
    <ele>38.2</ele>
    <time>2026-05-19T17:44:51.000Z</time>
   </trkpt>
   <trkpt lat="52.5032" lon="13.412214">
    <ele>38.4</ele>
    <time>2026-05-19T17:44:55.000Z</time>
   </trkpt>
   <trkpt lat="52.503185" lon="13.412299">
    <ele>38.4</ele>
    <time>2026-05-19T17:44:57.000Z</time>
   </trkpt>
   <trkpt lat="52.503157" lon="13.41239">
    <ele>38.4</ele>
    <time>2026-05-19T17:44:59.000Z</time>
   </trkpt>
   <trkpt lat="52.50313" lon="13.412463">
    <ele>38.4</ele>
    <time>2026-05-19T17:45:00.000Z</time>
   </trkpt>
   <trkpt lat="52.503003" lon="13.412917">
    <ele>38.2</ele>
    <time>2026-05-19T17:45:06.000Z</time>
   </trkpt>
   <trkpt lat="52.502954" lon="13.413159">
    <ele>38</ele>
    <time>2026-05-19T17:45:09.000Z</time>
   </trkpt>
   <trkpt lat="52.502916" lon="13.413289">
    <ele>38</ele>
    <time>2026-05-19T17:45:11.000Z</time>
   </trkpt>
   <trkpt lat="52.502807" lon="13.413665">
    <ele>38</ele>
    <time>2026-05-19T17:45:16.000Z</time>
   </trkpt>
   <trkpt lat="52.502766" lon="13.413822">
    <ele>37.8</ele>
    <time>2026-05-19T17:45:18.000Z</time>
   </trkpt>
   <trkpt lat="52.502704" lon="13.414035">
    <ele>37.8</ele>
    <time>2026-05-19T17:45:21.000Z</time>
   </trkpt>
   <trkpt lat="52.502675" lon="13.414121">
    <ele>37.6</ele>
    <time>2026-05-19T17:45:22.000Z</time>
   </trkpt>
   <trkpt lat="52.502635" lon="13.414263">
    <ele>37.6</ele>
    <time>2026-05-19T17:45:24.000Z</time>
   </trkpt>
   <trkpt lat="52.502581" lon="13.414417">
    <ele>37.4</ele>
    <time>2026-05-19T17:45:26.000Z</time>
   </trkpt>
   <trkpt lat="52.502519" lon="13.41452">
    <ele>37.4</ele>
    <time>2026-05-19T17:45:28.000Z</time>
   </trkpt>
   <trkpt lat="52.50249" lon="13.414574">
    <ele>37.4</ele>
    <time>2026-05-19T17:45:29.000Z</time>
   </trkpt>
   <trkpt lat="52.502469" lon="13.414633">
    <ele>37.6</ele>
    <time>2026-05-19T17:45:30.000Z</time>
   </trkpt>
   <trkpt lat="52.502364" lon="13.414924">
    <ele>37.8</ele>
    <time>2026-05-19T17:45:34.000Z</time>
   </trkpt>
   <trkpt lat="52.502158" lon="13.415399">
    <ele>38</ele>
    <time>2026-05-19T17:45:39.000Z</time>
   </trkpt>
   <trkpt lat="52.502029" lon="13.415941">
    <ele>37.8</ele>
    <time>2026-05-19T17:45:45.000Z</time>
   </trkpt>
   <trkpt lat="52.501927" lon="13.416695">
    <ele>37.8</ele>
    <time>2026-05-19T17:45:54.000Z</time>
   </trkpt>
   <trkpt lat="52.50187" lon="13.416936">
    <ele>37.8</ele>
    <time>2026-05-19T17:45:57.000Z</time>
   </trkpt>
   <trkpt lat="52.501806" lon="13.417238">
    <ele>37.8</ele>
    <time>2026-05-19T17:46:01.000Z</time>
   </trkpt>
   <trkpt lat="52.501771" lon="13.417396">
    <ele>38</ele>
    <time>2026-05-19T17:46:03.000Z</time>
   </trkpt>
   <trkpt lat="52.501704" lon="13.417714">
    <ele>37.8</ele>
    <time>2026-05-19T17:46:07.000Z</time>
   </trkpt>
   <trkpt lat="52.501517" lon="13.418483">
    <ele>37.6</ele>
    <time>2026-05-19T17:46:16.000Z</time>
   </trkpt>
   <trkpt lat="52.501402" lon="13.418932">
    <ele>37.6</ele>
    <time>2026-05-19T17:46:21.000Z</time>
   </trkpt>
   <trkpt lat="52.501385" lon="13.418963">
    <ele>37.6</ele>
    <time>2026-05-19T17:46:22.000Z</time>
   </trkpt>
   <trkpt lat="52.501353" lon="13.419066">
    <ele>37.8</ele>
    <time>2026-05-19T17:46:25.000Z</time>
   </trkpt>
   <trkpt lat="52.501352" lon="13.419113">
    <ele>38</ele>
    <time>2026-05-19T17:46:49.000Z</time>
   </trkpt>
   <trkpt lat="52.501324" lon="13.419194">
    <ele>38</ele>
    <time>2026-05-19T17:46:51.000Z</time>
   </trkpt>
   <trkpt lat="52.501289" lon="13.419287">
    <ele>38</ele>
    <time>2026-05-19T17:46:53.000Z</time>
   </trkpt>
   <trkpt lat="52.501243" lon="13.419485">
    <ele>38</ele>
    <time>2026-05-19T17:46:56.000Z</time>
   </trkpt>
   <trkpt lat="52.501213" lon="13.419618">
    <ele>37.6</ele>
    <time>2026-05-19T17:46:58.000Z</time>
   </trkpt>
   <trkpt lat="52.501191" lon="13.41971">
    <ele>37.6</ele>
    <time>2026-05-19T17:46:59.000Z</time>
   </trkpt>
   <trkpt lat="52.501145" lon="13.419865">
    <ele>37.6</ele>
    <time>2026-05-19T17:47:01.000Z</time>
   </trkpt>
   <trkpt lat="52.501126" lon="13.419954">
    <ele>37.6</ele>
    <time>2026-05-19T17:47:02.000Z</time>
   </trkpt>
   <trkpt lat="52.501037" lon="13.420362">
    <ele>37.4</ele>
    <time>2026-05-19T17:47:07.000Z</time>
   </trkpt>
   <trkpt lat="52.500995" lon="13.420545">
    <ele>37.4</ele>
    <time>2026-05-19T17:47:09.000Z</time>
   </trkpt>
   <trkpt lat="52.500805" lon="13.421231">
    <ele>37.4</ele>
    <time>2026-05-19T17:47:17.000Z</time>
   </trkpt>
   <trkpt lat="52.500754" lon="13.421433">
    <ele>37.6</ele>
    <time>2026-05-19T17:47:20.000Z</time>
   </trkpt>
   <trkpt lat="52.500714" lon="13.421588">
    <ele>37.6</ele>
    <time>2026-05-19T17:47:22.000Z</time>
   </trkpt>
   <trkpt lat="52.500613" lon="13.422038">
    <ele>37.6</ele>
    <time>2026-05-19T17:47:28.000Z</time>
   </trkpt>
   <trkpt lat="52.500531" lon="13.422263">
    <ele>37.6</ele>
    <time>2026-05-19T17:47:32.000Z</time>
   </trkpt>
   <trkpt lat="52.50047" lon="13.422527">
    <ele>37.6</ele>
    <time>2026-05-19T17:47:37.000Z</time>
   </trkpt>
   <trkpt lat="52.500275" lon="13.422992">
    <ele>38</ele>
    <time>2026-05-19T17:47:46.000Z</time>
   </trkpt>
   <trkpt lat="52.500192" lon="13.423202">
    <ele>38</ele>
    <time>2026-05-19T17:47:49.000Z</time>
   </trkpt>
   <trkpt lat="52.500152" lon="13.423364">
    <ele>38.2</ele>
    <time>2026-05-19T17:47:51.000Z</time>
   </trkpt>
   <trkpt lat="52.500134" lon="13.423445">
    <ele>38.2</ele>
    <time>2026-05-19T17:47:52.000Z</time>
   </trkpt>
   <trkpt lat="52.500078" lon="13.423683">
    <ele>38</ele>
    <time>2026-05-19T17:47:55.000Z</time>
   </trkpt>
   <trkpt lat="52.500041" lon="13.423855">
    <ele>38</ele>
    <time>2026-05-19T17:47:57.000Z</time>
   </trkpt>
   <trkpt lat="52.499876" lon="13.424594">
    <ele>38</ele>
    <time>2026-05-19T17:48:06.000Z</time>
   </trkpt>
   <trkpt lat="52.499742" lon="13.425049">
    <ele>38</ele>
    <time>2026-05-19T17:48:12.000Z</time>
   </trkpt>
   <trkpt lat="52.499697" lon="13.425187">
    <ele>38</ele>
    <time>2026-05-19T17:48:14.000Z</time>
   </trkpt>
   <trkpt lat="52.499607" lon="13.425503">
    <ele>38</ele>
    <time>2026-05-19T17:48:19.000Z</time>
   </trkpt>
   <trkpt lat="52.499534" lon="13.425737">
    <ele>38.2</ele>
    <time>2026-05-19T17:48:23.000Z</time>
   </trkpt>
   <trkpt lat="52.499504" lon="13.425795">
    <ele>38.2</ele>
    <time>2026-05-19T17:48:24.000Z</time>
   </trkpt>
   <trkpt lat="52.499411" lon="13.425982">
    <ele>38.2</ele>
    <time>2026-05-19T17:48:29.000Z</time>
   </trkpt>
   <trkpt lat="52.499403" lon="13.425999">
    <ele>38.2</ele>
    <time>2026-05-19T17:48:32.000Z</time>
   </trkpt>
   <trkpt lat="52.499383" lon="13.426044">
    <ele>38.4</ele>
    <time>2026-05-19T17:48:43.000Z</time>
   </trkpt>
   <trkpt lat="52.499371" lon="13.426081">
    <ele>38.4</ele>
    <time>2026-05-19T17:48:44.000Z</time>
   </trkpt>
   <trkpt lat="52.499297" lon="13.426261">
    <ele>38.4</ele>
    <time>2026-05-19T17:48:48.000Z</time>
   </trkpt>
   <trkpt lat="52.499279" lon="13.426352">
    <ele>38.4</ele>
    <time>2026-05-19T17:48:50.000Z</time>
   </trkpt>
   <trkpt lat="52.499266" lon="13.426421">
    <ele>38.4</ele>
    <time>2026-05-19T17:48:52.000Z</time>
   </trkpt>
   <trkpt lat="52.499252" lon="13.426465">
    <ele>38.4</ele>
    <time>2026-05-19T17:48:53.000Z</time>
   </trkpt>
   <trkpt lat="52.499184" lon="13.42664">
    <ele>38.4</ele>
    <time>2026-05-19T17:48:56.000Z</time>
   </trkpt>
   <trkpt lat="52.499135" lon="13.426866">
    <ele>38.6</ele>
    <time>2026-05-19T17:48:59.000Z</time>
   </trkpt>
   <trkpt lat="52.499061" lon="13.427178">
    <ele>38.6</ele>
    <time>2026-05-19T17:49:03.000Z</time>
   </trkpt>
   <trkpt lat="52.499029" lon="13.427326">
    <ele>38.6</ele>
    <time>2026-05-19T17:49:05.000Z</time>
   </trkpt>
   <trkpt lat="52.498822" lon="13.427942">
    <ele>38.8</ele>
    <time>2026-05-19T17:49:14.000Z</time>
   </trkpt>
   <trkpt lat="52.498689" lon="13.428196">
    <ele>38.8</ele>
    <time>2026-05-19T17:49:19.000Z</time>
   </trkpt>
   <trkpt lat="52.498623" lon="13.428403">
    <ele>38.6</ele>
    <time>2026-05-19T17:49:24.000Z</time>
   </trkpt>
   <trkpt lat="52.498589" lon="13.428457">
    <ele>38.6</ele>
    <time>2026-05-19T17:49:25.000Z</time>
   </trkpt>
   <trkpt lat="52.498532" lon="13.428626">
    <ele>38.6</ele>
    <time>2026-05-19T17:49:28.000Z</time>
   </trkpt>
   <trkpt lat="52.498499" lon="13.428755">
    <ele>38.6</ele>
    <time>2026-05-19T17:49:30.000Z</time>
   </trkpt>
   <trkpt lat="52.498444" lon="13.428949">
    <ele>38.6</ele>
    <time>2026-05-19T17:49:33.000Z</time>
   </trkpt>
   <trkpt lat="52.498405" lon="13.429078">
    <ele>38.4</ele>
    <time>2026-05-19T17:49:35.000Z</time>
   </trkpt>
   <trkpt lat="52.498274" lon="13.429414">
    <ele>38.2</ele>
    <time>2026-05-19T17:49:40.000Z</time>
   </trkpt>
   <trkpt lat="52.498145" lon="13.429768">
    <ele>38</ele>
    <time>2026-05-19T17:49:46.000Z</time>
   </trkpt>
   <trkpt lat="52.498073" lon="13.429984">
    <ele>38</ele>
    <time>2026-05-19T17:49:49.000Z</time>
   </trkpt>
   <trkpt lat="52.49803" lon="13.430146">
    <ele>38</ele>
    <time>2026-05-19T17:49:51.000Z</time>
   </trkpt>
   <trkpt lat="52.497892" lon="13.430594">
    <ele>38</ele>
    <time>2026-05-19T17:49:57.000Z</time>
   </trkpt>
   <trkpt lat="52.497847" lon="13.430748">
    <ele>38</ele>
    <time>2026-05-19T17:49:59.000Z</time>
   </trkpt>
   <trkpt lat="52.497644" lon="13.431234">
    <ele>38.2</ele>
    <time>2026-05-19T17:50:06.000Z</time>
   </trkpt>
   <trkpt lat="52.497532" lon="13.431499">
    <ele>38.2</ele>
    <time>2026-05-19T17:50:11.000Z</time>
   </trkpt>
   <trkpt lat="52.497458" lon="13.431723">
    <ele>38.4</ele>
    <time>2026-05-19T17:50:16.000Z</time>
   </trkpt>
   <trkpt lat="52.497454" lon="13.431732">
    <ele>38.4</ele>
    <time>2026-05-19T17:50:17.000Z</time>
   </trkpt>
   <trkpt lat="52.497454" lon="13.431732">
    <ele>38.4</ele>
    <time>2026-05-19T17:50:19.000Z</time>
   </trkpt>
   <trkpt lat="52.497449" lon="13.431743">
    <ele>38.4</ele>
    <time>2026-05-19T17:50:20.000Z</time>
   </trkpt>
   <trkpt lat="52.497403" lon="13.431888">
    <ele>38.4</ele>
    <time>2026-05-19T17:50:24.000Z</time>
   </trkpt>
   <trkpt lat="52.497374" lon="13.431991">
    <ele>38.4</ele>
    <time>2026-05-19T17:50:26.000Z</time>
   </trkpt>
   <trkpt lat="52.497325" lon="13.432189">
    <ele>38.4</ele>
    <time>2026-05-19T17:50:29.000Z</time>
   </trkpt>
   <trkpt lat="52.497269" lon="13.432401">
    <ele>38.2</ele>
    <time>2026-05-19T17:50:32.000Z</time>
   </trkpt>
   <trkpt lat="52.497232" lon="13.432557">
    <ele>38.2</ele>
    <time>2026-05-19T17:50:34.000Z</time>
   </trkpt>
   <trkpt lat="52.497007" lon="13.433063">
    <ele>38.2</ele>
    <time>2026-05-19T17:50:40.000Z</time>
   </trkpt>
   <trkpt lat="52.496887" lon="13.433334">
    <ele>38.2</ele>
    <time>2026-05-19T17:50:43.000Z</time>
   </trkpt>
   <trkpt lat="52.496768" lon="13.433607">
    <ele>38.2</ele>
    <time>2026-05-19T17:50:46.000Z</time>
   </trkpt>
   <trkpt lat="52.496674" lon="13.434">
    <ele>38.2</ele>
    <time>2026-05-19T17:50:50.000Z</time>
   </trkpt>
   <trkpt lat="52.496646" lon="13.434084">
    <ele>38.2</ele>
    <time>2026-05-19T17:50:51.000Z</time>
   </trkpt>
   <trkpt lat="52.496442" lon="13.434667">
    <ele>38.2</ele>
    <time>2026-05-19T17:50:58.000Z</time>
   </trkpt>
   <trkpt lat="52.49632" lon="13.435038">
    <ele>38.2</ele>
    <time>2026-05-19T17:51:02.000Z</time>
   </trkpt>
   <trkpt lat="52.496199" lon="13.435405">
    <ele>38.2</ele>
    <time>2026-05-19T17:51:06.000Z</time>
   </trkpt>
   <trkpt lat="52.495973" lon="13.436104">
    <ele>38.4</ele>
    <time>2026-05-19T17:51:13.000Z</time>
   </trkpt>
   <trkpt lat="52.495732" lon="13.436735">
    <ele>38.6</ele>
    <time>2026-05-19T17:51:20.000Z</time>
   </trkpt>
   <trkpt lat="52.49551" lon="13.437368">
    <ele>38.6</ele>
    <time>2026-05-19T17:51:27.000Z</time>
   </trkpt>
   <trkpt lat="52.495315" lon="13.437888">
    <ele>38.4</ele>
    <time>2026-05-19T17:51:33.000Z</time>
   </trkpt>
   <trkpt lat="52.495278" lon="13.437976">
    <ele>38.4</ele>
    <time>2026-05-19T17:51:34.000Z</time>
   </trkpt>
   <trkpt lat="52.495106" lon="13.438472">
    <ele>38.8</ele>
    <time>2026-05-19T17:51:40.000Z</time>
   </trkpt>
   <trkpt lat="52.495031" lon="13.438717">
    <ele>39</ele>
    <time>2026-05-19T17:51:43.000Z</time>
   </trkpt>
   <trkpt lat="52.49492" lon="13.439036">
    <ele>38.8</ele>
    <time>2026-05-19T17:51:47.000Z</time>
   </trkpt>
   <trkpt lat="52.494735" lon="13.439611">
    <ele>38.6</ele>
    <time>2026-05-19T17:51:54.000Z</time>
   </trkpt>
   <trkpt lat="52.494596" lon="13.440076">
    <ele>38.6</ele>
    <time>2026-05-19T17:52:01.000Z</time>
   </trkpt>
   <trkpt lat="52.494417" lon="13.440656">
    <ele>38.6</ele>
    <time>2026-05-19T17:52:09.000Z</time>
   </trkpt>
   <trkpt lat="52.494388" lon="13.440729">
    <ele>38.6</ele>
    <time>2026-05-19T17:52:10.000Z</time>
   </trkpt>
   <trkpt lat="52.494324" lon="13.440882">
    <ele>38.6</ele>
    <time>2026-05-19T17:52:12.000Z</time>
   </trkpt>
   <trkpt lat="52.494272" lon="13.441043">
    <ele>38.6</ele>
    <time>2026-05-19T17:52:14.000Z</time>
   </trkpt>
   <trkpt lat="52.494073" lon="13.44167">
    <ele>38.4</ele>
    <time>2026-05-19T17:52:22.000Z</time>
   </trkpt>
   <trkpt lat="52.493834" lon="13.442389">
    <ele>38.2</ele>
    <time>2026-05-19T17:52:30.000Z</time>
   </trkpt>
   <trkpt lat="52.493739" lon="13.442736">
    <ele>38.2</ele>
    <time>2026-05-19T17:52:34.000Z</time>
   </trkpt>
   <trkpt lat="52.493725" lon="13.442925">
    <ele>38.2</ele>
    <time>2026-05-19T17:52:36.000Z</time>
   </trkpt>
   <trkpt lat="52.493741" lon="13.443108">
    <ele>38.2</ele>
    <time>2026-05-19T17:52:38.000Z</time>
   </trkpt>
   <trkpt lat="52.493799" lon="13.443286">
    <ele>38</ele>
    <time>2026-05-19T17:52:40.000Z</time>
   </trkpt>
   <trkpt lat="52.493894" lon="13.443446">
    <ele>38</ele>
    <time>2026-05-19T17:52:42.000Z</time>
   </trkpt>
   <trkpt lat="52.493999" lon="13.443569">
    <ele>37.8</ele>
    <time>2026-05-19T17:52:44.000Z</time>
   </trkpt>
   <trkpt lat="52.49415" lon="13.443752">
    <ele>37.4</ele>
    <time>2026-05-19T17:52:47.000Z</time>
   </trkpt>
   <trkpt lat="52.494247" lon="13.443872">
    <ele>37.4</ele>
    <time>2026-05-19T17:52:49.000Z</time>
   </trkpt>
   <trkpt lat="52.494321" lon="13.44401">
    <ele>37.2</ele>
    <time>2026-05-19T17:52:51.000Z</time>
   </trkpt>
   <trkpt lat="52.494501" lon="13.444253">
    <ele>36.6</ele>
    <time>2026-05-19T17:52:55.000Z</time>
   </trkpt>
   <trkpt lat="52.494597" lon="13.444377">
    <ele>36.4</ele>
    <time>2026-05-19T17:52:57.000Z</time>
   </trkpt>
   <trkpt lat="52.494997" lon="13.444894">
    <ele>36.6</ele>
    <time>2026-05-19T17:53:06.000Z</time>
   </trkpt>
   <trkpt lat="52.495249" lon="13.445205">
    <ele>37.2</ele>
    <time>2026-05-19T17:53:13.000Z</time>
   </trkpt>
   <trkpt lat="52.495516" lon="13.44549">
    <ele>37.4</ele>
    <time>2026-05-19T17:53:20.000Z</time>
   </trkpt>
   <trkpt lat="52.495589" lon="13.445582">
    <ele>37.4</ele>
    <time>2026-05-19T17:53:22.000Z</time>
   </trkpt>
   <trkpt lat="52.495696" lon="13.445749">
    <ele>37.2</ele>
    <time>2026-05-19T17:53:26.000Z</time>
   </trkpt>
   <trkpt lat="52.495703" lon="13.445782">
    <ele>37.2</ele>
    <time>2026-05-19T17:53:27.000Z</time>
   </trkpt>
   <trkpt lat="52.495701" lon="13.445794">
    <ele>37.4</ele>
    <time>2026-05-19T17:53:29.000Z</time>
   </trkpt>
   <trkpt lat="52.495679" lon="13.445802">
    <ele>37.4</ele>
    <time>2026-05-19T17:53:31.000Z</time>
   </trkpt>
   <trkpt lat="52.495652" lon="13.445788">
    <ele>37.4</ele>
    <time>2026-05-19T17:53:33.000Z</time>
   </trkpt>
   <trkpt lat="52.49563" lon="13.445759">
    <ele>37.6</ele>
    <time>2026-05-19T17:53:35.000Z</time>
   </trkpt>
   <trkpt lat="52.495603" lon="13.445748">
    <ele>37.6</ele>
    <time>2026-05-19T17:53:37.000Z</time>
   </trkpt>
   <trkpt lat="52.495551" lon="13.445777">
    <ele>38</ele>
    <time>2026-05-19T17:53:39.000Z</time>
   </trkpt>
   <trkpt lat="52.495528" lon="13.445805">
    <ele>38.2</ele>
    <time>2026-05-19T17:53:40.000Z</time>
   </trkpt>
   <trkpt lat="52.495444" lon="13.44597">
    <ele>38.6</ele>
    <time>2026-05-19T17:53:44.000Z</time>
   </trkpt>
   <trkpt lat="52.495377" lon="13.446124">
    <ele>39.2</ele>
    <time>2026-05-19T17:53:48.000Z</time>
   </trkpt>
   <trkpt lat="52.49521" lon="13.446394">
    <ele>39.2</ele>
    <time>2026-05-19T17:53:52.000Z</time>
   </trkpt>
   <trkpt lat="52.495179" lon="13.446456">
    <ele>39.2</ele>
    <time>2026-05-19T17:53:53.000Z</time>
   </trkpt>
   <trkpt lat="52.495072" lon="13.446716">
    <ele>37.6</ele>
    <time>2026-05-19T17:53:58.000Z</time>
   </trkpt>
   <trkpt lat="52.495066" lon="13.446871">
    <ele>37.2</ele>
    <time>2026-05-19T17:54:02.000Z</time>
   </trkpt>
   <trkpt lat="52.495058" lon="13.446939">
    <ele>37.2</ele>
    <time>2026-05-19T17:54:04.000Z</time>
   </trkpt>
   <trkpt lat="52.49503" lon="13.446986">
    <ele>37.6</ele>
    <time>2026-05-19T17:54:06.000Z</time>
   </trkpt>
   <trkpt lat="52.494922" lon="13.44698">
    <ele>38.2</ele>
    <time>2026-05-19T17:54:11.000Z</time>
   </trkpt>
   <trkpt lat="52.494759" lon="13.44678">
    <ele>38.4</ele>
    <time>2026-05-19T17:54:17.000Z</time>
   </trkpt>
   <trkpt lat="52.494619" lon="13.446668">
    <ele>38.4</ele>
    <time>2026-05-19T17:54:22.000Z</time>
   </trkpt>
   <trkpt lat="52.494471" lon="13.446444">
    <ele>38.2</ele>
    <time>2026-05-19T17:54:27.000Z</time>
   </trkpt>
   <trkpt lat="52.49444" lon="13.446407">
    <ele>38.2</ele>
    <time>2026-05-19T17:54:28.000Z</time>
   </trkpt>
   <trkpt lat="52.494353" lon="13.446346">
    <ele>37.8</ele>
    <time>2026-05-19T17:54:31.000Z</time>
   </trkpt>
   <trkpt lat="52.49434" lon="13.44636">
    <ele>37.6</ele>
    <time>2026-05-19T17:54:32.000Z</time>
   </trkpt>
   <trkpt lat="52.49423" lon="13.446544">
    <ele>37.2</ele>
    <time>2026-05-19T17:54:37.000Z</time>
   </trkpt>
   <trkpt lat="52.494207" lon="13.446573">
    <ele>37.2</ele>
    <time>2026-05-19T17:54:38.000Z</time>
   </trkpt>
   <trkpt lat="52.494144" lon="13.446668">
    <ele>37.2</ele>
    <time>2026-05-19T17:54:40.000Z</time>
   </trkpt>
   <trkpt lat="52.494046" lon="13.4468">
    <ele>37.2</ele>
    <time>2026-05-19T17:54:43.000Z</time>
   </trkpt>
   <trkpt lat="52.493927" lon="13.446951">
    <ele>37.2</ele>
    <time>2026-05-19T17:54:46.000Z</time>
   </trkpt>
   <trkpt lat="52.493884" lon="13.446999">
    <ele>37.2</ele>
    <time>2026-05-19T17:54:47.000Z</time>
   </trkpt>
   <trkpt lat="52.493845" lon="13.44705">
    <ele>37.2</ele>
    <time>2026-05-19T17:54:48.000Z</time>
   </trkpt>
   <trkpt lat="52.493775" lon="13.447164">
    <ele>37.4</ele>
    <time>2026-05-19T17:54:50.000Z</time>
   </trkpt>
   <trkpt lat="52.493644" lon="13.447371">
    <ele>37</ele>
    <time>2026-05-19T17:54:53.000Z</time>
   </trkpt>
   <trkpt lat="52.493557" lon="13.447505">
    <ele>37.2</ele>
    <time>2026-05-19T17:54:55.000Z</time>
   </trkpt>
   <trkpt lat="52.49342" lon="13.447736">
    <ele>37</ele>
    <time>2026-05-19T17:54:58.000Z</time>
   </trkpt>
   <trkpt lat="52.493373" lon="13.447804">
    <ele>37</ele>
    <time>2026-05-19T17:54:59.000Z</time>
   </trkpt>
   <trkpt lat="52.493222" lon="13.448023">
    <ele>36.8</ele>
    <time>2026-05-19T17:55:02.000Z</time>
   </trkpt>
   <trkpt lat="52.493133" lon="13.448196">
    <ele>36.8</ele>
    <time>2026-05-19T17:55:04.000Z</time>
   </trkpt>
   <trkpt lat="52.493035" lon="13.448426">
    <ele>36.8</ele>
    <time>2026-05-19T17:55:07.000Z</time>
   </trkpt>
   <trkpt lat="52.492792" lon="13.448973">
    <ele>36.8</ele>
    <time>2026-05-19T17:55:14.000Z</time>
   </trkpt>
   <trkpt lat="52.492525" lon="13.449574">
    <ele>36.8</ele>
    <time>2026-05-19T17:55:21.000Z</time>
   </trkpt>
   <trkpt lat="52.492361" lon="13.449935">
    <ele>37.2</ele>
    <time>2026-05-19T17:55:26.000Z</time>
   </trkpt>
   <trkpt lat="52.492278" lon="13.450082">
    <ele>37.2</ele>
    <time>2026-05-19T17:55:28.000Z</time>
   </trkpt>
   <trkpt lat="52.4921" lon="13.450488">
    <ele>37.6</ele>
    <time>2026-05-19T17:55:34.000Z</time>
   </trkpt>
   <trkpt lat="52.491965" lon="13.450803">
    <ele>37.6</ele>
    <time>2026-05-19T17:55:39.000Z</time>
   </trkpt>
   <trkpt lat="52.49185" lon="13.450967">
    <ele>37.4</ele>
    <time>2026-05-19T17:55:43.000Z</time>
   </trkpt>
   <trkpt lat="52.491822" lon="13.450963">
    <ele>37.4</ele>
    <time>2026-05-19T17:55:44.000Z</time>
   </trkpt>
   <trkpt lat="52.491782" lon="13.450901">
    <ele>37.4</ele>
    <time>2026-05-19T17:55:46.000Z</time>
   </trkpt>
   <trkpt lat="52.491588" lon="13.45072">
    <ele>37.4</ele>
    <time>2026-05-19T17:55:51.000Z</time>
   </trkpt>
   <trkpt lat="52.491453" lon="13.450527">
    <ele>37.4</ele>
    <time>2026-05-19T17:55:56.000Z</time>
   </trkpt>
   <trkpt lat="52.491426" lon="13.450506">
    <ele>37.4</ele>
    <time>2026-05-19T17:55:57.000Z</time>
   </trkpt>
   <trkpt lat="52.491371" lon="13.450525">
    <ele>37.4</ele>
    <time>2026-05-19T17:55:59.000Z</time>
   </trkpt>
   <trkpt lat="52.491306" lon="13.4506">
    <ele>37.4</ele>
    <time>2026-05-19T17:56:01.000Z</time>
   </trkpt>
   <trkpt lat="52.49119" lon="13.450753">
    <ele>37.4</ele>
    <time>2026-05-19T17:56:05.000Z</time>
   </trkpt>
   <trkpt lat="52.491154" lon="13.450795">
    <ele>37.4</ele>
    <time>2026-05-19T17:56:06.000Z</time>
   </trkpt>
   <trkpt lat="52.491046" lon="13.450944">
    <ele>37.4</ele>
    <time>2026-05-19T17:56:09.000Z</time>
   </trkpt>
   <trkpt lat="52.491018" lon="13.450994">
    <ele>37.4</ele>
    <time>2026-05-19T17:56:10.000Z</time>
   </trkpt>
   <trkpt lat="52.490974" lon="13.45107">
    <ele>37.4</ele>
    <time>2026-05-19T17:56:12.000Z</time>
   </trkpt>
   <trkpt lat="52.490846" lon="13.4513">
    <ele>37.4</ele>
    <time>2026-05-19T17:56:16.000Z</time>
   </trkpt>
   <trkpt lat="52.490699" lon="13.451469">
    <ele>37.4</ele>
    <time>2026-05-19T17:56:19.000Z</time>
   </trkpt>
   <trkpt lat="52.490576" lon="13.451615">
    <ele>37.6</ele>
    <time>2026-05-19T17:56:22.000Z</time>
   </trkpt>
   <trkpt lat="52.490497" lon="13.451722">
    <ele>37.6</ele>
    <time>2026-05-19T17:56:24.000Z</time>
   </trkpt>
   <trkpt lat="52.490436" lon="13.451787">
    <ele>37.6</ele>
    <time>2026-05-19T17:56:26.000Z</time>
   </trkpt>
   <trkpt lat="52.490395" lon="13.451854">
    <ele>37.6</ele>
    <time>2026-05-19T17:56:27.000Z</time>
   </trkpt>
   <trkpt lat="52.490269" lon="13.451999">
    <ele>37.6</ele>
    <time>2026-05-19T17:56:31.000Z</time>
   </trkpt>
   <trkpt lat="52.490257" lon="13.45203">
    <ele>37.6</ele>
    <time>2026-05-19T17:56:35.000Z</time>
   </trkpt>
   <trkpt lat="52.490254" lon="13.452028">
    <ele>37.6</ele>
    <time>2026-05-19T17:56:36.000Z</time>
   </trkpt>
   <trkpt lat="52.490247" lon="13.452087">
    <ele>37.6</ele>
    <time>2026-05-19T17:56:40.000Z</time>
   </trkpt>
   <trkpt lat="52.490233" lon="13.452125">
    <ele>37.6</ele>
    <time>2026-05-19T17:56:41.000Z</time>
   </trkpt>
   <trkpt lat="52.490211" lon="13.452164">
    <ele>37.6</ele>
    <time>2026-05-19T17:56:42.000Z</time>
   </trkpt>
   <trkpt lat="52.490157" lon="13.45227">
    <ele>37.6</ele>
    <time>2026-05-19T17:56:44.000Z</time>
   </trkpt>
   <trkpt lat="52.490134" lon="13.452315">
    <ele>37.6</ele>
    <time>2026-05-19T17:56:45.000Z</time>
   </trkpt>
   <trkpt lat="52.490095" lon="13.45237">
    <ele>37.6</ele>
    <time>2026-05-19T17:56:46.000Z</time>
   </trkpt>
   <trkpt lat="52.490022" lon="13.452458">
    <ele>37.6</ele>
    <time>2026-05-19T17:56:48.000Z</time>
   </trkpt>
   <trkpt lat="52.489956" lon="13.452548">
    <ele>37.6</ele>
    <time>2026-05-19T17:56:50.000Z</time>
   </trkpt>
   <trkpt lat="52.489892" lon="13.452638">
    <ele>37.6</ele>
    <time>2026-05-19T17:56:52.000Z</time>
   </trkpt>
   <trkpt lat="52.489732" lon="13.452798">
    <ele>37.6</ele>
    <time>2026-05-19T17:56:56.000Z</time>
   </trkpt>
   <trkpt lat="52.489688" lon="13.452854">
    <ele>37.6</ele>
    <time>2026-05-19T17:56:58.000Z</time>
   </trkpt>
   <trkpt lat="52.489673" lon="13.452959">
    <ele>37.6</ele>
    <time>2026-05-19T17:57:00.000Z</time>
   </trkpt>
   <trkpt lat="52.489572" lon="13.453123">
    <ele>37.6</ele>
    <time>2026-05-19T17:57:03.000Z</time>
   </trkpt>
   <trkpt lat="52.4895" lon="13.453229">
    <ele>37.6</ele>
    <time>2026-05-19T17:57:05.000Z</time>
   </trkpt>
   <trkpt lat="52.489257" lon="13.453543">
    <ele>37.8</ele>
    <time>2026-05-19T17:57:12.000Z</time>
   </trkpt>
   <trkpt lat="52.489077" lon="13.453715">
    <ele>38</ele>
    <time>2026-05-19T17:57:18.000Z</time>
   </trkpt>
   <trkpt lat="52.489026" lon="13.453852">
    <ele>37.6</ele>
    <time>2026-05-19T17:57:24.000Z</time>
   </trkpt>
   <trkpt lat="52.489012" lon="13.453866">
    <ele>37.6</ele>
    <time>2026-05-19T17:57:27.000Z</time>
   </trkpt>
   <trkpt lat="52.48898" lon="13.45389">
    <ele>37.6</ele>
    <time>2026-05-19T17:58:00.000Z</time>
   </trkpt>
   <trkpt lat="52.488937" lon="13.453951">
    <ele>37.6</ele>
    <time>2026-05-19T17:58:02.000Z</time>
   </trkpt>
   <trkpt lat="52.488911" lon="13.454009">
    <ele>37.6</ele>
    <time>2026-05-19T17:58:04.000Z</time>
   </trkpt>
   <trkpt lat="52.48886" lon="13.454097">
    <ele>37.6</ele>
    <time>2026-05-19T17:58:06.000Z</time>
   </trkpt>
   <trkpt lat="52.488792" lon="13.454189">
    <ele>37.6</ele>
    <time>2026-05-19T17:58:08.000Z</time>
   </trkpt>
   <trkpt lat="52.48875" lon="13.454234">
    <ele>37.6</ele>
    <time>2026-05-19T17:58:09.000Z</time>
   </trkpt>
   <trkpt lat="52.488667" lon="13.454347">
    <ele>37.6</ele>
    <time>2026-05-19T17:58:11.000Z</time>
   </trkpt>
   <trkpt lat="52.488564" lon="13.454498">
    <ele>37.6</ele>
    <time>2026-05-19T17:58:13.000Z</time>
   </trkpt>
   <trkpt lat="52.488216" lon="13.455002">
    <ele>37.2</ele>
    <time>2026-05-19T17:58:19.000Z</time>
   </trkpt>
   <trkpt lat="52.487759" lon="13.455607">
    <ele>37.2</ele>
    <time>2026-05-19T17:58:27.000Z</time>
   </trkpt>
   <trkpt lat="52.487433" lon="13.456047">
    <ele>37.2</ele>
    <time>2026-05-19T17:58:32.000Z</time>
   </trkpt>
   <trkpt lat="52.487005" lon="13.456622">
    <ele>37.2</ele>
    <time>2026-05-19T17:58:39.000Z</time>
   </trkpt>
   <trkpt lat="52.486945" lon="13.456709">
    <ele>37.2</ele>
    <time>2026-05-19T17:58:40.000Z</time>
   </trkpt>
   <trkpt lat="52.486531" lon="13.457309">
    <ele>37.2</ele>
    <time>2026-05-19T17:58:47.000Z</time>
   </trkpt>
   <trkpt lat="52.486425" lon="13.457464">
    <ele>37.2</ele>
    <time>2026-05-19T17:58:49.000Z</time>
   </trkpt>
   <trkpt lat="52.485993" lon="13.458065">
    <ele>37.2</ele>
    <time>2026-05-19T17:58:56.000Z</time>
   </trkpt>
   <trkpt lat="52.485549" lon="13.45866">
    <ele>37</ele>
    <time>2026-05-19T17:59:03.000Z</time>
   </trkpt>
   <trkpt lat="52.485474" lon="13.458737">
    <ele>37</ele>
    <time>2026-05-19T17:59:04.000Z</time>
   </trkpt>
   <trkpt lat="52.485349" lon="13.458899">
    <ele>36.8</ele>
    <time>2026-05-19T17:59:06.000Z</time>
   </trkpt>
   <trkpt lat="52.48494" lon="13.459523">
    <ele>36.8</ele>
    <time>2026-05-19T17:59:13.000Z</time>
   </trkpt>
   <trkpt lat="52.484531" lon="13.460175">
    <ele>37</ele>
    <time>2026-05-19T17:59:20.000Z</time>
   </trkpt>
   <trkpt lat="52.484297" lon="13.46051">
    <ele>37.2</ele>
    <time>2026-05-19T17:59:24.000Z</time>
   </trkpt>
   <trkpt lat="52.483832" lon="13.461187">
    <ele>37.4</ele>
    <time>2026-05-19T17:59:32.000Z</time>
   </trkpt>
   <trkpt lat="52.483423" lon="13.461762">
    <ele>37.4</ele>
    <time>2026-05-19T17:59:39.000Z</time>
   </trkpt>
   <trkpt lat="52.483124" lon="13.462192">
    <ele>37.4</ele>
    <time>2026-05-19T17:59:44.000Z</time>
   </trkpt>
   <trkpt lat="52.482698" lon="13.462788">
    <ele>37.4</ele>
    <time>2026-05-19T17:59:51.000Z</time>
   </trkpt>
   <trkpt lat="52.482638" lon="13.46287">
    <ele>37.6</ele>
    <time>2026-05-19T17:59:52.000Z</time>
   </trkpt>
   <trkpt lat="52.482225" lon="13.463463">
    <ele>37.8</ele>
    <time>2026-05-19T17:59:59.000Z</time>
   </trkpt>
   <trkpt lat="52.482168" lon="13.463546">
    <ele>38</ele>
    <time>2026-05-19T18:00:00.000Z</time>
   </trkpt>
   <trkpt lat="52.481757" lon="13.46414">
    <ele>38</ele>
    <time>2026-05-19T18:00:07.000Z</time>
   </trkpt>
   <trkpt lat="52.481388" lon="13.464652">
    <ele>37.8</ele>
    <time>2026-05-19T18:00:13.000Z</time>
   </trkpt>
   <trkpt lat="52.480963" lon="13.46526">
    <ele>37.8</ele>
    <time>2026-05-19T18:00:20.000Z</time>
   </trkpt>
   <trkpt lat="52.480782" lon="13.465514">
    <ele>37.8</ele>
    <time>2026-05-19T18:00:23.000Z</time>
   </trkpt>
   <trkpt lat="52.480361" lon="13.466118">
    <ele>37.4</ele>
    <time>2026-05-19T18:00:30.000Z</time>
   </trkpt>
   <trkpt lat="52.480235" lon="13.466293">
    <ele>37.2</ele>
    <time>2026-05-19T18:00:32.000Z</time>
   </trkpt>
   <trkpt lat="52.479806" lon="13.466901">
    <ele>37.2</ele>
    <time>2026-05-19T18:00:39.000Z</time>
   </trkpt>
   <trkpt lat="52.479688" lon="13.467067">
    <ele>37</ele>
    <time>2026-05-19T18:00:41.000Z</time>
   </trkpt>
   <trkpt lat="52.479344" lon="13.46754">
    <ele>37.2</ele>
    <time>2026-05-19T18:00:47.000Z</time>
   </trkpt>
   <trkpt lat="52.478897" lon="13.468184">
    <ele>37.4</ele>
    <time>2026-05-19T18:00:56.000Z</time>
   </trkpt>
   <trkpt lat="52.478457" lon="13.468793">
    <ele>37.4</ele>
    <time>2026-05-19T18:01:05.000Z</time>
   </trkpt>
   <trkpt lat="52.478042" lon="13.469335">
    <ele>37.6</ele>
    <time>2026-05-19T18:01:14.000Z</time>
   </trkpt>
   <trkpt lat="52.477695" lon="13.469827">
    <ele>37.6</ele>
    <time>2026-05-19T18:01:21.000Z</time>
   </trkpt>
   <trkpt lat="52.477282" lon="13.470408">
    <ele>37.4</ele>
    <time>2026-05-19T18:01:29.000Z</time>
   </trkpt>
   <trkpt lat="52.476876" lon="13.470994">
    <ele>37.4</ele>
    <time>2026-05-19T18:01:37.000Z</time>
   </trkpt>
   <trkpt lat="52.476661" lon="13.471288">
    <ele>37.2</ele>
    <time>2026-05-19T18:01:41.000Z</time>
   </trkpt>
   <trkpt lat="52.476277" lon="13.471834">
    <ele>36.8</ele>
    <time>2026-05-19T18:01:48.000Z</time>
   </trkpt>
   <trkpt lat="52.475997" lon="13.47224">
    <ele>36.8</ele>
    <time>2026-05-19T18:01:54.000Z</time>
   </trkpt>
   <trkpt lat="52.475774" lon="13.472551">
    <ele>36.6</ele>
    <time>2026-05-19T18:02:00.000Z</time>
   </trkpt>
   <trkpt lat="52.475672" lon="13.472716">
    <ele>36.6</ele>
    <time>2026-05-19T18:02:03.000Z</time>
   </trkpt>
   <trkpt lat="52.475635" lon="13.472824">
    <ele>36.6</ele>
    <time>2026-05-19T18:02:05.000Z</time>
   </trkpt>
   <trkpt lat="52.475532" lon="13.473022">
    <ele>36.6</ele>
    <time>2026-05-19T18:02:08.000Z</time>
   </trkpt>
   <trkpt lat="52.475395" lon="13.473209">
    <ele>36.8</ele>
    <time>2026-05-19T18:02:11.000Z</time>
   </trkpt>
   <trkpt lat="52.475178" lon="13.473544">
    <ele>36.8</ele>
    <time>2026-05-19T18:02:17.000Z</time>
   </trkpt>
   <trkpt lat="52.4751" lon="13.473668">
    <ele>36.8</ele>
    <time>2026-05-19T18:02:21.000Z</time>
   </trkpt>
   <trkpt lat="52.475071" lon="13.473778">
    <ele>36.8</ele>
    <time>2026-05-19T18:02:25.000Z</time>
   </trkpt>
   <trkpt lat="52.47507" lon="13.473846">
    <ele>36.8</ele>
    <time>2026-05-19T18:02:39.000Z</time>
   </trkpt>
   <trkpt lat="52.475064" lon="13.473878">
    <ele>36.8</ele>
    <time>2026-05-19T18:02:40.000Z</time>
   </trkpt>
   <trkpt lat="52.475061" lon="13.473918">
    <ele>36.8</ele>
    <time>2026-05-19T18:02:41.000Z</time>
   </trkpt>
   <trkpt lat="52.475091" lon="13.474047">
    <ele>36.8</ele>
    <time>2026-05-19T18:02:44.000Z</time>
   </trkpt>
   <trkpt lat="52.475188" lon="13.47426">
    <ele>37</ele>
    <time>2026-05-19T18:02:49.000Z</time>
   </trkpt>
   <trkpt lat="52.475209" lon="13.474308">
    <ele>37</ele>
    <time>2026-05-19T18:02:50.000Z</time>
   </trkpt>
   <trkpt lat="52.475235" lon="13.474352">
    <ele>37</ele>
    <time>2026-05-19T18:02:51.000Z</time>
   </trkpt>
   <trkpt lat="52.475397" lon="13.474639">
    <ele>37</ele>
    <time>2026-05-19T18:02:56.000Z</time>
   </trkpt>
   <trkpt lat="52.475675" lon="13.475145">
    <ele>36.8</ele>
    <time>2026-05-19T18:03:04.000Z</time>
   </trkpt>
   <trkpt lat="52.475744" lon="13.475279">
    <ele>36.8</ele>
    <time>2026-05-19T18:03:05.000Z</time>
   </trkpt>
   <trkpt lat="52.475853" lon="13.475478">
    <ele>36.8</ele>
    <time>2026-05-19T18:03:09.000Z</time>
   </trkpt>
   <trkpt lat="52.475882" lon="13.475532">
    <ele>36.8</ele>
    <time>2026-05-19T18:03:10.000Z</time>
   </trkpt>
   <trkpt lat="52.475894" lon="13.475653">
    <ele>36.8</ele>
    <time>2026-05-19T18:03:12.000Z</time>
   </trkpt>
   <trkpt lat="52.475821" lon="13.475892">
    <ele>36.8</ele>
    <time>2026-05-19T18:03:16.000Z</time>
   </trkpt>
   <trkpt lat="52.475704" lon="13.476019">
    <ele>36.8</ele>
    <time>2026-05-19T18:03:21.000Z</time>
   </trkpt>
   <trkpt lat="52.475514" lon="13.476258">
    <ele>36.8</ele>
    <time>2026-05-19T18:03:27.000Z</time>
   </trkpt>
   <trkpt lat="52.475409" lon="13.476406">
    <ele>37</ele>
    <time>2026-05-19T18:03:31.000Z</time>
   </trkpt>
   <trkpt lat="52.475421" lon="13.476481">
    <ele>37.2</ele>
    <time>2026-05-19T18:03:33.000Z</time>
   </trkpt>
  </trkseg>
 </trk>
</gpx>
