<?xml version="1.0" encoding="UTF-8"?>
<gpx creator="StravaGPX" version="1.1" xmlns="http://www.topografix.com/GPX/1/1">
 <metadata>
  <time>2025-08-15T18:58:37Z</time>
 </metadata>
 <trk>
  <name>Evening Ride</name>
  <type>1</type>
  <trkseg>
   <trkpt lat="52.503235" lon="13.406828">
    <ele>37</ele>
    <time>2025-08-15T18:58:37.000Z</time>
   </trkpt>
   <trkpt lat="52.503049" lon="13.406714">
    <ele>37</ele>
    <time>2025-08-15T18:58:41.000Z</time>
   </trkpt>
   <trkpt lat="52.502985" lon="13.4067">
    <ele>37.2</ele>
    <time>2025-08-15T18:58:42.000Z</time>
   </trkpt>
   <trkpt lat="52.502784" lon="13.406678">
    <ele>37.2</ele>
    <time>2025-08-15T18:58:48.000Z</time>
   </trkpt>
   <trkpt lat="52.502754" lon="13.406657">
    <ele>37.2</ele>
    <time>2025-08-15T18:58:49.000Z</time>
   </trkpt>
   <trkpt lat="52.502656" lon="13.406581">
    <ele>37.2</ele>
    <time>2025-08-15T18:58:54.000Z</time>
   </trkpt>
   <trkpt lat="52.502645" lon="13.406568">
    <ele>37.2</ele>
    <time>2025-08-15T18:58:56.000Z</time>
   </trkpt>
   <trkpt lat="52.502638" lon="13.406556">
    <ele>37.2</ele>
    <time>2025-08-15T18:58:57.000Z</time>
   </trkpt>
   <trkpt lat="52.502607" lon="13.406544">
    <ele>37.2</ele>
    <time>2025-08-15T18:58:59.000Z</time>
   </trkpt>
   <trkpt lat="52.502585" lon="13.406555">
    <ele>37.2</ele>
    <time>2025-08-15T18:59:00.000Z</time>
   </trkpt>
   <trkpt lat="52.50252" lon="13.40665">
    <ele>37.4</ele>
    <time>2025-08-15T18:59:03.000Z</time>
   </trkpt>
   <trkpt lat="52.502483" lon="13.406734">
    <ele>37.4</ele>
    <time>2025-08-15T18:59:05.000Z</time>
   </trkpt>
   <trkpt lat="52.502444" lon="13.406899">
    <ele>37.4</ele>
    <time>2025-08-15T18:59:09.000Z</time>
   </trkpt>
   <trkpt lat="52.50241" lon="13.407033">
    <ele>37.2</ele>
    <time>2025-08-15T18:59:13.000Z</time>
   </trkpt>
   <trkpt lat="52.502397" lon="13.407066">
    <ele>37.2</ele>
    <time>2025-08-15T18:59:14.000Z</time>
   </trkpt>
   <trkpt lat="52.50238" lon="13.407165">
    <ele>37.2</ele>
    <time>2025-08-15T18:59:16.000Z</time>
   </trkpt>
   <trkpt lat="52.502356" lon="13.407327">
    <ele>37.2</ele>
    <time>2025-08-15T18:59:19.000Z</time>
   </trkpt>
   <trkpt lat="52.502328" lon="13.407404">
    <ele>37.2</ele>
    <time>2025-08-15T18:59:20.000Z</time>
   </trkpt>
   <trkpt lat="52.502268" lon="13.40753">
    <ele>37.2</ele>
    <time>2025-08-15T18:59:22.000Z</time>
   </trkpt>
   <trkpt lat="52.502234" lon="13.407644">
    <ele>37</ele>
    <time>2025-08-15T18:59:24.000Z</time>
   </trkpt>
   <trkpt lat="52.502193" lon="13.407774">
    <ele>37</ele>
    <time>2025-08-15T18:59:26.000Z</time>
   </trkpt>
   <trkpt lat="52.502172" lon="13.4079">
    <ele>37</ele>
    <time>2025-08-15T18:59:28.000Z</time>
   </trkpt>
   <trkpt lat="52.502163" lon="13.407953">
    <ele>37</ele>
    <time>2025-08-15T18:59:29.000Z</time>
   </trkpt>
   <trkpt lat="52.50209" lon="13.408223">
    <ele>37</ele>
    <time>2025-08-15T18:59:33.000Z</time>
   </trkpt>
   <trkpt lat="52.501935" lon="13.408539">
    <ele>37.2</ele>
    <time>2025-08-15T18:59:37.000Z</time>
   </trkpt>
   <trkpt lat="52.501832" lon="13.408771">
    <ele>37.2</ele>
    <time>2025-08-15T18:59:40.000Z</time>
   </trkpt>
   <trkpt lat="52.501817" lon="13.408893">
    <ele>37.2</ele>
    <time>2025-08-15T18:59:42.000Z</time>
   </trkpt>
   <trkpt lat="52.501816" lon="13.408946">
    <ele>37.2</ele>
    <time>2025-08-15T18:59:43.000Z</time>
   </trkpt>
   <trkpt lat="52.501783" lon="13.409291">
    <ele>37.2</ele>
    <time>2025-08-15T18:59:48.000Z</time>
   </trkpt>
   <trkpt lat="52.501725" lon="13.409634">
    <ele>37.2</ele>
    <time>2025-08-15T18:59:53.000Z</time>
   </trkpt>
   <trkpt lat="52.501764" lon="13.409724">
    <ele>37.2</ele>
    <time>2025-08-15T18:59:56.000Z</time>
   </trkpt>
   <trkpt lat="52.501784" lon="13.409746">
    <ele>37.2</ele>
    <time>2025-08-15T18:59:57.000Z</time>
   </trkpt>
   <trkpt lat="52.501889" lon="13.409823">
    <ele>37.2</ele>
    <time>2025-08-15T19:00:01.000Z</time>
   </trkpt>
   <trkpt lat="52.501922" lon="13.409851">
    <ele>37.2</ele>
    <time>2025-08-15T19:00:03.000Z</time>
   </trkpt>
   <trkpt lat="52.501927" lon="13.409848">
    <ele>37.2</ele>
    <time>2025-08-15T19:00:04.000Z</time>
   </trkpt>
   <trkpt lat="52.501955" lon="13.409853">
    <ele>37.2</ele>
    <time>2025-08-15T19:04:38.000Z</time>
   </trkpt>
   <trkpt lat="52.501981" lon="13.409811">
    <ele>37</ele>
    <time>2025-08-15T19:04:40.000Z</time>
   </trkpt>
   <trkpt lat="52.502056" lon="13.409846">
    <ele>37</ele>
    <time>2025-08-15T19:04:43.000Z</time>
   </trkpt>
   <trkpt lat="52.502224" lon="13.409842">
    <ele>37</ele>
    <time>2025-08-15T19:04:48.000Z</time>
   </trkpt>
   <trkpt lat="52.502238" lon="13.409816">
    <ele>37</ele>
    <time>2025-08-15T19:04:49.000Z</time>
   </trkpt>
   <trkpt lat="52.502246" lon="13.409799">
    <ele>36.8</ele>
    <time>2025-08-15T19:04:50.000Z</time>
   </trkpt>
   <trkpt lat="52.502281" lon="13.409782">
    <ele>36.8</ele>
    <time>2025-08-15T19:04:52.000Z</time>
   </trkpt>
   <trkpt lat="52.50241" lon="13.409836">
    <ele>36.8</ele>
    <time>2025-08-15T19:04:57.000Z</time>
   </trkpt>
   <trkpt lat="52.502638" lon="13.409965">
    <ele>36.8</ele>
    <time>2025-08-15T19:05:03.000Z</time>
   </trkpt>
   <trkpt lat="52.50279" lon="13.410257">
    <ele>36.8</ele>
    <time>2025-08-15T19:05:08.000Z</time>
   </trkpt>
   <trkpt lat="52.503006" lon="13.410421">
    <ele>36.8</ele>
    <time>2025-08-15T19:05:14.000Z</time>
   </trkpt>
   <trkpt lat="52.503295" lon="13.410607">
    <ele>36.8</ele>
    <time>2025-08-15T19:05:20.000Z</time>
   </trkpt>
   <trkpt lat="52.503367" lon="13.410638">
    <ele>36.8</ele>
    <time>2025-08-15T19:05:22.000Z</time>
   </trkpt>
   <trkpt lat="52.503387" lon="13.41068">
    <ele>36.8</ele>
    <time>2025-08-15T19:05:23.000Z</time>
   </trkpt>
   <trkpt lat="52.503458" lon="13.411033">
    <ele>36.8</ele>
    <time>2025-08-15T19:05:29.000Z</time>
   </trkpt>
   <trkpt lat="52.503459" lon="13.411096">
    <ele>36.8</ele>
    <time>2025-08-15T19:05:30.000Z</time>
   </trkpt>
   <trkpt lat="52.503428" lon="13.411338">
    <ele>36.8</ele>
    <time>2025-08-15T19:05:34.000Z</time>
   </trkpt>
   <trkpt lat="52.503341" lon="13.411683">
    <ele>36.8</ele>
    <time>2025-08-15T19:05:40.000Z</time>
   </trkpt>
   <trkpt lat="52.503324" lon="13.411734">
    <ele>36.8</ele>
    <time>2025-08-15T19:05:41.000Z</time>
   </trkpt>
   <trkpt lat="52.503262" lon="13.412009">
    <ele>37</ele>
    <time>2025-08-15T19:05:46.000Z</time>
   </trkpt>
   <trkpt lat="52.503252" lon="13.412076">
    <ele>37</ele>
    <time>2025-08-15T19:05:47.000Z</time>
   </trkpt>
   <trkpt lat="52.503205" lon="13.412282">
    <ele>37</ele>
    <time>2025-08-15T19:05:50.000Z</time>
   </trkpt>
   <trkpt lat="52.503037" lon="13.412799">
    <ele>37</ele>
    <time>2025-08-15T19:05:57.000Z</time>
   </trkpt>
   <trkpt lat="52.502956" lon="13.413098">
    <ele>36.8</ele>
    <time>2025-08-15T19:06:01.000Z</time>
   </trkpt>
   <trkpt lat="52.502944" lon="13.413251">
    <ele>36.8</ele>
    <time>2025-08-15T19:06:03.000Z</time>
   </trkpt>
   <trkpt lat="52.502864" lon="13.413475">
    <ele>36.6</ele>
    <time>2025-08-15T19:06:06.000Z</time>
   </trkpt>
   <trkpt lat="52.502815" lon="13.413621">
    <ele>36.6</ele>
    <time>2025-08-15T19:06:08.000Z</time>
   </trkpt>
   <trkpt lat="52.502794" lon="13.413692">
    <ele>36.6</ele>
    <time>2025-08-15T19:06:09.000Z</time>
   </trkpt>
   <trkpt lat="52.502741" lon="13.413899">
    <ele>36.6</ele>
    <time>2025-08-15T19:06:12.000Z</time>
   </trkpt>
   <trkpt lat="52.502697" lon="13.41402">
    <ele>36.6</ele>
    <time>2025-08-15T19:06:14.000Z</time>
   </trkpt>
   <trkpt lat="52.502592" lon="13.414363">
    <ele>36.6</ele>
    <time>2025-08-15T19:06:20.000Z</time>
   </trkpt>
   <trkpt lat="52.502571" lon="13.414417">
    <ele>36.6</ele>
    <time>2025-08-15T19:06:21.000Z</time>
   </trkpt>
   <trkpt lat="52.502543" lon="13.414468">
    <ele>36.6</ele>
    <time>2025-08-15T19:06:22.000Z</time>
   </trkpt>
   <trkpt lat="52.502487" lon="13.414576">
    <ele>36.6</ele>
    <time>2025-08-15T19:06:24.000Z</time>
   </trkpt>
   <trkpt lat="52.502469" lon="13.41464">
    <ele>36.6</ele>
    <time>2025-08-15T19:06:25.000Z</time>
   </trkpt>
   <trkpt lat="52.502448" lon="13.414691">
    <ele>36.6</ele>
    <time>2025-08-15T19:06:26.000Z</time>
   </trkpt>
   <trkpt lat="52.502432" lon="13.414728">
    <ele>36.8</ele>
    <time>2025-08-15T19:06:29.000Z</time>
   </trkpt>
   <trkpt lat="52.502421" lon="13.414758">
    <ele>36.8</ele>
    <time>2025-08-15T19:06:31.000Z</time>
   </trkpt>
   <trkpt lat="52.502315" lon="13.414987">
    <ele>36.8</ele>
    <time>2025-08-15T19:06:34.000Z</time>
   </trkpt>
   <trkpt lat="52.502115" lon="13.415632">
    <ele>37</ele>
    <time>2025-08-15T19:06:41.000Z</time>
   </trkpt>
   <trkpt lat="52.502023" lon="13.416105">
    <ele>36.8</ele>
    <time>2025-08-15T19:06:46.000Z</time>
   </trkpt>
   <trkpt lat="52.501999" lon="13.416214">
    <ele>36.8</ele>
    <time>2025-08-15T19:06:48.000Z</time>
   </trkpt>
   <trkpt lat="52.501992" lon="13.416247">
    <ele>36.8</ele>
    <time>2025-08-15T19:06:49.000Z</time>
   </trkpt>
   <trkpt lat="52.501992" lon="13.416256">
    <ele>36.8</ele>
    <time>2025-08-15T19:06:50.000Z</time>
   </trkpt>
   <trkpt lat="52.501999" lon="13.41632">
    <ele>36.6</ele>
    <time>2025-08-15T19:07:10.000Z</time>
   </trkpt>
   <trkpt lat="52.502" lon="13.416361">
    <ele>36.4</ele>
    <time>2025-08-15T19:07:11.000Z</time>
   </trkpt>
   <trkpt lat="52.501993" lon="13.416543">
    <ele>36.6</ele>
    <time>2025-08-15T19:07:14.000Z</time>
   </trkpt>
   <trkpt lat="52.501971" lon="13.416658">
    <ele>36.4</ele>
    <time>2025-08-15T19:07:16.000Z</time>
   </trkpt>
   <trkpt lat="52.50193" lon="13.416782">
    <ele>36.4</ele>
    <time>2025-08-15T19:07:18.000Z</time>
   </trkpt>
   <trkpt lat="52.50188" lon="13.4169">
    <ele>36.2</ele>
    <time>2025-08-15T19:07:20.000Z</time>
   </trkpt>
   <trkpt lat="52.501821" lon="13.417093">
    <ele>36.4</ele>
    <time>2025-08-15T19:07:23.000Z</time>
   </trkpt>
   <trkpt lat="52.501672" lon="13.417611">
    <ele>36.4</ele>
    <time>2025-08-15T19:07:30.000Z</time>
   </trkpt>
   <trkpt lat="52.501615" lon="13.417848">
    <ele>36.4</ele>
    <time>2025-08-15T19:07:33.000Z</time>
   </trkpt>
   <trkpt lat="52.501561" lon="13.418081">
    <ele>36.4</ele>
    <time>2025-08-15T19:07:36.000Z</time>
   </trkpt>
   <trkpt lat="52.501549" lon="13.418157">
    <ele>36.4</ele>
    <time>2025-08-15T19:07:37.000Z</time>
   </trkpt>
   <trkpt lat="52.501458" lon="13.418599">
    <ele>36.4</ele>
    <time>2025-08-15T19:07:43.000Z</time>
   </trkpt>
   <trkpt lat="52.501408" lon="13.418672">
    <ele>36.4</ele>
    <time>2025-08-15T19:07:44.000Z</time>
   </trkpt>
   <trkpt lat="52.501359" lon="13.418824">
    <ele>36.4</ele>
    <time>2025-08-15T19:07:46.000Z</time>
   </trkpt>
   <trkpt lat="52.501302" lon="13.419046">
    <ele>36.4</ele>
    <time>2025-08-15T19:07:49.000Z</time>
   </trkpt>
   <trkpt lat="52.501229" lon="13.419329">
    <ele>36.4</ele>
    <time>2025-08-15T19:07:53.000Z</time>
   </trkpt>
   <trkpt lat="52.501195" lon="13.419474">
    <ele>36.4</ele>
    <time>2025-08-15T19:07:55.000Z</time>
   </trkpt>
   <trkpt lat="52.501078" lon="13.419767">
    <ele>36.6</ele>
    <time>2025-08-15T19:07:59.000Z</time>
   </trkpt>
   <trkpt lat="52.501056" lon="13.419845">
    <ele>36.6</ele>
    <time>2025-08-15T19:08:00.000Z</time>
   </trkpt>
   <trkpt lat="52.501012" lon="13.419998">
    <ele>36.6</ele>
    <time>2025-08-15T19:08:02.000Z</time>
   </trkpt>
   <trkpt lat="52.500973" lon="13.420144">
    <ele>36.6</ele>
    <time>2025-08-15T19:08:04.000Z</time>
   </trkpt>
   <trkpt lat="52.500913" lon="13.420372">
    <ele>36.4</ele>
    <time>2025-08-15T19:08:07.000Z</time>
   </trkpt>
   <trkpt lat="52.500879" lon="13.420545">
    <ele>36.4</ele>
    <time>2025-08-15T19:08:09.000Z</time>
   </trkpt>
   <trkpt lat="52.500791" lon="13.420849">
    <ele>36.4</ele>
    <time>2025-08-15T19:08:13.000Z</time>
   </trkpt>
   <trkpt lat="52.500734" lon="13.421005">
    <ele>36.6</ele>
    <time>2025-08-15T19:08:15.000Z</time>
   </trkpt>
   <trkpt lat="52.500685" lon="13.421266">
    <ele>36.6</ele>
    <time>2025-08-15T19:08:18.000Z</time>
   </trkpt>
   <trkpt lat="52.500657" lon="13.421359">
    <ele>36.6</ele>
    <time>2025-08-15T19:08:19.000Z</time>
   </trkpt>
   <trkpt lat="52.500621" lon="13.421504">
    <ele>36.6</ele>
    <time>2025-08-15T19:08:21.000Z</time>
   </trkpt>
   <trkpt lat="52.5006" lon="13.421572">
    <ele>36.6</ele>
    <time>2025-08-15T19:08:22.000Z</time>
   </trkpt>
   <trkpt lat="52.500549" lon="13.421729">
    <ele>36.4</ele>
    <time>2025-08-15T19:08:24.000Z</time>
   </trkpt>
   <trkpt lat="52.500493" lon="13.422047">
    <ele>36.2</ele>
    <time>2025-08-15T19:08:28.000Z</time>
   </trkpt>
   <trkpt lat="52.500365" lon="13.422534">
    <ele>36.4</ele>
    <time>2025-08-15T19:08:35.000Z</time>
   </trkpt>
   <trkpt lat="52.50027" lon="13.422782">
    <ele>36.6</ele>
    <time>2025-08-15T19:08:41.000Z</time>
   </trkpt>
   <trkpt lat="52.500237" lon="13.422883">
    <ele>36.6</ele>
    <time>2025-08-15T19:08:46.000Z</time>
   </trkpt>
   <trkpt lat="52.500199" lon="13.423073">
    <ele>36.6</ele>
    <time>2025-08-15T19:08:50.000Z</time>
   </trkpt>
   <trkpt lat="52.500106" lon="13.423498">
    <ele>36.4</ele>
    <time>2025-08-15T19:08:57.000Z</time>
   </trkpt>
   <trkpt lat="52.500093" lon="13.423554">
    <ele>36.4</ele>
    <time>2025-08-15T19:08:58.000Z</time>
   </trkpt>
   <trkpt lat="52.500035" lon="13.42381">
    <ele>36.4</ele>
    <time>2025-08-15T19:09:02.000Z</time>
   </trkpt>
   <trkpt lat="52.499996" lon="13.423944">
    <ele>36.4</ele>
    <time>2025-08-15T19:09:04.000Z</time>
   </trkpt>
   <trkpt lat="52.499973" lon="13.424006">
    <ele>36.6</ele>
    <time>2025-08-15T19:09:05.000Z</time>
   </trkpt>
   <trkpt lat="52.499954" lon="13.424068">
    <ele>36.6</ele>
    <time>2025-08-15T19:09:06.000Z</time>
   </trkpt>
   <trkpt lat="52.49992" lon="13.424197">
    <ele>36.6</ele>
    <time>2025-08-15T19:09:08.000Z</time>
   </trkpt>
   <trkpt lat="52.499841" lon="13.424391">
    <ele>36.6</ele>
    <time>2025-08-15T19:09:11.000Z</time>
   </trkpt>
   <trkpt lat="52.499768" lon="13.424724">
    <ele>36.8</ele>
    <time>2025-08-15T19:09:16.000Z</time>
   </trkpt>
   <trkpt lat="52.49973" lon="13.424858">
    <ele>36.8</ele>
    <time>2025-08-15T19:09:18.000Z</time>
   </trkpt>
   <trkpt lat="52.499665" lon="13.425108">
    <ele>36.8</ele>
    <time>2025-08-15T19:09:23.000Z</time>
   </trkpt>
   <trkpt lat="52.499607" lon="13.425315">
    <ele>36.8</ele>
    <time>2025-08-15T19:09:27.000Z</time>
   </trkpt>
   <trkpt lat="52.499596" lon="13.425363">
    <ele>36.8</ele>
    <time>2025-08-15T19:09:28.000Z</time>
   </trkpt>
   <trkpt lat="52.499478" lon="13.425764">
    <ele>36.8</ele>
    <time>2025-08-15T19:09:35.000Z</time>
   </trkpt>
   <trkpt lat="52.49946" lon="13.425818">
    <ele>36.8</ele>
    <time>2025-08-15T19:09:36.000Z</time>
   </trkpt>
   <trkpt lat="52.499422" lon="13.425944">
    <ele>36.8</ele>
    <time>2025-08-15T19:09:38.000Z</time>
   </trkpt>
   <trkpt lat="52.49936" lon="13.42615">
    <ele>36.8</ele>
    <time>2025-08-15T19:09:41.000Z</time>
   </trkpt>
   <trkpt lat="52.499337" lon="13.426217">
    <ele>36.8</ele>
    <time>2025-08-15T19:09:42.000Z</time>
   </trkpt>
   <trkpt lat="52.499252" lon="13.426395">
    <ele>36.8</ele>
    <time>2025-08-15T19:09:45.000Z</time>
   </trkpt>
   <trkpt lat="52.49924" lon="13.426441">
    <ele>37</ele>
    <time>2025-08-15T19:09:46.000Z</time>
   </trkpt>
   <trkpt lat="52.499113" lon="13.426731">
    <ele>37.2</ele>
    <time>2025-08-15T19:09:50.000Z</time>
   </trkpt>
   <trkpt lat="52.499047" lon="13.426959">
    <ele>37.2</ele>
    <time>2025-08-15T19:09:53.000Z</time>
   </trkpt>
   <trkpt lat="52.498995" lon="13.427118">
    <ele>37.2</ele>
    <time>2025-08-15T19:09:55.000Z</time>
   </trkpt>
   <trkpt lat="52.498867" lon="13.427549">
    <ele>37.2</ele>
    <time>2025-08-15T19:10:01.000Z</time>
   </trkpt>
   <trkpt lat="52.498699" lon="13.428084">
    <ele>37.6</ele>
    <time>2025-08-15T19:10:09.000Z</time>
   </trkpt>
   <trkpt lat="52.498537" lon="13.428596">
    <ele>37.6</ele>
    <time>2025-08-15T19:10:16.000Z</time>
   </trkpt>
   <trkpt lat="52.498322" lon="13.42925">
    <ele>37.2</ele>
    <time>2025-08-15T19:10:24.000Z</time>
   </trkpt>
   <trkpt lat="52.498051" lon="13.430034">
    <ele>36.8</ele>
    <time>2025-08-15T19:10:34.000Z</time>
   </trkpt>
   <trkpt lat="52.497998" lon="13.430178">
    <ele>36.8</ele>
    <time>2025-08-15T19:10:36.000Z</time>
   </trkpt>
   <trkpt lat="52.497883" lon="13.430485">
    <ele>37</ele>
    <time>2025-08-15T19:10:40.000Z</time>
   </trkpt>
   <trkpt lat="52.497766" lon="13.430795">
    <ele>37</ele>
    <time>2025-08-15T19:10:44.000Z</time>
   </trkpt>
   <trkpt lat="52.497664" lon="13.43103">
    <ele>37.2</ele>
    <time>2025-08-15T19:10:47.000Z</time>
   </trkpt>
   <trkpt lat="52.497632" lon="13.431109">
    <ele>37.2</ele>
    <time>2025-08-15T19:10:48.000Z</time>
   </trkpt>
   <trkpt lat="52.497517" lon="13.431429">
    <ele>37.4</ele>
    <time>2025-08-15T19:10:52.000Z</time>
   </trkpt>
   <trkpt lat="52.497488" lon="13.43151">
    <ele>37.4</ele>
    <time>2025-08-15T19:10:53.000Z</time>
   </trkpt>
   <trkpt lat="52.497347" lon="13.431939">
    <ele>37.2</ele>
    <time>2025-08-15T19:10:58.000Z</time>
   </trkpt>
   <trkpt lat="52.497324" lon="13.432023">
    <ele>37.2</ele>
    <time>2025-08-15T19:10:59.000Z</time>
   </trkpt>
   <trkpt lat="52.4973" lon="13.432104">
    <ele>37.2</ele>
    <time>2025-08-15T19:11:00.000Z</time>
   </trkpt>
   <trkpt lat="52.497246" lon="13.432281">
    <ele>37.2</ele>
    <time>2025-08-15T19:11:02.000Z</time>
   </trkpt>
   <trkpt lat="52.497168" lon="13.432518">
    <ele>37.2</ele>
    <time>2025-08-15T19:11:05.000Z</time>
   </trkpt>
   <trkpt lat="52.497021" lon="13.432946">
    <ele>37.2</ele>
    <time>2025-08-15T19:11:10.000Z</time>
   </trkpt>
   <trkpt lat="52.496936" lon="13.433236">
    <ele>37.2</ele>
    <time>2025-08-15T19:11:13.000Z</time>
   </trkpt>
   <trkpt lat="52.496677" lon="13.434013">
    <ele>36.2</ele>
    <time>2025-08-15T19:11:21.000Z</time>
   </trkpt>
   <trkpt lat="52.496551" lon="13.43437">
    <ele>36.2</ele>
    <time>2025-08-15T19:11:25.000Z</time>
   </trkpt>
   <trkpt lat="52.496517" lon="13.434457">
    <ele>36.4</ele>
    <time>2025-08-15T19:11:26.000Z</time>
   </trkpt>
   <trkpt lat="52.496487" lon="13.434547">
    <ele>36.6</ele>
    <time>2025-08-15T19:11:27.000Z</time>
   </trkpt>
   <trkpt lat="52.496343" lon="13.435011">
    <ele>36.6</ele>
    <time>2025-08-15T19:11:32.000Z</time>
   </trkpt>
   <trkpt lat="52.496248" lon="13.435272">
    <ele>36.6</ele>
    <time>2025-08-15T19:11:35.000Z</time>
   </trkpt>
   <trkpt lat="52.496001" lon="13.43601">
    <ele>36.4</ele>
    <time>2025-08-15T19:11:43.000Z</time>
   </trkpt>
   <trkpt lat="52.495904" lon="13.436293">
    <ele>36.4</ele>
    <time>2025-08-15T19:11:46.000Z</time>
   </trkpt>
   <trkpt lat="52.495798" lon="13.436571">
    <ele>36.4</ele>
    <time>2025-08-15T19:11:49.000Z</time>
   </trkpt>
   <trkpt lat="52.495542" lon="13.437332">
    <ele>37</ele>
    <time>2025-08-15T19:11:57.000Z</time>
   </trkpt>
   <trkpt lat="52.495347" lon="13.437995">
    <ele>37.2</ele>
    <time>2025-08-15T19:12:04.000Z</time>
   </trkpt>
   <trkpt lat="52.495209" lon="13.438367">
    <ele>37</ele>
    <time>2025-08-15T19:12:08.000Z</time>
   </trkpt>
   <trkpt lat="52.49513" lon="13.438528">
    <ele>37</ele>
    <time>2025-08-15T19:12:10.000Z</time>
   </trkpt>
   <trkpt lat="52.495056" lon="13.438712">
    <ele>37</ele>
    <time>2025-08-15T19:12:12.000Z</time>
   </trkpt>
   <trkpt lat="52.494962" lon="13.439006">
    <ele>37.2</ele>
    <time>2025-08-15T19:12:15.000Z</time>
   </trkpt>
   <trkpt lat="52.494671" lon="13.43988">
    <ele>37.2</ele>
    <time>2025-08-15T19:12:24.000Z</time>
   </trkpt>
   <trkpt lat="52.494457" lon="13.4405">
    <ele>37</ele>
    <time>2025-08-15T19:12:31.000Z</time>
   </trkpt>
   <trkpt lat="52.494292" lon="13.441054">
    <ele>37</ele>
    <time>2025-08-15T19:12:37.000Z</time>
   </trkpt>
   <trkpt lat="52.49426" lon="13.441145">
    <ele>37</ele>
    <time>2025-08-15T19:12:38.000Z</time>
   </trkpt>
   <trkpt lat="52.494036" lon="13.441823">
    <ele>36.8</ele>
    <time>2025-08-15T19:12:45.000Z</time>
   </trkpt>
   <trkpt lat="52.493833" lon="13.442411">
    <ele>36.8</ele>
    <time>2025-08-15T19:12:51.000Z</time>
   </trkpt>
   <trkpt lat="52.493756" lon="13.442704">
    <ele>36.8</ele>
    <time>2025-08-15T19:12:54.000Z</time>
   </trkpt>
   <trkpt lat="52.493736" lon="13.442921">
    <ele>36.6</ele>
    <time>2025-08-15T19:12:56.000Z</time>
   </trkpt>
   <trkpt lat="52.493778" lon="13.443139">
    <ele>36.6</ele>
    <time>2025-08-15T19:12:58.000Z</time>
   </trkpt>
   <trkpt lat="52.493815" lon="13.443235">
    <ele>36.6</ele>
    <time>2025-08-15T19:12:59.000Z</time>
   </trkpt>
   <trkpt lat="52.493863" lon="13.443321">
    <ele>36.6</ele>
    <time>2025-08-15T19:13:00.000Z</time>
   </trkpt>
   <trkpt lat="52.494077" lon="13.443612">
    <ele>36.2</ele>
    <time>2025-08-15T19:13:04.000Z</time>
   </trkpt>
   <trkpt lat="52.494233" lon="13.443838">
    <ele>36</ele>
    <time>2025-08-15T19:13:07.000Z</time>
   </trkpt>
   <trkpt lat="52.49433" lon="13.44403">
    <ele>35.8</ele>
    <time>2025-08-15T19:13:09.000Z</time>
   </trkpt>
   <trkpt lat="52.494394" lon="13.444123">
    <ele>35.8</ele>
    <time>2025-08-15T19:13:10.000Z</time>
   </trkpt>
   <trkpt lat="52.494648" lon="13.444449">
    <ele>35.2</ele>
    <time>2025-08-15T19:13:14.000Z</time>
   </trkpt>
   <trkpt lat="52.494956" lon="13.444839">
    <ele>35.4</ele>
    <time>2025-08-15T19:13:20.000Z</time>
   </trkpt>
   <trkpt lat="52.494997" lon="13.444887">
    <ele>35.6</ele>
    <time>2025-08-15T19:13:21.000Z</time>
   </trkpt>
   <trkpt lat="52.495116" lon="13.445018">
    <ele>35.8</ele>
    <time>2025-08-15T19:13:24.000Z</time>
   </trkpt>
   <trkpt lat="52.49515" lon="13.445064">
    <ele>35.8</ele>
    <time>2025-08-15T19:13:25.000Z</time>
   </trkpt>
   <trkpt lat="52.495295" lon="13.445283">
    <ele>36.2</ele>
    <time>2025-08-15T19:13:29.000Z</time>
   </trkpt>
   <trkpt lat="52.495337" lon="13.445331">
    <ele>36.4</ele>
    <time>2025-08-15T19:13:30.000Z</time>
   </trkpt>
   <trkpt lat="52.495415" lon="13.445411">
    <ele>36.4</ele>
    <time>2025-08-15T19:13:32.000Z</time>
   </trkpt>
   <trkpt lat="52.495519" lon="13.445535">
    <ele>36.6</ele>
    <time>2025-08-15T19:13:35.000Z</time>
   </trkpt>
   <trkpt lat="52.495661" lon="13.445725">
    <ele>36.4</ele>
    <time>2025-08-15T19:13:39.000Z</time>
   </trkpt>
   <trkpt lat="52.495697" lon="13.445783">
    <ele>36.4</ele>
    <time>2025-08-15T19:13:40.000Z</time>
   </trkpt>
   <trkpt lat="52.495733" lon="13.445842">
    <ele>36.4</ele>
    <time>2025-08-15T19:13:41.000Z</time>
   </trkpt>
   <trkpt lat="52.495837" lon="13.44606">
    <ele>36.4</ele>
    <time>2025-08-15T19:13:45.000Z</time>
   </trkpt>
   <trkpt lat="52.495859" lon="13.446121">
    <ele>36.4</ele>
    <time>2025-08-15T19:13:46.000Z</time>
   </trkpt>
   <trkpt lat="52.495884" lon="13.446175">
    <ele>36.4</ele>
    <time>2025-08-15T19:13:47.000Z</time>
   </trkpt>
   <trkpt lat="52.495935" lon="13.446269">
    <ele>36.4</ele>
    <time>2025-08-15T19:13:49.000Z</time>
   </trkpt>
   <trkpt lat="52.49596" lon="13.446315">
    <ele>36.6</ele>
    <time>2025-08-15T19:13:50.000Z</time>
   </trkpt>
   <trkpt lat="52.49609" lon="13.446527">
    <ele>36.6</ele>
    <time>2025-08-15T19:13:54.000Z</time>
   </trkpt>
   <trkpt lat="52.496189" lon="13.44667">
    <ele>36.6</ele>
    <time>2025-08-15T19:13:57.000Z</time>
   </trkpt>
   <trkpt lat="52.496229" lon="13.446717">
    <ele>36.8</ele>
    <time>2025-08-15T19:13:58.000Z</time>
   </trkpt>
   <trkpt lat="52.496388" lon="13.446909">
    <ele>36.6</ele>
    <time>2025-08-15T19:14:02.000Z</time>
   </trkpt>
   <trkpt lat="52.496501" lon="13.44707">
    <ele>36.6</ele>
    <time>2025-08-15T19:14:05.000Z</time>
   </trkpt>
   <trkpt lat="52.496654" lon="13.447267">
    <ele>36.8</ele>
    <time>2025-08-15T19:14:09.000Z</time>
   </trkpt>
   <trkpt lat="52.496742" lon="13.447361">
    <ele>36.8</ele>
    <time>2025-08-15T19:14:11.000Z</time>
   </trkpt>
   <trkpt lat="52.496781" lon="13.447408">
    <ele>36.8</ele>
    <time>2025-08-15T19:14:12.000Z</time>
   </trkpt>
   <trkpt lat="52.496883" lon="13.447563">
    <ele>36.8</ele>
    <time>2025-08-15T19:14:15.000Z</time>
   </trkpt>
   <trkpt lat="52.496947" lon="13.447653">
    <ele>36.8</ele>
    <time>2025-08-15T19:14:17.000Z</time>
   </trkpt>
   <trkpt lat="52.496984" lon="13.447694">
    <ele>37</ele>
    <time>2025-08-15T19:14:18.000Z</time>
   </trkpt>
   <trkpt lat="52.497077" lon="13.44781">
    <ele>37</ele>
    <time>2025-08-15T19:14:20.000Z</time>
   </trkpt>
   <trkpt lat="52.497179" lon="13.447927">
    <ele>37.2</ele>
    <time>2025-08-15T19:14:22.000Z</time>
   </trkpt>
   <trkpt lat="52.497218" lon="13.447979">
    <ele>37.2</ele>
    <time>2025-08-15T19:14:23.000Z</time>
   </trkpt>
   <trkpt lat="52.49741" lon="13.448185">
    <ele>37.4</ele>
    <time>2025-08-15T19:14:28.000Z</time>
   </trkpt>
   <trkpt lat="52.497474" lon="13.448304">
    <ele>37.4</ele>
    <time>2025-08-15T19:14:31.000Z</time>
   </trkpt>
   <trkpt lat="52.497478" lon="13.448341">
    <ele>37.4</ele>
    <time>2025-08-15T19:14:32.000Z</time>
   </trkpt>
   <trkpt lat="52.497474" lon="13.448381">
    <ele>37.6</ele>
    <time>2025-08-15T19:14:33.000Z</time>
   </trkpt>
   <trkpt lat="52.497434" lon="13.448463">
    <ele>37.6</ele>
    <time>2025-08-15T19:14:35.000Z</time>
   </trkpt>
   <trkpt lat="52.49736" lon="13.448579">
    <ele>37.8</ele>
    <time>2025-08-15T19:14:38.000Z</time>
   </trkpt>
   <trkpt lat="52.497311" lon="13.448668">
    <ele>37.8</ele>
    <time>2025-08-15T19:14:40.000Z</time>
   </trkpt>
   <trkpt lat="52.497257" lon="13.448754">
    <ele>37.8</ele>
    <time>2025-08-15T19:14:42.000Z</time>
   </trkpt>
   <trkpt lat="52.497103" lon="13.44902">
    <ele>37.6</ele>
    <time>2025-08-15T19:14:47.000Z</time>
   </trkpt>
   <trkpt lat="52.496898" lon="13.449363">
    <ele>37.2</ele>
    <time>2025-08-15T19:14:53.000Z</time>
   </trkpt>
   <trkpt lat="52.496697" lon="13.449684">
    <ele>36.6</ele>
    <time>2025-08-15T19:14:59.000Z</time>
   </trkpt>
   <trkpt lat="52.496436" lon="13.450107">
    <ele>36.8</ele>
    <time>2025-08-15T19:15:07.000Z</time>
   </trkpt>
   <trkpt lat="52.49614" lon="13.450602">
    <ele>36.8</ele>
    <time>2025-08-15T19:15:16.000Z</time>
   </trkpt>
   <trkpt lat="52.495831" lon="13.451117">
    <ele>36.6</ele>
    <time>2025-08-15T19:15:24.000Z</time>
   </trkpt>
   <trkpt lat="52.49554" lon="13.451625">
    <ele>36.6</ele>
    <time>2025-08-15T19:15:32.000Z</time>
   </trkpt>
   <trkpt lat="52.495362" lon="13.451917">
    <ele>36.6</ele>
    <time>2025-08-15T19:15:37.000Z</time>
   </trkpt>
   <trkpt lat="52.495189" lon="13.452188">
    <ele>36.4</ele>
    <time>2025-08-15T19:15:42.000Z</time>
   </trkpt>
   <trkpt lat="52.495155" lon="13.452226">
    <ele>36.4</ele>
    <time>2025-08-15T19:15:43.000Z</time>
   </trkpt>
   <trkpt lat="52.495121" lon="13.452272">
    <ele>36.2</ele>
    <time>2025-08-15T19:15:44.000Z</time>
   </trkpt>
   <trkpt lat="52.495047" lon="13.452394">
    <ele>36.2</ele>
    <time>2025-08-15T19:15:46.000Z</time>
   </trkpt>
   <trkpt lat="52.49496" lon="13.452532">
    <ele>36.2</ele>
    <time>2025-08-15T19:15:48.000Z</time>
   </trkpt>
   <trkpt lat="52.494628" lon="13.453045">
    <ele>35.8</ele>
    <time>2025-08-15T19:15:57.000Z</time>
   </trkpt>
   <trkpt lat="52.494555" lon="13.453128">
    <ele>35.8</ele>
    <time>2025-08-15T19:15:59.000Z</time>
   </trkpt>
   <trkpt lat="52.494352" lon="13.45342">
    <ele>36</ele>
    <time>2025-08-15T19:16:05.000Z</time>
   </trkpt>
   <trkpt lat="52.494132" lon="13.453751">
    <ele>36.2</ele>
    <time>2025-08-15T19:16:12.000Z</time>
   </trkpt>
   <trkpt lat="52.494012" lon="13.453951">
    <ele>36.2</ele>
    <time>2025-08-15T19:16:17.000Z</time>
   </trkpt>
   <trkpt lat="52.493884" lon="13.454081">
    <ele>36.2</ele>
    <time>2025-08-15T19:16:22.000Z</time>
   </trkpt>
   <trkpt lat="52.493824" lon="13.454016">
    <ele>36</ele>
    <time>2025-08-15T19:16:24.000Z</time>
   </trkpt>
   <trkpt lat="52.493734" lon="13.453881">
    <ele>36</ele>
    <time>2025-08-15T19:16:27.000Z</time>
   </trkpt>
   <trkpt lat="52.493421" lon="13.453449">
    <ele>36</ele>
    <time>2025-08-15T19:16:36.000Z</time>
   </trkpt>
   <trkpt lat="52.493142" lon="13.453023">
    <ele>36</ele>
    <time>2025-08-15T19:16:44.000Z</time>
   </trkpt>
   <trkpt lat="52.492859" lon="13.452591">
    <ele>36</ele>
    <time>2025-08-15T19:16:52.000Z</time>
   </trkpt>
   <trkpt lat="52.492675" lon="13.45233">
    <ele>36</ele>
    <time>2025-08-15T19:16:57.000Z</time>
   </trkpt>
   <trkpt lat="52.492616" lon="13.452236">
    <ele>36</ele>
    <time>2025-08-15T19:16:59.000Z</time>
   </trkpt>
   <trkpt lat="52.492534" lon="13.452084">
    <ele>36</ele>
    <time>2025-08-15T19:17:02.000Z</time>
   </trkpt>
   <trkpt lat="52.492484" lon="13.452012">
    <ele>36</ele>
    <time>2025-08-15T19:17:04.000Z</time>
   </trkpt>
   <trkpt lat="52.492453" lon="13.451979">
    <ele>36</ele>
    <time>2025-08-15T19:17:05.000Z</time>
   </trkpt>
   <trkpt lat="52.492151" lon="13.451556">
    <ele>36</ele>
    <time>2025-08-15T19:17:13.000Z</time>
   </trkpt>
   <trkpt lat="52.491915" lon="13.451183">
    <ele>36</ele>
    <time>2025-08-15T19:17:19.000Z</time>
   </trkpt>
   <trkpt lat="52.491848" lon="13.451041">
    <ele>36</ele>
    <time>2025-08-15T19:17:21.000Z</time>
   </trkpt>
   <trkpt lat="52.491777" lon="13.450918">
    <ele>36</ele>
    <time>2025-08-15T19:17:23.000Z</time>
   </trkpt>
   <trkpt lat="52.491599" lon="13.450598">
    <ele>36</ele>
    <time>2025-08-15T19:17:28.000Z</time>
   </trkpt>
   <trkpt lat="52.491451" lon="13.450463">
    <ele>36.2</ele>
    <time>2025-08-15T19:17:32.000Z</time>
   </trkpt>
   <trkpt lat="52.491372" lon="13.450506">
    <ele>36</ele>
    <time>2025-08-15T19:17:34.000Z</time>
   </trkpt>
   <trkpt lat="52.491349" lon="13.450546">
    <ele>36</ele>
    <time>2025-08-15T19:17:35.000Z</time>
   </trkpt>
   <trkpt lat="52.491246" lon="13.450706">
    <ele>36</ele>
    <time>2025-08-15T19:17:38.000Z</time>
   </trkpt>
   <trkpt lat="52.491173" lon="13.450811">
    <ele>36</ele>
    <time>2025-08-15T19:17:40.000Z</time>
   </trkpt>
   <trkpt lat="52.490966" lon="13.451068">
    <ele>36</ele>
    <time>2025-08-15T19:17:45.000Z</time>
   </trkpt>
   <trkpt lat="52.490921" lon="13.451117">
    <ele>36</ele>
    <time>2025-08-15T19:17:46.000Z</time>
   </trkpt>
   <trkpt lat="52.49059" lon="13.451569">
    <ele>35.8</ele>
    <time>2025-08-15T19:17:53.000Z</time>
   </trkpt>
   <trkpt lat="52.490475" lon="13.451735">
    <ele>35.8</ele>
    <time>2025-08-15T19:17:56.000Z</time>
   </trkpt>
   <trkpt lat="52.490403" lon="13.451855">
    <ele>35.6</ele>
    <time>2025-08-15T19:17:58.000Z</time>
   </trkpt>
   <trkpt lat="52.490359" lon="13.451917">
    <ele>35.6</ele>
    <time>2025-08-15T19:17:59.000Z</time>
   </trkpt>
   <trkpt lat="52.490227" lon="13.452118">
    <ele>35.6</ele>
    <time>2025-08-15T19:18:02.000Z</time>
   </trkpt>
   <trkpt lat="52.490187" lon="13.452184">
    <ele>35.6</ele>
    <time>2025-08-15T19:18:03.000Z</time>
   </trkpt>
   <trkpt lat="52.490086" lon="13.452314">
    <ele>35.8</ele>
    <time>2025-08-15T19:18:05.000Z</time>
   </trkpt>
   <trkpt lat="52.490044" lon="13.452364">
    <ele>35.8</ele>
    <time>2025-08-15T19:18:06.000Z</time>
   </trkpt>
   <trkpt lat="52.489709" lon="13.452789">
    <ele>36.2</ele>
    <time>2025-08-15T19:18:14.000Z</time>
   </trkpt>
   <trkpt lat="52.489673" lon="13.452818">
    <ele>36.2</ele>
    <time>2025-08-15T19:18:15.000Z</time>
   </trkpt>
   <trkpt lat="52.489607" lon="13.452891">
    <ele>36.4</ele>
    <time>2025-08-15T19:18:17.000Z</time>
   </trkpt>
   <trkpt lat="52.489507" lon="13.453018">
    <ele>36.4</ele>
    <time>2025-08-15T19:18:20.000Z</time>
   </trkpt>
   <trkpt lat="52.489337" lon="13.453319">
    <ele>36.4</ele>
    <time>2025-08-15T19:18:26.000Z</time>
   </trkpt>
   <trkpt lat="52.489184" lon="13.45352">
    <ele>36.4</ele>
    <time>2025-08-15T19:18:30.000Z</time>
   </trkpt>
   <trkpt lat="52.489149" lon="13.453578">
    <ele>36.4</ele>
    <time>2025-08-15T19:18:31.000Z</time>
   </trkpt>
   <trkpt lat="52.489119" lon="13.453635">
    <ele>36.4</ele>
    <time>2025-08-15T19:18:32.000Z</time>
   </trkpt>
   <trkpt lat="52.489033" lon="13.453745">
    <ele>36.4</ele>
    <time>2025-08-15T19:18:34.000Z</time>
   </trkpt>
   <trkpt lat="52.488987" lon="13.453814">
    <ele>36.4</ele>
    <time>2025-08-15T19:18:35.000Z</time>
   </trkpt>
   <trkpt lat="52.488827" lon="13.454078">
    <ele>36.6</ele>
    <time>2025-08-15T19:18:40.000Z</time>
   </trkpt>
   <trkpt lat="52.488513" lon="13.454486">
    <ele>36.4</ele>
    <time>2025-08-15T19:18:47.000Z</time>
   </trkpt>
   <trkpt lat="52.488216" lon="13.454912">
    <ele>36</ele>
    <time>2025-08-15T19:18:52.000Z</time>
   </trkpt>
   <trkpt lat="52.487911" lon="13.455364">
    <ele>35.8</ele>
    <time>2025-08-15T19:18:58.000Z</time>
   </trkpt>
   <trkpt lat="52.487804" lon="13.455519">
    <ele>35.8</ele>
    <time>2025-08-15T19:19:00.000Z</time>
   </trkpt>
   <trkpt lat="52.487641" lon="13.455762">
    <ele>35.8</ele>
    <time>2025-08-15T19:19:03.000Z</time>
   </trkpt>
   <trkpt lat="52.487422" lon="13.456068">
    <ele>35.6</ele>
    <time>2025-08-15T19:19:07.000Z</time>
   </trkpt>
   <trkpt lat="52.487145" lon="13.456458">
    <ele>35.4</ele>
    <time>2025-08-15T19:19:12.000Z</time>
   </trkpt>
   <trkpt lat="52.486818" lon="13.456917">
    <ele>35.4</ele>
    <time>2025-08-15T19:19:18.000Z</time>
   </trkpt>
   <trkpt lat="52.486377" lon="13.457525">
    <ele>35.6</ele>
    <time>2025-08-15T19:19:26.000Z</time>
   </trkpt>
   <trkpt lat="52.486335" lon="13.457583">
    <ele>35.6</ele>
    <time>2025-08-15T19:19:27.000Z</time>
   </trkpt>
   <trkpt lat="52.486112" lon="13.457894">
    <ele>35.6</ele>
    <time>2025-08-15T19:19:31.000Z</time>
   </trkpt>
   <trkpt lat="52.485888" lon="13.45818">
    <ele>35.6</ele>
    <time>2025-08-15T19:19:35.000Z</time>
   </trkpt>
   <trkpt lat="52.485455" lon="13.458789">
    <ele>35.4</ele>
    <time>2025-08-15T19:19:43.000Z</time>
   </trkpt>
   <trkpt lat="52.485224" lon="13.45912">
    <ele>35.4</ele>
    <time>2025-08-15T19:19:47.000Z</time>
   </trkpt>
   <trkpt lat="52.484786" lon="13.459796">
    <ele>35.4</ele>
    <time>2025-08-15T19:19:55.000Z</time>
   </trkpt>
   <trkpt lat="52.484272" lon="13.46056">
    <ele>35.8</ele>
    <time>2025-08-15T19:20:04.000Z</time>
   </trkpt>
   <trkpt lat="52.483772" lon="13.461285">
    <ele>36</ele>
    <time>2025-08-15T19:20:13.000Z</time>
   </trkpt>
   <trkpt lat="52.483543" lon="13.461606">
    <ele>36</ele>
    <time>2025-08-15T19:20:17.000Z</time>
   </trkpt>
   <trkpt lat="52.483113" lon="13.462227">
    <ele>36.2</ele>
    <time>2025-08-15T19:20:25.000Z</time>
   </trkpt>
   <trkpt lat="52.482947" lon="13.462467">
    <ele>36.2</ele>
    <time>2025-08-15T19:20:28.000Z</time>
   </trkpt>
   <trkpt lat="52.48249" lon="13.463108">
    <ele>36.6</ele>
    <time>2025-08-15T19:20:36.000Z</time>
   </trkpt>
   <trkpt lat="52.482384" lon="13.46326">
    <ele>36.6</ele>
    <time>2025-08-15T19:20:38.000Z</time>
   </trkpt>
   <trkpt lat="52.482025" lon="13.463769">
    <ele>36.8</ele>
    <time>2025-08-15T19:20:45.000Z</time>
   </trkpt>
   <trkpt lat="52.481967" lon="13.463849">
    <ele>36.8</ele>
    <time>2025-08-15T19:20:46.000Z</time>
   </trkpt>
   <trkpt lat="52.481524" lon="13.464469">
    <ele>37</ele>
    <time>2025-08-15T19:20:54.000Z</time>
   </trkpt>
   <trkpt lat="52.481467" lon="13.464544">
    <ele>37</ele>
    <time>2025-08-15T19:20:55.000Z</time>
   </trkpt>
   <trkpt lat="52.481077" lon="13.465101">
    <ele>36.8</ele>
    <time>2025-08-15T19:21:02.000Z</time>
   </trkpt>
   <trkpt lat="52.480727" lon="13.465595">
    <ele>36.2</ele>
    <time>2025-08-15T19:21:08.000Z</time>
   </trkpt>
   <trkpt lat="52.480272" lon="13.466246">
    <ele>36.2</ele>
    <time>2025-08-15T19:21:16.000Z</time>
   </trkpt>
   <trkpt lat="52.480156" lon="13.466405">
    <ele>36.2</ele>
    <time>2025-08-15T19:21:18.000Z</time>
   </trkpt>
   <trkpt lat="52.479726" lon="13.467012">
    <ele>35.8</ele>
    <time>2025-08-15T19:21:26.000Z</time>
   </trkpt>
   <trkpt lat="52.479276" lon="13.467654">
    <ele>35.6</ele>
    <time>2025-08-15T19:21:34.000Z</time>
   </trkpt>
   <trkpt lat="52.479161" lon="13.467818">
    <ele>35.6</ele>
    <time>2025-08-15T19:21:36.000Z</time>
   </trkpt>
   <trkpt lat="52.478693" lon="13.468486">
    <ele>36.2</ele>
    <time>2025-08-15T19:21:44.000Z</time>
   </trkpt>
   <trkpt lat="52.478577" lon="13.468641">
    <ele>36.2</ele>
    <time>2025-08-15T19:21:46.000Z</time>
   </trkpt>
   <trkpt lat="52.478117" lon="13.469243">
    <ele>36.2</ele>
    <time>2025-08-15T19:21:54.000Z</time>
   </trkpt>
   <trkpt lat="52.477639" lon="13.469896">
    <ele>36.2</ele>
    <time>2025-08-15T19:22:02.000Z</time>
   </trkpt>
   <trkpt lat="52.47758" lon="13.46998">
    <ele>36.2</ele>
    <time>2025-08-15T19:22:03.000Z</time>
   </trkpt>
   <trkpt lat="52.477125" lon="13.470617">
    <ele>36.2</ele>
    <time>2025-08-15T19:22:11.000Z</time>
   </trkpt>
   <trkpt lat="52.477071" lon="13.470693">
    <ele>36.2</ele>
    <time>2025-08-15T19:22:12.000Z</time>
   </trkpt>
   <trkpt lat="52.476652" lon="13.471273">
    <ele>36</ele>
    <time>2025-08-15T19:22:19.000Z</time>
   </trkpt>
   <trkpt lat="52.476537" lon="13.471437">
    <ele>35.8</ele>
    <time>2025-08-15T19:22:21.000Z</time>
   </trkpt>
   <trkpt lat="52.476085" lon="13.472079">
    <ele>35.2</ele>
    <time>2025-08-15T19:22:29.000Z</time>
   </trkpt>
   <trkpt lat="52.476028" lon="13.472164">
    <ele>35.2</ele>
    <time>2025-08-15T19:22:30.000Z</time>
   </trkpt>
   <trkpt lat="52.475756" lon="13.472562">
    <ele>35</ele>
    <time>2025-08-15T19:22:35.000Z</time>
   </trkpt>
   <trkpt lat="52.475555" lon="13.472852">
    <ele>34.8</ele>
    <time>2025-08-15T19:22:39.000Z</time>
   </trkpt>
   <trkpt lat="52.475301" lon="13.473215">
    <ele>35.2</ele>
    <time>2025-08-15T19:22:45.000Z</time>
   </trkpt>
   <trkpt lat="52.475261" lon="13.473275">
    <ele>35.2</ele>
    <time>2025-08-15T19:22:46.000Z</time>
   </trkpt>
   <trkpt lat="52.475201" lon="13.473405">
    <ele>35.2</ele>
    <time>2025-08-15T19:22:48.000Z</time>
   </trkpt>
   <trkpt lat="52.475177" lon="13.473474">
    <ele>35.4</ele>
    <time>2025-08-15T19:22:49.000Z</time>
   </trkpt>
   <trkpt lat="52.475042" lon="13.473784">
    <ele>35.4</ele>
    <time>2025-08-15T19:22:54.000Z</time>
   </trkpt>
   <trkpt lat="52.475028" lon="13.473856">
    <ele>35.4</ele>
    <time>2025-08-15T19:22:55.000Z</time>
   </trkpt>
   <trkpt lat="52.475027" lon="13.473927">
    <ele>35.4</ele>
    <time>2025-08-15T19:22:56.000Z</time>
   </trkpt>
   <trkpt lat="52.47507" lon="13.474058">
    <ele>35.4</ele>
    <time>2025-08-15T19:22:58.000Z</time>
   </trkpt>
   <trkpt lat="52.475127" lon="13.474166">
    <ele>35.4</ele>
    <time>2025-08-15T19:23:00.000Z</time>
   </trkpt>
   <trkpt lat="52.475289" lon="13.474498">
    <ele>35.6</ele>
    <time>2025-08-15T19:23:05.000Z</time>
   </trkpt>
   <trkpt lat="52.475549" lon="13.474968">
    <ele>35.8</ele>
    <time>2025-08-15T19:23:12.000Z</time>
   </trkpt>
   <trkpt lat="52.475585" lon="13.475038">
    <ele>36</ele>
    <time>2025-08-15T19:23:13.000Z</time>
   </trkpt>
   <trkpt lat="52.475839" lon="13.475477">
    <ele>35.8</ele>
    <time>2025-08-15T19:23:20.000Z</time>
   </trkpt>
   <trkpt lat="52.47588" lon="13.475594">
    <ele>35.8</ele>
    <time>2025-08-15T19:23:22.000Z</time>
   </trkpt>
   <trkpt lat="52.475868" lon="13.475651">
    <ele>35.8</ele>
    <time>2025-08-15T19:23:23.000Z</time>
   </trkpt>
   <trkpt lat="52.475805" lon="13.475801">
    <ele>35.6</ele>
    <time>2025-08-15T19:23:26.000Z</time>
   </trkpt>
   <trkpt lat="52.475791" lon="13.475846">
    <ele>35.6</ele>
    <time>2025-08-15T19:23:27.000Z</time>
   </trkpt>
   <trkpt lat="52.475659" lon="13.476098">
    <ele>35.6</ele>
    <time>2025-08-15T19:23:33.000Z</time>
   </trkpt>
   <trkpt lat="52.475585" lon="13.476219">
    <ele>35.6</ele>
    <time>2025-08-15T19:23:36.000Z</time>
   </trkpt>
   <trkpt lat="52.47544" lon="13.476419">
    <ele>35.6</ele>
    <time>2025-08-15T19:23:42.000Z</time>
   </trkpt>
   <trkpt lat="52.475421" lon="13.476447">
    <ele>35.6</ele>
    <time>2025-08-15T19:23:43.000Z</time>
   </trkpt>
   <trkpt lat="52.475426" lon="13.47648">
    <ele>35.6</ele>
    <time>2025-08-15T19:23:44.000Z</time>
   </trkpt>
   <trkpt lat="52.475441" lon="13.476524">
    <ele>35.6</ele>
    <time>2025-08-15T19:23:46.000Z</time>
   </trkpt>
  </trkseg>
 </trk>
</gpx>
