<?xml version="1.0" encoding="UTF-8"?>
<gpx creator="StravaGPX" version="1.1" xmlns="http://www.topografix.com/GPX/1/1">
 <metadata>
  <time>2024-08-19T19:04:50Z</time>
 </metadata>
 <trk>
  <name>Night Ride</name>
  <type>1</type>
  <trkseg>
   <trkpt lat="52.503641" lon="13.408465">
    <ele>37.2</ele>
    <time>2024-08-19T19:04:50.000Z</time>
   </trkpt>
   <trkpt lat="52.503604" lon="13.408441">
    <ele>37</ele>
    <time>2024-08-19T19:04:51.000Z</time>
   </trkpt>
   <trkpt lat="52.503563" lon="13.408391">
    <ele>37.2</ele>
    <time>2024-08-19T19:04:53.000Z</time>
   </trkpt>
   <trkpt lat="52.503525" lon="13.408356">
    <ele>37.2</ele>
    <time>2024-08-19T19:04:55.000Z</time>
   </trkpt>
   <trkpt lat="52.503464" lon="13.408286">
    <ele>37.2</ele>
    <time>2024-08-19T19:05:01.000Z</time>
   </trkpt>
   <trkpt lat="52.503419" lon="13.408293">
    <ele>37.4</ele>
    <time>2024-08-19T19:05:06.000Z</time>
   </trkpt>
   <trkpt lat="52.503403" lon="13.408306">
    <ele>37.4</ele>
    <time>2024-08-19T19:05:09.000Z</time>
   </trkpt>
   <trkpt lat="52.503346" lon="13.408325">
    <ele>37.4</ele>
    <time>2024-08-19T19:05:11.000Z</time>
   </trkpt>
   <trkpt lat="52.503662" lon="13.40742">
    <ele>37</ele>
    <time>2024-08-19T19:05:27.000Z</time>
   </trkpt>
   <trkpt lat="52.503602" lon="13.407396">
    <ele>37</ele>
    <time>2024-08-19T19:05:28.000Z</time>
   </trkpt>
   <trkpt lat="52.503735" lon="13.407454">
    <ele>37</ele>
    <time>2024-08-19T19:05:31.000Z</time>
   </trkpt>
   <trkpt lat="52.504087" lon="13.40768">
    <ele>36.8</ele>
    <time>2024-08-19T19:05:39.000Z</time>
   </trkpt>
   <trkpt lat="52.504335" lon="13.407974">
    <ele>36.8</ele>
    <time>2024-08-19T19:05:46.000Z</time>
   </trkpt>
   <trkpt lat="52.504363" lon="13.40808">
    <ele>36.8</ele>
    <time>2024-08-19T19:05:48.000Z</time>
   </trkpt>
   <trkpt lat="52.504356" lon="13.408133">
    <ele>36.8</ele>
    <time>2024-08-19T19:05:49.000Z</time>
   </trkpt>
   <trkpt lat="52.504341" lon="13.408195">
    <ele>36.8</ele>
    <time>2024-08-19T19:05:50.000Z</time>
   </trkpt>
   <trkpt lat="52.504254" lon="13.408468">
    <ele>36.8</ele>
    <time>2024-08-19T19:05:54.000Z</time>
   </trkpt>
   <trkpt lat="52.50419" lon="13.408724">
    <ele>37</ele>
    <time>2024-08-19T19:05:58.000Z</time>
   </trkpt>
   <trkpt lat="52.504163" lon="13.40885">
    <ele>37</ele>
    <time>2024-08-19T19:06:00.000Z</time>
   </trkpt>
   <trkpt lat="52.504066" lon="13.409268">
    <ele>37</ele>
    <time>2024-08-19T19:06:06.000Z</time>
   </trkpt>
   <trkpt lat="52.504028" lon="13.40941">
    <ele>37</ele>
    <time>2024-08-19T19:06:08.000Z</time>
   </trkpt>
   <trkpt lat="52.503902" lon="13.409695">
    <ele>36.8</ele>
    <time>2024-08-19T19:06:13.000Z</time>
   </trkpt>
   <trkpt lat="52.503882" lon="13.409729">
    <ele>36.8</ele>
    <time>2024-08-19T19:06:14.000Z</time>
   </trkpt>
   <trkpt lat="52.503843" lon="13.409817">
    <ele>36.8</ele>
    <time>2024-08-19T19:06:16.000Z</time>
   </trkpt>
   <trkpt lat="52.503722" lon="13.410123">
    <ele>36.6</ele>
    <time>2024-08-19T19:06:22.000Z</time>
   </trkpt>
   <trkpt lat="52.503619" lon="13.410173">
    <ele>36.4</ele>
    <time>2024-08-19T19:06:25.000Z</time>
   </trkpt>
   <trkpt lat="52.503537" lon="13.410226">
    <ele>36.6</ele>
    <time>2024-08-19T19:06:27.000Z</time>
   </trkpt>
   <trkpt lat="52.503448" lon="13.410311">
    <ele>36.6</ele>
    <time>2024-08-19T19:06:29.000Z</time>
   </trkpt>
   <trkpt lat="52.503381" lon="13.410423">
    <ele>36.4</ele>
    <time>2024-08-19T19:06:31.000Z</time>
   </trkpt>
   <trkpt lat="52.503349" lon="13.410565">
    <ele>36.6</ele>
    <time>2024-08-19T19:06:33.000Z</time>
   </trkpt>
   <trkpt lat="52.503353" lon="13.410639">
    <ele>36.6</ele>
    <time>2024-08-19T19:06:34.000Z</time>
   </trkpt>
   <trkpt lat="52.50337" lon="13.410716">
    <ele>36.6</ele>
    <time>2024-08-19T19:06:35.000Z</time>
   </trkpt>
   <trkpt lat="52.503432" lon="13.410967">
    <ele>36.6</ele>
    <time>2024-08-19T19:06:38.000Z</time>
   </trkpt>
   <trkpt lat="52.503435" lon="13.411057">
    <ele>36.6</ele>
    <time>2024-08-19T19:06:39.000Z</time>
   </trkpt>
   <trkpt lat="52.50341" lon="13.411225">
    <ele>36.8</ele>
    <time>2024-08-19T19:06:41.000Z</time>
   </trkpt>
   <trkpt lat="52.503367" lon="13.411423">
    <ele>37</ele>
    <time>2024-08-19T19:06:44.000Z</time>
   </trkpt>
   <trkpt lat="52.503345" lon="13.411538">
    <ele>37</ele>
    <time>2024-08-19T19:06:46.000Z</time>
   </trkpt>
   <trkpt lat="52.503309" lon="13.411659">
    <ele>37</ele>
    <time>2024-08-19T19:06:48.000Z</time>
   </trkpt>
   <trkpt lat="52.503294" lon="13.411734">
    <ele>37</ele>
    <time>2024-08-19T19:06:49.000Z</time>
   </trkpt>
   <trkpt lat="52.503235" lon="13.412002">
    <ele>37</ele>
    <time>2024-08-19T19:06:52.000Z</time>
   </trkpt>
   <trkpt lat="52.503154" lon="13.412272">
    <ele>37</ele>
    <time>2024-08-19T19:06:55.000Z</time>
   </trkpt>
   <trkpt lat="52.503097" lon="13.412459">
    <ele>36.8</ele>
    <time>2024-08-19T19:06:57.000Z</time>
   </trkpt>
   <trkpt lat="52.502984" lon="13.412657">
    <ele>36.8</ele>
    <time>2024-08-19T19:06:59.000Z</time>
   </trkpt>
   <trkpt lat="52.502956" lon="13.412999">
    <ele>36.8</ele>
    <time>2024-08-19T19:07:02.000Z</time>
   </trkpt>
   <trkpt lat="52.502934" lon="13.413095">
    <ele>36.8</ele>
    <time>2024-08-19T19:07:03.000Z</time>
   </trkpt>
   <trkpt lat="52.502835" lon="13.413497">
    <ele>36.8</ele>
    <time>2024-08-19T19:07:07.000Z</time>
   </trkpt>
   <trkpt lat="52.502675" lon="13.413959">
    <ele>36.8</ele>
    <time>2024-08-19T19:07:13.000Z</time>
   </trkpt>
   <trkpt lat="52.502491" lon="13.41458">
    <ele>37</ele>
    <time>2024-08-19T19:07:20.000Z</time>
   </trkpt>
   <trkpt lat="52.502399" lon="13.414841">
    <ele>36.8</ele>
    <time>2024-08-19T19:07:23.000Z</time>
   </trkpt>
   <trkpt lat="52.502321" lon="13.414975">
    <ele>36.8</ele>
    <time>2024-08-19T19:07:25.000Z</time>
   </trkpt>
   <trkpt lat="52.502255" lon="13.4151">
    <ele>36.8</ele>
    <time>2024-08-19T19:07:27.000Z</time>
   </trkpt>
   <trkpt lat="52.502165" lon="13.415331">
    <ele>37</ele>
    <time>2024-08-19T19:07:30.000Z</time>
   </trkpt>
   <trkpt lat="52.502041" lon="13.415924">
    <ele>37</ele>
    <time>2024-08-19T19:07:37.000Z</time>
   </trkpt>
   <trkpt lat="52.501981" lon="13.416299">
    <ele>37</ele>
    <time>2024-08-19T19:07:43.000Z</time>
   </trkpt>
   <trkpt lat="52.501963" lon="13.416447">
    <ele>37</ele>
    <time>2024-08-19T19:07:48.000Z</time>
   </trkpt>
   <trkpt lat="52.501958" lon="13.416502">
    <ele>37.2</ele>
    <time>2024-08-19T19:07:49.000Z</time>
   </trkpt>
   <trkpt lat="52.501901" lon="13.416728">
    <ele>37.2</ele>
    <time>2024-08-19T19:07:52.000Z</time>
   </trkpt>
   <trkpt lat="52.501799" lon="13.417059">
    <ele>37</ele>
    <time>2024-08-19T19:07:56.000Z</time>
   </trkpt>
   <trkpt lat="52.501775" lon="13.417151">
    <ele>37</ele>
    <time>2024-08-19T19:07:57.000Z</time>
   </trkpt>
   <trkpt lat="52.501688" lon="13.417443">
    <ele>36.8</ele>
    <time>2024-08-19T19:08:00.000Z</time>
   </trkpt>
   <trkpt lat="52.501671" lon="13.417542">
    <ele>36.8</ele>
    <time>2024-08-19T19:08:01.000Z</time>
   </trkpt>
   <trkpt lat="52.501521" lon="13.418155">
    <ele>36.6</ele>
    <time>2024-08-19T19:08:07.000Z</time>
   </trkpt>
   <trkpt lat="52.50135" lon="13.418768">
    <ele>36.4</ele>
    <time>2024-08-19T19:08:14.000Z</time>
   </trkpt>
   <trkpt lat="52.50129" lon="13.418994">
    <ele>36.4</ele>
    <time>2024-08-19T19:08:18.000Z</time>
   </trkpt>
   <trkpt lat="52.501285" lon="13.419058">
    <ele>36.4</ele>
    <time>2024-08-19T19:08:20.000Z</time>
   </trkpt>
   <trkpt lat="52.501266" lon="13.419083">
    <ele>36.6</ele>
    <time>2024-08-19T19:08:25.000Z</time>
   </trkpt>
   <trkpt lat="52.501241" lon="13.419121">
    <ele>36.6</ele>
    <time>2024-08-19T19:08:29.000Z</time>
   </trkpt>
   <trkpt lat="52.501229" lon="13.419164">
    <ele>36.4</ele>
    <time>2024-08-19T19:08:30.000Z</time>
   </trkpt>
   <trkpt lat="52.501184" lon="13.419314">
    <ele>36.4</ele>
    <time>2024-08-19T19:08:32.000Z</time>
   </trkpt>
   <trkpt lat="52.501166" lon="13.419388">
    <ele>36.4</ele>
    <time>2024-08-19T19:08:33.000Z</time>
   </trkpt>
   <trkpt lat="52.501148" lon="13.41946">
    <ele>36.4</ele>
    <time>2024-08-19T19:08:34.000Z</time>
   </trkpt>
   <trkpt lat="52.501078" lon="13.419696">
    <ele>36.4</ele>
    <time>2024-08-19T19:08:37.000Z</time>
   </trkpt>
   <trkpt lat="52.501055" lon="13.419783">
    <ele>36.4</ele>
    <time>2024-08-19T19:08:38.000Z</time>
   </trkpt>
   <trkpt lat="52.501024" lon="13.419868">
    <ele>36.4</ele>
    <time>2024-08-19T19:08:39.000Z</time>
   </trkpt>
   <trkpt lat="52.500968" lon="13.420145">
    <ele>36.4</ele>
    <time>2024-08-19T19:08:42.000Z</time>
   </trkpt>
   <trkpt lat="52.500802" lon="13.420814">
    <ele>36.2</ele>
    <time>2024-08-19T19:08:49.000Z</time>
   </trkpt>
   <trkpt lat="52.500766" lon="13.420917">
    <ele>36.2</ele>
    <time>2024-08-19T19:08:50.000Z</time>
   </trkpt>
   <trkpt lat="52.500697" lon="13.421232">
    <ele>36.2</ele>
    <time>2024-08-19T19:08:53.000Z</time>
   </trkpt>
   <trkpt lat="52.500647" lon="13.421406">
    <ele>36</ele>
    <time>2024-08-19T19:08:55.000Z</time>
   </trkpt>
   <trkpt lat="52.500585" lon="13.421679">
    <ele>36</ele>
    <time>2024-08-19T19:08:58.000Z</time>
   </trkpt>
   <trkpt lat="52.500536" lon="13.42186">
    <ele>36</ele>
    <time>2024-08-19T19:09:00.000Z</time>
   </trkpt>
   <trkpt lat="52.500445" lon="13.422184">
    <ele>36.2</ele>
    <time>2024-08-19T19:09:04.000Z</time>
   </trkpt>
   <trkpt lat="52.500416" lon="13.42225">
    <ele>36.2</ele>
    <time>2024-08-19T19:09:05.000Z</time>
   </trkpt>
   <trkpt lat="52.500398" lon="13.422318">
    <ele>36.2</ele>
    <time>2024-08-19T19:09:06.000Z</time>
   </trkpt>
   <trkpt lat="52.50036" lon="13.422447">
    <ele>36.2</ele>
    <time>2024-08-19T19:09:08.000Z</time>
   </trkpt>
   <trkpt lat="52.500316" lon="13.422563">
    <ele>36.4</ele>
    <time>2024-08-19T19:09:10.000Z</time>
   </trkpt>
   <trkpt lat="52.50023" lon="13.42275">
    <ele>36.6</ele>
    <time>2024-08-19T19:09:13.000Z</time>
   </trkpt>
   <trkpt lat="52.500192" lon="13.422916">
    <ele>36.6</ele>
    <time>2024-08-19T19:09:15.000Z</time>
   </trkpt>
   <trkpt lat="52.500099" lon="13.42344">
    <ele>36.4</ele>
    <time>2024-08-19T19:09:21.000Z</time>
   </trkpt>
   <trkpt lat="52.500046" lon="13.42371">
    <ele>36.6</ele>
    <time>2024-08-19T19:09:24.000Z</time>
   </trkpt>
   <trkpt lat="52.499991" lon="13.423883">
    <ele>36.6</ele>
    <time>2024-08-19T19:09:26.000Z</time>
   </trkpt>
   <trkpt lat="52.499821" lon="13.424426">
    <ele>36.4</ele>
    <time>2024-08-19T19:09:32.000Z</time>
   </trkpt>
   <trkpt lat="52.49972" lon="13.424794">
    <ele>36.4</ele>
    <time>2024-08-19T19:09:36.000Z</time>
   </trkpt>
   <trkpt lat="52.499659" lon="13.424984">
    <ele>36.4</ele>
    <time>2024-08-19T19:09:38.000Z</time>
   </trkpt>
   <trkpt lat="52.499597" lon="13.42517">
    <ele>36.6</ele>
    <time>2024-08-19T19:09:40.000Z</time>
   </trkpt>
   <trkpt lat="52.499551" lon="13.425352">
    <ele>36.6</ele>
    <time>2024-08-19T19:09:42.000Z</time>
   </trkpt>
   <trkpt lat="52.499439" lon="13.425797">
    <ele>36.6</ele>
    <time>2024-08-19T19:09:48.000Z</time>
   </trkpt>
   <trkpt lat="52.499368" lon="13.426052">
    <ele>36.6</ele>
    <time>2024-08-19T19:09:53.000Z</time>
   </trkpt>
   <trkpt lat="52.499363" lon="13.426064">
    <ele>36.6</ele>
    <time>2024-08-19T19:09:54.000Z</time>
   </trkpt>
   <trkpt lat="52.499355" lon="13.42609">
    <ele>36.6</ele>
    <time>2024-08-19T19:10:18.000Z</time>
   </trkpt>
   <trkpt lat="52.499338" lon="13.426154">
    <ele>36.6</ele>
    <time>2024-08-19T19:10:20.000Z</time>
   </trkpt>
   <trkpt lat="52.499323" lon="13.426204">
    <ele>36.6</ele>
    <time>2024-08-19T19:10:21.000Z</time>
   </trkpt>
   <trkpt lat="52.499247" lon="13.426369">
    <ele>36.6</ele>
    <time>2024-08-19T19:10:24.000Z</time>
   </trkpt>
   <trkpt lat="52.499225" lon="13.426428">
    <ele>36.6</ele>
    <time>2024-08-19T19:10:25.000Z</time>
   </trkpt>
   <trkpt lat="52.49922" lon="13.426511">
    <ele>36.8</ele>
    <time>2024-08-19T19:10:27.000Z</time>
   </trkpt>
   <trkpt lat="52.499205" lon="13.426617">
    <ele>36.8</ele>
    <time>2024-08-19T19:10:29.000Z</time>
   </trkpt>
   <trkpt lat="52.499175" lon="13.426767">
    <ele>36.8</ele>
    <time>2024-08-19T19:10:31.000Z</time>
   </trkpt>
   <trkpt lat="52.499069" lon="13.427059">
    <ele>36.8</ele>
    <time>2024-08-19T19:10:34.000Z</time>
   </trkpt>
   <trkpt lat="52.498838" lon="13.42766">
    <ele>36.8</ele>
    <time>2024-08-19T19:10:40.000Z</time>
   </trkpt>
   <trkpt lat="52.498558" lon="13.428482">
    <ele>36.8</ele>
    <time>2024-08-19T19:10:48.000Z</time>
   </trkpt>
   <trkpt lat="52.498253" lon="13.429309">
    <ele>36.8</ele>
    <time>2024-08-19T19:10:56.000Z</time>
   </trkpt>
   <trkpt lat="52.497987" lon="13.430111">
    <ele>36.6</ele>
    <time>2024-08-19T19:11:04.000Z</time>
   </trkpt>
   <trkpt lat="52.497955" lon="13.430204">
    <ele>36.6</ele>
    <time>2024-08-19T19:11:05.000Z</time>
   </trkpt>
   <trkpt lat="52.497924" lon="13.430302">
    <ele>36.6</ele>
    <time>2024-08-19T19:11:06.000Z</time>
   </trkpt>
   <trkpt lat="52.497731" lon="13.430899">
    <ele>36.8</ele>
    <time>2024-08-19T19:11:12.000Z</time>
   </trkpt>
   <trkpt lat="52.4977" lon="13.430994">
    <ele>36.8</ele>
    <time>2024-08-19T19:11:13.000Z</time>
   </trkpt>
   <trkpt lat="52.497575" lon="13.431357">
    <ele>36.8</ele>
    <time>2024-08-19T19:11:17.000Z</time>
   </trkpt>
   <trkpt lat="52.497493" lon="13.431566">
    <ele>36.8</ele>
    <time>2024-08-19T19:11:20.000Z</time>
   </trkpt>
   <trkpt lat="52.497464" lon="13.431632">
    <ele>36.8</ele>
    <time>2024-08-19T19:11:21.000Z</time>
   </trkpt>
   <trkpt lat="52.497422" lon="13.431758">
    <ele>37</ele>
    <time>2024-08-19T19:11:23.000Z</time>
   </trkpt>
   <trkpt lat="52.497403" lon="13.431808">
    <ele>37</ele>
    <time>2024-08-19T19:11:24.000Z</time>
   </trkpt>
   <trkpt lat="52.497361" lon="13.431935">
    <ele>37</ele>
    <time>2024-08-19T19:11:26.000Z</time>
   </trkpt>
   <trkpt lat="52.497223" lon="13.432368">
    <ele>37</ele>
    <time>2024-08-19T19:11:31.000Z</time>
   </trkpt>
   <trkpt lat="52.497031" lon="13.432921">
    <ele>37</ele>
    <time>2024-08-19T19:11:37.000Z</time>
   </trkpt>
   <trkpt lat="52.496955" lon="13.433126">
    <ele>37</ele>
    <time>2024-08-19T19:11:39.000Z</time>
   </trkpt>
   <trkpt lat="52.496883" lon="13.433339">
    <ele>37</ele>
    <time>2024-08-19T19:11:41.000Z</time>
   </trkpt>
   <trkpt lat="52.496751" lon="13.433767">
    <ele>36.8</ele>
    <time>2024-08-19T19:11:45.000Z</time>
   </trkpt>
   <trkpt lat="52.49669" lon="13.433958">
    <ele>36.8</ele>
    <time>2024-08-19T19:11:47.000Z</time>
   </trkpt>
   <trkpt lat="52.496405" lon="13.434741">
    <ele>36.8</ele>
    <time>2024-08-19T19:11:55.000Z</time>
   </trkpt>
   <trkpt lat="52.496298" lon="13.435046">
    <ele>36.8</ele>
    <time>2024-08-19T19:11:58.000Z</time>
   </trkpt>
   <trkpt lat="52.496019" lon="13.435856">
    <ele>36.8</ele>
    <time>2024-08-19T19:12:06.000Z</time>
   </trkpt>
   <trkpt lat="52.495813" lon="13.436434">
    <ele>36.8</ele>
    <time>2024-08-19T19:12:12.000Z</time>
   </trkpt>
   <trkpt lat="52.495572" lon="13.437176">
    <ele>37</ele>
    <time>2024-08-19T19:12:20.000Z</time>
   </trkpt>
   <trkpt lat="52.49549" lon="13.437441">
    <ele>37</ele>
    <time>2024-08-19T19:12:23.000Z</time>
   </trkpt>
   <trkpt lat="52.495426" lon="13.437619">
    <ele>37</ele>
    <time>2024-08-19T19:12:26.000Z</time>
   </trkpt>
   <trkpt lat="52.495373" lon="13.437789">
    <ele>37.2</ele>
    <time>2024-08-19T19:12:31.000Z</time>
   </trkpt>
   <trkpt lat="52.495274" lon="13.438087">
    <ele>37.4</ele>
    <time>2024-08-19T19:12:36.000Z</time>
   </trkpt>
   <trkpt lat="52.495164" lon="13.438419">
    <ele>37.4</ele>
    <time>2024-08-19T19:12:41.000Z</time>
   </trkpt>
   <trkpt lat="52.495146" lon="13.438487">
    <ele>37.4</ele>
    <time>2024-08-19T19:12:42.000Z</time>
   </trkpt>
   <trkpt lat="52.494988" lon="13.438995">
    <ele>37.4</ele>
    <time>2024-08-19T19:12:49.000Z</time>
   </trkpt>
   <trkpt lat="52.494795" lon="13.439509">
    <ele>37.6</ele>
    <time>2024-08-19T19:12:57.000Z</time>
   </trkpt>
   <trkpt lat="52.494597" lon="13.439994">
    <ele>37.4</ele>
    <time>2024-08-19T19:13:03.000Z</time>
   </trkpt>
   <trkpt lat="52.494404" lon="13.440589">
    <ele>37.2</ele>
    <time>2024-08-19T19:13:10.000Z</time>
   </trkpt>
   <trkpt lat="52.494221" lon="13.441183">
    <ele>37.2</ele>
    <time>2024-08-19T19:13:17.000Z</time>
   </trkpt>
   <trkpt lat="52.494098" lon="13.441585">
    <ele>37</ele>
    <time>2024-08-19T19:13:22.000Z</time>
   </trkpt>
   <trkpt lat="52.493889" lon="13.442242">
    <ele>36.8</ele>
    <time>2024-08-19T19:13:30.000Z</time>
   </trkpt>
   <trkpt lat="52.493811" lon="13.442534">
    <ele>36.8</ele>
    <time>2024-08-19T19:13:34.000Z</time>
   </trkpt>
   <trkpt lat="52.493762" lon="13.4428">
    <ele>36.8</ele>
    <time>2024-08-19T19:13:37.000Z</time>
   </trkpt>
   <trkpt lat="52.493764" lon="13.4429">
    <ele>36.8</ele>
    <time>2024-08-19T19:13:38.000Z</time>
   </trkpt>
   <trkpt lat="52.493778" lon="13.443009">
    <ele>36.6</ele>
    <time>2024-08-19T19:13:39.000Z</time>
   </trkpt>
   <trkpt lat="52.493839" lon="13.443208">
    <ele>36.4</ele>
    <time>2024-08-19T19:13:41.000Z</time>
   </trkpt>
   <trkpt lat="52.493933" lon="13.443362">
    <ele>36.4</ele>
    <time>2024-08-19T19:13:43.000Z</time>
   </trkpt>
   <trkpt lat="52.494041" lon="13.443495">
    <ele>36.4</ele>
    <time>2024-08-19T19:13:45.000Z</time>
   </trkpt>
   <trkpt lat="52.494239" lon="13.443798">
    <ele>36.2</ele>
    <time>2024-08-19T19:13:49.000Z</time>
   </trkpt>
   <trkpt lat="52.494332" lon="13.443967">
    <ele>36</ele>
    <time>2024-08-19T19:13:51.000Z</time>
   </trkpt>
   <trkpt lat="52.494436" lon="13.444124">
    <ele>35.8</ele>
    <time>2024-08-19T19:13:53.000Z</time>
   </trkpt>
   <trkpt lat="52.494718" lon="13.444532">
    <ele>35.4</ele>
    <time>2024-08-19T19:13:59.000Z</time>
   </trkpt>
   <trkpt lat="52.494983" lon="13.444874">
    <ele>35.6</ele>
    <time>2024-08-19T19:14:05.000Z</time>
   </trkpt>
   <trkpt lat="52.495194" lon="13.445114">
    <ele>36.2</ele>
    <time>2024-08-19T19:14:11.000Z</time>
   </trkpt>
   <trkpt lat="52.495435" lon="13.44541">
    <ele>36.4</ele>
    <time>2024-08-19T19:14:17.000Z</time>
   </trkpt>
   <trkpt lat="52.495736" lon="13.445822">
    <ele>36.2</ele>
    <time>2024-08-19T19:14:26.000Z</time>
   </trkpt>
   <trkpt lat="52.495853" lon="13.446102">
    <ele>36.4</ele>
    <time>2024-08-19T19:14:32.000Z</time>
   </trkpt>
   <trkpt lat="52.495865" lon="13.446158">
    <ele>36.4</ele>
    <time>2024-08-19T19:14:33.000Z</time>
   </trkpt>
   <trkpt lat="52.495887" lon="13.446207">
    <ele>36.4</ele>
    <time>2024-08-19T19:14:34.000Z</time>
   </trkpt>
   <trkpt lat="52.495917" lon="13.446254">
    <ele>36.4</ele>
    <time>2024-08-19T19:14:35.000Z</time>
   </trkpt>
   <trkpt lat="52.495946" lon="13.446289">
    <ele>36.4</ele>
    <time>2024-08-19T19:14:36.000Z</time>
   </trkpt>
   <trkpt lat="52.495988" lon="13.446325">
    <ele>36.4</ele>
    <time>2024-08-19T19:14:37.000Z</time>
   </trkpt>
   <trkpt lat="52.496072" lon="13.446419">
    <ele>36.6</ele>
    <time>2024-08-19T19:14:39.000Z</time>
   </trkpt>
   <trkpt lat="52.496114" lon="13.446471">
    <ele>36.6</ele>
    <time>2024-08-19T19:14:40.000Z</time>
   </trkpt>
   <trkpt lat="52.49637" lon="13.4468">
    <ele>36.6</ele>
    <time>2024-08-19T19:14:46.000Z</time>
   </trkpt>
   <trkpt lat="52.49669" lon="13.447215">
    <ele>36.8</ele>
    <time>2024-08-19T19:14:54.000Z</time>
   </trkpt>
   <trkpt lat="52.49674" lon="13.447274">
    <ele>36.8</ele>
    <time>2024-08-19T19:14:55.000Z</time>
   </trkpt>
   <trkpt lat="52.49678" lon="13.447323">
    <ele>36.8</ele>
    <time>2024-08-19T19:14:56.000Z</time>
   </trkpt>
   <trkpt lat="52.497012" lon="13.447639">
    <ele>37.2</ele>
    <time>2024-08-19T19:15:02.000Z</time>
   </trkpt>
   <trkpt lat="52.497228" lon="13.447946">
    <ele>37.4</ele>
    <time>2024-08-19T19:15:08.000Z</time>
   </trkpt>
   <trkpt lat="52.497381" lon="13.448141">
    <ele>37.6</ele>
    <time>2024-08-19T19:15:13.000Z</time>
   </trkpt>
   <trkpt lat="52.497475" lon="13.448308">
    <ele>37.6</ele>
    <time>2024-08-19T19:15:18.000Z</time>
   </trkpt>
   <trkpt lat="52.497466" lon="13.448382">
    <ele>37.6</ele>
    <time>2024-08-19T19:15:20.000Z</time>
   </trkpt>
   <trkpt lat="52.497421" lon="13.448462">
    <ele>37.6</ele>
    <time>2024-08-19T19:15:22.000Z</time>
   </trkpt>
   <trkpt lat="52.49736" lon="13.448564">
    <ele>37.8</ele>
    <time>2024-08-19T19:15:24.000Z</time>
   </trkpt>
   <trkpt lat="52.497239" lon="13.448778">
    <ele>38</ele>
    <time>2024-08-19T19:15:28.000Z</time>
   </trkpt>
   <trkpt lat="52.497041" lon="13.449113">
    <ele>37.8</ele>
    <time>2024-08-19T19:15:33.000Z</time>
   </trkpt>
   <trkpt lat="52.496792" lon="13.449518">
    <ele>37</ele>
    <time>2024-08-19T19:15:39.000Z</time>
   </trkpt>
   <trkpt lat="52.496729" lon="13.449682">
    <ele>36.8</ele>
    <time>2024-08-19T19:15:41.000Z</time>
   </trkpt>
   <trkpt lat="52.496695" lon="13.449757">
    <ele>36.8</ele>
    <time>2024-08-19T19:15:42.000Z</time>
   </trkpt>
   <trkpt lat="52.496348" lon="13.450345">
    <ele>36.8</ele>
    <time>2024-08-19T19:15:50.000Z</time>
   </trkpt>
   <trkpt lat="52.496015" lon="13.450938">
    <ele>36.4</ele>
    <time>2024-08-19T19:15:57.000Z</time>
   </trkpt>
   <trkpt lat="52.495613" lon="13.451599">
    <ele>36.2</ele>
    <time>2024-08-19T19:16:05.000Z</time>
   </trkpt>
   <trkpt lat="52.495425" lon="13.451912">
    <ele>36.2</ele>
    <time>2024-08-19T19:16:09.000Z</time>
   </trkpt>
   <trkpt lat="52.4952" lon="13.452268">
    <ele>36.2</ele>
    <time>2024-08-19T19:16:14.000Z</time>
   </trkpt>
   <trkpt lat="52.494771" lon="13.452929">
    <ele>36</ele>
    <time>2024-08-19T19:16:23.000Z</time>
   </trkpt>
   <trkpt lat="52.494714" lon="13.453014">
    <ele>36</ele>
    <time>2024-08-19T19:16:24.000Z</time>
   </trkpt>
   <trkpt lat="52.494529" lon="13.453258">
    <ele>36</ele>
    <time>2024-08-19T19:16:28.000Z</time>
   </trkpt>
   <trkpt lat="52.49449" lon="13.453327">
    <ele>36</ele>
    <time>2024-08-19T19:16:29.000Z</time>
   </trkpt>
   <trkpt lat="52.494208" lon="13.453784">
    <ele>36.2</ele>
    <time>2024-08-19T19:16:35.000Z</time>
   </trkpt>
   <trkpt lat="52.49389" lon="13.454255">
    <ele>36.2</ele>
    <time>2024-08-19T19:16:41.000Z</time>
   </trkpt>
   <trkpt lat="52.493614" lon="13.454693">
    <ele>36</ele>
    <time>2024-08-19T19:16:47.000Z</time>
   </trkpt>
   <trkpt lat="52.493242" lon="13.455263">
    <ele>36.2</ele>
    <time>2024-08-19T19:16:55.000Z</time>
   </trkpt>
   <trkpt lat="52.493009" lon="13.455612">
    <ele>36.4</ele>
    <time>2024-08-19T19:17:00.000Z</time>
   </trkpt>
   <trkpt lat="52.492866" lon="13.455794">
    <ele>36</ele>
    <time>2024-08-19T19:17:03.000Z</time>
   </trkpt>
   <trkpt lat="52.49277" lon="13.45593">
    <ele>36.2</ele>
    <time>2024-08-19T19:17:05.000Z</time>
   </trkpt>
   <trkpt lat="52.492481" lon="13.456353">
    <ele>36</ele>
    <time>2024-08-19T19:17:12.000Z</time>
   </trkpt>
   <trkpt lat="52.492444" lon="13.456404">
    <ele>36</ele>
    <time>2024-08-19T19:17:13.000Z</time>
   </trkpt>
   <trkpt lat="52.49237" lon="13.456517">
    <ele>36</ele>
    <time>2024-08-19T19:17:15.000Z</time>
   </trkpt>
   <trkpt lat="52.49225" lon="13.456674">
    <ele>36</ele>
    <time>2024-08-19T19:17:17.000Z</time>
   </trkpt>
   <trkpt lat="52.492036" lon="13.457006">
    <ele>36.2</ele>
    <time>2024-08-19T19:17:21.000Z</time>
   </trkpt>
   <trkpt lat="52.49199" lon="13.457089">
    <ele>36.2</ele>
    <time>2024-08-19T19:17:22.000Z</time>
   </trkpt>
   <trkpt lat="52.491839" lon="13.457376">
    <ele>36.2</ele>
    <time>2024-08-19T19:17:26.000Z</time>
   </trkpt>
   <trkpt lat="52.491569" lon="13.457748">
    <ele>36.4</ele>
    <time>2024-08-19T19:17:32.000Z</time>
   </trkpt>
   <trkpt lat="52.491517" lon="13.457822">
    <ele>36.4</ele>
    <time>2024-08-19T19:17:33.000Z</time>
   </trkpt>
   <trkpt lat="52.491353" lon="13.458058">
    <ele>36.4</ele>
    <time>2024-08-19T19:17:37.000Z</time>
   </trkpt>
   <trkpt lat="52.491257" lon="13.458167">
    <ele>36.4</ele>
    <time>2024-08-19T19:17:39.000Z</time>
   </trkpt>
   <trkpt lat="52.491069" lon="13.458447">
    <ele>36.2</ele>
    <time>2024-08-19T19:17:43.000Z</time>
   </trkpt>
   <trkpt lat="52.490741" lon="13.458936">
    <ele>35.8</ele>
    <time>2024-08-19T19:17:50.000Z</time>
   </trkpt>
   <trkpt lat="52.490637" lon="13.459081">
    <ele>35.8</ele>
    <time>2024-08-19T19:17:52.000Z</time>
   </trkpt>
   <trkpt lat="52.490556" lon="13.459221">
    <ele>35.8</ele>
    <time>2024-08-19T19:17:54.000Z</time>
   </trkpt>
   <trkpt lat="52.490511" lon="13.459279">
    <ele>35.6</ele>
    <time>2024-08-19T19:17:55.000Z</time>
   </trkpt>
   <trkpt lat="52.490468" lon="13.459329">
    <ele>35.6</ele>
    <time>2024-08-19T19:17:56.000Z</time>
   </trkpt>
   <trkpt lat="52.490336" lon="13.45953">
    <ele>35.4</ele>
    <time>2024-08-19T19:17:59.000Z</time>
   </trkpt>
   <trkpt lat="52.490256" lon="13.459658">
    <ele>35.4</ele>
    <time>2024-08-19T19:18:01.000Z</time>
   </trkpt>
   <trkpt lat="52.490173" lon="13.459797">
    <ele>35.4</ele>
    <time>2024-08-19T19:18:03.000Z</time>
   </trkpt>
   <trkpt lat="52.489942" lon="13.46014">
    <ele>35.4</ele>
    <time>2024-08-19T19:18:08.000Z</time>
   </trkpt>
   <trkpt lat="52.489696" lon="13.460511">
    <ele>35.2</ele>
    <time>2024-08-19T19:18:13.000Z</time>
   </trkpt>
   <trkpt lat="52.489342" lon="13.46102">
    <ele>35.4</ele>
    <time>2024-08-19T19:18:19.000Z</time>
   </trkpt>
   <trkpt lat="52.48891" lon="13.461663">
    <ele>35.2</ele>
    <time>2024-08-19T19:18:26.000Z</time>
   </trkpt>
   <trkpt lat="52.48879" lon="13.461846">
    <ele>35.2</ele>
    <time>2024-08-19T19:18:28.000Z</time>
   </trkpt>
   <trkpt lat="52.48837" lon="13.462503">
    <ele>35</ele>
    <time>2024-08-19T19:18:35.000Z</time>
   </trkpt>
   <trkpt lat="52.488084" lon="13.462918">
    <ele>35</ele>
    <time>2024-08-19T19:18:40.000Z</time>
   </trkpt>
   <trkpt lat="52.48765" lon="13.463554">
    <ele>35</ele>
    <time>2024-08-19T19:18:47.000Z</time>
   </trkpt>
   <trkpt lat="52.48759" lon="13.463646">
    <ele>35</ele>
    <time>2024-08-19T19:18:48.000Z</time>
   </trkpt>
   <trkpt lat="52.487161" lon="13.464289">
    <ele>35.2</ele>
    <time>2024-08-19T19:18:56.000Z</time>
   </trkpt>
   <trkpt lat="52.486893" lon="13.464675">
    <ele>35.2</ele>
    <time>2024-08-19T19:19:01.000Z</time>
   </trkpt>
   <trkpt lat="52.486486" lon="13.465297">
    <ele>35.2</ele>
    <time>2024-08-19T19:19:09.000Z</time>
   </trkpt>
   <trkpt lat="52.48637" lon="13.465468">
    <ele>35.2</ele>
    <time>2024-08-19T19:19:11.000Z</time>
   </trkpt>
   <trkpt lat="52.486078" lon="13.465885">
    <ele>35.2</ele>
    <time>2024-08-19T19:19:17.000Z</time>
   </trkpt>
   <trkpt lat="52.48596" lon="13.466046">
    <ele>35.2</ele>
    <time>2024-08-19T19:19:19.000Z</time>
   </trkpt>
   <trkpt lat="52.485647" lon="13.466488">
    <ele>35.4</ele>
    <time>2024-08-19T19:19:25.000Z</time>
   </trkpt>
   <trkpt lat="52.485314" lon="13.46702">
    <ele>35.6</ele>
    <time>2024-08-19T19:19:32.000Z</time>
   </trkpt>
   <trkpt lat="52.484874" lon="13.467689">
    <ele>35.4</ele>
    <time>2024-08-19T19:19:41.000Z</time>
   </trkpt>
   <trkpt lat="52.484438" lon="13.468325">
    <ele>35.6</ele>
    <time>2024-08-19T19:19:50.000Z</time>
   </trkpt>
   <trkpt lat="52.484047" lon="13.468922">
    <ele>35.6</ele>
    <time>2024-08-19T19:19:58.000Z</time>
   </trkpt>
   <trkpt lat="52.483703" lon="13.469408">
    <ele>35.6</ele>
    <time>2024-08-19T19:20:05.000Z</time>
   </trkpt>
   <trkpt lat="52.483315" lon="13.469992">
    <ele>35.8</ele>
    <time>2024-08-19T19:20:13.000Z</time>
   </trkpt>
   <trkpt lat="52.482956" lon="13.470509">
    <ele>35.8</ele>
    <time>2024-08-19T19:20:21.000Z</time>
   </trkpt>
   <trkpt lat="52.482656" lon="13.470937">
    <ele>35.8</ele>
    <time>2024-08-19T19:20:27.000Z</time>
   </trkpt>
   <trkpt lat="52.482604" lon="13.471009">
    <ele>35.8</ele>
    <time>2024-08-19T19:20:28.000Z</time>
   </trkpt>
   <trkpt lat="52.482504" lon="13.471152">
    <ele>35.8</ele>
    <time>2024-08-19T19:20:30.000Z</time>
   </trkpt>
   <trkpt lat="52.48235" lon="13.471378">
    <ele>35.8</ele>
    <time>2024-08-19T19:20:33.000Z</time>
   </trkpt>
   <trkpt lat="52.482016" lon="13.471884">
    <ele>36</ele>
    <time>2024-08-19T19:20:40.000Z</time>
   </trkpt>
   <trkpt lat="52.481601" lon="13.472526">
    <ele>36.2</ele>
    <time>2024-08-19T19:20:49.000Z</time>
   </trkpt>
   <trkpt lat="52.481565" lon="13.472581">
    <ele>36.2</ele>
    <time>2024-08-19T19:20:50.000Z</time>
   </trkpt>
   <trkpt lat="52.481414" lon="13.472803">
    <ele>36</ele>
    <time>2024-08-19T19:20:53.000Z</time>
   </trkpt>
   <trkpt lat="52.481176" lon="13.473176">
    <ele>36</ele>
    <time>2024-08-19T19:20:58.000Z</time>
   </trkpt>
   <trkpt lat="52.480891" lon="13.473595">
    <ele>36</ele>
    <time>2024-08-19T19:21:04.000Z</time>
   </trkpt>
   <trkpt lat="52.480487" lon="13.474211">
    <ele>36.2</ele>
    <time>2024-08-19T19:21:13.000Z</time>
   </trkpt>
   <trkpt lat="52.480159" lon="13.474694">
    <ele>36.4</ele>
    <time>2024-08-19T19:21:20.000Z</time>
   </trkpt>
   <trkpt lat="52.479875" lon="13.475104">
    <ele>36.2</ele>
    <time>2024-08-19T19:21:26.000Z</time>
   </trkpt>
   <trkpt lat="52.479609" lon="13.475507">
    <ele>36.2</ele>
    <time>2024-08-19T19:21:32.000Z</time>
   </trkpt>
   <trkpt lat="52.47938" lon="13.47584">
    <ele>36.2</ele>
    <time>2024-08-19T19:21:37.000Z</time>
   </trkpt>
   <trkpt lat="52.479028" lon="13.476359">
    <ele>36.2</ele>
    <time>2024-08-19T19:21:44.000Z</time>
   </trkpt>
   <trkpt lat="52.47866" lon="13.476904">
    <ele>36.4</ele>
    <time>2024-08-19T19:21:51.000Z</time>
   </trkpt>
   <trkpt lat="52.478381" lon="13.477311">
    <ele>36.4</ele>
    <time>2024-08-19T19:21:57.000Z</time>
   </trkpt>
   <trkpt lat="52.478162" lon="13.477633">
    <ele>36.4</ele>
    <time>2024-08-19T19:22:02.000Z</time>
   </trkpt>
   <trkpt lat="52.477814" lon="13.478155">
    <ele>36.4</ele>
    <time>2024-08-19T19:22:10.000Z</time>
   </trkpt>
   <trkpt lat="52.477667" lon="13.478374">
    <ele>36.4</ele>
    <time>2024-08-19T19:22:14.000Z</time>
   </trkpt>
   <trkpt lat="52.477597" lon="13.478426">
    <ele>36.4</ele>
    <time>2024-08-19T19:22:16.000Z</time>
   </trkpt>
   <trkpt lat="52.477497" lon="13.478402">
    <ele>36.4</ele>
    <time>2024-08-19T19:22:18.000Z</time>
   </trkpt>
   <trkpt lat="52.477467" lon="13.478366">
    <ele>36.4</ele>
    <time>2024-08-19T19:22:19.000Z</time>
   </trkpt>
   <trkpt lat="52.477421" lon="13.478298">
    <ele>36.4</ele>
    <time>2024-08-19T19:22:20.000Z</time>
   </trkpt>
   <trkpt lat="52.477264" lon="13.478021">
    <ele>36.2</ele>
    <time>2024-08-19T19:22:24.000Z</time>
   </trkpt>
   <trkpt lat="52.476995" lon="13.477499">
    <ele>36</ele>
    <time>2024-08-19T19:22:31.000Z</time>
   </trkpt>
   <trkpt lat="52.47662" lon="13.476801">
    <ele>35.8</ele>
    <time>2024-08-19T19:22:39.000Z</time>
   </trkpt>
   <trkpt lat="52.476573" lon="13.476719">
    <ele>35.8</ele>
    <time>2024-08-19T19:22:40.000Z</time>
   </trkpt>
   <trkpt lat="52.476433" lon="13.476464">
    <ele>35.4</ele>
    <time>2024-08-19T19:22:43.000Z</time>
   </trkpt>
   <trkpt lat="52.476314" lon="13.476248">
    <ele>35</ele>
    <time>2024-08-19T19:22:46.000Z</time>
   </trkpt>
   <trkpt lat="52.476207" lon="13.476073">
    <ele>35</ele>
    <time>2024-08-19T19:22:49.000Z</time>
   </trkpt>
   <trkpt lat="52.476173" lon="13.476004">
    <ele>34.8</ele>
    <time>2024-08-19T19:22:50.000Z</time>
   </trkpt>
   <trkpt lat="52.476135" lon="13.475943">
    <ele>34.8</ele>
    <time>2024-08-19T19:22:51.000Z</time>
   </trkpt>
   <trkpt lat="52.476061" lon="13.47585">
    <ele>34.8</ele>
    <time>2024-08-19T19:22:53.000Z</time>
   </trkpt>
   <trkpt lat="52.47601" lon="13.475818">
    <ele>34.8</ele>
    <time>2024-08-19T19:22:54.000Z</time>
   </trkpt>
   <trkpt lat="52.475967" lon="13.475809">
    <ele>35</ele>
    <time>2024-08-19T19:22:55.000Z</time>
   </trkpt>
   <trkpt lat="52.475884" lon="13.475866">
    <ele>35</ele>
    <time>2024-08-19T19:22:57.000Z</time>
   </trkpt>
   <trkpt lat="52.475624" lon="13.476117">
    <ele>35</ele>
    <time>2024-08-19T19:23:03.000Z</time>
   </trkpt>
   <trkpt lat="52.475545" lon="13.4762">
    <ele>35.2</ele>
    <time>2024-08-19T19:23:05.000Z</time>
   </trkpt>
   <trkpt lat="52.475437" lon="13.47633">
    <ele>35.2</ele>
    <time>2024-08-19T19:23:08.000Z</time>
   </trkpt>
   <trkpt lat="52.475379" lon="13.476399">
    <ele>35</ele>
    <time>2024-08-19T19:23:10.000Z</time>
   </trkpt>
  </trkseg>
 </trk>
</gpx>
