<?xml version="1.0" encoding="UTF-8"?>
<gpx creator="StravaGPX" version="1.1" xmlns="http://www.topografix.com/GPX/1/1">
 <metadata>
  <time>2024-07-22T16:13:53Z</time>
 </metadata>
 <trk>
  <name>Pre-Training</name>
  <type>1</type>
  <trkseg>
   <trkpt lat="52.475767" lon="13.476071">
    <ele>77.8</ele>
    <time>2024-07-22T16:13:53.000Z</time>
   </trkpt>
   <trkpt lat="52.475767" lon="13.476071">
    <ele>36</ele>
    <time>2024-07-22T16:14:00.000Z</time>
   </trkpt>
   <trkpt lat="52.475767" lon="13.476071">
    <ele>36.2</ele>
    <time>2024-07-22T16:14:03.000Z</time>
   </trkpt>
   <trkpt lat="52.475775" lon="13.476055">
    <ele>36.4</ele>
    <time>2024-07-22T16:14:04.000Z</time>
   </trkpt>
   <trkpt lat="52.475885" lon="13.476042">
    <ele>36.4</ele>
    <time>2024-07-22T16:14:06.000Z</time>
   </trkpt>
   <trkpt lat="52.475903" lon="13.476029">
    <ele>36.2</ele>
    <time>2024-07-22T16:14:07.000Z</time>
   </trkpt>
   <trkpt lat="52.475922" lon="13.475945">
    <ele>36.4</ele>
    <time>2024-07-22T16:14:09.000Z</time>
   </trkpt>
   <trkpt lat="52.475873" lon="13.475912">
    <ele>36.6</ele>
    <time>2024-07-22T16:14:10.000Z</time>
   </trkpt>
   <trkpt lat="52.475835" lon="13.475799">
    <ele>36.6</ele>
    <time>2024-07-22T16:14:13.000Z</time>
   </trkpt>
   <trkpt lat="52.475845" lon="13.475766">
    <ele>36.8</ele>
    <time>2024-07-22T16:14:14.000Z</time>
   </trkpt>
   <trkpt lat="52.475881" lon="13.475754">
    <ele>36.8</ele>
    <time>2024-07-22T16:14:17.000Z</time>
   </trkpt>
   <trkpt lat="52.475955" lon="13.475899">
    <ele>36.8</ele>
    <time>2024-07-22T16:14:21.000Z</time>
   </trkpt>
   <trkpt lat="52.476049" lon="13.476055">
    <ele>36.8</ele>
    <time>2024-07-22T16:14:26.000Z</time>
   </trkpt>
   <trkpt lat="52.476106" lon="13.476183">
    <ele>36.8</ele>
    <time>2024-07-22T16:14:29.000Z</time>
   </trkpt>
   <trkpt lat="52.47616" lon="13.476293">
    <ele>36.6</ele>
    <time>2024-07-22T16:14:31.000Z</time>
   </trkpt>
   <trkpt lat="52.476182" lon="13.476357">
    <ele>36.6</ele>
    <time>2024-07-22T16:14:32.000Z</time>
   </trkpt>
   <trkpt lat="52.476206" lon="13.476423">
    <ele>36.6</ele>
    <time>2024-07-22T16:14:33.000Z</time>
   </trkpt>
   <trkpt lat="52.476234" lon="13.476546">
    <ele>36.6</ele>
    <time>2024-07-22T16:14:35.000Z</time>
   </trkpt>
   <trkpt lat="52.476354" lon="13.47659">
    <ele>36.6</ele>
    <time>2024-07-22T16:14:36.000Z</time>
   </trkpt>
   <trkpt lat="52.476411" lon="13.476683">
    <ele>36.6</ele>
    <time>2024-07-22T16:14:38.000Z</time>
   </trkpt>
   <trkpt lat="52.476456" lon="13.47678">
    <ele>36.8</ele>
    <time>2024-07-22T16:14:40.000Z</time>
   </trkpt>
   <trkpt lat="52.476735" lon="13.477265">
    <ele>36.6</ele>
    <time>2024-07-22T16:14:48.000Z</time>
   </trkpt>
   <trkpt lat="52.476772" lon="13.477365">
    <ele>36.6</ele>
    <time>2024-07-22T16:14:50.000Z</time>
   </trkpt>
   <trkpt lat="52.476824" lon="13.477458">
    <ele>36.6</ele>
    <time>2024-07-22T16:14:52.000Z</time>
   </trkpt>
   <trkpt lat="52.476952" lon="13.477708">
    <ele>36.6</ele>
    <time>2024-07-22T16:14:58.000Z</time>
   </trkpt>
   <trkpt lat="52.477131" lon="13.478045">
    <ele>36.8</ele>
    <time>2024-07-22T16:15:08.000Z</time>
   </trkpt>
   <trkpt lat="52.477191" lon="13.47816">
    <ele>37.2</ele>
    <time>2024-07-22T16:15:11.000Z</time>
   </trkpt>
   <trkpt lat="52.47733" lon="13.478401">
    <ele>37.4</ele>
    <time>2024-07-22T16:15:17.000Z</time>
   </trkpt>
   <trkpt lat="52.477439" lon="13.478579">
    <ele>37.6</ele>
    <time>2024-07-22T16:15:23.000Z</time>
   </trkpt>
   <trkpt lat="52.47745" lon="13.478595">
    <ele>37.4</ele>
    <time>2024-07-22T16:15:51.000Z</time>
   </trkpt>
   <trkpt lat="52.477542" lon="13.478753">
    <ele>37.4</ele>
    <time>2024-07-22T16:15:55.000Z</time>
   </trkpt>
   <trkpt lat="52.477738" lon="13.478998">
    <ele>37.2</ele>
    <time>2024-07-22T16:16:01.000Z</time>
   </trkpt>
   <trkpt lat="52.47789" lon="13.479276">
    <ele>37.4</ele>
    <time>2024-07-22T16:16:07.000Z</time>
   </trkpt>
   <trkpt lat="52.47792" lon="13.479323">
    <ele>37.4</ele>
    <time>2024-07-22T16:16:08.000Z</time>
   </trkpt>
   <trkpt lat="52.478044" lon="13.479583">
    <ele>37.2</ele>
    <time>2024-07-22T16:16:13.000Z</time>
   </trkpt>
   <trkpt lat="52.478121" lon="13.479744">
    <ele>37.2</ele>
    <time>2024-07-22T16:16:16.000Z</time>
   </trkpt>
   <trkpt lat="52.478189" lon="13.479872">
    <ele>37.2</ele>
    <time>2024-07-22T16:16:18.000Z</time>
   </trkpt>
   <trkpt lat="52.478421" lon="13.480292">
    <ele>37.4</ele>
    <time>2024-07-22T16:16:25.000Z</time>
   </trkpt>
   <trkpt lat="52.478655" lon="13.480752">
    <ele>37.6</ele>
    <time>2024-07-22T16:16:32.000Z</time>
   </trkpt>
   <trkpt lat="52.478686" lon="13.480808">
    <ele>37.6</ele>
    <time>2024-07-22T16:16:33.000Z</time>
   </trkpt>
   <trkpt lat="52.478963" lon="13.481331">
    <ele>37.6</ele>
    <time>2024-07-22T16:16:41.000Z</time>
   </trkpt>
   <trkpt lat="52.4791" lon="13.481577">
    <ele>37.4</ele>
    <time>2024-07-22T16:16:45.000Z</time>
   </trkpt>
   <trkpt lat="52.479188" lon="13.481754">
    <ele>37.4</ele>
    <time>2024-07-22T16:16:48.000Z</time>
   </trkpt>
   <trkpt lat="52.479427" lon="13.482249">
    <ele>37.2</ele>
    <time>2024-07-22T16:16:56.000Z</time>
   </trkpt>
   <trkpt lat="52.479556" lon="13.482497">
    <ele>37.2</ele>
    <time>2024-07-22T16:17:00.000Z</time>
   </trkpt>
   <trkpt lat="52.479657" lon="13.482685">
    <ele>37.2</ele>
    <time>2024-07-22T16:17:03.000Z</time>
   </trkpt>
   <trkpt lat="52.479791" lon="13.482947">
    <ele>37.4</ele>
    <time>2024-07-22T16:17:07.000Z</time>
   </trkpt>
   <trkpt lat="52.479867" lon="13.483135">
    <ele>37.4</ele>
    <time>2024-07-22T16:17:10.000Z</time>
   </trkpt>
   <trkpt lat="52.479925" lon="13.483236">
    <ele>37.4</ele>
    <time>2024-07-22T16:17:12.000Z</time>
   </trkpt>
   <trkpt lat="52.480003" lon="13.483348">
    <ele>37.4</ele>
    <time>2024-07-22T16:17:14.000Z</time>
   </trkpt>
   <trkpt lat="52.480092" lon="13.483412">
    <ele>37.4</ele>
    <time>2024-07-22T16:17:16.000Z</time>
   </trkpt>
   <trkpt lat="52.480217" lon="13.483457">
    <ele>37.4</ele>
    <time>2024-07-22T16:17:18.000Z</time>
   </trkpt>
   <trkpt lat="52.480273" lon="13.483444">
    <ele>37.4</ele>
    <time>2024-07-22T16:17:19.000Z</time>
   </trkpt>
   <trkpt lat="52.480354" lon="13.483395">
    <ele>37.6</ele>
    <time>2024-07-22T16:17:21.000Z</time>
   </trkpt>
   <trkpt lat="52.480436" lon="13.483288">
    <ele>37.4</ele>
    <time>2024-07-22T16:17:23.000Z</time>
   </trkpt>
   <trkpt lat="52.480751" lon="13.483027">
    <ele>37.4</ele>
    <time>2024-07-22T16:17:30.000Z</time>
   </trkpt>
   <trkpt lat="52.481115" lon="13.4827">
    <ele>37.6</ele>
    <time>2024-07-22T16:17:38.000Z</time>
   </trkpt>
   <trkpt lat="52.481204" lon="13.482628">
    <ele>37.6</ele>
    <time>2024-07-22T16:17:40.000Z</time>
   </trkpt>
   <trkpt lat="52.481435" lon="13.482431">
    <ele>37.8</ele>
    <time>2024-07-22T16:17:45.000Z</time>
   </trkpt>
   <trkpt lat="52.481572" lon="13.482322">
    <ele>37.6</ele>
    <time>2024-07-22T16:17:48.000Z</time>
   </trkpt>
   <trkpt lat="52.481661" lon="13.482245">
    <ele>37.6</ele>
    <time>2024-07-22T16:17:50.000Z</time>
   </trkpt>
   <trkpt lat="52.481755" lon="13.482182">
    <ele>37.6</ele>
    <time>2024-07-22T16:17:52.000Z</time>
   </trkpt>
   <trkpt lat="52.481843" lon="13.482104">
    <ele>37.4</ele>
    <time>2024-07-22T16:17:54.000Z</time>
   </trkpt>
   <trkpt lat="52.481886" lon="13.482065">
    <ele>37.4</ele>
    <time>2024-07-22T16:17:55.000Z</time>
   </trkpt>
   <trkpt lat="52.482099" lon="13.481883">
    <ele>37.4</ele>
    <time>2024-07-22T16:18:00.000Z</time>
   </trkpt>
   <trkpt lat="52.482326" lon="13.481682">
    <ele>37.4</ele>
    <time>2024-07-22T16:18:05.000Z</time>
   </trkpt>
   <trkpt lat="52.4824" lon="13.48163">
    <ele>37.4</ele>
    <time>2024-07-22T16:18:07.000Z</time>
   </trkpt>
   <trkpt lat="52.482484" lon="13.481563">
    <ele>37.4</ele>
    <time>2024-07-22T16:18:09.000Z</time>
   </trkpt>
   <trkpt lat="52.482671" lon="13.481404">
    <ele>37.4</ele>
    <time>2024-07-22T16:18:13.000Z</time>
   </trkpt>
   <trkpt lat="52.482825" lon="13.481254">
    <ele>37.4</ele>
    <time>2024-07-22T16:18:16.000Z</time>
   </trkpt>
   <trkpt lat="52.482904" lon="13.481191">
    <ele>37.6</ele>
    <time>2024-07-22T16:18:18.000Z</time>
   </trkpt>
   <trkpt lat="52.482958" lon="13.481146">
    <ele>37.6</ele>
    <time>2024-07-22T16:18:19.000Z</time>
   </trkpt>
   <trkpt lat="52.483096" lon="13.481009">
    <ele>37.8</ele>
    <time>2024-07-22T16:18:22.000Z</time>
   </trkpt>
   <trkpt lat="52.483215" lon="13.480853">
    <ele>37.6</ele>
    <time>2024-07-22T16:18:25.000Z</time>
   </trkpt>
   <trkpt lat="52.483428" lon="13.480647">
    <ele>37.6</ele>
    <time>2024-07-22T16:18:30.000Z</time>
   </trkpt>
   <trkpt lat="52.48357" lon="13.480509">
    <ele>37.6</ele>
    <time>2024-07-22T16:18:33.000Z</time>
   </trkpt>
   <trkpt lat="52.483722" lon="13.480391">
    <ele>37.6</ele>
    <time>2024-07-22T16:18:36.000Z</time>
   </trkpt>
   <trkpt lat="52.483769" lon="13.480348">
    <ele>37.4</ele>
    <time>2024-07-22T16:18:37.000Z</time>
   </trkpt>
   <trkpt lat="52.484191" lon="13.47995">
    <ele>37.4</ele>
    <time>2024-07-22T16:18:46.000Z</time>
   </trkpt>
   <trkpt lat="52.48441" lon="13.479721">
    <ele>37.2</ele>
    <time>2024-07-22T16:18:51.000Z</time>
   </trkpt>
   <trkpt lat="52.484453" lon="13.47966">
    <ele>37.4</ele>
    <time>2024-07-22T16:18:52.000Z</time>
   </trkpt>
   <trkpt lat="52.484525" lon="13.47959">
    <ele>37.4</ele>
    <time>2024-07-22T16:18:54.000Z</time>
   </trkpt>
   <trkpt lat="52.484702" lon="13.479454">
    <ele>37.4</ele>
    <time>2024-07-22T16:18:58.000Z</time>
   </trkpt>
   <trkpt lat="52.484966" lon="13.479264">
    <ele>37.4</ele>
    <time>2024-07-22T16:19:04.000Z</time>
   </trkpt>
   <trkpt lat="52.485315" lon="13.478936">
    <ele>37</ele>
    <time>2024-07-22T16:19:12.000Z</time>
   </trkpt>
   <trkpt lat="52.485369" lon="13.47889">
    <ele>37</ele>
    <time>2024-07-22T16:19:13.000Z</time>
   </trkpt>
   <trkpt lat="52.485672" lon="13.478611">
    <ele>36.8</ele>
    <time>2024-07-22T16:19:20.000Z</time>
   </trkpt>
   <trkpt lat="52.485929" lon="13.478367">
    <ele>36.8</ele>
    <time>2024-07-22T16:19:26.000Z</time>
   </trkpt>
   <trkpt lat="52.486026" lon="13.478282">
    <ele>36.8</ele>
    <time>2024-07-22T16:19:28.000Z</time>
   </trkpt>
   <trkpt lat="52.486104" lon="13.478202">
    <ele>36.8</ele>
    <time>2024-07-22T16:19:30.000Z</time>
   </trkpt>
   <trkpt lat="52.486332" lon="13.477985">
    <ele>36.8</ele>
    <time>2024-07-22T16:19:35.000Z</time>
   </trkpt>
   <trkpt lat="52.486671" lon="13.477684">
    <ele>36.8</ele>
    <time>2024-07-22T16:19:43.000Z</time>
   </trkpt>
   <trkpt lat="52.486745" lon="13.477597">
    <ele>36.8</ele>
    <time>2024-07-22T16:19:45.000Z</time>
   </trkpt>
   <trkpt lat="52.486825" lon="13.477504">
    <ele>36.8</ele>
    <time>2024-07-22T16:19:47.000Z</time>
   </trkpt>
   <trkpt lat="52.487138" lon="13.4772">
    <ele>36.8</ele>
    <time>2024-07-22T16:19:54.000Z</time>
   </trkpt>
   <trkpt lat="52.487231" lon="13.477106">
    <ele>36.8</ele>
    <time>2024-07-22T16:19:56.000Z</time>
   </trkpt>
   <trkpt lat="52.487357" lon="13.476997">
    <ele>37</ele>
    <time>2024-07-22T16:19:59.000Z</time>
   </trkpt>
   <trkpt lat="52.487632" lon="13.476694">
    <ele>37</ele>
    <time>2024-07-22T16:20:06.000Z</time>
   </trkpt>
   <trkpt lat="52.487673" lon="13.476645">
    <ele>36.8</ele>
    <time>2024-07-22T16:20:07.000Z</time>
   </trkpt>
   <trkpt lat="52.487803" lon="13.476443">
    <ele>36.8</ele>
    <time>2024-07-22T16:20:10.000Z</time>
   </trkpt>
   <trkpt lat="52.487871" lon="13.476256">
    <ele>36.8</ele>
    <time>2024-07-22T16:20:13.000Z</time>
   </trkpt>
   <trkpt lat="52.487911" lon="13.476144">
    <ele>37</ele>
    <time>2024-07-22T16:20:15.000Z</time>
   </trkpt>
   <trkpt lat="52.487985" lon="13.47596">
    <ele>37</ele>
    <time>2024-07-22T16:20:18.000Z</time>
   </trkpt>
   <trkpt lat="52.488016" lon="13.475875">
    <ele>37.2</ele>
    <time>2024-07-22T16:20:19.000Z</time>
   </trkpt>
   <trkpt lat="52.48806" lon="13.475758">
    <ele>37</ele>
    <time>2024-07-22T16:20:21.000Z</time>
   </trkpt>
   <trkpt lat="52.48811" lon="13.475608">
    <ele>37.2</ele>
    <time>2024-07-22T16:20:23.000Z</time>
   </trkpt>
   <trkpt lat="52.488163" lon="13.475415">
    <ele>37.4</ele>
    <time>2024-07-22T16:20:26.000Z</time>
   </trkpt>
   <trkpt lat="52.48824" lon="13.475112">
    <ele>37.6</ele>
    <time>2024-07-22T16:20:30.000Z</time>
   </trkpt>
   <trkpt lat="52.488352" lon="13.474727">
    <ele>37.4</ele>
    <time>2024-07-22T16:20:35.000Z</time>
   </trkpt>
   <trkpt lat="52.488428" lon="13.474494">
    <ele>37.2</ele>
    <time>2024-07-22T16:20:38.000Z</time>
   </trkpt>
   <trkpt lat="52.488473" lon="13.474351">
    <ele>37.2</ele>
    <time>2024-07-22T16:20:40.000Z</time>
   </trkpt>
   <trkpt lat="52.48861" lon="13.473834">
    <ele>37.2</ele>
    <time>2024-07-22T16:20:47.000Z</time>
   </trkpt>
   <trkpt lat="52.488741" lon="13.473402">
    <ele>37.2</ele>
    <time>2024-07-22T16:20:53.000Z</time>
   </trkpt>
   <trkpt lat="52.488763" lon="13.473328">
    <ele>37</ele>
    <time>2024-07-22T16:20:54.000Z</time>
   </trkpt>
   <trkpt lat="52.4889" lon="13.472899">
    <ele>37</ele>
    <time>2024-07-22T16:21:00.000Z</time>
   </trkpt>
   <trkpt lat="52.488924" lon="13.472824">
    <ele>37</ele>
    <time>2024-07-22T16:21:01.000Z</time>
   </trkpt>
   <trkpt lat="52.488968" lon="13.47268">
    <ele>37.2</ele>
    <time>2024-07-22T16:21:03.000Z</time>
   </trkpt>
   <trkpt lat="52.48904" lon="13.472451">
    <ele>37.2</ele>
    <time>2024-07-22T16:21:06.000Z</time>
   </trkpt>
   <trkpt lat="52.489071" lon="13.472342">
    <ele>37.2</ele>
    <time>2024-07-22T16:21:07.000Z</time>
   </trkpt>
   <trkpt lat="52.489099" lon="13.472252">
    <ele>37.2</ele>
    <time>2024-07-22T16:21:08.000Z</time>
   </trkpt>
   <trkpt lat="52.489177" lon="13.471993">
    <ele>37</ele>
    <time>2024-07-22T16:21:11.000Z</time>
   </trkpt>
   <trkpt lat="52.489219" lon="13.471764">
    <ele>37</ele>
    <time>2024-07-22T16:21:14.000Z</time>
   </trkpt>
   <trkpt lat="52.48924" lon="13.471696">
    <ele>37</ele>
    <time>2024-07-22T16:21:15.000Z</time>
   </trkpt>
   <trkpt lat="52.489378" lon="13.47123">
    <ele>37</ele>
    <time>2024-07-22T16:21:20.000Z</time>
   </trkpt>
   <trkpt lat="52.4894" lon="13.471177">
    <ele>37</ele>
    <time>2024-07-22T16:21:21.000Z</time>
   </trkpt>
   <trkpt lat="52.489408" lon="13.471097">
    <ele>37</ele>
    <time>2024-07-22T16:21:22.000Z</time>
   </trkpt>
   <trkpt lat="52.489478" lon="13.470943">
    <ele>37.2</ele>
    <time>2024-07-22T16:21:24.000Z</time>
   </trkpt>
   <trkpt lat="52.489519" lon="13.470834">
    <ele>37.2</ele>
    <time>2024-07-22T16:21:25.000Z</time>
   </trkpt>
   <trkpt lat="52.489578" lon="13.470611">
    <ele>37.2</ele>
    <time>2024-07-22T16:21:28.000Z</time>
   </trkpt>
   <trkpt lat="52.489602" lon="13.470494">
    <ele>37.2</ele>
    <time>2024-07-22T16:21:30.000Z</time>
   </trkpt>
   <trkpt lat="52.489691" lon="13.470175">
    <ele>37.2</ele>
    <time>2024-07-22T16:21:35.000Z</time>
   </trkpt>
   <trkpt lat="52.48971" lon="13.470112">
    <ele>37.2</ele>
    <time>2024-07-22T16:21:36.000Z</time>
   </trkpt>
   <trkpt lat="52.489725" lon="13.470052">
    <ele>37.2</ele>
    <time>2024-07-22T16:21:37.000Z</time>
   </trkpt>
   <trkpt lat="52.489796" lon="13.469832">
    <ele>37</ele>
    <time>2024-07-22T16:21:40.000Z</time>
   </trkpt>
   <trkpt lat="52.489819" lon="13.469752">
    <ele>37</ele>
    <time>2024-07-22T16:21:41.000Z</time>
   </trkpt>
   <trkpt lat="52.489888" lon="13.469503">
    <ele>36.8</ele>
    <time>2024-07-22T16:21:44.000Z</time>
   </trkpt>
   <trkpt lat="52.489935" lon="13.469336">
    <ele>36.8</ele>
    <time>2024-07-22T16:21:46.000Z</time>
   </trkpt>
   <trkpt lat="52.490113" lon="13.468807">
    <ele>36.8</ele>
    <time>2024-07-22T16:21:52.000Z</time>
   </trkpt>
   <trkpt lat="52.490209" lon="13.468443">
    <ele>36.8</ele>
    <time>2024-07-22T16:21:57.000Z</time>
   </trkpt>
   <trkpt lat="52.490381" lon="13.467922">
    <ele>36.6</ele>
    <time>2024-07-22T16:22:03.000Z</time>
   </trkpt>
   <trkpt lat="52.490494" lon="13.467577">
    <ele>36.6</ele>
    <time>2024-07-22T16:22:07.000Z</time>
   </trkpt>
   <trkpt lat="52.4905" lon="13.467508">
    <ele>36.6</ele>
    <time>2024-07-22T16:22:08.000Z</time>
   </trkpt>
   <trkpt lat="52.490606" lon="13.467199">
    <ele>36.6</ele>
    <time>2024-07-22T16:22:12.000Z</time>
   </trkpt>
   <trkpt lat="52.490735" lon="13.466777">
    <ele>36.6</ele>
    <time>2024-07-22T16:22:18.000Z</time>
   </trkpt>
   <trkpt lat="52.490758" lon="13.466705">
    <ele>36.6</ele>
    <time>2024-07-22T16:22:19.000Z</time>
   </trkpt>
   <trkpt lat="52.490878" lon="13.466314">
    <ele>36.8</ele>
    <time>2024-07-22T16:22:24.000Z</time>
   </trkpt>
   <trkpt lat="52.490951" lon="13.466016">
    <ele>36.8</ele>
    <time>2024-07-22T16:22:29.000Z</time>
   </trkpt>
   <trkpt lat="52.491091" lon="13.465576">
    <ele>36.8</ele>
    <time>2024-07-22T16:22:35.000Z</time>
   </trkpt>
   <trkpt lat="52.49121" lon="13.465159">
    <ele>36.6</ele>
    <time>2024-07-22T16:22:40.000Z</time>
   </trkpt>
   <trkpt lat="52.491265" lon="13.464975">
    <ele>36.4</ele>
    <time>2024-07-22T16:22:42.000Z</time>
   </trkpt>
   <trkpt lat="52.491353" lon="13.464712">
    <ele>36.4</ele>
    <time>2024-07-22T16:22:45.000Z</time>
   </trkpt>
   <trkpt lat="52.491405" lon="13.464447">
    <ele>36.6</ele>
    <time>2024-07-22T16:22:49.000Z</time>
   </trkpt>
   <trkpt lat="52.491439" lon="13.464376">
    <ele>36.6</ele>
    <time>2024-07-22T16:22:50.000Z</time>
   </trkpt>
   <trkpt lat="52.491494" lon="13.464204">
    <ele>36.6</ele>
    <time>2024-07-22T16:22:52.000Z</time>
   </trkpt>
   <trkpt lat="52.49161" lon="13.463935">
    <ele>36.8</ele>
    <time>2024-07-22T16:22:55.000Z</time>
   </trkpt>
   <trkpt lat="52.491698" lon="13.463666">
    <ele>36.8</ele>
    <time>2024-07-22T16:22:58.000Z</time>
   </trkpt>
   <trkpt lat="52.491731" lon="13.463545">
    <ele>36.8</ele>
    <time>2024-07-22T16:23:00.000Z</time>
   </trkpt>
   <trkpt lat="52.491754" lon="13.463484">
    <ele>37</ele>
    <time>2024-07-22T16:23:01.000Z</time>
   </trkpt>
   <trkpt lat="52.4919" lon="13.462951">
    <ele>37.2</ele>
    <time>2024-07-22T16:23:08.000Z</time>
   </trkpt>
   <trkpt lat="52.492056" lon="13.462395">
    <ele>36.8</ele>
    <time>2024-07-22T16:23:16.000Z</time>
   </trkpt>
   <trkpt lat="52.492095" lon="13.462284">
    <ele>36.8</ele>
    <time>2024-07-22T16:23:18.000Z</time>
   </trkpt>
   <trkpt lat="52.492163" lon="13.4621">
    <ele>36.8</ele>
    <time>2024-07-22T16:23:21.000Z</time>
   </trkpt>
   <trkpt lat="52.492211" lon="13.461961">
    <ele>37</ele>
    <time>2024-07-22T16:23:23.000Z</time>
   </trkpt>
   <trkpt lat="52.49226" lon="13.461829">
    <ele>37</ele>
    <time>2024-07-22T16:23:25.000Z</time>
   </trkpt>
   <trkpt lat="52.492318" lon="13.461618">
    <ele>37</ele>
    <time>2024-07-22T16:23:28.000Z</time>
   </trkpt>
   <trkpt lat="52.492379" lon="13.46149">
    <ele>37</ele>
    <time>2024-07-22T16:23:30.000Z</time>
   </trkpt>
   <trkpt lat="52.49243" lon="13.461305">
    <ele>37</ele>
    <time>2024-07-22T16:23:32.000Z</time>
   </trkpt>
   <trkpt lat="52.492469" lon="13.461142">
    <ele>37</ele>
    <time>2024-07-22T16:23:34.000Z</time>
   </trkpt>
   <trkpt lat="52.492467" lon="13.461007">
    <ele>37</ele>
    <time>2024-07-22T16:23:35.000Z</time>
   </trkpt>
   <trkpt lat="52.492652" lon="13.460472">
    <ele>36.8</ele>
    <time>2024-07-22T16:23:43.000Z</time>
   </trkpt>
   <trkpt lat="52.49269" lon="13.460336">
    <ele>36.8</ele>
    <time>2024-07-22T16:23:44.000Z</time>
   </trkpt>
   <trkpt lat="52.492833" lon="13.460156">
    <ele>36.8</ele>
    <time>2024-07-22T16:23:49.000Z</time>
   </trkpt>
   <trkpt lat="52.492845" lon="13.460114">
    <ele>36.6</ele>
    <time>2024-07-22T16:23:50.000Z</time>
   </trkpt>
   <trkpt lat="52.492846" lon="13.460035">
    <ele>36.6</ele>
    <time>2024-07-22T16:23:52.000Z</time>
   </trkpt>
   <trkpt lat="52.49281" lon="13.459862">
    <ele>36.4</ele>
    <time>2024-07-22T16:23:57.000Z</time>
   </trkpt>
   <trkpt lat="52.492862" lon="13.45968">
    <ele>36.6</ele>
    <time>2024-07-22T16:24:03.000Z</time>
   </trkpt>
   <trkpt lat="52.492882" lon="13.459627">
    <ele>36.4</ele>
    <time>2024-07-22T16:24:34.000Z</time>
   </trkpt>
   <trkpt lat="52.49291" lon="13.459487">
    <ele>36.4</ele>
    <time>2024-07-22T16:24:37.000Z</time>
   </trkpt>
   <trkpt lat="52.492976" lon="13.459249">
    <ele>36.6</ele>
    <time>2024-07-22T16:24:41.000Z</time>
   </trkpt>
   <trkpt lat="52.493005" lon="13.459113">
    <ele>36.6</ele>
    <time>2024-07-22T16:24:43.000Z</time>
   </trkpt>
   <trkpt lat="52.49302" lon="13.45905">
    <ele>36.6</ele>
    <time>2024-07-22T16:24:44.000Z</time>
   </trkpt>
   <trkpt lat="52.493091" lon="13.458897">
    <ele>36.6</ele>
    <time>2024-07-22T16:24:47.000Z</time>
   </trkpt>
   <trkpt lat="52.493196" lon="13.45851">
    <ele>36.6</ele>
    <time>2024-07-22T16:24:53.000Z</time>
   </trkpt>
   <trkpt lat="52.493244" lon="13.458342">
    <ele>36.6</ele>
    <time>2024-07-22T16:24:55.000Z</time>
   </trkpt>
   <trkpt lat="52.493295" lon="13.45822">
    <ele>36.8</ele>
    <time>2024-07-22T16:24:57.000Z</time>
   </trkpt>
   <trkpt lat="52.49332" lon="13.458153">
    <ele>36.8</ele>
    <time>2024-07-22T16:24:58.000Z</time>
   </trkpt>
   <trkpt lat="52.493371" lon="13.458045">
    <ele>36.8</ele>
    <time>2024-07-22T16:25:00.000Z</time>
   </trkpt>
   <trkpt lat="52.493422" lon="13.457886">
    <ele>37</ele>
    <time>2024-07-22T16:25:02.000Z</time>
   </trkpt>
   <trkpt lat="52.493458" lon="13.457785">
    <ele>37</ele>
    <time>2024-07-22T16:25:03.000Z</time>
   </trkpt>
   <trkpt lat="52.49349" lon="13.457643">
    <ele>37</ele>
    <time>2024-07-22T16:25:05.000Z</time>
   </trkpt>
   <trkpt lat="52.493541" lon="13.457488">
    <ele>37</ele>
    <time>2024-07-22T16:25:07.000Z</time>
   </trkpt>
   <trkpt lat="52.493565" lon="13.457411">
    <ele>37</ele>
    <time>2024-07-22T16:25:08.000Z</time>
   </trkpt>
   <trkpt lat="52.493744" lon="13.45691">
    <ele>36.6</ele>
    <time>2024-07-22T16:25:14.000Z</time>
   </trkpt>
   <trkpt lat="52.493747" lon="13.456823">
    <ele>36.6</ele>
    <time>2024-07-22T16:25:15.000Z</time>
   </trkpt>
   <trkpt lat="52.493916" lon="13.456137">
    <ele>36.6</ele>
    <time>2024-07-22T16:25:23.000Z</time>
   </trkpt>
   <trkpt lat="52.494006" lon="13.455746">
    <ele>36.6</ele>
    <time>2024-07-22T16:25:28.000Z</time>
   </trkpt>
   <trkpt lat="52.494147" lon="13.455398">
    <ele>36.4</ele>
    <time>2024-07-22T16:25:32.000Z</time>
   </trkpt>
   <trkpt lat="52.494245" lon="13.455093">
    <ele>36.4</ele>
    <time>2024-07-22T16:25:36.000Z</time>
   </trkpt>
   <trkpt lat="52.494303" lon="13.454725">
    <ele>36.4</ele>
    <time>2024-07-22T16:25:40.000Z</time>
   </trkpt>
   <trkpt lat="52.494443" lon="13.454336">
    <ele>36.4</ele>
    <time>2024-07-22T16:25:45.000Z</time>
   </trkpt>
   <trkpt lat="52.494515" lon="13.454142">
    <ele>36.4</ele>
    <time>2024-07-22T16:25:48.000Z</time>
   </trkpt>
   <trkpt lat="52.494562" lon="13.453997">
    <ele>36.4</ele>
    <time>2024-07-22T16:25:50.000Z</time>
   </trkpt>
   <trkpt lat="52.49458" lon="13.453929">
    <ele>36.4</ele>
    <time>2024-07-22T16:25:51.000Z</time>
   </trkpt>
   <trkpt lat="52.4946" lon="13.453858">
    <ele>36.4</ele>
    <time>2024-07-22T16:25:52.000Z</time>
   </trkpt>
   <trkpt lat="52.494708" lon="13.453547">
    <ele>36.6</ele>
    <time>2024-07-22T16:25:57.000Z</time>
   </trkpt>
   <trkpt lat="52.494777" lon="13.453354">
    <ele>36.6</ele>
    <time>2024-07-22T16:26:00.000Z</time>
   </trkpt>
   <trkpt lat="52.494896" lon="13.453116">
    <ele>36.8</ele>
    <time>2024-07-22T16:26:04.000Z</time>
   </trkpt>
   <trkpt lat="52.49515" lon="13.452665">
    <ele>36.6</ele>
    <time>2024-07-22T16:26:12.000Z</time>
   </trkpt>
   <trkpt lat="52.495407" lon="13.452224">
    <ele>36.6</ele>
    <time>2024-07-22T16:26:19.000Z</time>
   </trkpt>
   <trkpt lat="52.495743" lon="13.451689">
    <ele>36.8</ele>
    <time>2024-07-22T16:26:28.000Z</time>
   </trkpt>
   <trkpt lat="52.495985" lon="13.451279">
    <ele>36.8</ele>
    <time>2024-07-22T16:26:35.000Z</time>
   </trkpt>
   <trkpt lat="52.496054" lon="13.45117">
    <ele>36.8</ele>
    <time>2024-07-22T16:26:37.000Z</time>
   </trkpt>
   <trkpt lat="52.496119" lon="13.451061">
    <ele>36.8</ele>
    <time>2024-07-22T16:26:39.000Z</time>
   </trkpt>
   <trkpt lat="52.496153" lon="13.451009">
    <ele>36.6</ele>
    <time>2024-07-22T16:26:40.000Z</time>
   </trkpt>
   <trkpt lat="52.496185" lon="13.450955">
    <ele>36.6</ele>
    <time>2024-07-22T16:26:41.000Z</time>
   </trkpt>
   <trkpt lat="52.496334" lon="13.450685">
    <ele>36.8</ele>
    <time>2024-07-22T16:26:46.000Z</time>
   </trkpt>
   <trkpt lat="52.496511" lon="13.450368">
    <ele>37</ele>
    <time>2024-07-22T16:26:52.000Z</time>
   </trkpt>
   <trkpt lat="52.496608" lon="13.450208">
    <ele>37.4</ele>
    <time>2024-07-22T16:26:55.000Z</time>
   </trkpt>
   <trkpt lat="52.496798" lon="13.449872">
    <ele>37.4</ele>
    <time>2024-07-22T16:27:01.000Z</time>
   </trkpt>
   <trkpt lat="52.49688" lon="13.449689">
    <ele>37.6</ele>
    <time>2024-07-22T16:27:04.000Z</time>
   </trkpt>
   <trkpt lat="52.497208" lon="13.449157">
    <ele>37.6</ele>
    <time>2024-07-22T16:27:13.000Z</time>
   </trkpt>
   <trkpt lat="52.497367" lon="13.448882">
    <ele>38</ele>
    <time>2024-07-22T16:27:18.000Z</time>
   </trkpt>
   <trkpt lat="52.497488" lon="13.448675">
    <ele>38.4</ele>
    <time>2024-07-22T16:27:22.000Z</time>
   </trkpt>
   <trkpt lat="52.497731" lon="13.448219">
    <ele>38.8</ele>
    <time>2024-07-22T16:27:30.000Z</time>
   </trkpt>
   <trkpt lat="52.497768" lon="13.448166">
    <ele>38.6</ele>
    <time>2024-07-22T16:27:31.000Z</time>
   </trkpt>
   <trkpt lat="52.498054" lon="13.447742">
    <ele>37.6</ele>
    <time>2024-07-22T16:27:38.000Z</time>
   </trkpt>
   <trkpt lat="52.498382" lon="13.447183">
    <ele>37</ele>
    <time>2024-07-22T16:27:46.000Z</time>
   </trkpt>
   <trkpt lat="52.498585" lon="13.446831">
    <ele>37</ele>
    <time>2024-07-22T16:27:51.000Z</time>
   </trkpt>
   <trkpt lat="52.498698" lon="13.446626">
    <ele>37</ele>
    <time>2024-07-22T16:27:54.000Z</time>
   </trkpt>
   <trkpt lat="52.498955" lon="13.44622">
    <ele>36.8</ele>
    <time>2024-07-22T16:28:00.000Z</time>
   </trkpt>
   <trkpt lat="52.49899" lon="13.44615">
    <ele>36.8</ele>
    <time>2024-07-22T16:28:01.000Z</time>
   </trkpt>
   <trkpt lat="52.499032" lon="13.44609">
    <ele>36.8</ele>
    <time>2024-07-22T16:28:02.000Z</time>
   </trkpt>
   <trkpt lat="52.499182" lon="13.445855">
    <ele>36.8</ele>
    <time>2024-07-22T16:28:06.000Z</time>
   </trkpt>
   <trkpt lat="52.499251" lon="13.445698">
    <ele>36.8</ele>
    <time>2024-07-22T16:28:08.000Z</time>
   </trkpt>
   <trkpt lat="52.499308" lon="13.445627">
    <ele>36.8</ele>
    <time>2024-07-22T16:28:10.000Z</time>
   </trkpt>
   <trkpt lat="52.499397" lon="13.445407">
    <ele>36.8</ele>
    <time>2024-07-22T16:28:13.000Z</time>
   </trkpt>
   <trkpt lat="52.499433" lon="13.445332">
    <ele>36.8</ele>
    <time>2024-07-22T16:28:14.000Z</time>
   </trkpt>
   <trkpt lat="52.499587" lon="13.44504">
    <ele>36.6</ele>
    <time>2024-07-22T16:28:18.000Z</time>
   </trkpt>
   <trkpt lat="52.499693" lon="13.444855">
    <ele>36.6</ele>
    <time>2024-07-22T16:28:21.000Z</time>
   </trkpt>
   <trkpt lat="52.499841" lon="13.444604">
    <ele>36.4</ele>
    <time>2024-07-22T16:28:26.000Z</time>
   </trkpt>
   <trkpt lat="52.499913" lon="13.444504">
    <ele>36.4</ele>
    <time>2024-07-22T16:28:28.000Z</time>
   </trkpt>
   <trkpt lat="52.500061" lon="13.444212">
    <ele>36.4</ele>
    <time>2024-07-22T16:28:34.000Z</time>
   </trkpt>
   <trkpt lat="52.500067" lon="13.444212">
    <ele>36.4</ele>
    <time>2024-07-22T16:28:35.000Z</time>
   </trkpt>
   <trkpt lat="52.500096" lon="13.444144">
    <ele>36.4</ele>
    <time>2024-07-22T16:29:01.000Z</time>
   </trkpt>
   <trkpt lat="52.500113" lon="13.444108">
    <ele>36.4</ele>
    <time>2024-07-22T16:29:02.000Z</time>
   </trkpt>
   <trkpt lat="52.500229" lon="13.443837">
    <ele>36.6</ele>
    <time>2024-07-22T16:29:07.000Z</time>
   </trkpt>
   <trkpt lat="52.500404" lon="13.44347">
    <ele>36.8</ele>
    <time>2024-07-22T16:29:13.000Z</time>
   </trkpt>
   <trkpt lat="52.500773" lon="13.442742">
    <ele>36.6</ele>
    <time>2024-07-22T16:29:24.000Z</time>
   </trkpt>
   <trkpt lat="52.500979" lon="13.442358">
    <ele>37</ele>
    <time>2024-07-22T16:29:30.000Z</time>
   </trkpt>
   <trkpt lat="52.50104" lon="13.442231">
    <ele>37</ele>
    <time>2024-07-22T16:29:32.000Z</time>
   </trkpt>
   <trkpt lat="52.501066" lon="13.44219">
    <ele>37</ele>
    <time>2024-07-22T16:29:33.000Z</time>
   </trkpt>
   <trkpt lat="52.501123" lon="13.442132">
    <ele>37</ele>
    <time>2024-07-22T16:29:35.000Z</time>
   </trkpt>
   <trkpt lat="52.501189" lon="13.441957">
    <ele>37.2</ele>
    <time>2024-07-22T16:29:38.000Z</time>
   </trkpt>
   <trkpt lat="52.501219" lon="13.441808">
    <ele>37.2</ele>
    <time>2024-07-22T16:29:40.000Z</time>
   </trkpt>
   <trkpt lat="52.501224" lon="13.441649">
    <ele>37.2</ele>
    <time>2024-07-22T16:29:42.000Z</time>
   </trkpt>
   <trkpt lat="52.501214" lon="13.441573">
    <ele>37.4</ele>
    <time>2024-07-22T16:29:43.000Z</time>
   </trkpt>
   <trkpt lat="52.501172" lon="13.441441">
    <ele>37.4</ele>
    <time>2024-07-22T16:29:45.000Z</time>
   </trkpt>
   <trkpt lat="52.501129" lon="13.44131">
    <ele>37.2</ele>
    <time>2024-07-22T16:29:47.000Z</time>
   </trkpt>
   <trkpt lat="52.501084" lon="13.441263">
    <ele>37.2</ele>
    <time>2024-07-22T16:29:48.000Z</time>
   </trkpt>
   <trkpt lat="52.501005" lon="13.44114">
    <ele>37.2</ele>
    <time>2024-07-22T16:29:50.000Z</time>
   </trkpt>
   <trkpt lat="52.500928" lon="13.441011">
    <ele>37</ele>
    <time>2024-07-22T16:29:52.000Z</time>
   </trkpt>
   <trkpt lat="52.500911" lon="13.440869">
    <ele>36.8</ele>
    <time>2024-07-22T16:29:54.000Z</time>
   </trkpt>
   <trkpt lat="52.500883" lon="13.440804">
    <ele>36.8</ele>
    <time>2024-07-22T16:29:55.000Z</time>
   </trkpt>
   <trkpt lat="52.500874" lon="13.440727">
    <ele>36.8</ele>
    <time>2024-07-22T16:29:56.000Z</time>
   </trkpt>
   <trkpt lat="52.500837" lon="13.440505">
    <ele>37.2</ele>
    <time>2024-07-22T16:29:59.000Z</time>
   </trkpt>
   <trkpt lat="52.500799" lon="13.4403">
    <ele>37.4</ele>
    <time>2024-07-22T16:30:02.000Z</time>
   </trkpt>
   <trkpt lat="52.500724" lon="13.440189">
    <ele>37.4</ele>
    <time>2024-07-22T16:30:04.000Z</time>
   </trkpt>
   <trkpt lat="52.500674" lon="13.440006">
    <ele>37.6</ele>
    <time>2024-07-22T16:30:06.000Z</time>
   </trkpt>
   <trkpt lat="52.500648" lon="13.439841">
    <ele>37.4</ele>
    <time>2024-07-22T16:30:08.000Z</time>
   </trkpt>
   <trkpt lat="52.50064" lon="13.439767">
    <ele>37.4</ele>
    <time>2024-07-22T16:30:09.000Z</time>
   </trkpt>
   <trkpt lat="52.500627" lon="13.439598">
    <ele>37.6</ele>
    <time>2024-07-22T16:30:11.000Z</time>
   </trkpt>
   <trkpt lat="52.500592" lon="13.439433">
    <ele>37.6</ele>
    <time>2024-07-22T16:30:13.000Z</time>
   </trkpt>
   <trkpt lat="52.500556" lon="13.43921">
    <ele>37.6</ele>
    <time>2024-07-22T16:30:15.000Z</time>
   </trkpt>
   <trkpt lat="52.500539" lon="13.438931">
    <ele>37.8</ele>
    <time>2024-07-22T16:30:18.000Z</time>
   </trkpt>
   <trkpt lat="52.500521" lon="13.438854">
    <ele>37.8</ele>
    <time>2024-07-22T16:30:19.000Z</time>
   </trkpt>
   <trkpt lat="52.500497" lon="13.438784">
    <ele>37.8</ele>
    <time>2024-07-22T16:30:20.000Z</time>
   </trkpt>
   <trkpt lat="52.500496" lon="13.438557">
    <ele>38</ele>
    <time>2024-07-22T16:30:23.000Z</time>
   </trkpt>
   <trkpt lat="52.50052" lon="13.438468">
    <ele>38</ele>
    <time>2024-07-22T16:30:24.000Z</time>
   </trkpt>
   <trkpt lat="52.500494" lon="13.4381">
    <ele>38</ele>
    <time>2024-07-22T16:30:29.000Z</time>
   </trkpt>
   <trkpt lat="52.500462" lon="13.438023">
    <ele>38</ele>
    <time>2024-07-22T16:30:30.000Z</time>
   </trkpt>
   <trkpt lat="52.500437" lon="13.437974">
    <ele>38</ele>
    <time>2024-07-22T16:30:31.000Z</time>
   </trkpt>
   <trkpt lat="52.500401" lon="13.437802">
    <ele>38</ele>
    <time>2024-07-22T16:30:33.000Z</time>
   </trkpt>
   <trkpt lat="52.500354" lon="13.437425">
    <ele>37.8</ele>
    <time>2024-07-22T16:30:37.000Z</time>
   </trkpt>
   <trkpt lat="52.500349" lon="13.437266">
    <ele>37.8</ele>
    <time>2024-07-22T16:30:39.000Z</time>
   </trkpt>
   <trkpt lat="52.500361" lon="13.437123">
    <ele>37.8</ele>
    <time>2024-07-22T16:30:41.000Z</time>
   </trkpt>
   <trkpt lat="52.50036" lon="13.437045">
    <ele>37.8</ele>
    <time>2024-07-22T16:30:42.000Z</time>
   </trkpt>
   <trkpt lat="52.500362" lon="13.436865">
    <ele>37.8</ele>
    <time>2024-07-22T16:30:45.000Z</time>
   </trkpt>
   <trkpt lat="52.500364" lon="13.436783">
    <ele>37.8</ele>
    <time>2024-07-22T16:30:47.000Z</time>
   </trkpt>
   <trkpt lat="52.500339" lon="13.436657">
    <ele>37.8</ele>
    <time>2024-07-22T16:30:49.000Z</time>
   </trkpt>
   <trkpt lat="52.50031" lon="13.436483">
    <ele>37.8</ele>
    <time>2024-07-22T16:30:51.000Z</time>
   </trkpt>
   <trkpt lat="52.500285" lon="13.436311">
    <ele>38</ele>
    <time>2024-07-22T16:30:53.000Z</time>
   </trkpt>
   <trkpt lat="52.500272" lon="13.436257">
    <ele>38</ele>
    <time>2024-07-22T16:30:54.000Z</time>
   </trkpt>
   <trkpt lat="52.500245" lon="13.436181">
    <ele>38</ele>
    <time>2024-07-22T16:30:55.000Z</time>
   </trkpt>
   <trkpt lat="52.500215" lon="13.436027">
    <ele>38</ele>
    <time>2024-07-22T16:30:57.000Z</time>
   </trkpt>
   <trkpt lat="52.500192" lon="13.435939">
    <ele>38</ele>
    <time>2024-07-22T16:30:58.000Z</time>
   </trkpt>
   <trkpt lat="52.500148" lon="13.435756">
    <ele>38.2</ele>
    <time>2024-07-22T16:31:01.000Z</time>
   </trkpt>
   <trkpt lat="52.500082" lon="13.435618">
    <ele>38.2</ele>
    <time>2024-07-22T16:31:03.000Z</time>
   </trkpt>
   <trkpt lat="52.500029" lon="13.435464">
    <ele>38</ele>
    <time>2024-07-22T16:31:05.000Z</time>
   </trkpt>
   <trkpt lat="52.500008" lon="13.435373">
    <ele>38</ele>
    <time>2024-07-22T16:31:06.000Z</time>
   </trkpt>
   <trkpt lat="52.499975" lon="13.43527">
    <ele>38</ele>
    <time>2024-07-22T16:31:07.000Z</time>
   </trkpt>
   <trkpt lat="52.499928" lon="13.435115">
    <ele>38</ele>
    <time>2024-07-22T16:31:09.000Z</time>
   </trkpt>
   <trkpt lat="52.499924" lon="13.434921">
    <ele>38</ele>
    <time>2024-07-22T16:31:11.000Z</time>
   </trkpt>
   <trkpt lat="52.499952" lon="13.434728">
    <ele>38</ele>
    <time>2024-07-22T16:31:13.000Z</time>
   </trkpt>
   <trkpt lat="52.49994" lon="13.434569">
    <ele>38</ele>
    <time>2024-07-22T16:31:15.000Z</time>
   </trkpt>
   <trkpt lat="52.49994" lon="13.43448">
    <ele>38</ele>
    <time>2024-07-22T16:31:16.000Z</time>
   </trkpt>
   <trkpt lat="52.499944" lon="13.434373">
    <ele>38</ele>
    <time>2024-07-22T16:31:17.000Z</time>
   </trkpt>
   <trkpt lat="52.499952" lon="13.434114">
    <ele>38</ele>
    <time>2024-07-22T16:31:20.000Z</time>
   </trkpt>
   <trkpt lat="52.499947" lon="13.434021">
    <ele>38.2</ele>
    <time>2024-07-22T16:31:21.000Z</time>
   </trkpt>
   <trkpt lat="52.499909" lon="13.433913">
    <ele>38.2</ele>
    <time>2024-07-22T16:31:22.000Z</time>
   </trkpt>
   <trkpt lat="52.499825" lon="13.433499">
    <ele>38.6</ele>
    <time>2024-07-22T16:31:27.000Z</time>
   </trkpt>
   <trkpt lat="52.499749" lon="13.433299">
    <ele>38.6</ele>
    <time>2024-07-22T16:31:31.000Z</time>
   </trkpt>
   <trkpt lat="52.499681" lon="13.432948">
    <ele>38.4</ele>
    <time>2024-07-22T16:31:35.000Z</time>
   </trkpt>
   <trkpt lat="52.499675" lon="13.432878">
    <ele>38.2</ele>
    <time>2024-07-22T16:31:36.000Z</time>
   </trkpt>
   <trkpt lat="52.499675" lon="13.432817">
    <ele>38.2</ele>
    <time>2024-07-22T16:31:37.000Z</time>
   </trkpt>
   <trkpt lat="52.499658" lon="13.432507">
    <ele>38.2</ele>
    <time>2024-07-22T16:31:41.000Z</time>
   </trkpt>
   <trkpt lat="52.499626" lon="13.432172">
    <ele>38.4</ele>
    <time>2024-07-22T16:31:46.000Z</time>
   </trkpt>
   <trkpt lat="52.499611" lon="13.432116">
    <ele>38.4</ele>
    <time>2024-07-22T16:31:47.000Z</time>
   </trkpt>
   <trkpt lat="52.499599" lon="13.432059">
    <ele>38.4</ele>
    <time>2024-07-22T16:31:48.000Z</time>
   </trkpt>
   <trkpt lat="52.499579" lon="13.431856">
    <ele>38.4</ele>
    <time>2024-07-22T16:31:51.000Z</time>
   </trkpt>
   <trkpt lat="52.499478" lon="13.431254">
    <ele>38.6</ele>
    <time>2024-07-22T16:32:00.000Z</time>
   </trkpt>
   <trkpt lat="52.499462" lon="13.430743">
    <ele>38.6</ele>
    <time>2024-07-22T16:32:07.000Z</time>
   </trkpt>
   <trkpt lat="52.499465" lon="13.43055">
    <ele>38.6</ele>
    <time>2024-07-22T16:32:10.000Z</time>
   </trkpt>
   <trkpt lat="52.499486" lon="13.430386">
    <ele>38.6</ele>
    <time>2024-07-22T16:32:12.000Z</time>
   </trkpt>
   <trkpt lat="52.499495" lon="13.430335">
    <ele>38.6</ele>
    <time>2024-07-22T16:32:13.000Z</time>
   </trkpt>
   <trkpt lat="52.499521" lon="13.43004">
    <ele>38.4</ele>
    <time>2024-07-22T16:32:18.000Z</time>
   </trkpt>
   <trkpt lat="52.499523" lon="13.429756">
    <ele>38.4</ele>
    <time>2024-07-22T16:32:22.000Z</time>
   </trkpt>
   <trkpt lat="52.499522" lon="13.429628">
    <ele>38.4</ele>
    <time>2024-07-22T16:32:24.000Z</time>
   </trkpt>
   <trkpt lat="52.499459" lon="13.429214">
    <ele>38.4</ele>
    <time>2024-07-22T16:32:30.000Z</time>
   </trkpt>
   <trkpt lat="52.499481" lon="13.429113">
    <ele>38.4</ele>
    <time>2024-07-22T16:32:32.000Z</time>
   </trkpt>
   <trkpt lat="52.49939" lon="13.428688">
    <ele>38.4</ele>
    <time>2024-07-22T16:32:39.000Z</time>
   </trkpt>
   <trkpt lat="52.499393" lon="13.428619">
    <ele>38.4</ele>
    <time>2024-07-22T16:32:40.000Z</time>
   </trkpt>
   <trkpt lat="52.499386" lon="13.428471">
    <ele>38.2</ele>
    <time>2024-07-22T16:32:42.000Z</time>
   </trkpt>
   <trkpt lat="52.49938" lon="13.428421">
    <ele>38.2</ele>
    <time>2024-07-22T16:32:43.000Z</time>
   </trkpt>
   <trkpt lat="52.499347" lon="13.428061">
    <ele>38</ele>
    <time>2024-07-22T16:32:49.000Z</time>
   </trkpt>
   <trkpt lat="52.499338" lon="13.427731">
    <ele>38</ele>
    <time>2024-07-22T16:32:55.000Z</time>
   </trkpt>
   <trkpt lat="52.499309" lon="13.427442">
    <ele>38</ele>
    <time>2024-07-22T16:33:00.000Z</time>
   </trkpt>
   <trkpt lat="52.499296" lon="13.427133">
    <ele>38</ele>
    <time>2024-07-22T16:33:05.000Z</time>
   </trkpt>
   <trkpt lat="52.499302" lon="13.426874">
    <ele>37.8</ele>
    <time>2024-07-22T16:33:09.000Z</time>
   </trkpt>
   <trkpt lat="52.499315" lon="13.426561">
    <ele>37.4</ele>
    <time>2024-07-22T16:33:14.000Z</time>
   </trkpt>
   <trkpt lat="52.499323" lon="13.426484">
    <ele>37.4</ele>
    <time>2024-07-22T16:33:15.000Z</time>
   </trkpt>
   <trkpt lat="52.499337" lon="13.426436">
    <ele>37.4</ele>
    <time>2024-07-22T16:33:16.000Z</time>
   </trkpt>
   <trkpt lat="52.4994" lon="13.426214">
    <ele>37.4</ele>
    <time>2024-07-22T16:33:19.000Z</time>
   </trkpt>
   <trkpt lat="52.49941" lon="13.426158">
    <ele>37.4</ele>
    <time>2024-07-22T16:33:20.000Z</time>
   </trkpt>
   <trkpt lat="52.499458" lon="13.425936">
    <ele>37.4</ele>
    <time>2024-07-22T16:33:23.000Z</time>
   </trkpt>
   <trkpt lat="52.499497" lon="13.425791">
    <ele>37.4</ele>
    <time>2024-07-22T16:33:25.000Z</time>
   </trkpt>
   <trkpt lat="52.499526" lon="13.425724">
    <ele>37.4</ele>
    <time>2024-07-22T16:33:26.000Z</time>
   </trkpt>
   <trkpt lat="52.499561" lon="13.425622">
    <ele>37.4</ele>
    <time>2024-07-22T16:33:27.000Z</time>
   </trkpt>
   <trkpt lat="52.499608" lon="13.425479">
    <ele>37.4</ele>
    <time>2024-07-22T16:33:29.000Z</time>
   </trkpt>
   <trkpt lat="52.499631" lon="13.425388">
    <ele>37.4</ele>
    <time>2024-07-22T16:33:30.000Z</time>
   </trkpt>
   <trkpt lat="52.499645" lon="13.425302">
    <ele>37.4</ele>
    <time>2024-07-22T16:33:31.000Z</time>
   </trkpt>
   <trkpt lat="52.499704" lon="13.42514">
    <ele>37.4</ele>
    <time>2024-07-22T16:33:34.000Z</time>
   </trkpt>
   <trkpt lat="52.499742" lon="13.425067">
    <ele>37.4</ele>
    <time>2024-07-22T16:33:37.000Z</time>
   </trkpt>
   <trkpt lat="52.499784" lon="13.424897">
    <ele>37.4</ele>
    <time>2024-07-22T16:33:43.000Z</time>
   </trkpt>
   <trkpt lat="52.499826" lon="13.424797">
    <ele>37.4</ele>
    <time>2024-07-22T16:33:45.000Z</time>
   </trkpt>
   <trkpt lat="52.499861" lon="13.424685">
    <ele>37.4</ele>
    <time>2024-07-22T16:33:47.000Z</time>
   </trkpt>
   <trkpt lat="52.499899" lon="13.424542">
    <ele>37.4</ele>
    <time>2024-07-22T16:33:49.000Z</time>
   </trkpt>
   <trkpt lat="52.499961" lon="13.424323">
    <ele>37.2</ele>
    <time>2024-07-22T16:33:52.000Z</time>
   </trkpt>
   <trkpt lat="52.500006" lon="13.424206">
    <ele>37.2</ele>
    <time>2024-07-22T16:33:54.000Z</time>
   </trkpt>
   <trkpt lat="52.50009" lon="13.423915">
    <ele>37.2</ele>
    <time>2024-07-22T16:33:58.000Z</time>
   </trkpt>
   <trkpt lat="52.500146" lon="13.4237">
    <ele>37</ele>
    <time>2024-07-22T16:34:01.000Z</time>
   </trkpt>
   <trkpt lat="52.500186" lon="13.423547">
    <ele>37</ele>
    <time>2024-07-22T16:34:03.000Z</time>
   </trkpt>
   <trkpt lat="52.500197" lon="13.423462">
    <ele>37</ele>
    <time>2024-07-22T16:34:04.000Z</time>
   </trkpt>
   <trkpt lat="52.500237" lon="13.423309">
    <ele>37</ele>
    <time>2024-07-22T16:34:06.000Z</time>
   </trkpt>
   <trkpt lat="52.50025" lon="13.42325">
    <ele>37</ele>
    <time>2024-07-22T16:34:07.000Z</time>
   </trkpt>
   <trkpt lat="52.500298" lon="13.423003">
    <ele>37</ele>
    <time>2024-07-22T16:34:10.000Z</time>
   </trkpt>
   <trkpt lat="52.500333" lon="13.422842">
    <ele>37</ele>
    <time>2024-07-22T16:34:12.000Z</time>
   </trkpt>
   <trkpt lat="52.500415" lon="13.422536">
    <ele>36.8</ele>
    <time>2024-07-22T16:34:16.000Z</time>
   </trkpt>
   <trkpt lat="52.500445" lon="13.422475">
    <ele>36.8</ele>
    <time>2024-07-22T16:34:17.000Z</time>
   </trkpt>
   <trkpt lat="52.500471" lon="13.4224">
    <ele>36.8</ele>
    <time>2024-07-22T16:34:18.000Z</time>
   </trkpt>
   <trkpt lat="52.500519" lon="13.422248">
    <ele>36.8</ele>
    <time>2024-07-22T16:34:20.000Z</time>
   </trkpt>
   <trkpt lat="52.500571" lon="13.422106">
    <ele>36.8</ele>
    <time>2024-07-22T16:34:22.000Z</time>
   </trkpt>
   <trkpt lat="52.500627" lon="13.421964">
    <ele>36.6</ele>
    <time>2024-07-22T16:34:24.000Z</time>
   </trkpt>
   <trkpt lat="52.500685" lon="13.421803">
    <ele>36.6</ele>
    <time>2024-07-22T16:34:26.000Z</time>
   </trkpt>
   <trkpt lat="52.500712" lon="13.421741">
    <ele>36.6</ele>
    <time>2024-07-22T16:34:27.000Z</time>
   </trkpt>
   <trkpt lat="52.500733" lon="13.421674">
    <ele>36.6</ele>
    <time>2024-07-22T16:34:28.000Z</time>
   </trkpt>
   <trkpt lat="52.50077" lon="13.421539">
    <ele>36.6</ele>
    <time>2024-07-22T16:34:30.000Z</time>
   </trkpt>
   <trkpt lat="52.500811" lon="13.421435">
    <ele>36.6</ele>
    <time>2024-07-22T16:34:32.000Z</time>
   </trkpt>
   <trkpt lat="52.50083" lon="13.421377">
    <ele>36.6</ele>
    <time>2024-07-22T16:34:33.000Z</time>
   </trkpt>
   <trkpt lat="52.500909" lon="13.421116">
    <ele>36.8</ele>
    <time>2024-07-22T16:34:37.000Z</time>
   </trkpt>
   <trkpt lat="52.500928" lon="13.421046">
    <ele>36.8</ele>
    <time>2024-07-22T16:34:38.000Z</time>
   </trkpt>
   <trkpt lat="52.501002" lon="13.420777">
    <ele>36.8</ele>
    <time>2024-07-22T16:34:42.000Z</time>
   </trkpt>
   <trkpt lat="52.501045" lon="13.420628">
    <ele>36.8</ele>
    <time>2024-07-22T16:34:44.000Z</time>
   </trkpt>
   <trkpt lat="52.501068" lon="13.420559">
    <ele>36.8</ele>
    <time>2024-07-22T16:34:45.000Z</time>
   </trkpt>
   <trkpt lat="52.501161" lon="13.420288">
    <ele>36.8</ele>
    <time>2024-07-22T16:34:49.000Z</time>
   </trkpt>
   <trkpt lat="52.501179" lon="13.420225">
    <ele>36.6</ele>
    <time>2024-07-22T16:34:50.000Z</time>
   </trkpt>
   <trkpt lat="52.50124" lon="13.41996">
    <ele>36.4</ele>
    <time>2024-07-22T16:34:54.000Z</time>
   </trkpt>
   <trkpt lat="52.501331" lon="13.419601">
    <ele>36.4</ele>
    <time>2024-07-22T16:35:00.000Z</time>
   </trkpt>
   <trkpt lat="52.501341" lon="13.419537">
    <ele>36.4</ele>
    <time>2024-07-22T16:35:01.000Z</time>
   </trkpt>
   <trkpt lat="52.501346" lon="13.419475">
    <ele>36.4</ele>
    <time>2024-07-22T16:35:02.000Z</time>
   </trkpt>
   <trkpt lat="52.501342" lon="13.419312">
    <ele>36.4</ele>
    <time>2024-07-22T16:35:04.000Z</time>
   </trkpt>
   <trkpt lat="52.501345" lon="13.419235">
    <ele>36.4</ele>
    <time>2024-07-22T16:35:05.000Z</time>
   </trkpt>
   <trkpt lat="52.501357" lon="13.419149">
    <ele>36.2</ele>
    <time>2024-07-22T16:35:06.000Z</time>
   </trkpt>
   <trkpt lat="52.501401" lon="13.419001">
    <ele>36.4</ele>
    <time>2024-07-22T16:35:08.000Z</time>
   </trkpt>
   <trkpt lat="52.50143" lon="13.418938">
    <ele>36.4</ele>
    <time>2024-07-22T16:35:09.000Z</time>
   </trkpt>
   <trkpt lat="52.501452" lon="13.418868">
    <ele>36.4</ele>
    <time>2024-07-22T16:35:10.000Z</time>
   </trkpt>
   <trkpt lat="52.501496" lon="13.418704">
    <ele>36.4</ele>
    <time>2024-07-22T16:35:12.000Z</time>
   </trkpt>
   <trkpt lat="52.501525" lon="13.418643">
    <ele>36.4</ele>
    <time>2024-07-22T16:35:13.000Z</time>
   </trkpt>
   <trkpt lat="52.501546" lon="13.418585">
    <ele>36.4</ele>
    <time>2024-07-22T16:35:14.000Z</time>
   </trkpt>
   <trkpt lat="52.501614" lon="13.418379">
    <ele>36.4</ele>
    <time>2024-07-22T16:35:17.000Z</time>
   </trkpt>
   <trkpt lat="52.501742" lon="13.417965">
    <ele>36.4</ele>
    <time>2024-07-22T16:35:23.000Z</time>
   </trkpt>
   <trkpt lat="52.501775" lon="13.417909">
    <ele>36.4</ele>
    <time>2024-07-22T16:35:24.000Z</time>
   </trkpt>
   <trkpt lat="52.501804" lon="13.417849">
    <ele>36.4</ele>
    <time>2024-07-22T16:35:25.000Z</time>
   </trkpt>
   <trkpt lat="52.501848" lon="13.417732">
    <ele>36.4</ele>
    <time>2024-07-22T16:35:27.000Z</time>
   </trkpt>
   <trkpt lat="52.501875" lon="13.417663">
    <ele>36.4</ele>
    <time>2024-07-22T16:35:28.000Z</time>
   </trkpt>
   <trkpt lat="52.501945" lon="13.417417">
    <ele>36.4</ele>
    <time>2024-07-22T16:35:31.000Z</time>
   </trkpt>
   <trkpt lat="52.501965" lon="13.417238">
    <ele>36.4</ele>
    <time>2024-07-22T16:35:33.000Z</time>
   </trkpt>
   <trkpt lat="52.501985" lon="13.417159">
    <ele>36.4</ele>
    <time>2024-07-22T16:35:34.000Z</time>
   </trkpt>
   <trkpt lat="52.502035" lon="13.417014">
    <ele>36.4</ele>
    <time>2024-07-22T16:35:36.000Z</time>
   </trkpt>
   <trkpt lat="52.502069" lon="13.416873">
    <ele>36.4</ele>
    <time>2024-07-22T16:35:38.000Z</time>
   </trkpt>
   <trkpt lat="52.502112" lon="13.416729">
    <ele>36.4</ele>
    <time>2024-07-22T16:35:40.000Z</time>
   </trkpt>
   <trkpt lat="52.502134" lon="13.416662">
    <ele>36.4</ele>
    <time>2024-07-22T16:35:41.000Z</time>
   </trkpt>
   <trkpt lat="52.502156" lon="13.416592">
    <ele>36.6</ele>
    <time>2024-07-22T16:35:42.000Z</time>
   </trkpt>
   <trkpt lat="52.502285" lon="13.416255">
    <ele>37</ele>
    <time>2024-07-22T16:35:47.000Z</time>
   </trkpt>
   <trkpt lat="52.50248" lon="13.415594">
    <ele>37.2</ele>
    <time>2024-07-22T16:35:56.000Z</time>
   </trkpt>
   <trkpt lat="52.502494" lon="13.415524">
    <ele>37.2</ele>
    <time>2024-07-22T16:35:57.000Z</time>
   </trkpt>
   <trkpt lat="52.502534" lon="13.41528">
    <ele>37.2</ele>
    <time>2024-07-22T16:36:01.000Z</time>
   </trkpt>
   <trkpt lat="52.502546" lon="13.415205">
    <ele>37.2</ele>
    <time>2024-07-22T16:36:05.000Z</time>
   </trkpt>
   <trkpt lat="52.502546" lon="13.415205">
    <ele>37.2</ele>
    <time>2024-07-22T16:36:06.000Z</time>
   </trkpt>
   <trkpt lat="52.502546" lon="13.415205">
    <ele>37.2</ele>
    <time>2024-07-22T16:36:07.000Z</time>
   </trkpt>
   <trkpt lat="52.502555" lon="13.415195">
    <ele>37.2</ele>
    <time>2024-07-22T16:36:11.000Z</time>
   </trkpt>
   <trkpt lat="52.502555" lon="13.415195">
    <ele>37.2</ele>
    <time>2024-07-22T16:36:12.000Z</time>
   </trkpt>
   <trkpt lat="52.502555" lon="13.415195">
    <ele>37.2</ele>
    <time>2024-07-22T16:36:14.000Z</time>
   </trkpt>
   <trkpt lat="52.502553" lon="13.415189">
    <ele>37.2</ele>
    <time>2024-07-22T16:36:15.000Z</time>
   </trkpt>
   <trkpt lat="52.502555" lon="13.415188">
    <ele>37.2</ele>
    <time>2024-07-22T16:36:16.000Z</time>
   </trkpt>
   <trkpt lat="52.502555" lon="13.415188">
    <ele>37.2</ele>
    <time>2024-07-22T16:36:17.000Z</time>
   </trkpt>
   <trkpt lat="52.50256" lon="13.415166">
    <ele>37</ele>
    <time>2024-07-22T16:36:23.000Z</time>
   </trkpt>
   <trkpt lat="52.502563" lon="13.415014">
    <ele>37</ele>
    <time>2024-07-22T16:36:27.000Z</time>
   </trkpt>
   <trkpt lat="52.502637" lon="13.414742">
    <ele>36.8</ele>
    <time>2024-07-22T16:36:32.000Z</time>
   </trkpt>
   <trkpt lat="52.502703" lon="13.414582">
    <ele>36.8</ele>
    <time>2024-07-22T16:36:35.000Z</time>
   </trkpt>
   <trkpt lat="52.50274" lon="13.414406">
    <ele>36.8</ele>
    <time>2024-07-22T16:36:37.000Z</time>
   </trkpt>
   <trkpt lat="52.50276" lon="13.414327">
    <ele>36.8</ele>
    <time>2024-07-22T16:36:38.000Z</time>
   </trkpt>
   <trkpt lat="52.502783" lon="13.414254">
    <ele>36.8</ele>
    <time>2024-07-22T16:36:39.000Z</time>
   </trkpt>
   <trkpt lat="52.502833" lon="13.414109">
    <ele>36.8</ele>
    <time>2024-07-22T16:36:41.000Z</time>
   </trkpt>
   <trkpt lat="52.502871" lon="13.413961">
    <ele>36.8</ele>
    <time>2024-07-22T16:36:43.000Z</time>
   </trkpt>
   <trkpt lat="52.502929" lon="13.413626">
    <ele>36.8</ele>
    <time>2024-07-22T16:36:47.000Z</time>
   </trkpt>
   <trkpt lat="52.502974" lon="13.413494">
    <ele>36.8</ele>
    <time>2024-07-22T16:36:49.000Z</time>
   </trkpt>
   <trkpt lat="52.503052" lon="13.413409">
    <ele>36.8</ele>
    <time>2024-07-22T16:36:51.000Z</time>
   </trkpt>
   <trkpt lat="52.503145" lon="13.413323">
    <ele>36.8</ele>
    <time>2024-07-22T16:36:53.000Z</time>
   </trkpt>
   <trkpt lat="52.503206" lon="13.413057">
    <ele>36.8</ele>
    <time>2024-07-22T16:36:57.000Z</time>
   </trkpt>
   <trkpt lat="52.503217" lon="13.412917">
    <ele>37</ele>
    <time>2024-07-22T16:36:59.000Z</time>
   </trkpt>
   <trkpt lat="52.503227" lon="13.412768">
    <ele>36.8</ele>
    <time>2024-07-22T16:37:01.000Z</time>
   </trkpt>
   <trkpt lat="52.503227" lon="13.412602">
    <ele>36.8</ele>
    <time>2024-07-22T16:37:03.000Z</time>
   </trkpt>
   <trkpt lat="52.503238" lon="13.412455">
    <ele>36.6</ele>
    <time>2024-07-22T16:37:05.000Z</time>
   </trkpt>
   <trkpt lat="52.503244" lon="13.412386">
    <ele>36.6</ele>
    <time>2024-07-22T16:37:06.000Z</time>
   </trkpt>
   <trkpt lat="52.50328" lon="13.412115">
    <ele>36.6</ele>
    <time>2024-07-22T16:37:10.000Z</time>
   </trkpt>
   <trkpt lat="52.50331" lon="13.411986">
    <ele>36.6</ele>
    <time>2024-07-22T16:37:12.000Z</time>
   </trkpt>
   <trkpt lat="52.50335" lon="13.411836">
    <ele>36.6</ele>
    <time>2024-07-22T16:37:14.000Z</time>
   </trkpt>
   <trkpt lat="52.503391" lon="13.411768">
    <ele>36.6</ele>
    <time>2024-07-22T16:37:16.000Z</time>
   </trkpt>
   <trkpt lat="52.503413" lon="13.4117">
    <ele>36.6</ele>
    <time>2024-07-22T16:37:17.000Z</time>
   </trkpt>
   <trkpt lat="52.503479" lon="13.411589">
    <ele>36.6</ele>
    <time>2024-07-22T16:37:19.000Z</time>
   </trkpt>
   <trkpt lat="52.503536" lon="13.411379">
    <ele>36.6</ele>
    <time>2024-07-22T16:37:22.000Z</time>
   </trkpt>
   <trkpt lat="52.503548" lon="13.411333">
    <ele>36.6</ele>
    <time>2024-07-22T16:37:23.000Z</time>
   </trkpt>
   <trkpt lat="52.503629" lon="13.411276">
    <ele>36.8</ele>
    <time>2024-07-22T16:37:26.000Z</time>
   </trkpt>
   <trkpt lat="52.503716" lon="13.411231">
    <ele>36.6</ele>
    <time>2024-07-22T16:37:28.000Z</time>
   </trkpt>
   <trkpt lat="52.503835" lon="13.411139">
    <ele>36.6</ele>
    <time>2024-07-22T16:37:31.000Z</time>
   </trkpt>
   <trkpt lat="52.503885" lon="13.411033">
    <ele>36.6</ele>
    <time>2024-07-22T16:37:33.000Z</time>
   </trkpt>
   <trkpt lat="52.503894" lon="13.410972">
    <ele>36.6</ele>
    <time>2024-07-22T16:37:34.000Z</time>
   </trkpt>
   <trkpt lat="52.503898" lon="13.410902">
    <ele>36.6</ele>
    <time>2024-07-22T16:37:35.000Z</time>
   </trkpt>
   <trkpt lat="52.503871" lon="13.410615">
    <ele>36.8</ele>
    <time>2024-07-22T16:37:39.000Z</time>
   </trkpt>
   <trkpt lat="52.503849" lon="13.410475">
    <ele>36.8</ele>
    <time>2024-07-22T16:37:41.000Z</time>
   </trkpt>
   <trkpt lat="52.503862" lon="13.410328">
    <ele>36.8</ele>
    <time>2024-07-22T16:37:43.000Z</time>
   </trkpt>
   <trkpt lat="52.503878" lon="13.410264">
    <ele>36.8</ele>
    <time>2024-07-22T16:37:44.000Z</time>
   </trkpt>
   <trkpt lat="52.503972" lon="13.409976">
    <ele>36.8</ele>
    <time>2024-07-22T16:37:49.000Z</time>
   </trkpt>
   <trkpt lat="52.504006" lon="13.409729">
    <ele>36.6</ele>
    <time>2024-07-22T16:37:53.000Z</time>
   </trkpt>
   <trkpt lat="52.504025" lon="13.409668">
    <ele>36.6</ele>
    <time>2024-07-22T16:37:54.000Z</time>
   </trkpt>
   <trkpt lat="52.504042" lon="13.409597">
    <ele>36.6</ele>
    <time>2024-07-22T16:37:55.000Z</time>
   </trkpt>
   <trkpt lat="52.504115" lon="13.409361">
    <ele>36.6</ele>
    <time>2024-07-22T16:37:59.000Z</time>
   </trkpt>
   <trkpt lat="52.504139" lon="13.409302">
    <ele>36.6</ele>
    <time>2024-07-22T16:38:00.000Z</time>
   </trkpt>
   <trkpt lat="52.504163" lon="13.409246">
    <ele>36.6</ele>
    <time>2024-07-22T16:38:01.000Z</time>
   </trkpt>
   <trkpt lat="52.504203" lon="13.409127">
    <ele>36.6</ele>
    <time>2024-07-22T16:38:03.000Z</time>
   </trkpt>
   <trkpt lat="52.504255" lon="13.408933">
    <ele>36.6</ele>
    <time>2024-07-22T16:38:06.000Z</time>
   </trkpt>
   <trkpt lat="52.504266" lon="13.408863">
    <ele>36.6</ele>
    <time>2024-07-22T16:38:07.000Z</time>
   </trkpt>
   <trkpt lat="52.504294" lon="13.408736">
    <ele>36.6</ele>
    <time>2024-07-22T16:38:09.000Z</time>
   </trkpt>
   <trkpt lat="52.504341" lon="13.408634">
    <ele>36.6</ele>
    <time>2024-07-22T16:38:11.000Z</time>
   </trkpt>
   <trkpt lat="52.504431" lon="13.408316">
    <ele>36.8</ele>
    <time>2024-07-22T16:38:17.000Z</time>
   </trkpt>
   <trkpt lat="52.504472" lon="13.40809">
    <ele>37</ele>
    <time>2024-07-22T16:38:22.000Z</time>
   </trkpt>
   <trkpt lat="52.504475" lon="13.408031">
    <ele>37</ele>
    <time>2024-07-22T16:38:24.000Z</time>
   </trkpt>
   <trkpt lat="52.504447" lon="13.407983">
    <ele>37</ele>
    <time>2024-07-22T16:38:52.000Z</time>
   </trkpt>
   <trkpt lat="52.504426" lon="13.407952">
    <ele>37</ele>
    <time>2024-07-22T16:38:53.000Z</time>
   </trkpt>
   <trkpt lat="52.504295" lon="13.407838">
    <ele>37</ele>
    <time>2024-07-22T16:38:57.000Z</time>
   </trkpt>
   <trkpt lat="52.504223" lon="13.407785">
    <ele>37</ele>
    <time>2024-07-22T16:38:59.000Z</time>
   </trkpt>
   <trkpt lat="52.50415" lon="13.407734">
    <ele>37</ele>
    <time>2024-07-22T16:39:01.000Z</time>
   </trkpt>
   <trkpt lat="52.504111" lon="13.407709">
    <ele>37</ele>
    <time>2024-07-22T16:39:02.000Z</time>
   </trkpt>
   <trkpt lat="52.504073" lon="13.407678">
    <ele>37</ele>
    <time>2024-07-22T16:39:03.000Z</time>
   </trkpt>
   <trkpt lat="52.503933" lon="13.407522">
    <ele>37</ele>
    <time>2024-07-22T16:39:07.000Z</time>
   </trkpt>
   <trkpt lat="52.503896" lon="13.407493">
    <ele>37</ele>
    <time>2024-07-22T16:39:08.000Z</time>
   </trkpt>
   <trkpt lat="52.503774" lon="13.407418">
    <ele>37</ele>
    <time>2024-07-22T16:39:11.000Z</time>
   </trkpt>
   <trkpt lat="52.503622" lon="13.407349">
    <ele>37</ele>
    <time>2024-07-22T16:39:15.000Z</time>
   </trkpt>
   <trkpt lat="52.503497" lon="13.407332">
    <ele>37.2</ele>
    <time>2024-07-22T16:39:20.000Z</time>
   </trkpt>
   <trkpt lat="52.50349" lon="13.407329">
    <ele>37.2</ele>
    <time>2024-07-22T16:39:21.000Z</time>
   </trkpt>
   <trkpt lat="52.503479" lon="13.40734">
    <ele>37.2</ele>
    <time>2024-07-22T16:39:24.000Z</time>
   </trkpt>
   <trkpt lat="52.503479" lon="13.407358">
    <ele>37.2</ele>
    <time>2024-07-22T16:39:25.000Z</time>
   </trkpt>
   <trkpt lat="52.503473" lon="13.407359">
    <ele>37.2</ele>
    <time>2024-07-22T16:39:26.000Z</time>
   </trkpt>
   <trkpt lat="52.503467" lon="13.407364">
    <ele>37.2</ele>
    <time>2024-07-22T16:39:28.000Z</time>
   </trkpt>
   <trkpt lat="52.503297" lon="13.40818">
    <ele>37.4</ele>
    <time>2024-07-22T16:39:44.000Z</time>
   </trkpt>
   <trkpt lat="52.503214" lon="13.408184">
    <ele>37.6</ele>
    <time>2024-07-22T16:39:46.000Z</time>
   </trkpt>
   <trkpt lat="52.503345" lon="13.408203">
    <ele>37.8</ele>
    <time>2024-07-22T16:39:51.000Z</time>
   </trkpt>
   <trkpt lat="52.503403" lon="13.408201">
    <ele>37.8</ele>
    <time>2024-07-22T16:39:54.000Z</time>
   </trkpt>
   <trkpt lat="52.503403" lon="13.408201">
    <ele>37.8</ele>
    <time>2024-07-22T16:39:59.000Z</time>
   </trkpt>
   <trkpt lat="52.503403" lon="13.408201">
    <ele>37.8</ele>
    <time>2024-07-22T16:40:00.000Z</time>
   </trkpt>
  </trkseg>
 </trk>
</gpx>
