<?xml version="1.0" encoding="UTF-8"?>
<gpx creator="StravaGPX" version="1.1" xmlns="http://www.topografix.com/GPX/1/1">
 <metadata>
  <time>2020-10-17T20:52:50Z</time>
 </metadata>
 <trk>
  <name>Afternoon Ride</name>
  <type>1</type>
  <trkseg>
   <trkpt lat="-73.945" lon="100.149747">
    <ele>3405.8</ele>
    <time>2020-10-17T20:52:50.000Z</time>
   </trkpt>
   <trkpt lat="-8.031186" lon="-34.896035">
    <ele>7.7</ele>
    <time>2020-10-17T21:27:57.000Z</time>
   </trkpt>
   <trkpt lat="-8.033086" lon="-34.895496">
    <ele>10</ele>
    <time>2020-10-17T21:28:01.000Z</time>
   </trkpt>
   <trkpt lat="-8.033278" lon="-34.895537">
    <ele>9.1</ele>
    <time>2020-10-17T21:28:12.000Z</time>
   </trkpt>
   <trkpt lat="-8.033285" lon="-34.895569">
    <ele>9.1</ele>
    <time>2020-10-17T21:28:13.000Z</time>
   </trkpt>
   <trkpt lat="-8.033303" lon="-34.895582">
    <ele>9.1</ele>
    <time>2020-10-17T21:28:14.000Z</time>
   </trkpt>
   <trkpt lat="-8.033286" lon="-34.895558">
    <ele>9.1</ele>
    <time>2020-10-17T21:28:15.000Z</time>
   </trkpt>
   <trkpt lat="-8.03349" lon="-34.895515">
    <ele>9.4</ele>
    <time>2020-10-17T21:28:27.000Z</time>
   </trkpt>
   <trkpt lat="-8.033498" lon="-34.895512">
    <ele>9.4</ele>
    <time>2020-10-17T21:28:28.000Z</time>
   </trkpt>
   <trkpt lat="-8.03349" lon="-34.895515">
    <ele>9.4</ele>
    <time>2020-10-17T21:28:29.000Z</time>
   </trkpt>
   <trkpt lat="-8.033503" lon="-34.895521">
    <ele>9.4</ele>
    <time>2020-10-17T21:28:30.000Z</time>
   </trkpt>
   <trkpt lat="-8.033538" lon="-34.895502">
    <ele>9.6</ele>
    <time>2020-10-17T21:28:31.000Z</time>
   </trkpt>
   <trkpt lat="-8.033558" lon="-34.895502">
    <ele>9.6</ele>
    <time>2020-10-17T21:28:32.000Z</time>
   </trkpt>
   <trkpt lat="-8.033583" lon="-34.895475">
    <ele>9.8</ele>
    <time>2020-10-17T21:28:33.000Z</time>
   </trkpt>
   <trkpt lat="-8.033589" lon="-34.89547">
    <ele>9.8</ele>
    <time>2020-10-17T21:28:34.000Z</time>
   </trkpt>
   <trkpt lat="-8.033596" lon="-34.895467">
    <ele>9.8</ele>
    <time>2020-10-17T21:28:35.000Z</time>
   </trkpt>
   <trkpt lat="-8.033601" lon="-34.895486">
    <ele>9.8</ele>
    <time>2020-10-17T21:28:36.000Z</time>
   </trkpt>
   <trkpt lat="-8.033614" lon="-34.895486">
    <ele>9.9</ele>
    <time>2020-10-17T21:28:37.000Z</time>
   </trkpt>
   <trkpt lat="-8.033636" lon="-34.895478">
    <ele>9.9</ele>
    <time>2020-10-17T21:28:38.000Z</time>
   </trkpt>
   <trkpt lat="-8.033658" lon="-34.895467">
    <ele>10</ele>
    <time>2020-10-17T21:28:39.000Z</time>
   </trkpt>
   <trkpt lat="-8.033675" lon="-34.895456">
    <ele>10</ele>
    <time>2020-10-17T21:28:40.000Z</time>
   </trkpt>
   <trkpt lat="-8.033688" lon="-34.895448">
    <ele>10</ele>
    <time>2020-10-17T21:28:41.000Z</time>
   </trkpt>
   <trkpt lat="-8.033691" lon="-34.895456">
    <ele>10</ele>
    <time>2020-10-17T21:28:42.000Z</time>
   </trkpt>
   <trkpt lat="-8.033688" lon="-34.895451">
    <ele>10</ele>
    <time>2020-10-17T21:28:43.000Z</time>
   </trkpt>
   <trkpt lat="-8.033691" lon="-34.895448">
    <ele>10</ele>
    <time>2020-10-17T21:28:44.000Z</time>
   </trkpt>
   <trkpt lat="-8.033693" lon="-34.895448">
    <ele>10</ele>
    <time>2020-10-17T21:28:45.000Z</time>
   </trkpt>
   <trkpt lat="-8.033696" lon="-34.895451">
    <ele>10</ele>
    <time>2020-10-17T21:28:46.000Z</time>
   </trkpt>
   <trkpt lat="-8.033705" lon="-34.895448">
    <ele>10</ele>
    <time>2020-10-17T21:28:47.000Z</time>
   </trkpt>
   <trkpt lat="-8.033703" lon="-34.895448">
    <ele>10</ele>
    <time>2020-10-17T21:28:48.000Z</time>
   </trkpt>
   <trkpt lat="-8.033826" lon="-34.895394">
    <ele>10.2</ele>
    <time>2020-10-17T21:29:00.000Z</time>
   </trkpt>
   <trkpt lat="-8.033845" lon="-34.895389">
    <ele>10.2</ele>
    <time>2020-10-17T21:29:01.000Z</time>
   </trkpt>
   <trkpt lat="-8.033861" lon="-34.895394">
    <ele>10.2</ele>
    <time>2020-10-17T21:29:02.000Z</time>
   </trkpt>
   <trkpt lat="-8.03387" lon="-34.895386">
    <ele>10.4</ele>
    <time>2020-10-17T21:29:03.000Z</time>
   </trkpt>
   <trkpt lat="-8.033881" lon="-34.895386">
    <ele>10.4</ele>
    <time>2020-10-17T21:29:04.000Z</time>
   </trkpt>
   <trkpt lat="-8.033897" lon="-34.895386">
    <ele>10.4</ele>
    <time>2020-10-17T21:29:05.000Z</time>
   </trkpt>
   <trkpt lat="-8.033905" lon="-34.895376">
    <ele>10.6</ele>
    <time>2020-10-17T21:29:06.000Z</time>
   </trkpt>
   <trkpt lat="-8.03391" lon="-34.89537">
    <ele>10.6</ele>
    <time>2020-10-17T21:29:07.000Z</time>
   </trkpt>
   <trkpt lat="-8.033908" lon="-34.895365">
    <ele>10.7</ele>
    <time>2020-10-17T21:29:08.000Z</time>
   </trkpt>
   <trkpt lat="-8.033911" lon="-34.89536">
    <ele>10.7</ele>
    <time>2020-10-17T21:29:09.000Z</time>
   </trkpt>
   <trkpt lat="-8.033931" lon="-34.895357">
    <ele>10.7</ele>
    <time>2020-10-17T21:29:10.000Z</time>
   </trkpt>
   <trkpt lat="-8.033951" lon="-34.895357">
    <ele>10.9</ele>
    <time>2020-10-17T21:29:11.000Z</time>
   </trkpt>
   <trkpt lat="-8.03397" lon="-34.895357">
    <ele>10.9</ele>
    <time>2020-10-17T21:29:12.000Z</time>
   </trkpt>
   <trkpt lat="-8.033983" lon="-34.89536">
    <ele>10.9</ele>
    <time>2020-10-17T21:29:13.000Z</time>
   </trkpt>
   <trkpt lat="-8.033998" lon="-34.89536">
    <ele>11.1</ele>
    <time>2020-10-17T21:29:14.000Z</time>
   </trkpt>
   <trkpt lat="-8.034011" lon="-34.895365">
    <ele>11.1</ele>
    <time>2020-10-17T21:29:15.000Z</time>
   </trkpt>
   <trkpt lat="-8.034021" lon="-34.89537">
    <ele>11.1</ele>
    <time>2020-10-17T21:29:16.000Z</time>
   </trkpt>
   <trkpt lat="-8.03403" lon="-34.895376">
    <ele>11.1</ele>
    <time>2020-10-17T21:29:17.000Z</time>
   </trkpt>
   <trkpt lat="-8.034033" lon="-34.895386">
    <ele>11.3</ele>
    <time>2020-10-17T21:29:18.000Z</time>
   </trkpt>
   <trkpt lat="-8.034033" lon="-34.895397">
    <ele>11.3</ele>
    <time>2020-10-17T21:29:19.000Z</time>
   </trkpt>
   <trkpt lat="-8.034011" lon="-34.895451">
    <ele>10.9</ele>
    <time>2020-10-17T21:29:58.000Z</time>
   </trkpt>
   <trkpt lat="-8.034031" lon="-34.895456">
    <ele>10.7</ele>
    <time>2020-10-17T21:29:59.000Z</time>
   </trkpt>
   <trkpt lat="-8.034041" lon="-34.895456">
    <ele>10.9</ele>
    <time>2020-10-17T21:30:00.000Z</time>
   </trkpt>
   <trkpt lat="-8.034088" lon="-34.895421">
    <ele>11.4</ele>
    <time>2020-10-17T21:30:08.000Z</time>
   </trkpt>
   <trkpt lat="-8.034106" lon="-34.895416">
    <ele>11.4</ele>
    <time>2020-10-17T21:30:09.000Z</time>
   </trkpt>
   <trkpt lat="-8.03412" lon="-34.895416">
    <ele>11.7</ele>
    <time>2020-10-17T21:30:10.000Z</time>
   </trkpt>
   <trkpt lat="-8.03413" lon="-34.895416">
    <ele>11.7</ele>
    <time>2020-10-17T21:30:11.000Z</time>
   </trkpt>
   <trkpt lat="-8.034127" lon="-34.895424">
    <ele>11.7</ele>
    <time>2020-10-17T21:30:12.000Z</time>
   </trkpt>
   <trkpt lat="-8.03413" lon="-34.895432">
    <ele>11.7</ele>
    <time>2020-10-17T21:30:13.000Z</time>
   </trkpt>
   <trkpt lat="-8.03415" lon="-34.895424">
    <ele>11.7</ele>
    <time>2020-10-17T21:30:17.000Z</time>
   </trkpt>
   <trkpt lat="-8.034158" lon="-34.895424">
    <ele>11.7</ele>
    <time>2020-10-17T21:30:18.000Z</time>
   </trkpt>
   <trkpt lat="-8.034166" lon="-34.895421">
    <ele>11.8</ele>
    <time>2020-10-17T21:30:19.000Z</time>
   </trkpt>
   <trkpt lat="-8.034181" lon="-34.895424">
    <ele>11.8</ele>
    <time>2020-10-17T21:30:20.000Z</time>
   </trkpt>
   <trkpt lat="-8.034192" lon="-34.895424">
    <ele>11.8</ele>
    <time>2020-10-17T21:30:21.000Z</time>
   </trkpt>
   <trkpt lat="-8.034201" lon="-34.895432">
    <ele>11.8</ele>
    <time>2020-10-17T21:30:22.000Z</time>
   </trkpt>
   <trkpt lat="-8.034206" lon="-34.895437">
    <ele>11.8</ele>
    <time>2020-10-17T21:30:23.000Z</time>
   </trkpt>
   <trkpt lat="-8.034211" lon="-34.895432">
    <ele>11.8</ele>
    <time>2020-10-17T21:30:24.000Z</time>
   </trkpt>
   <trkpt lat="-8.034222" lon="-34.895432">
    <ele>11.8</ele>
    <time>2020-10-17T21:30:25.000Z</time>
   </trkpt>
   <trkpt lat="-8.03424" lon="-34.895437">
    <ele>11.8</ele>
    <time>2020-10-17T21:30:26.000Z</time>
   </trkpt>
   <trkpt lat="-8.034253" lon="-34.89544">
    <ele>11.8</ele>
    <time>2020-10-17T21:30:27.000Z</time>
   </trkpt>
   <trkpt lat="-8.03426" lon="-34.895437">
    <ele>11.8</ele>
    <time>2020-10-17T21:30:28.000Z</time>
   </trkpt>
   <trkpt lat="-8.03426" lon="-34.895437">
    <ele>11.8</ele>
    <time>2020-10-17T21:30:29.000Z</time>
   </trkpt>
   <trkpt lat="-8.034261" lon="-34.895432">
    <ele>11.8</ele>
    <time>2020-10-17T21:30:30.000Z</time>
   </trkpt>
   <trkpt lat="-8.034278" lon="-34.895424">
    <ele>11.8</ele>
    <time>2020-10-17T21:30:31.000Z</time>
   </trkpt>
   <trkpt lat="-8.034283" lon="-34.895413">
    <ele>11.8</ele>
    <time>2020-10-17T21:30:32.000Z</time>
   </trkpt>
   <trkpt lat="-8.034296" lon="-34.895405">
    <ele>12</ele>
    <time>2020-10-17T21:30:33.000Z</time>
   </trkpt>
   <trkpt lat="-8.034305" lon="-34.895402">
    <ele>12</ele>
    <time>2020-10-17T21:30:34.000Z</time>
   </trkpt>
   <trkpt lat="-8.034316" lon="-34.895405">
    <ele>12</ele>
    <time>2020-10-17T21:30:35.000Z</time>
   </trkpt>
   <trkpt lat="-8.034332" lon="-34.895402">
    <ele>11.9</ele>
    <time>2020-10-17T21:30:36.000Z</time>
   </trkpt>
   <trkpt lat="-8.034343" lon="-34.895394">
    <ele>11.9</ele>
    <time>2020-10-17T21:30:37.000Z</time>
   </trkpt>
   <trkpt lat="-8.034357" lon="-34.895402">
    <ele>11.9</ele>
    <time>2020-10-17T21:30:38.000Z</time>
   </trkpt>
   <trkpt lat="-8.034375" lon="-34.895405">
    <ele>11.7</ele>
    <time>2020-10-17T21:30:39.000Z</time>
   </trkpt>
   <trkpt lat="-8.034393" lon="-34.895402">
    <ele>11.7</ele>
    <time>2020-10-17T21:30:40.000Z</time>
   </trkpt>
   <trkpt lat="-8.034403" lon="-34.895394">
    <ele>11.7</ele>
    <time>2020-10-17T21:30:41.000Z</time>
   </trkpt>
   <trkpt lat="-8.034414" lon="-34.895394">
    <ele>11.5</ele>
    <time>2020-10-17T21:30:42.000Z</time>
   </trkpt>
   <trkpt lat="-8.03442" lon="-34.895389">
    <ele>11.5</ele>
    <time>2020-10-17T21:30:43.000Z</time>
   </trkpt>
   <trkpt lat="-8.034434" lon="-34.895378">
    <ele>11.5</ele>
    <time>2020-10-17T21:30:44.000Z</time>
   </trkpt>
   <trkpt lat="-8.034432" lon="-34.895376">
    <ele>11.5</ele>
    <time>2020-10-17T21:30:45.000Z</time>
   </trkpt>
   <trkpt lat="-8.034426" lon="-34.89537">
    <ele>11.5</ele>
    <time>2020-10-17T21:30:46.000Z</time>
   </trkpt>
   <trkpt lat="-8.034436" lon="-34.89536">
    <ele>11.6</ele>
    <time>2020-10-17T21:30:49.000Z</time>
   </trkpt>
   <trkpt lat="-8.034446" lon="-34.89536">
    <ele>11.6</ele>
    <time>2020-10-17T21:30:50.000Z</time>
   </trkpt>
   <trkpt lat="-8.034455" lon="-34.895352">
    <ele>11.6</ele>
    <time>2020-10-17T21:30:51.000Z</time>
   </trkpt>
   <trkpt lat="-8.034468" lon="-34.895343">
    <ele>11.4</ele>
    <time>2020-10-17T21:30:52.000Z</time>
   </trkpt>
   <trkpt lat="-8.034471" lon="-34.895333">
    <ele>11.4</ele>
    <time>2020-10-17T21:30:53.000Z</time>
   </trkpt>
   <trkpt lat="-8.034475" lon="-34.895322">
    <ele>11.7</ele>
    <time>2020-10-17T21:30:54.000Z</time>
   </trkpt>
   <trkpt lat="-8.034471" lon="-34.895311">
    <ele>11.7</ele>
    <time>2020-10-17T21:30:55.000Z</time>
   </trkpt>
   <trkpt lat="-8.034475" lon="-34.895295">
    <ele>11.7</ele>
    <time>2020-10-17T21:30:57.000Z</time>
   </trkpt>
   <trkpt lat="-8.034488" lon="-34.895279">
    <ele>11.9</ele>
    <time>2020-10-17T21:30:58.000Z</time>
   </trkpt>
   <trkpt lat="-8.034505" lon="-34.895252">
    <ele>11.7</ele>
    <time>2020-10-17T21:30:59.000Z</time>
   </trkpt>
   <trkpt lat="-8.034518" lon="-34.895239">
    <ele>11.7</ele>
    <time>2020-10-17T21:31:00.000Z</time>
   </trkpt>
   <trkpt lat="-8.03453" lon="-34.895217">
    <ele>11.7</ele>
    <time>2020-10-17T21:31:01.000Z</time>
   </trkpt>
   <trkpt lat="-8.034536" lon="-34.895204">
    <ele>11.7</ele>
    <time>2020-10-17T21:31:02.000Z</time>
   </trkpt>
   <trkpt lat="-8.034546" lon="-34.895196">
    <ele>11.3</ele>
    <time>2020-10-17T21:31:03.000Z</time>
   </trkpt>
   <trkpt lat="-8.034563" lon="-34.895185">
    <ele>11.1</ele>
    <time>2020-10-17T21:31:04.000Z</time>
   </trkpt>
   <trkpt lat="-8.034565" lon="-34.895177">
    <ele>11.1</ele>
    <time>2020-10-17T21:31:05.000Z</time>
   </trkpt>
   <trkpt lat="-8.034571" lon="-34.895161">
    <ele>11.1</ele>
    <time>2020-10-17T21:31:06.000Z</time>
   </trkpt>
   <trkpt lat="-8.034583" lon="-34.895153">
    <ele>10.9</ele>
    <time>2020-10-17T21:31:07.000Z</time>
   </trkpt>
   <trkpt lat="-8.034601" lon="-34.895145">
    <ele>10.6</ele>
    <time>2020-10-17T21:31:08.000Z</time>
   </trkpt>
   <trkpt lat="-8.034621" lon="-34.895142">
    <ele>10.6</ele>
    <time>2020-10-17T21:31:09.000Z</time>
   </trkpt>
   <trkpt lat="-8.034636" lon="-34.895132">
    <ele>10.2</ele>
    <time>2020-10-17T21:31:10.000Z</time>
   </trkpt>
   <trkpt lat="-8.034645" lon="-34.895126">
    <ele>10.2</ele>
    <time>2020-10-17T21:31:11.000Z</time>
   </trkpt>
   <trkpt lat="-8.034653" lon="-34.895121">
    <ele>10.2</ele>
    <time>2020-10-17T21:31:12.000Z</time>
   </trkpt>
   <trkpt lat="-8.03466" lon="-34.895115">
    <ele>10.2</ele>
    <time>2020-10-17T21:31:13.000Z</time>
   </trkpt>
   <trkpt lat="-8.034666" lon="-34.895113">
    <ele>10.2</ele>
    <time>2020-10-17T21:31:14.000Z</time>
   </trkpt>
   <trkpt lat="-8.034673" lon="-34.895089">
    <ele>10</ele>
    <time>2020-10-17T21:31:18.000Z</time>
   </trkpt>
   <trkpt lat="-8.034693" lon="-34.895078">
    <ele>10</ele>
    <time>2020-10-17T21:31:19.000Z</time>
   </trkpt>
   <trkpt lat="-8.03471" lon="-34.895073">
    <ele>10</ele>
    <time>2020-10-17T21:31:20.000Z</time>
   </trkpt>
   <trkpt lat="-8.034713" lon="-34.895067">
    <ele>10</ele>
    <time>2020-10-17T21:31:21.000Z</time>
   </trkpt>
   <trkpt lat="-8.034716" lon="-34.895067">
    <ele>10</ele>
    <time>2020-10-17T21:31:22.000Z</time>
   </trkpt>
   <trkpt lat="-8.034723" lon="-34.895067">
    <ele>10</ele>
    <time>2020-10-17T21:31:23.000Z</time>
   </trkpt>
   <trkpt lat="-8.034733" lon="-34.895054">
    <ele>10</ele>
    <time>2020-10-17T21:31:24.000Z</time>
   </trkpt>
   <trkpt lat="-8.034744" lon="-34.895046">
    <ele>10</ele>
    <time>2020-10-17T21:31:25.000Z</time>
   </trkpt>
   <trkpt lat="-8.034751" lon="-34.89504">
    <ele>10</ele>
    <time>2020-10-17T21:31:26.000Z</time>
   </trkpt>
   <trkpt lat="-8.034762" lon="-34.895024">
    <ele>10</ele>
    <time>2020-10-17T21:31:27.000Z</time>
   </trkpt>
   <trkpt lat="-8.034768" lon="-34.895014">
    <ele>10</ele>
    <time>2020-10-17T21:31:28.000Z</time>
   </trkpt>
   <trkpt lat="-8.03478" lon="-34.894995">
    <ele>10</ele>
    <time>2020-10-17T21:31:29.000Z</time>
   </trkpt>
   <trkpt lat="-8.034793" lon="-34.894981">
    <ele>10</ele>
    <time>2020-10-17T21:31:30.000Z</time>
   </trkpt>
   <trkpt lat="-8.034801" lon="-34.894968">
    <ele>10</ele>
    <time>2020-10-17T21:31:31.000Z</time>
   </trkpt>
   <trkpt lat="-8.034811" lon="-34.89496">
    <ele>10</ele>
    <time>2020-10-17T21:31:32.000Z</time>
   </trkpt>
   <trkpt lat="-8.034818" lon="-34.894952">
    <ele>10</ele>
    <time>2020-10-17T21:31:33.000Z</time>
   </trkpt>
   <trkpt lat="-8.034823" lon="-34.894952">
    <ele>10</ele>
    <time>2020-10-17T21:31:34.000Z</time>
   </trkpt>
   <trkpt lat="-8.03483" lon="-34.894941">
    <ele>10</ele>
    <time>2020-10-17T21:31:35.000Z</time>
   </trkpt>
   <trkpt lat="-8.034847" lon="-34.894933">
    <ele>10</ele>
    <time>2020-10-17T21:31:36.000Z</time>
   </trkpt>
   <trkpt lat="-8.034861" lon="-34.894925">
    <ele>10</ele>
    <time>2020-10-17T21:31:37.000Z</time>
   </trkpt>
   <trkpt lat="-8.03487" lon="-34.894914">
    <ele>10</ele>
    <time>2020-10-17T21:31:38.000Z</time>
   </trkpt>
   <trkpt lat="-8.034886" lon="-34.894898">
    <ele>10</ele>
    <time>2020-10-17T21:31:39.000Z</time>
   </trkpt>
   <trkpt lat="-8.03489" lon="-34.894882">
    <ele>10.1</ele>
    <time>2020-10-17T21:31:40.000Z</time>
   </trkpt>
   <trkpt lat="-8.034891" lon="-34.894879">
    <ele>10.1</ele>
    <time>2020-10-17T21:31:41.000Z</time>
   </trkpt>
   <trkpt lat="-8.034906" lon="-34.894869">
    <ele>10.1</ele>
    <time>2020-10-17T21:31:42.000Z</time>
   </trkpt>
   <trkpt lat="-8.034918" lon="-34.894855">
    <ele>10.1</ele>
    <time>2020-10-17T21:31:43.000Z</time>
   </trkpt>
   <trkpt lat="-8.034931" lon="-34.89485">
    <ele>10.3</ele>
    <time>2020-10-17T21:31:44.000Z</time>
   </trkpt>
   <trkpt lat="-8.034951" lon="-34.894837">
    <ele>10.3</ele>
    <time>2020-10-17T21:31:45.000Z</time>
   </trkpt>
   <trkpt lat="-8.034965" lon="-34.894834">
    <ele>10.3</ele>
    <time>2020-10-17T21:31:46.000Z</time>
   </trkpt>
   <trkpt lat="-8.034978" lon="-34.894823">
    <ele>10.3</ele>
    <time>2020-10-17T21:31:47.000Z</time>
   </trkpt>
   <trkpt lat="-8.034988" lon="-34.894823">
    <ele>10.3</ele>
    <time>2020-10-17T21:31:48.000Z</time>
   </trkpt>
   <trkpt lat="-8.034998" lon="-34.894815">
    <ele>10.3</ele>
    <time>2020-10-17T21:31:49.000Z</time>
   </trkpt>
   <trkpt lat="-8.035013" lon="-34.894799">
    <ele>10.6</ele>
    <time>2020-10-17T21:31:50.000Z</time>
   </trkpt>
   <trkpt lat="-8.035026" lon="-34.894783">
    <ele>10.6</ele>
    <time>2020-10-17T21:31:51.000Z</time>
   </trkpt>
   <trkpt lat="-8.035035" lon="-34.894772">
    <ele>10.6</ele>
    <time>2020-10-17T21:31:52.000Z</time>
   </trkpt>
   <trkpt lat="-8.035045" lon="-34.894745">
    <ele>10.8</ele>
    <time>2020-10-17T21:31:53.000Z</time>
   </trkpt>
   <trkpt lat="-8.035048" lon="-34.894729">
    <ele>10.8</ele>
    <time>2020-10-17T21:31:54.000Z</time>
   </trkpt>
   <trkpt lat="-8.035053" lon="-34.89471">
    <ele>11.1</ele>
    <time>2020-10-17T21:31:55.000Z</time>
   </trkpt>
   <trkpt lat="-8.035053" lon="-34.894697">
    <ele>11.1</ele>
    <time>2020-10-17T21:31:56.000Z</time>
   </trkpt>
   <trkpt lat="-8.035058" lon="-34.894689">
    <ele>11.1</ele>
    <time>2020-10-17T21:31:57.000Z</time>
   </trkpt>
   <trkpt lat="-8.035063" lon="-34.894689">
    <ele>11.1</ele>
    <time>2020-10-17T21:31:58.000Z</time>
   </trkpt>
   <trkpt lat="-8.035063" lon="-34.894681">
    <ele>11.1</ele>
    <time>2020-10-17T21:31:59.000Z</time>
   </trkpt>
   <trkpt lat="-8.035065" lon="-34.894673">
    <ele>11.2</ele>
    <time>2020-10-17T21:32:00.000Z</time>
   </trkpt>
   <trkpt lat="-8.035071" lon="-34.894673">
    <ele>11.2</ele>
    <time>2020-10-17T21:32:01.000Z</time>
   </trkpt>
   <trkpt lat="-8.035078" lon="-34.894665">
    <ele>11.2</ele>
    <time>2020-10-17T21:32:02.000Z</time>
   </trkpt>
   <trkpt lat="-8.035085" lon="-34.894651">
    <ele>11.2</ele>
    <time>2020-10-17T21:32:03.000Z</time>
   </trkpt>
   <trkpt lat="-8.0351" lon="-34.894651">
    <ele>11.1</ele>
    <time>2020-10-17T21:32:04.000Z</time>
   </trkpt>
   <trkpt lat="-8.035116" lon="-34.894643">
    <ele>11.1</ele>
    <time>2020-10-17T21:32:05.000Z</time>
   </trkpt>
   <trkpt lat="-8.035123" lon="-34.894635">
    <ele>11.2</ele>
    <time>2020-10-17T21:32:06.000Z</time>
   </trkpt>
   <trkpt lat="-8.03514" lon="-34.894625">
    <ele>11.1</ele>
    <time>2020-10-17T21:32:07.000Z</time>
   </trkpt>
   <trkpt lat="-8.03516" lon="-34.894617">
    <ele>11.1</ele>
    <time>2020-10-17T21:32:08.000Z</time>
   </trkpt>
   <trkpt lat="-8.035171" lon="-34.894617">
    <ele>11.1</ele>
    <time>2020-10-17T21:32:09.000Z</time>
   </trkpt>
   <trkpt lat="-8.035181" lon="-34.894617">
    <ele>11</ele>
    <time>2020-10-17T21:32:10.000Z</time>
   </trkpt>
   <trkpt lat="-8.035186" lon="-34.894609">
    <ele>11</ele>
    <time>2020-10-17T21:32:11.000Z</time>
   </trkpt>
   <trkpt lat="-8.035195" lon="-34.894598">
    <ele>11</ele>
    <time>2020-10-17T21:32:12.000Z</time>
   </trkpt>
   <trkpt lat="-8.035211" lon="-34.894574">
    <ele>11</ele>
    <time>2020-10-17T21:32:13.000Z</time>
   </trkpt>
   <trkpt lat="-8.035223" lon="-34.894552">
    <ele>11</ele>
    <time>2020-10-17T21:32:14.000Z</time>
   </trkpt>
   <trkpt lat="-8.035225" lon="-34.894531">
    <ele>11</ele>
    <time>2020-10-17T21:32:15.000Z</time>
   </trkpt>
   <trkpt lat="-8.035225" lon="-34.894509">
    <ele>11</ele>
    <time>2020-10-17T21:32:16.000Z</time>
   </trkpt>
   <trkpt lat="-8.03523" lon="-34.894507">
    <ele>11</ele>
    <time>2020-10-17T21:32:17.000Z</time>
   </trkpt>
   <trkpt lat="-8.035245" lon="-34.894485">
    <ele>11</ele>
    <time>2020-10-17T21:32:22.000Z</time>
   </trkpt>
   <trkpt lat="-8.035259" lon="-34.894464">
    <ele>11</ele>
    <time>2020-10-17T21:32:23.000Z</time>
   </trkpt>
   <trkpt lat="-8.035273" lon="-34.894453">
    <ele>11</ele>
    <time>2020-10-17T21:32:24.000Z</time>
   </trkpt>
   <trkpt lat="-8.035293" lon="-34.894434">
    <ele>11</ele>
    <time>2020-10-17T21:32:25.000Z</time>
   </trkpt>
   <trkpt lat="-8.035305" lon="-34.894421">
    <ele>11</ele>
    <time>2020-10-17T21:32:26.000Z</time>
   </trkpt>
   <trkpt lat="-8.035324" lon="-34.894407">
    <ele>11</ele>
    <time>2020-10-17T21:32:27.000Z</time>
   </trkpt>
   <trkpt lat="-8.035331" lon="-34.894383">
    <ele>11</ele>
    <time>2020-10-17T21:32:28.000Z</time>
   </trkpt>
   <trkpt lat="-8.035344" lon="-34.894364">
    <ele>11</ele>
    <time>2020-10-17T21:32:29.000Z</time>
   </trkpt>
   <trkpt lat="-8.035356" lon="-34.894356">
    <ele>11.1</ele>
    <time>2020-10-17T21:32:30.000Z</time>
   </trkpt>
   <trkpt lat="-8.035373" lon="-34.894346">
    <ele>11.1</ele>
    <time>2020-10-17T21:32:31.000Z</time>
   </trkpt>
   <trkpt lat="-8.035387" lon="-34.89434">
    <ele>11.1</ele>
    <time>2020-10-17T21:32:32.000Z</time>
   </trkpt>
   <trkpt lat="-8.035401" lon="-34.89433">
    <ele>11.3</ele>
    <time>2020-10-17T21:32:33.000Z</time>
   </trkpt>
   <trkpt lat="-8.035416" lon="-34.894322">
    <ele>11.3</ele>
    <time>2020-10-17T21:32:34.000Z</time>
   </trkpt>
   <trkpt lat="-8.035433" lon="-34.894314">
    <ele>11.3</ele>
    <time>2020-10-17T21:32:35.000Z</time>
   </trkpt>
   <trkpt lat="-8.035446" lon="-34.894295">
    <ele>11.6</ele>
    <time>2020-10-17T21:32:36.000Z</time>
   </trkpt>
   <trkpt lat="-8.03546" lon="-34.894284">
    <ele>11.6</ele>
    <time>2020-10-17T21:32:37.000Z</time>
   </trkpt>
   <trkpt lat="-8.035476" lon="-34.894281">
    <ele>11.6</ele>
    <time>2020-10-17T21:32:38.000Z</time>
   </trkpt>
   <trkpt lat="-8.035498" lon="-34.894281">
    <ele>11.8</ele>
    <time>2020-10-17T21:32:39.000Z</time>
   </trkpt>
   <trkpt lat="-8.035515" lon="-34.894265">
    <ele>11.8</ele>
    <time>2020-10-17T21:32:40.000Z</time>
   </trkpt>
   <trkpt lat="-8.03553" lon="-34.894257">
    <ele>12</ele>
    <time>2020-10-17T21:32:41.000Z</time>
   </trkpt>
   <trkpt lat="-8.035556" lon="-34.894249">
    <ele>12</ele>
    <time>2020-10-17T21:32:42.000Z</time>
   </trkpt>
   <trkpt lat="-8.035576" lon="-34.894238">
    <ele>12</ele>
    <time>2020-10-17T21:32:43.000Z</time>
   </trkpt>
   <trkpt lat="-8.035598" lon="-34.894222">
    <ele>12</ele>
    <time>2020-10-17T21:32:44.000Z</time>
   </trkpt>
   <trkpt lat="-8.035613" lon="-34.894212">
    <ele>12</ele>
    <time>2020-10-17T21:32:45.000Z</time>
   </trkpt>
   <trkpt lat="-8.035629" lon="-34.894204">
    <ele>12</ele>
    <time>2020-10-17T21:32:46.000Z</time>
   </trkpt>
   <trkpt lat="-8.035645" lon="-34.894193">
    <ele>12</ele>
    <time>2020-10-17T21:32:47.000Z</time>
   </trkpt>
   <trkpt lat="-8.035658" lon="-34.894185">
    <ele>12</ele>
    <time>2020-10-17T21:32:48.000Z</time>
   </trkpt>
   <trkpt lat="-8.035685" lon="-34.894185">
    <ele>12</ele>
    <time>2020-10-17T21:32:49.000Z</time>
   </trkpt>
   <trkpt lat="-8.03571" lon="-34.894182">
    <ele>12</ele>
    <time>2020-10-17T21:32:50.000Z</time>
   </trkpt>
   <trkpt lat="-8.035738" lon="-34.894182">
    <ele>12</ele>
    <time>2020-10-17T21:32:51.000Z</time>
   </trkpt>
   <trkpt lat="-8.035771" lon="-34.894185">
    <ele>12</ele>
    <time>2020-10-17T21:32:52.000Z</time>
   </trkpt>
   <trkpt lat="-8.035792" lon="-34.894185">
    <ele>12</ele>
    <time>2020-10-17T21:32:53.000Z</time>
   </trkpt>
   <trkpt lat="-8.0358" lon="-34.894177">
    <ele>12</ele>
    <time>2020-10-17T21:32:54.000Z</time>
   </trkpt>
   <trkpt lat="-8.035803" lon="-34.894169">
    <ele>12</ele>
    <time>2020-10-17T21:32:55.000Z</time>
   </trkpt>
   <trkpt lat="-8.035806" lon="-34.894166">
    <ele>12</ele>
    <time>2020-10-17T21:32:56.000Z</time>
   </trkpt>
   <trkpt lat="-8.035803" lon="-34.894163">
    <ele>12</ele>
    <time>2020-10-17T21:32:57.000Z</time>
   </trkpt>
   <trkpt lat="-8.035826" lon="-34.89412">
    <ele>12</ele>
    <time>2020-10-17T21:33:06.000Z</time>
   </trkpt>
   <trkpt lat="-8.035834" lon="-34.894104">
    <ele>12</ele>
    <time>2020-10-17T21:33:07.000Z</time>
   </trkpt>
   <trkpt lat="-8.035834" lon="-34.894094">
    <ele>12</ele>
    <time>2020-10-17T21:33:08.000Z</time>
   </trkpt>
   <trkpt lat="-8.035834" lon="-34.894083">
    <ele>12</ele>
    <time>2020-10-17T21:33:09.000Z</time>
   </trkpt>
   <trkpt lat="-8.035834" lon="-34.894075">
    <ele>12</ele>
    <time>2020-10-17T21:33:10.000Z</time>
   </trkpt>
   <trkpt lat="-8.035837" lon="-34.894059">
    <ele>12</ele>
    <time>2020-10-17T21:33:11.000Z</time>
   </trkpt>
   <trkpt lat="-8.035843" lon="-34.894043">
    <ele>12</ele>
    <time>2020-10-17T21:33:12.000Z</time>
   </trkpt>
   <trkpt lat="-8.035855" lon="-34.894032">
    <ele>11.9</ele>
    <time>2020-10-17T21:33:13.000Z</time>
   </trkpt>
   <trkpt lat="-8.035865" lon="-34.894013">
    <ele>11.9</ele>
    <time>2020-10-17T21:33:14.000Z</time>
   </trkpt>
   <trkpt lat="-8.035881" lon="-34.893994">
    <ele>11.6</ele>
    <time>2020-10-17T21:33:15.000Z</time>
   </trkpt>
   <trkpt lat="-8.035896" lon="-34.89397">
    <ele>11.6</ele>
    <time>2020-10-17T21:33:16.000Z</time>
   </trkpt>
   <trkpt lat="-8.035914" lon="-34.893965">
    <ele>11.4</ele>
    <time>2020-10-17T21:33:17.000Z</time>
   </trkpt>
   <trkpt lat="-8.035926" lon="-34.893951">
    <ele>11.1</ele>
    <time>2020-10-17T21:33:18.000Z</time>
   </trkpt>
   <trkpt lat="-8.035936" lon="-34.893941">
    <ele>11.1</ele>
    <time>2020-10-17T21:33:19.000Z</time>
   </trkpt>
   <trkpt lat="-8.035945" lon="-34.893933">
    <ele>10.9</ele>
    <time>2020-10-17T21:33:20.000Z</time>
   </trkpt>
   <trkpt lat="-8.03595" lon="-34.89393">
    <ele>10.9</ele>
    <time>2020-10-17T21:33:21.000Z</time>
   </trkpt>
   <trkpt lat="-8.036048" lon="-34.893799">
    <ele>9.7</ele>
    <time>2020-10-17T21:33:34.000Z</time>
   </trkpt>
   <trkpt lat="-8.036061" lon="-34.893796">
    <ele>9.7</ele>
    <time>2020-10-17T21:33:35.000Z</time>
   </trkpt>
   <trkpt lat="-8.036071" lon="-34.893796">
    <ele>9.7</ele>
    <time>2020-10-17T21:33:36.000Z</time>
   </trkpt>
   <trkpt lat="-8.036063" lon="-34.893793">
    <ele>9.7</ele>
    <time>2020-10-17T21:33:37.000Z</time>
   </trkpt>
   <trkpt lat="-8.036053" lon="-34.893793">
    <ele>9.7</ele>
    <time>2020-10-17T21:33:38.000Z</time>
   </trkpt>
   <trkpt lat="-8.036053" lon="-34.893788">
    <ele>9.7</ele>
    <time>2020-10-17T21:33:39.000Z</time>
   </trkpt>
   <trkpt lat="-8.036065" lon="-34.893785">
    <ele>9.7</ele>
    <time>2020-10-17T21:33:40.000Z</time>
   </trkpt>
   <trkpt lat="-8.036081" lon="-34.893777">
    <ele>9.4</ele>
    <time>2020-10-17T21:33:41.000Z</time>
   </trkpt>
   <trkpt lat="-8.03609" lon="-34.893766">
    <ele>9.4</ele>
    <time>2020-10-17T21:33:42.000Z</time>
   </trkpt>
   <trkpt lat="-8.036086" lon="-34.893753">
    <ele>9.4</ele>
    <time>2020-10-17T21:33:43.000Z</time>
   </trkpt>
   <trkpt lat="-8.036081" lon="-34.893742">
    <ele>9.4</ele>
    <time>2020-10-17T21:33:44.000Z</time>
   </trkpt>
   <trkpt lat="-8.036073" lon="-34.89374">
    <ele>9.4</ele>
    <time>2020-10-17T21:33:45.000Z</time>
   </trkpt>
   <trkpt lat="-8.036068" lon="-34.893731">
    <ele>9.2</ele>
    <time>2020-10-17T21:33:46.000Z</time>
   </trkpt>
   <trkpt lat="-8.036076" lon="-34.893721">
    <ele>9.2</ele>
    <time>2020-10-17T21:33:47.000Z</time>
   </trkpt>
   <trkpt lat="-8.036106" lon="-34.893659">
    <ele>9</ele>
    <time>2020-10-17T21:33:57.000Z</time>
   </trkpt>
   <trkpt lat="-8.036113" lon="-34.893648">
    <ele>9</ele>
    <time>2020-10-17T21:33:58.000Z</time>
   </trkpt>
   <trkpt lat="-8.036117" lon="-34.893643">
    <ele>9</ele>
    <time>2020-10-17T21:33:59.000Z</time>
   </trkpt>
   <trkpt lat="-8.036124" lon="-34.89364">
    <ele>9</ele>
    <time>2020-10-17T21:34:00.000Z</time>
   </trkpt>
   <trkpt lat="-8.036133" lon="-34.893635">
    <ele>9</ele>
    <time>2020-10-17T21:34:01.000Z</time>
   </trkpt>
   <trkpt lat="-8.036146" lon="-34.893635">
    <ele>9</ele>
    <time>2020-10-17T21:34:02.000Z</time>
   </trkpt>
   <trkpt lat="-8.03615" lon="-34.893627">
    <ele>9</ele>
    <time>2020-10-17T21:34:03.000Z</time>
   </trkpt>
   <trkpt lat="-8.036162" lon="-34.893608">
    <ele>9</ele>
    <time>2020-10-17T21:34:04.000Z</time>
   </trkpt>
   <trkpt lat="-8.036168" lon="-34.893605">
    <ele>9</ele>
    <time>2020-10-17T21:34:05.000Z</time>
   </trkpt>
   <trkpt lat="-8.036187" lon="-34.893608">
    <ele>9</ele>
    <time>2020-10-17T21:34:06.000Z</time>
   </trkpt>
   <trkpt lat="-8.036203" lon="-34.893597">
    <ele>9.1</ele>
    <time>2020-10-17T21:34:07.000Z</time>
   </trkpt>
   <trkpt lat="-8.036218" lon="-34.893597">
    <ele>9.1</ele>
    <time>2020-10-17T21:34:08.000Z</time>
   </trkpt>
   <trkpt lat="-8.036246" lon="-34.8936">
    <ele>9.3</ele>
    <time>2020-10-17T21:34:09.000Z</time>
   </trkpt>
   <trkpt lat="-8.036266" lon="-34.893605">
    <ele>9.3</ele>
    <time>2020-10-17T21:34:10.000Z</time>
   </trkpt>
   <trkpt lat="-8.03627" lon="-34.893605">
    <ele>9.3</ele>
    <time>2020-10-17T21:34:11.000Z</time>
   </trkpt>
   <trkpt lat="-8.03628" lon="-34.893605">
    <ele>9.3</ele>
    <time>2020-10-17T21:34:12.000Z</time>
   </trkpt>
   <trkpt lat="-8.03629" lon="-34.8936">
    <ele>9.5</ele>
    <time>2020-10-17T21:34:13.000Z</time>
   </trkpt>
   <trkpt lat="-8.036306" lon="-34.893587">
    <ele>9.5</ele>
    <time>2020-10-17T21:34:14.000Z</time>
   </trkpt>
   <trkpt lat="-8.036313" lon="-34.893576">
    <ele>9.5</ele>
    <time>2020-10-17T21:34:15.000Z</time>
   </trkpt>
   <trkpt lat="-8.036318" lon="-34.893562">
    <ele>9.2</ele>
    <time>2020-10-17T21:34:16.000Z</time>
   </trkpt>
   <trkpt lat="-8.036336" lon="-34.893544">
    <ele>9.3</ele>
    <time>2020-10-17T21:34:17.000Z</time>
   </trkpt>
   <trkpt lat="-8.036385" lon="-34.893364">
    <ele>8.2</ele>
    <time>2020-10-17T21:34:38.000Z</time>
   </trkpt>
   <trkpt lat="-8.036395" lon="-34.893361">
    <ele>8.2</ele>
    <time>2020-10-17T21:34:39.000Z</time>
   </trkpt>
   <trkpt lat="-8.036396" lon="-34.893353">
    <ele>8.2</ele>
    <time>2020-10-17T21:34:40.000Z</time>
   </trkpt>
   <trkpt lat="-8.036393" lon="-34.893345">
    <ele>8</ele>
    <time>2020-10-17T21:34:41.000Z</time>
   </trkpt>
   <trkpt lat="-8.0364" lon="-34.893337">
    <ele>8</ele>
    <time>2020-10-17T21:34:42.000Z</time>
   </trkpt>
   <trkpt lat="-8.036433" lon="-34.8933">
    <ele>8</ele>
    <time>2020-10-17T21:34:47.000Z</time>
   </trkpt>
   <trkpt lat="-8.036431" lon="-34.893289">
    <ele>8</ele>
    <time>2020-10-17T21:34:48.000Z</time>
   </trkpt>
   <trkpt lat="-8.036431" lon="-34.893273">
    <ele>8</ele>
    <time>2020-10-17T21:34:49.000Z</time>
   </trkpt>
   <trkpt lat="-8.036435" lon="-34.893225">
    <ele>8</ele>
    <time>2020-10-17T21:34:50.000Z</time>
   </trkpt>
   <trkpt lat="-8.036436" lon="-34.8932">
    <ele>8</ele>
    <time>2020-10-17T21:34:51.000Z</time>
   </trkpt>
   <trkpt lat="-8.036435" lon="-34.893174">
    <ele>8</ele>
    <time>2020-10-17T21:34:52.000Z</time>
   </trkpt>
   <trkpt lat="-8.036438" lon="-34.893144">
    <ele>8</ele>
    <time>2020-10-17T21:34:53.000Z</time>
   </trkpt>
   <trkpt lat="-8.036438" lon="-34.893125">
    <ele>8</ele>
    <time>2020-10-17T21:34:54.000Z</time>
   </trkpt>
   <trkpt lat="-8.036446" lon="-34.893101">
    <ele>8</ele>
    <time>2020-10-17T21:34:55.000Z</time>
   </trkpt>
   <trkpt lat="-8.036455" lon="-34.893085">
    <ele>8</ele>
    <time>2020-10-17T21:34:56.000Z</time>
   </trkpt>
   <trkpt lat="-8.036466" lon="-34.893072">
    <ele>8</ele>
    <time>2020-10-17T21:34:57.000Z</time>
   </trkpt>
   <trkpt lat="-8.036471" lon="-34.893056">
    <ele>8</ele>
    <time>2020-10-17T21:34:58.000Z</time>
   </trkpt>
   <trkpt lat="-8.036474" lon="-34.893045">
    <ele>8</ele>
    <time>2020-10-17T21:34:59.000Z</time>
   </trkpt>
   <trkpt lat="-8.036476" lon="-34.893037">
    <ele>8</ele>
    <time>2020-10-17T21:35:00.000Z</time>
   </trkpt>
   <trkpt lat="-8.036476" lon="-34.893034">
    <ele>8</ele>
    <time>2020-10-17T21:35:01.000Z</time>
   </trkpt>
   <trkpt lat="-8.03649" lon="-34.892975">
    <ele>8</ele>
    <time>2020-10-17T21:35:12.000Z</time>
   </trkpt>
   <trkpt lat="-8.036496" lon="-34.892964">
    <ele>7.9</ele>
    <time>2020-10-17T21:35:13.000Z</time>
   </trkpt>
   <trkpt lat="-8.036496" lon="-34.892956">
    <ele>7.9</ele>
    <time>2020-10-17T21:35:14.000Z</time>
   </trkpt>
  </trkseg>
 </trk>
</gpx>
