<?xml version="1.0" encoding="UTF-8"?>
<gpx creator="StravaGPX" version="1.1" xmlns="http://www.topografix.com/GPX/1/1">
 <metadata>
  <time>2019-09-24T15:16:10Z</time>
 </metadata>
 <trk>
  <name>Lunch Ride</name>
  <type>1</type>
  <trkseg>
   <trkpt lat="-8.036755" lon="-34.892587">
    <ele>7.2</ele>
    <time>2019-09-24T15:16:10.000Z</time>
   </trkpt>
   <trkpt lat="-8.036864" lon="-34.893288">
    <ele>6.2</ele>
    <time>2019-09-24T15:16:44.000Z</time>
   </trkpt>
   <trkpt lat="-8.036882" lon="-34.893304">
    <ele>6.3</ele>
    <time>2019-09-24T15:16:45.000Z</time>
   </trkpt>
   <trkpt lat="-8.036922" lon="-34.893324">
    <ele>6.5</ele>
    <time>2019-09-24T15:16:46.000Z</time>
   </trkpt>
   <trkpt lat="-8.036931" lon="-34.893368">
    <ele>6.5</ele>
    <time>2019-09-24T15:16:47.000Z</time>
   </trkpt>
   <trkpt lat="-8.036928" lon="-34.893422">
    <ele>6.4</ele>
    <time>2019-09-24T15:16:48.000Z</time>
   </trkpt>
   <trkpt lat="-8.036928" lon="-34.893475">
    <ele>6.3</ele>
    <time>2019-09-24T15:16:49.000Z</time>
   </trkpt>
   <trkpt lat="-8.036824" lon="-34.893082">
    <ele>6.5</ele>
    <time>2019-09-24T15:17:07.000Z</time>
   </trkpt>
   <trkpt lat="-8.036851" lon="-34.893023">
    <ele>6.9</ele>
    <time>2019-09-24T15:17:08.000Z</time>
   </trkpt>
   <trkpt lat="-8.036868" lon="-34.892951">
    <ele>7.3</ele>
    <time>2019-09-24T15:17:09.000Z</time>
   </trkpt>
   <trkpt lat="-8.036865" lon="-34.892872">
    <ele>7.8</ele>
    <time>2019-09-24T15:17:10.000Z</time>
   </trkpt>
   <trkpt lat="-8.036872" lon="-34.892809">
    <ele>8</ele>
    <time>2019-09-24T15:17:11.000Z</time>
   </trkpt>
   <trkpt lat="-8.036905" lon="-34.892792">
    <ele>8.2</ele>
    <time>2019-09-24T15:17:12.000Z</time>
   </trkpt>
   <trkpt lat="-8.036934" lon="-34.892803">
    <ele>8.2</ele>
    <time>2019-09-24T15:17:15.000Z</time>
   </trkpt>
   <trkpt lat="-8.036979" lon="-34.892827">
    <ele>8.2</ele>
    <time>2019-09-24T15:17:17.000Z</time>
   </trkpt>
   <trkpt lat="-8.037032" lon="-34.892838">
    <ele>8.5</ele>
    <time>2019-09-24T15:17:19.000Z</time>
   </trkpt>
   <trkpt lat="-8.037059" lon="-34.892848">
    <ele>8.6</ele>
    <time>2019-09-24T15:17:20.000Z</time>
   </trkpt>
   <trkpt lat="-8.037088" lon="-34.892863">
    <ele>8.7</ele>
    <time>2019-09-24T15:17:21.000Z</time>
   </trkpt>
   <trkpt lat="-8.037142" lon="-34.892876">
    <ele>9</ele>
    <time>2019-09-24T15:17:23.000Z</time>
   </trkpt>
   <trkpt lat="-8.037175" lon="-34.892889">
    <ele>9.2</ele>
    <time>2019-09-24T15:17:24.000Z</time>
   </trkpt>
   <trkpt lat="-8.037204" lon="-34.8929">
    <ele>9.3</ele>
    <time>2019-09-24T15:17:25.000Z</time>
   </trkpt>
   <trkpt lat="-8.037233" lon="-34.89291">
    <ele>9.5</ele>
    <time>2019-09-24T15:17:26.000Z</time>
   </trkpt>
   <trkpt lat="-8.037262" lon="-34.892919">
    <ele>9.6</ele>
    <time>2019-09-24T15:17:27.000Z</time>
   </trkpt>
   <trkpt lat="-8.037292" lon="-34.892936">
    <ele>10</ele>
    <time>2019-09-24T15:17:28.000Z</time>
   </trkpt>
   <trkpt lat="-8.037315" lon="-34.892957">
    <ele>10</ele>
    <time>2019-09-24T15:17:29.000Z</time>
   </trkpt>
   <trkpt lat="-8.037332" lon="-34.892977">
    <ele>10</ele>
    <time>2019-09-24T15:17:30.000Z</time>
   </trkpt>
   <trkpt lat="-8.037345" lon="-34.893029">
    <ele>10</ele>
    <time>2019-09-24T15:17:32.000Z</time>
   </trkpt>
   <trkpt lat="-8.037333" lon="-34.893062">
    <ele>10</ele>
    <time>2019-09-24T15:17:33.000Z</time>
   </trkpt>
   <trkpt lat="-8.037321" lon="-34.893093">
    <ele>10</ele>
    <time>2019-09-24T15:17:34.000Z</time>
   </trkpt>
   <trkpt lat="-8.037311" lon="-34.893128">
    <ele>10</ele>
    <time>2019-09-24T15:17:35.000Z</time>
   </trkpt>
   <trkpt lat="-8.037298" lon="-34.893164">
    <ele>10</ele>
    <time>2019-09-24T15:17:36.000Z</time>
   </trkpt>
   <trkpt lat="-8.037283" lon="-34.893201">
    <ele>10</ele>
    <time>2019-09-24T15:17:37.000Z</time>
   </trkpt>
   <trkpt lat="-8.03727" lon="-34.89324">
    <ele>10</ele>
    <time>2019-09-24T15:17:38.000Z</time>
   </trkpt>
   <trkpt lat="-8.037259" lon="-34.893277">
    <ele>9.9</ele>
    <time>2019-09-24T15:17:39.000Z</time>
   </trkpt>
   <trkpt lat="-8.037245" lon="-34.893316">
    <ele>9.9</ele>
    <time>2019-09-24T15:17:40.000Z</time>
   </trkpt>
   <trkpt lat="-8.03723" lon="-34.893356">
    <ele>9.7</ele>
    <time>2019-09-24T15:17:41.000Z</time>
   </trkpt>
   <trkpt lat="-8.037215" lon="-34.893401">
    <ele>9.5</ele>
    <time>2019-09-24T15:17:42.000Z</time>
   </trkpt>
   <trkpt lat="-8.0372" lon="-34.893442">
    <ele>9.2</ele>
    <time>2019-09-24T15:17:43.000Z</time>
   </trkpt>
   <trkpt lat="-8.037181" lon="-34.893477">
    <ele>8.8</ele>
    <time>2019-09-24T15:17:44.000Z</time>
   </trkpt>
   <trkpt lat="-8.037163" lon="-34.893516">
    <ele>8.6</ele>
    <time>2019-09-24T15:17:45.000Z</time>
   </trkpt>
   <trkpt lat="-8.037146" lon="-34.893554">
    <ele>8.4</ele>
    <time>2019-09-24T15:17:46.000Z</time>
   </trkpt>
   <trkpt lat="-8.037126" lon="-34.893591">
    <ele>8.3</ele>
    <time>2019-09-24T15:17:47.000Z</time>
   </trkpt>
   <trkpt lat="-8.037107" lon="-34.893628">
    <ele>8.2</ele>
    <time>2019-09-24T15:17:48.000Z</time>
   </trkpt>
   <trkpt lat="-8.037091" lon="-34.893666">
    <ele>8.1</ele>
    <time>2019-09-24T15:17:49.000Z</time>
   </trkpt>
   <trkpt lat="-8.037073" lon="-34.8937">
    <ele>8.4</ele>
    <time>2019-09-24T15:17:50.000Z</time>
   </trkpt>
   <trkpt lat="-8.037058" lon="-34.893737">
    <ele>8.6</ele>
    <time>2019-09-24T15:17:51.000Z</time>
   </trkpt>
   <trkpt lat="-8.037048" lon="-34.893775">
    <ele>8.9</ele>
    <time>2019-09-24T15:17:52.000Z</time>
   </trkpt>
   <trkpt lat="-8.037026" lon="-34.893808">
    <ele>9.2</ele>
    <time>2019-09-24T15:17:53.000Z</time>
   </trkpt>
   <trkpt lat="-8.037016" lon="-34.893838">
    <ele>9.4</ele>
    <time>2019-09-24T15:17:54.000Z</time>
   </trkpt>
   <trkpt lat="-8.036998" lon="-34.89387">
    <ele>9.5</ele>
    <time>2019-09-24T15:17:55.000Z</time>
   </trkpt>
   <trkpt lat="-8.036992" lon="-34.8939">
    <ele>9.5</ele>
    <time>2019-09-24T15:17:56.000Z</time>
   </trkpt>
   <trkpt lat="-8.036984" lon="-34.893955">
    <ele>9.6</ele>
    <time>2019-09-24T15:17:58.000Z</time>
   </trkpt>
   <trkpt lat="-8.036979" lon="-34.893982">
    <ele>9.7</ele>
    <time>2019-09-24T15:17:59.000Z</time>
   </trkpt>
   <trkpt lat="-8.03696" lon="-34.894035">
    <ele>9.8</ele>
    <time>2019-09-24T15:18:01.000Z</time>
   </trkpt>
   <trkpt lat="-8.036952" lon="-34.894062">
    <ele>9.8</ele>
    <time>2019-09-24T15:18:02.000Z</time>
   </trkpt>
   <trkpt lat="-8.036943" lon="-34.894092">
    <ele>9.7</ele>
    <time>2019-09-24T15:18:03.000Z</time>
   </trkpt>
   <trkpt lat="-8.036931" lon="-34.894118">
    <ele>9.7</ele>
    <time>2019-09-24T15:18:04.000Z</time>
   </trkpt>
   <trkpt lat="-8.036926" lon="-34.894145">
    <ele>9.7</ele>
    <time>2019-09-24T15:18:05.000Z</time>
   </trkpt>
   <trkpt lat="-8.036917" lon="-34.894192">
    <ele>9.7</ele>
    <time>2019-09-24T15:18:07.000Z</time>
   </trkpt>
   <trkpt lat="-8.036913" lon="-34.894219">
    <ele>8.9</ele>
    <time>2019-09-24T15:18:10.000Z</time>
   </trkpt>
   <trkpt lat="-8.036941" lon="-34.894257">
    <ele>8.6</ele>
    <time>2019-09-24T15:18:12.000Z</time>
   </trkpt>
   <trkpt lat="-8.036962" lon="-34.894278">
    <ele>8.4</ele>
    <time>2019-09-24T15:18:13.000Z</time>
   </trkpt>
   <trkpt lat="-8.036987" lon="-34.894294">
    <ele>8.2</ele>
    <time>2019-09-24T15:18:14.000Z</time>
   </trkpt>
   <trkpt lat="-8.03702" lon="-34.894303">
    <ele>8</ele>
    <time>2019-09-24T15:18:15.000Z</time>
   </trkpt>
   <trkpt lat="-8.037062" lon="-34.8943">
    <ele>7.9</ele>
    <time>2019-09-24T15:18:16.000Z</time>
   </trkpt>
   <trkpt lat="-8.037103" lon="-34.894297">
    <ele>7.7</ele>
    <time>2019-09-24T15:18:17.000Z</time>
   </trkpt>
   <trkpt lat="-8.037141" lon="-34.894289">
    <ele>7.5</ele>
    <time>2019-09-24T15:18:18.000Z</time>
   </trkpt>
   <trkpt lat="-8.037185" lon="-34.894242">
    <ele>7.3</ele>
    <time>2019-09-24T15:18:20.000Z</time>
   </trkpt>
   <trkpt lat="-8.037214" lon="-34.894212">
    <ele>7.1</ele>
    <time>2019-09-24T15:18:21.000Z</time>
   </trkpt>
   <trkpt lat="-8.037246" lon="-34.89418">
    <ele>7</ele>
    <time>2019-09-24T15:18:22.000Z</time>
   </trkpt>
   <trkpt lat="-8.037268" lon="-34.894151">
    <ele>6.9</ele>
    <time>2019-09-24T15:18:23.000Z</time>
   </trkpt>
   <trkpt lat="-8.037294" lon="-34.894119">
    <ele>6.8</ele>
    <time>2019-09-24T15:18:24.000Z</time>
   </trkpt>
   <trkpt lat="-8.037321" lon="-34.894081">
    <ele>6.7</ele>
    <time>2019-09-24T15:18:25.000Z</time>
   </trkpt>
   <trkpt lat="-8.037356" lon="-34.894044">
    <ele>6.6</ele>
    <time>2019-09-24T15:18:26.000Z</time>
   </trkpt>
   <trkpt lat="-8.037388" lon="-34.894011">
    <ele>6.4</ele>
    <time>2019-09-24T15:18:27.000Z</time>
   </trkpt>
   <trkpt lat="-8.037414" lon="-34.893992">
    <ele>6.3</ele>
    <time>2019-09-24T15:18:28.000Z</time>
   </trkpt>
   <trkpt lat="-8.037442" lon="-34.893986">
    <ele>6.2</ele>
    <time>2019-09-24T15:18:29.000Z</time>
   </trkpt>
   <trkpt lat="-8.037471" lon="-34.893986">
    <ele>6.1</ele>
    <time>2019-09-24T15:18:30.000Z</time>
   </trkpt>
   <trkpt lat="-8.037522" lon="-34.894011">
    <ele>5.9</ele>
    <time>2019-09-24T15:18:32.000Z</time>
   </trkpt>
   <trkpt lat="-8.037561" lon="-34.894027">
    <ele>5.7</ele>
    <time>2019-09-24T15:18:33.000Z</time>
   </trkpt>
   <trkpt lat="-8.037602" lon="-34.894041">
    <ele>5.6</ele>
    <time>2019-09-24T15:18:34.000Z</time>
   </trkpt>
   <trkpt lat="-8.037643" lon="-34.894062">
    <ele>5.4</ele>
    <time>2019-09-24T15:18:35.000Z</time>
   </trkpt>
   <trkpt lat="-8.037691" lon="-34.894083">
    <ele>5.2</ele>
    <time>2019-09-24T15:18:36.000Z</time>
   </trkpt>
   <trkpt lat="-8.037737" lon="-34.8941">
    <ele>5.4</ele>
    <time>2019-09-24T15:18:37.000Z</time>
   </trkpt>
   <trkpt lat="-8.037781" lon="-34.894117">
    <ele>5.6</ele>
    <time>2019-09-24T15:18:38.000Z</time>
   </trkpt>
   <trkpt lat="-8.037826" lon="-34.894132">
    <ele>5.9</ele>
    <time>2019-09-24T15:18:39.000Z</time>
   </trkpt>
   <trkpt lat="-8.037868" lon="-34.89415">
    <ele>6.1</ele>
    <time>2019-09-24T15:18:40.000Z</time>
   </trkpt>
   <trkpt lat="-8.037915" lon="-34.894168">
    <ele>6.4</ele>
    <time>2019-09-24T15:18:41.000Z</time>
   </trkpt>
   <trkpt lat="-8.037959" lon="-34.894182">
    <ele>6.8</ele>
    <time>2019-09-24T15:18:42.000Z</time>
   </trkpt>
   <trkpt lat="-8.038005" lon="-34.894195">
    <ele>7</ele>
    <time>2019-09-24T15:18:43.000Z</time>
   </trkpt>
   <trkpt lat="-8.038047" lon="-34.89421">
    <ele>7.2</ele>
    <time>2019-09-24T15:18:44.000Z</time>
   </trkpt>
   <trkpt lat="-8.038093" lon="-34.894228">
    <ele>7.4</ele>
    <time>2019-09-24T15:18:45.000Z</time>
   </trkpt>
   <trkpt lat="-8.038135" lon="-34.894244">
    <ele>7.7</ele>
    <time>2019-09-24T15:18:46.000Z</time>
   </trkpt>
   <trkpt lat="-8.038177" lon="-34.89426">
    <ele>8</ele>
    <time>2019-09-24T15:18:47.000Z</time>
   </trkpt>
   <trkpt lat="-8.038215" lon="-34.894275">
    <ele>8.3</ele>
    <time>2019-09-24T15:18:48.000Z</time>
   </trkpt>
   <trkpt lat="-8.038255" lon="-34.89429">
    <ele>8.5</ele>
    <time>2019-09-24T15:18:49.000Z</time>
   </trkpt>
   <trkpt lat="-8.038293" lon="-34.894302">
    <ele>8.8</ele>
    <time>2019-09-24T15:18:50.000Z</time>
   </trkpt>
   <trkpt lat="-8.03833" lon="-34.89431">
    <ele>8.7</ele>
    <time>2019-09-24T15:18:51.000Z</time>
   </trkpt>
   <trkpt lat="-8.038366" lon="-34.894322">
    <ele>8.7</ele>
    <time>2019-09-24T15:18:52.000Z</time>
   </trkpt>
   <trkpt lat="-8.038402" lon="-34.894334">
    <ele>8.7</ele>
    <time>2019-09-24T15:18:53.000Z</time>
   </trkpt>
   <trkpt lat="-8.038442" lon="-34.894346">
    <ele>8.7</ele>
    <time>2019-09-24T15:18:54.000Z</time>
   </trkpt>
   <trkpt lat="-8.038484" lon="-34.894358">
    <ele>8.7</ele>
    <time>2019-09-24T15:18:55.000Z</time>
   </trkpt>
   <trkpt lat="-8.038529" lon="-34.894378">
    <ele>8.7</ele>
    <time>2019-09-24T15:18:56.000Z</time>
   </trkpt>
   <trkpt lat="-8.038574" lon="-34.894395">
    <ele>8.7</ele>
    <time>2019-09-24T15:18:57.000Z</time>
   </trkpt>
   <trkpt lat="-8.038615" lon="-34.894422">
    <ele>8.6</ele>
    <time>2019-09-24T15:18:58.000Z</time>
   </trkpt>
   <trkpt lat="-8.03866" lon="-34.894438">
    <ele>8.6</ele>
    <time>2019-09-24T15:18:59.000Z</time>
   </trkpt>
   <trkpt lat="-8.038706" lon="-34.894453">
    <ele>8.6</ele>
    <time>2019-09-24T15:19:00.000Z</time>
   </trkpt>
   <trkpt lat="-8.038747" lon="-34.894461">
    <ele>8.6</ele>
    <time>2019-09-24T15:19:01.000Z</time>
   </trkpt>
   <trkpt lat="-8.038786" lon="-34.894473">
    <ele>8.6</ele>
    <time>2019-09-24T15:19:02.000Z</time>
   </trkpt>
   <trkpt lat="-8.038826" lon="-34.894495">
    <ele>8.7</ele>
    <time>2019-09-24T15:19:03.000Z</time>
   </trkpt>
   <trkpt lat="-8.038861" lon="-34.894508">
    <ele>8.7</ele>
    <time>2019-09-24T15:19:04.000Z</time>
   </trkpt>
   <trkpt lat="-8.038898" lon="-34.894522">
    <ele>8.7</ele>
    <time>2019-09-24T15:19:05.000Z</time>
   </trkpt>
   <trkpt lat="-8.038935" lon="-34.894533">
    <ele>8.8</ele>
    <time>2019-09-24T15:19:06.000Z</time>
   </trkpt>
   <trkpt lat="-8.038978" lon="-34.894546">
    <ele>8.9</ele>
    <time>2019-09-24T15:19:07.000Z</time>
   </trkpt>
   <trkpt lat="-8.03902" lon="-34.894557">
    <ele>8.9</ele>
    <time>2019-09-24T15:19:08.000Z</time>
   </trkpt>
   <trkpt lat="-8.039061" lon="-34.894565">
    <ele>9</ele>
    <time>2019-09-24T15:19:09.000Z</time>
   </trkpt>
   <trkpt lat="-8.039107" lon="-34.894579">
    <ele>9.1</ele>
    <time>2019-09-24T15:19:10.000Z</time>
   </trkpt>
   <trkpt lat="-8.039152" lon="-34.894599">
    <ele>9.2</ele>
    <time>2019-09-24T15:19:11.000Z</time>
   </trkpt>
   <trkpt lat="-8.0392" lon="-34.894614">
    <ele>9.2</ele>
    <time>2019-09-24T15:19:12.000Z</time>
   </trkpt>
   <trkpt lat="-8.03925" lon="-34.894619">
    <ele>9.3</ele>
    <time>2019-09-24T15:19:13.000Z</time>
   </trkpt>
   <trkpt lat="-8.039291" lon="-34.894621">
    <ele>9.3</ele>
    <time>2019-09-24T15:19:14.000Z</time>
   </trkpt>
   <trkpt lat="-8.039332" lon="-34.894631">
    <ele>9.3</ele>
    <time>2019-09-24T15:19:15.000Z</time>
   </trkpt>
   <trkpt lat="-8.039366" lon="-34.894645">
    <ele>10.3</ele>
    <time>2019-09-24T15:19:16.000Z</time>
   </trkpt>
   <trkpt lat="-8.039399" lon="-34.89466">
    <ele>10.8</ele>
    <time>2019-09-24T15:19:17.000Z</time>
   </trkpt>
   <trkpt lat="-8.039432" lon="-34.89468">
    <ele>11.3</ele>
    <time>2019-09-24T15:19:18.000Z</time>
   </trkpt>
   <trkpt lat="-8.039466" lon="-34.894695">
    <ele>11.8</ele>
    <time>2019-09-24T15:19:19.000Z</time>
   </trkpt>
   <trkpt lat="-8.039509" lon="-34.894707">
    <ele>12.4</ele>
    <time>2019-09-24T15:19:20.000Z</time>
   </trkpt>
   <trkpt lat="-8.039558" lon="-34.894716">
    <ele>12.9</ele>
    <time>2019-09-24T15:19:21.000Z</time>
   </trkpt>
   <trkpt lat="-8.039608" lon="-34.894725">
    <ele>13.6</ele>
    <time>2019-09-24T15:19:22.000Z</time>
   </trkpt>
   <trkpt lat="-8.039656" lon="-34.894737">
    <ele>14.2</ele>
    <time>2019-09-24T15:19:23.000Z</time>
   </trkpt>
   <trkpt lat="-8.039715" lon="-34.894763">
    <ele>14.8</ele>
    <time>2019-09-24T15:19:24.000Z</time>
   </trkpt>
   <trkpt lat="-8.039768" lon="-34.894782">
    <ele>15.4</ele>
    <time>2019-09-24T15:19:25.000Z</time>
   </trkpt>
   <trkpt lat="-8.039804" lon="-34.894804">
    <ele>15.8</ele>
    <time>2019-09-24T15:19:26.000Z</time>
   </trkpt>
   <trkpt lat="-8.03986" lon="-34.894832">
    <ele>16.6</ele>
    <time>2019-09-24T15:19:27.000Z</time>
   </trkpt>
   <trkpt lat="-8.039916" lon="-34.894845">
    <ele>17.2</ele>
    <time>2019-09-24T15:19:28.000Z</time>
   </trkpt>
   <trkpt lat="-8.039968" lon="-34.89486">
    <ele>17.8</ele>
    <time>2019-09-24T15:19:29.000Z</time>
   </trkpt>
   <trkpt lat="-8.040003" lon="-34.894874">
    <ele>18.2</ele>
    <time>2019-09-24T15:19:30.000Z</time>
   </trkpt>
   <trkpt lat="-8.040055" lon="-34.894885">
    <ele>18.5</ele>
    <time>2019-09-24T15:19:31.000Z</time>
   </trkpt>
   <trkpt lat="-8.040097" lon="-34.89489">
    <ele>18.6</ele>
    <time>2019-09-24T15:19:32.000Z</time>
   </trkpt>
   <trkpt lat="-8.040146" lon="-34.894854">
    <ele>18.8</ele>
    <time>2019-09-24T15:19:33.000Z</time>
   </trkpt>
   <trkpt lat="-8.040198" lon="-34.894831">
    <ele>19</ele>
    <time>2019-09-24T15:19:34.000Z</time>
   </trkpt>
   <trkpt lat="-8.040249" lon="-34.894811">
    <ele>19.1</ele>
    <time>2019-09-24T15:19:35.000Z</time>
   </trkpt>
   <trkpt lat="-8.040296" lon="-34.894798">
    <ele>19.3</ele>
    <time>2019-09-24T15:19:36.000Z</time>
   </trkpt>
   <trkpt lat="-8.040337" lon="-34.894777">
    <ele>19.4</ele>
    <time>2019-09-24T15:19:37.000Z</time>
   </trkpt>
   <trkpt lat="-8.040385" lon="-34.894764">
    <ele>19.2</ele>
    <time>2019-09-24T15:19:38.000Z</time>
   </trkpt>
   <trkpt lat="-8.040428" lon="-34.894761">
    <ele>19.1</ele>
    <time>2019-09-24T15:19:39.000Z</time>
   </trkpt>
   <trkpt lat="-8.040466" lon="-34.894757">
    <ele>19</ele>
    <time>2019-09-24T15:19:40.000Z</time>
   </trkpt>
   <trkpt lat="-8.040502" lon="-34.894717">
    <ele>18.8</ele>
    <time>2019-09-24T15:19:41.000Z</time>
   </trkpt>
   <trkpt lat="-8.040547" lon="-34.894704">
    <ele>18.7</ele>
    <time>2019-09-24T15:19:42.000Z</time>
   </trkpt>
   <trkpt lat="-8.040592" lon="-34.894678">
    <ele>18.6</ele>
    <time>2019-09-24T15:19:43.000Z</time>
   </trkpt>
   <trkpt lat="-8.040634" lon="-34.89465">
    <ele>18.5</ele>
    <time>2019-09-24T15:19:44.000Z</time>
   </trkpt>
   <trkpt lat="-8.040673" lon="-34.894639">
    <ele>18.4</ele>
    <time>2019-09-24T15:19:45.000Z</time>
   </trkpt>
   <trkpt lat="-8.040711" lon="-34.894628">
    <ele>18.3</ele>
    <time>2019-09-24T15:19:46.000Z</time>
   </trkpt>
   <trkpt lat="-8.040744" lon="-34.894614">
    <ele>18.3</ele>
    <time>2019-09-24T15:19:47.000Z</time>
   </trkpt>
   <trkpt lat="-8.040778" lon="-34.894593">
    <ele>18.1</ele>
    <time>2019-09-24T15:19:48.000Z</time>
   </trkpt>
   <trkpt lat="-8.040804" lon="-34.894572">
    <ele>18</ele>
    <time>2019-09-24T15:19:49.000Z</time>
   </trkpt>
   <trkpt lat="-8.040827" lon="-34.894552">
    <ele>17.9</ele>
    <time>2019-09-24T15:19:50.000Z</time>
   </trkpt>
   <trkpt lat="-8.040848" lon="-34.894527">
    <ele>17.9</ele>
    <time>2019-09-24T15:19:51.000Z</time>
   </trkpt>
   <trkpt lat="-8.040897" lon="-34.894518">
    <ele>17.7</ele>
    <time>2019-09-24T15:19:53.000Z</time>
   </trkpt>
   <trkpt lat="-8.040924" lon="-34.894489">
    <ele>17.7</ele>
    <time>2019-09-24T15:19:54.000Z</time>
   </trkpt>
   <trkpt lat="-8.040953" lon="-34.894462">
    <ele>17.6</ele>
    <time>2019-09-24T15:19:55.000Z</time>
   </trkpt>
   <trkpt lat="-8.040989" lon="-34.894444">
    <ele>17.5</ele>
    <time>2019-09-24T15:19:56.000Z</time>
   </trkpt>
   <trkpt lat="-8.041024" lon="-34.894436">
    <ele>17.4</ele>
    <time>2019-09-24T15:19:57.000Z</time>
   </trkpt>
   <trkpt lat="-8.04106" lon="-34.894423">
    <ele>17.4</ele>
    <time>2019-09-24T15:19:58.000Z</time>
   </trkpt>
   <trkpt lat="-8.041083" lon="-34.894398">
    <ele>17.4</ele>
    <time>2019-09-24T15:19:59.000Z</time>
   </trkpt>
   <trkpt lat="-8.041113" lon="-34.894379">
    <ele>17.4</ele>
    <time>2019-09-24T15:20:00.000Z</time>
   </trkpt>
   <trkpt lat="-8.041152" lon="-34.894345">
    <ele>17.4</ele>
    <time>2019-09-24T15:20:02.000Z</time>
   </trkpt>
   <trkpt lat="-8.041188" lon="-34.894311">
    <ele>17.3</ele>
    <time>2019-09-24T15:20:04.000Z</time>
   </trkpt>
   <trkpt lat="-8.041205" lon="-34.894267">
    <ele>17.3</ele>
    <time>2019-09-24T15:20:06.000Z</time>
   </trkpt>
   <trkpt lat="-8.041207" lon="-34.894239">
    <ele>17.3</ele>
    <time>2019-09-24T15:20:08.000Z</time>
   </trkpt>
   <trkpt lat="-8.041224" lon="-34.894214">
    <ele>17.3</ele>
    <time>2019-09-24T15:20:11.000Z</time>
   </trkpt>
   <trkpt lat="-8.04125" lon="-34.894169">
    <ele>17.3</ele>
    <time>2019-09-24T15:20:13.000Z</time>
   </trkpt>
   <trkpt lat="-8.041255" lon="-34.894125">
    <ele>17.3</ele>
    <time>2019-09-24T15:20:15.000Z</time>
   </trkpt>
   <trkpt lat="-8.041273" lon="-34.894091">
    <ele>17.3</ele>
    <time>2019-09-24T15:20:16.000Z</time>
   </trkpt>
   <trkpt lat="-8.041305" lon="-34.894039">
    <ele>17.3</ele>
    <time>2019-09-24T15:20:18.000Z</time>
   </trkpt>
   <trkpt lat="-8.041325" lon="-34.894004">
    <ele>17.4</ele>
    <time>2019-09-24T15:20:19.000Z</time>
   </trkpt>
   <trkpt lat="-8.041362" lon="-34.893993">
    <ele>17.4</ele>
    <time>2019-09-24T15:20:20.000Z</time>
   </trkpt>
   <trkpt lat="-8.041395" lon="-34.893972">
    <ele>17.5</ele>
    <time>2019-09-24T15:20:21.000Z</time>
   </trkpt>
   <trkpt lat="-8.04142" lon="-34.89394">
    <ele>17.7</ele>
    <time>2019-09-24T15:20:22.000Z</time>
   </trkpt>
   <trkpt lat="-8.041439" lon="-34.893916">
    <ele>17.8</ele>
    <time>2019-09-24T15:20:23.000Z</time>
   </trkpt>
   <trkpt lat="-8.041465" lon="-34.893892">
    <ele>17.9</ele>
    <time>2019-09-24T15:20:24.000Z</time>
   </trkpt>
   <trkpt lat="-8.041492" lon="-34.893883">
    <ele>18</ele>
    <time>2019-09-24T15:20:25.000Z</time>
   </trkpt>
   <trkpt lat="-8.041552" lon="-34.893896">
    <ele>17.4</ele>
    <time>2019-09-24T15:20:27.000Z</time>
   </trkpt>
   <trkpt lat="-8.041577" lon="-34.893918">
    <ele>17.3</ele>
    <time>2019-09-24T15:20:28.000Z</time>
   </trkpt>
   <trkpt lat="-8.041617" lon="-34.893936">
    <ele>17.1</ele>
    <time>2019-09-24T15:20:29.000Z</time>
   </trkpt>
   <trkpt lat="-8.041658" lon="-34.893967">
    <ele>16.8</ele>
    <time>2019-09-24T15:20:30.000Z</time>
   </trkpt>
   <trkpt lat="-8.041691" lon="-34.893994">
    <ele>16.6</ele>
    <time>2019-09-24T15:20:31.000Z</time>
   </trkpt>
   <trkpt lat="-8.041723" lon="-34.89402">
    <ele>16.5</ele>
    <time>2019-09-24T15:20:32.000Z</time>
   </trkpt>
   <trkpt lat="-8.041756" lon="-34.894045">
    <ele>16.3</ele>
    <time>2019-09-24T15:20:33.000Z</time>
   </trkpt>
   <trkpt lat="-8.041759" lon="-34.894078">
    <ele>16.2</ele>
    <time>2019-09-24T15:20:34.000Z</time>
   </trkpt>
   <trkpt lat="-8.041785" lon="-34.894107">
    <ele>16</ele>
    <time>2019-09-24T15:20:35.000Z</time>
   </trkpt>
   <trkpt lat="-8.041812" lon="-34.894154">
    <ele>15.8</ele>
    <time>2019-09-24T15:20:36.000Z</time>
   </trkpt>
   <trkpt lat="-8.041838" lon="-34.894177">
    <ele>15.6</ele>
    <time>2019-09-24T15:20:37.000Z</time>
   </trkpt>
   <trkpt lat="-8.041866" lon="-34.894201">
    <ele>15.5</ele>
    <time>2019-09-24T15:20:38.000Z</time>
   </trkpt>
   <trkpt lat="-8.041907" lon="-34.894231">
    <ele>15.3</ele>
    <time>2019-09-24T15:20:39.000Z</time>
   </trkpt>
   <trkpt lat="-8.041938" lon="-34.89425">
    <ele>15.2</ele>
    <time>2019-09-24T15:20:40.000Z</time>
   </trkpt>
   <trkpt lat="-8.041975" lon="-34.894274">
    <ele>15</ele>
    <time>2019-09-24T15:20:41.000Z</time>
   </trkpt>
   <trkpt lat="-8.042011" lon="-34.8943">
    <ele>14.8</ele>
    <time>2019-09-24T15:20:42.000Z</time>
   </trkpt>
   <trkpt lat="-8.042047" lon="-34.894325">
    <ele>14.7</ele>
    <time>2019-09-24T15:20:43.000Z</time>
   </trkpt>
   <trkpt lat="-8.042086" lon="-34.89435">
    <ele>14.5</ele>
    <time>2019-09-24T15:20:44.000Z</time>
   </trkpt>
   <trkpt lat="-8.042123" lon="-34.894373">
    <ele>14.3</ele>
    <time>2019-09-24T15:20:45.000Z</time>
   </trkpt>
   <trkpt lat="-8.042159" lon="-34.894397">
    <ele>14.1</ele>
    <time>2019-09-24T15:20:46.000Z</time>
   </trkpt>
   <trkpt lat="-8.042195" lon="-34.894428">
    <ele>13.8</ele>
    <time>2019-09-24T15:20:47.000Z</time>
   </trkpt>
   <trkpt lat="-8.042225" lon="-34.894457">
    <ele>13.6</ele>
    <time>2019-09-24T15:20:48.000Z</time>
   </trkpt>
   <trkpt lat="-8.042252" lon="-34.89448">
    <ele>14</ele>
    <time>2019-09-24T15:20:49.000Z</time>
   </trkpt>
   <trkpt lat="-8.042288" lon="-34.894505">
    <ele>14.3</ele>
    <time>2019-09-24T15:20:50.000Z</time>
   </trkpt>
   <trkpt lat="-8.04233" lon="-34.894533">
    <ele>14.6</ele>
    <time>2019-09-24T15:20:51.000Z</time>
   </trkpt>
   <trkpt lat="-8.04235" lon="-34.894564">
    <ele>14.9</ele>
    <time>2019-09-24T15:20:52.000Z</time>
   </trkpt>
   <trkpt lat="-8.042372" lon="-34.894586">
    <ele>15.1</ele>
    <time>2019-09-24T15:20:53.000Z</time>
   </trkpt>
   <trkpt lat="-8.042406" lon="-34.89461">
    <ele>15.4</ele>
    <time>2019-09-24T15:20:54.000Z</time>
   </trkpt>
   <trkpt lat="-8.042426" lon="-34.894635">
    <ele>15.6</ele>
    <time>2019-09-24T15:20:55.000Z</time>
   </trkpt>
   <trkpt lat="-8.042458" lon="-34.894655">
    <ele>15.9</ele>
    <time>2019-09-24T15:20:56.000Z</time>
   </trkpt>
   <trkpt lat="-8.042481" lon="-34.894676">
    <ele>16.1</ele>
    <time>2019-09-24T15:20:57.000Z</time>
   </trkpt>
   <trkpt lat="-8.042508" lon="-34.894705">
    <ele>16.5</ele>
    <time>2019-09-24T15:20:58.000Z</time>
   </trkpt>
   <trkpt lat="-8.042535" lon="-34.894741">
    <ele>16.8</ele>
    <time>2019-09-24T15:20:59.000Z</time>
   </trkpt>
   <trkpt lat="-8.042568" lon="-34.894779">
    <ele>17</ele>
    <time>2019-09-24T15:21:00.000Z</time>
   </trkpt>
   <trkpt lat="-8.042602" lon="-34.894821">
    <ele>17.3</ele>
    <time>2019-09-24T15:21:01.000Z</time>
   </trkpt>
   <trkpt lat="-8.042632" lon="-34.894861">
    <ele>17.6</ele>
    <time>2019-09-24T15:21:02.000Z</time>
   </trkpt>
   <trkpt lat="-8.042661" lon="-34.894906">
    <ele>18</ele>
    <time>2019-09-24T15:21:03.000Z</time>
   </trkpt>
   <trkpt lat="-8.042687" lon="-34.894947">
    <ele>18.3</ele>
    <time>2019-09-24T15:21:04.000Z</time>
   </trkpt>
   <trkpt lat="-8.04272" lon="-34.894984">
    <ele>18.6</ele>
    <time>2019-09-24T15:21:05.000Z</time>
   </trkpt>
   <trkpt lat="-8.042745" lon="-34.895023">
    <ele>18.8</ele>
    <time>2019-09-24T15:21:06.000Z</time>
   </trkpt>
   <trkpt lat="-8.042777" lon="-34.895061">
    <ele>19.1</ele>
    <time>2019-09-24T15:21:07.000Z</time>
   </trkpt>
   <trkpt lat="-8.042808" lon="-34.8951">
    <ele>19.3</ele>
    <time>2019-09-24T15:21:08.000Z</time>
   </trkpt>
   <trkpt lat="-8.042864" lon="-34.895136">
    <ele>19.5</ele>
    <time>2019-09-24T15:21:09.000Z</time>
   </trkpt>
   <trkpt lat="-8.04289" lon="-34.895186">
    <ele>19.7</ele>
    <time>2019-09-24T15:21:10.000Z</time>
   </trkpt>
   <trkpt lat="-8.042911" lon="-34.895228">
    <ele>19.8</ele>
    <time>2019-09-24T15:21:11.000Z</time>
   </trkpt>
   <trkpt lat="-8.042937" lon="-34.895277">
    <ele>20</ele>
    <time>2019-09-24T15:21:12.000Z</time>
   </trkpt>
   <trkpt lat="-8.042966" lon="-34.895322">
    <ele>20.2</ele>
    <time>2019-09-24T15:21:13.000Z</time>
   </trkpt>
   <trkpt lat="-8.042988" lon="-34.895371">
    <ele>20.6</ele>
    <time>2019-09-24T15:21:14.000Z</time>
   </trkpt>
   <trkpt lat="-8.043006" lon="-34.895421">
    <ele>20.7</ele>
    <time>2019-09-24T15:21:15.000Z</time>
   </trkpt>
   <trkpt lat="-8.043026" lon="-34.895473">
    <ele>20.7</ele>
    <time>2019-09-24T15:21:16.000Z</time>
   </trkpt>
   <trkpt lat="-8.043044" lon="-34.895521">
    <ele>20.8</ele>
    <time>2019-09-24T15:21:17.000Z</time>
   </trkpt>
   <trkpt lat="-8.043055" lon="-34.895569">
    <ele>20.8</ele>
    <time>2019-09-24T15:21:18.000Z</time>
   </trkpt>
   <trkpt lat="-8.043072" lon="-34.895612">
    <ele>20.9</ele>
    <time>2019-09-24T15:21:19.000Z</time>
   </trkpt>
   <trkpt lat="-8.043093" lon="-34.895654">
    <ele>20.9</ele>
    <time>2019-09-24T15:21:20.000Z</time>
   </trkpt>
   <trkpt lat="-8.043113" lon="-34.89569">
    <ele>21</ele>
    <time>2019-09-24T15:21:21.000Z</time>
   </trkpt>
   <trkpt lat="-8.043119" lon="-34.89573">
    <ele>21</ele>
    <time>2019-09-24T15:21:22.000Z</time>
   </trkpt>
   <trkpt lat="-8.043138" lon="-34.895771">
    <ele>21.1</ele>
    <time>2019-09-24T15:21:23.000Z</time>
   </trkpt>
   <trkpt lat="-8.043156" lon="-34.895814">
    <ele>21.1</ele>
    <time>2019-09-24T15:21:24.000Z</time>
   </trkpt>
   <trkpt lat="-8.043165" lon="-34.895847">
    <ele>21.2</ele>
    <time>2019-09-24T15:21:25.000Z</time>
   </trkpt>
   <trkpt lat="-8.043177" lon="-34.895881">
    <ele>21.1</ele>
    <time>2019-09-24T15:21:26.000Z</time>
   </trkpt>
   <trkpt lat="-8.043197" lon="-34.895911">
    <ele>21.1</ele>
    <time>2019-09-24T15:21:27.000Z</time>
   </trkpt>
   <trkpt lat="-8.043196" lon="-34.895946">
    <ele>21.1</ele>
    <time>2019-09-24T15:21:28.000Z</time>
   </trkpt>
   <trkpt lat="-8.04321" lon="-34.895988">
    <ele>21</ele>
    <time>2019-09-24T15:21:29.000Z</time>
   </trkpt>
   <trkpt lat="-8.043226" lon="-34.89603">
    <ele>21</ele>
    <time>2019-09-24T15:21:30.000Z</time>
   </trkpt>
   <trkpt lat="-8.04325" lon="-34.896073">
    <ele>21</ele>
    <time>2019-09-24T15:21:31.000Z</time>
   </trkpt>
   <trkpt lat="-8.043272" lon="-34.896111">
    <ele>20.9</ele>
    <time>2019-09-24T15:21:32.000Z</time>
   </trkpt>
   <trkpt lat="-8.043292" lon="-34.896146">
    <ele>20.9</ele>
    <time>2019-09-24T15:21:33.000Z</time>
   </trkpt>
   <trkpt lat="-8.043309" lon="-34.896185">
    <ele>20.8</ele>
    <time>2019-09-24T15:21:34.000Z</time>
   </trkpt>
   <trkpt lat="-8.043334" lon="-34.896209">
    <ele>20.8</ele>
    <time>2019-09-24T15:21:35.000Z</time>
   </trkpt>
   <trkpt lat="-8.043342" lon="-34.896235">
    <ele>20.7</ele>
    <time>2019-09-24T15:21:38.000Z</time>
   </trkpt>
   <trkpt lat="-8.04335" lon="-34.896279">
    <ele>20.7</ele>
    <time>2019-09-24T15:21:41.000Z</time>
   </trkpt>
   <trkpt lat="-8.043369" lon="-34.896305">
    <ele>20.6</ele>
    <time>2019-09-24T15:21:42.000Z</time>
   </trkpt>
   <trkpt lat="-8.043383" lon="-34.896329">
    <ele>20.6</ele>
    <time>2019-09-24T15:21:43.000Z</time>
   </trkpt>
   <trkpt lat="-8.04338" lon="-34.896363">
    <ele>20.5</ele>
    <time>2019-09-24T15:21:45.000Z</time>
   </trkpt>
   <trkpt lat="-8.043403" lon="-34.896394">
    <ele>20.5</ele>
    <time>2019-09-24T15:21:47.000Z</time>
   </trkpt>
   <trkpt lat="-8.043442" lon="-34.896393">
    <ele>20.4</ele>
    <time>2019-09-24T15:21:49.000Z</time>
   </trkpt>
   <trkpt lat="-8.043466" lon="-34.896411">
    <ele>20.4</ele>
    <time>2019-09-24T15:21:55.000Z</time>
   </trkpt>
   <trkpt lat="-8.043471" lon="-34.896449">
    <ele>20.3</ele>
    <time>2019-09-24T15:21:57.000Z</time>
   </trkpt>
   <trkpt lat="-8.043476" lon="-34.896477">
    <ele>20.2</ele>
    <time>2019-09-24T15:21:58.000Z</time>
   </trkpt>
   <trkpt lat="-8.043483" lon="-34.896532">
    <ele>20.1</ele>
    <time>2019-09-24T15:22:00.000Z</time>
   </trkpt>
   <trkpt lat="-8.043495" lon="-34.896559">
    <ele>19.8</ele>
    <time>2019-09-24T15:22:01.000Z</time>
   </trkpt>
   <trkpt lat="-8.043505" lon="-34.896595">
    <ele>19.2</ele>
    <time>2019-09-24T15:22:03.000Z</time>
   </trkpt>
   <trkpt lat="-8.043516" lon="-34.896625">
    <ele>18.8</ele>
    <time>2019-09-24T15:22:05.000Z</time>
   </trkpt>
   <trkpt lat="-8.043519" lon="-34.896662">
    <ele>18.2</ele>
    <time>2019-09-24T15:22:06.000Z</time>
   </trkpt>
   <trkpt lat="-8.04351" lon="-34.896701">
    <ele>17.9</ele>
    <time>2019-09-24T15:22:07.000Z</time>
   </trkpt>
   <trkpt lat="-8.043503" lon="-34.896734">
    <ele>17.6</ele>
    <time>2019-09-24T15:22:08.000Z</time>
   </trkpt>
   <trkpt lat="-8.043503" lon="-34.896769">
    <ele>17.3</ele>
    <time>2019-09-24T15:22:09.000Z</time>
   </trkpt>
   <trkpt lat="-8.043504" lon="-34.896801">
    <ele>17</ele>
    <time>2019-09-24T15:22:10.000Z</time>
   </trkpt>
   <trkpt lat="-8.043495" lon="-34.896853">
    <ele>16.5</ele>
    <time>2019-09-24T15:22:12.000Z</time>
   </trkpt>
   <trkpt lat="-8.043501" lon="-34.896885">
    <ele>16.1</ele>
    <time>2019-09-24T15:22:13.000Z</time>
   </trkpt>
   <trkpt lat="-8.043511" lon="-34.896928">
    <ele>15.8</ele>
    <time>2019-09-24T15:22:14.000Z</time>
   </trkpt>
   <trkpt lat="-8.043532" lon="-34.896976">
    <ele>15.4</ele>
    <time>2019-09-24T15:22:15.000Z</time>
   </trkpt>
   <trkpt lat="-8.043581" lon="-34.897048">
    <ele>14.9</ele>
    <time>2019-09-24T15:22:16.000Z</time>
   </trkpt>
   <trkpt lat="-8.043599" lon="-34.897106">
    <ele>14.6</ele>
    <time>2019-09-24T15:22:17.000Z</time>
   </trkpt>
   <trkpt lat="-8.04361" lon="-34.897156">
    <ele>14.3</ele>
    <time>2019-09-24T15:22:18.000Z</time>
   </trkpt>
   <trkpt lat="-8.04363" lon="-34.897207">
    <ele>13.8</ele>
    <time>2019-09-24T15:22:19.000Z</time>
   </trkpt>
   <trkpt lat="-8.043638" lon="-34.897244">
    <ele>13.4</ele>
    <time>2019-09-24T15:22:20.000Z</time>
   </trkpt>
   <trkpt lat="-8.043647" lon="-34.89728">
    <ele>13</ele>
    <time>2019-09-24T15:22:21.000Z</time>
   </trkpt>
   <trkpt lat="-8.043663" lon="-34.897323">
    <ele>12.2</ele>
    <time>2019-09-24T15:22:22.000Z</time>
   </trkpt>
   <trkpt lat="-8.043668" lon="-34.897368">
    <ele>12.5</ele>
    <time>2019-09-24T15:22:23.000Z</time>
   </trkpt>
   <trkpt lat="-8.043661" lon="-34.897411">
    <ele>12.7</ele>
    <time>2019-09-24T15:22:24.000Z</time>
   </trkpt>
   <trkpt lat="-8.043668" lon="-34.897454">
    <ele>13</ele>
    <time>2019-09-24T15:22:25.000Z</time>
   </trkpt>
   <trkpt lat="-8.043705" lon="-34.897527">
    <ele>13.4</ele>
    <time>2019-09-24T15:22:26.000Z</time>
   </trkpt>
   <trkpt lat="-8.043723" lon="-34.897583">
    <ele>13.7</ele>
    <time>2019-09-24T15:22:27.000Z</time>
   </trkpt>
   <trkpt lat="-8.043736" lon="-34.897631">
    <ele>13.9</ele>
    <time>2019-09-24T15:22:28.000Z</time>
   </trkpt>
   <trkpt lat="-8.043761" lon="-34.897684">
    <ele>14</ele>
    <time>2019-09-24T15:22:29.000Z</time>
   </trkpt>
   <trkpt lat="-8.043785" lon="-34.897738">
    <ele>14.2</ele>
    <time>2019-09-24T15:22:30.000Z</time>
   </trkpt>
   <trkpt lat="-8.043799" lon="-34.897781">
    <ele>14.2</ele>
    <time>2019-09-24T15:22:31.000Z</time>
   </trkpt>
   <trkpt lat="-8.043806" lon="-34.897825">
    <ele>14.3</ele>
    <time>2019-09-24T15:22:32.000Z</time>
   </trkpt>
   <trkpt lat="-8.04381" lon="-34.897871">
    <ele>14.3</ele>
    <time>2019-09-24T15:22:33.000Z</time>
   </trkpt>
   <trkpt lat="-8.043814" lon="-34.897909">
    <ele>14.3</ele>
    <time>2019-09-24T15:22:34.000Z</time>
   </trkpt>
   <trkpt lat="-8.043828" lon="-34.897961">
    <ele>14.4</ele>
    <time>2019-09-24T15:22:35.000Z</time>
   </trkpt>
   <trkpt lat="-8.043845" lon="-34.898007">
    <ele>14.4</ele>
    <time>2019-09-24T15:22:36.000Z</time>
   </trkpt>
   <trkpt lat="-8.043858" lon="-34.898045">
    <ele>14.4</ele>
    <time>2019-09-24T15:22:37.000Z</time>
   </trkpt>
   <trkpt lat="-8.043866" lon="-34.89808">
    <ele>14.4</ele>
    <time>2019-09-24T15:22:38.000Z</time>
   </trkpt>
   <trkpt lat="-8.043895" lon="-34.898126">
    <ele>14.4</ele>
    <time>2019-09-24T15:22:39.000Z</time>
   </trkpt>
   <trkpt lat="-8.043907" lon="-34.898162">
    <ele>14.4</ele>
    <time>2019-09-24T15:22:40.000Z</time>
   </trkpt>
   <trkpt lat="-8.043914" lon="-34.898194">
    <ele>14.4</ele>
    <time>2019-09-24T15:22:41.000Z</time>
   </trkpt>
   <trkpt lat="-8.043945" lon="-34.898209">
    <ele>14.4</ele>
    <time>2019-09-24T15:22:43.000Z</time>
   </trkpt>
   <trkpt lat="-8.04397" lon="-34.898183">
    <ele>14.4</ele>
    <time>2019-09-24T15:22:44.000Z</time>
   </trkpt>
   <trkpt lat="-8.044016" lon="-34.898182">
    <ele>15</ele>
    <time>2019-09-24T15:22:45.000Z</time>
   </trkpt>
   <trkpt lat="-8.044066" lon="-34.898172">
    <ele>15</ele>
    <time>2019-09-24T15:22:46.000Z</time>
   </trkpt>
   <trkpt lat="-8.044113" lon="-34.898167">
    <ele>15</ele>
    <time>2019-09-24T15:22:47.000Z</time>
   </trkpt>
   <trkpt lat="-8.044159" lon="-34.898158">
    <ele>15</ele>
    <time>2019-09-24T15:22:48.000Z</time>
   </trkpt>
   <trkpt lat="-8.044209" lon="-34.898148">
    <ele>15.2</ele>
    <time>2019-09-24T15:22:49.000Z</time>
   </trkpt>
   <trkpt lat="-8.044265" lon="-34.89815">
    <ele>15.3</ele>
    <time>2019-09-24T15:22:50.000Z</time>
   </trkpt>
   <trkpt lat="-8.044318" lon="-34.898138">
    <ele>15.6</ele>
    <time>2019-09-24T15:22:51.000Z</time>
   </trkpt>
   <trkpt lat="-8.044361" lon="-34.898138">
    <ele>15.8</ele>
    <time>2019-09-24T15:22:52.000Z</time>
   </trkpt>
   <trkpt lat="-8.044409" lon="-34.898134">
    <ele>16</ele>
    <time>2019-09-24T15:22:53.000Z</time>
   </trkpt>
   <trkpt lat="-8.044442" lon="-34.898125">
    <ele>16.2</ele>
    <time>2019-09-24T15:22:54.000Z</time>
   </trkpt>
   <trkpt lat="-8.044481" lon="-34.898128">
    <ele>16.3</ele>
    <time>2019-09-24T15:22:55.000Z</time>
   </trkpt>
   <trkpt lat="-8.044523" lon="-34.898129">
    <ele>16.5</ele>
    <time>2019-09-24T15:22:56.000Z</time>
   </trkpt>
   <trkpt lat="-8.044559" lon="-34.898132">
    <ele>16.6</ele>
    <time>2019-09-24T15:22:57.000Z</time>
   </trkpt>
   <trkpt lat="-8.044597" lon="-34.898147">
    <ele>16.7</ele>
    <time>2019-09-24T15:22:58.000Z</time>
   </trkpt>
   <trkpt lat="-8.044638" lon="-34.898157">
    <ele>16.8</ele>
    <time>2019-09-24T15:22:59.000Z</time>
   </trkpt>
   <trkpt lat="-8.044671" lon="-34.898147">
    <ele>16.9</ele>
    <time>2019-09-24T15:23:00.000Z</time>
   </trkpt>
   <trkpt lat="-8.044706" lon="-34.89816">
    <ele>16.9</ele>
    <time>2019-09-24T15:23:01.000Z</time>
   </trkpt>
   <trkpt lat="-8.044759" lon="-34.898178">
    <ele>17</ele>
    <time>2019-09-24T15:23:03.000Z</time>
   </trkpt>
   <trkpt lat="-8.044794" lon="-34.898186">
    <ele>17</ele>
    <time>2019-09-24T15:23:04.000Z</time>
   </trkpt>
   <trkpt lat="-8.044826" lon="-34.898189">
    <ele>17</ele>
    <time>2019-09-24T15:23:05.000Z</time>
   </trkpt>
   <trkpt lat="-8.044873" lon="-34.898185">
    <ele>17</ele>
    <time>2019-09-24T15:23:07.000Z</time>
   </trkpt>
   <trkpt lat="-8.044915" lon="-34.898204">
    <ele>17.1</ele>
    <time>2019-09-24T15:23:09.000Z</time>
   </trkpt>
   <trkpt lat="-8.044963" lon="-34.898245">
    <ele>17.1</ele>
    <time>2019-09-24T15:23:11.000Z</time>
   </trkpt>
   <trkpt lat="-8.045015" lon="-34.898249">
    <ele>17.1</ele>
    <time>2019-09-24T15:23:13.000Z</time>
   </trkpt>
   <trkpt lat="-8.045038" lon="-34.898236">
    <ele>17.1</ele>
    <time>2019-09-24T15:23:14.000Z</time>
   </trkpt>
   <trkpt lat="-8.045066" lon="-34.898216">
    <ele>17.2</ele>
    <time>2019-09-24T15:23:16.000Z</time>
   </trkpt>
   <trkpt lat="-8.045097" lon="-34.898216">
    <ele>17.2</ele>
    <time>2019-09-24T15:23:19.000Z</time>
   </trkpt>
   <trkpt lat="-8.045127" lon="-34.898228">
    <ele>17.2</ele>
    <time>2019-09-24T15:23:21.000Z</time>
   </trkpt>
   <trkpt lat="-8.045159" lon="-34.898229">
    <ele>17.2</ele>
    <time>2019-09-24T15:23:24.000Z</time>
   </trkpt>
   <trkpt lat="-8.045185" lon="-34.898189">
    <ele>16.4</ele>
    <time>2019-09-24T15:23:26.000Z</time>
   </trkpt>
   <trkpt lat="-8.045211" lon="-34.898166">
    <ele>16.3</ele>
    <time>2019-09-24T15:23:27.000Z</time>
   </trkpt>
   <trkpt lat="-8.045241" lon="-34.898144">
    <ele>16.3</ele>
    <time>2019-09-24T15:23:28.000Z</time>
   </trkpt>
   <trkpt lat="-8.045272" lon="-34.898128">
    <ele>16.3</ele>
    <time>2019-09-24T15:23:29.000Z</time>
   </trkpt>
   <trkpt lat="-8.045295" lon="-34.8981">
    <ele>16.4</ele>
    <time>2019-09-24T15:23:30.000Z</time>
   </trkpt>
   <trkpt lat="-8.04529" lon="-34.898055">
    <ele>16.4</ele>
    <time>2019-09-24T15:23:31.000Z</time>
   </trkpt>
   <trkpt lat="-8.045295" lon="-34.898018">
    <ele>16.5</ele>
    <time>2019-09-24T15:23:32.000Z</time>
   </trkpt>
   <trkpt lat="-8.0453" lon="-34.897982">
    <ele>16.6</ele>
    <time>2019-09-24T15:23:33.000Z</time>
   </trkpt>
   <trkpt lat="-8.045307" lon="-34.89794">
    <ele>16.7</ele>
    <time>2019-09-24T15:23:34.000Z</time>
   </trkpt>
   <trkpt lat="-8.045317" lon="-34.897898">
    <ele>16.8</ele>
    <time>2019-09-24T15:23:35.000Z</time>
   </trkpt>
   <trkpt lat="-8.045333" lon="-34.897856">
    <ele>17</ele>
    <time>2019-09-24T15:23:36.000Z</time>
   </trkpt>
   <trkpt lat="-8.045348" lon="-34.89782">
    <ele>17.2</ele>
    <time>2019-09-24T15:23:37.000Z</time>
   </trkpt>
   <trkpt lat="-8.045361" lon="-34.897774">
    <ele>17.2</ele>
    <time>2019-09-24T15:23:38.000Z</time>
   </trkpt>
   <trkpt lat="-8.045387" lon="-34.89775">
    <ele>17.1</ele>
    <time>2019-09-24T15:23:39.000Z</time>
   </trkpt>
   <trkpt lat="-8.04544" lon="-34.897775">
    <ele>17</ele>
    <time>2019-09-24T15:23:41.000Z</time>
   </trkpt>
   <trkpt lat="-8.04547" lon="-34.89778">
    <ele>16.9</ele>
    <time>2019-09-24T15:23:42.000Z</time>
   </trkpt>
   <trkpt lat="-8.045513" lon="-34.897785">
    <ele>16.8</ele>
    <time>2019-09-24T15:23:43.000Z</time>
   </trkpt>
   <trkpt lat="-8.045549" lon="-34.897793">
    <ele>16.7</ele>
    <time>2019-09-24T15:23:44.000Z</time>
   </trkpt>
   <trkpt lat="-8.045585" lon="-34.897791">
    <ele>16.6</ele>
    <time>2019-09-24T15:23:45.000Z</time>
   </trkpt>
   <trkpt lat="-8.045625" lon="-34.89779">
    <ele>16.5</ele>
    <time>2019-09-24T15:23:46.000Z</time>
   </trkpt>
   <trkpt lat="-8.045667" lon="-34.897804">
    <ele>16.3</ele>
    <time>2019-09-24T15:23:47.000Z</time>
   </trkpt>
   <trkpt lat="-8.045705" lon="-34.897811">
    <ele>16.2</ele>
    <time>2019-09-24T15:23:48.000Z</time>
   </trkpt>
   <trkpt lat="-8.045761" lon="-34.897824">
    <ele>16</ele>
    <time>2019-09-24T15:23:50.000Z</time>
   </trkpt>
   <trkpt lat="-8.04579" lon="-34.897836">
    <ele>15.9</ele>
    <time>2019-09-24T15:23:51.000Z</time>
   </trkpt>
   <trkpt lat="-8.045823" lon="-34.897847">
    <ele>15.8</ele>
    <time>2019-09-24T15:23:52.000Z</time>
   </trkpt>
   <trkpt lat="-8.045865" lon="-34.897853">
    <ele>15.7</ele>
    <time>2019-09-24T15:23:53.000Z</time>
   </trkpt>
   <trkpt lat="-8.045901" lon="-34.897853">
    <ele>15.6</ele>
    <time>2019-09-24T15:23:54.000Z</time>
   </trkpt>
   <trkpt lat="-8.045948" lon="-34.897859">
    <ele>15.5</ele>
    <time>2019-09-24T15:23:55.000Z</time>
   </trkpt>
   <trkpt lat="-8.045995" lon="-34.897864">
    <ele>15.3</ele>
    <time>2019-09-24T15:23:56.000Z</time>
   </trkpt>
   <trkpt lat="-8.046045" lon="-34.89786">
    <ele>15.1</ele>
    <time>2019-09-24T15:23:57.000Z</time>
   </trkpt>
   <trkpt lat="-8.046089" lon="-34.89785">
    <ele>15</ele>
    <time>2019-09-24T15:23:58.000Z</time>
   </trkpt>
   <trkpt lat="-8.046129" lon="-34.897845">
    <ele>14.8</ele>
    <time>2019-09-24T15:23:59.000Z</time>
   </trkpt>
   <trkpt lat="-8.046168" lon="-34.897863">
    <ele>14.7</ele>
    <time>2019-09-24T15:24:00.000Z</time>
   </trkpt>
   <trkpt lat="-8.046219" lon="-34.897883">
    <ele>14.7</ele>
    <time>2019-09-24T15:24:01.000Z</time>
   </trkpt>
   <trkpt lat="-8.046266" lon="-34.897898">
    <ele>14.6</ele>
    <time>2019-09-24T15:24:02.000Z</time>
   </trkpt>
   <trkpt lat="-8.046305" lon="-34.897906">
    <ele>14.6</ele>
    <time>2019-09-24T15:24:03.000Z</time>
   </trkpt>
   <trkpt lat="-8.046338" lon="-34.897917">
    <ele>14.6</ele>
    <time>2019-09-24T15:24:04.000Z</time>
   </trkpt>
   <trkpt lat="-8.04637" lon="-34.897938">
    <ele>14.6</ele>
    <time>2019-09-24T15:24:05.000Z</time>
   </trkpt>
   <trkpt lat="-8.04641" lon="-34.89796">
    <ele>14.5</ele>
    <time>2019-09-24T15:24:06.000Z</time>
   </trkpt>
   <trkpt lat="-8.046442" lon="-34.897967">
    <ele>14.5</ele>
    <time>2019-09-24T15:24:07.000Z</time>
   </trkpt>
   <trkpt lat="-8.046483" lon="-34.897985">
    <ele>14.5</ele>
    <time>2019-09-24T15:24:08.000Z</time>
   </trkpt>
   <trkpt lat="-8.046517" lon="-34.897998">
    <ele>14.4</ele>
    <time>2019-09-24T15:24:09.000Z</time>
   </trkpt>
   <trkpt lat="-8.046555" lon="-34.898014">
    <ele>14.4</ele>
    <time>2019-09-24T15:24:10.000Z</time>
   </trkpt>
   <trkpt lat="-8.0466" lon="-34.898024">
    <ele>14.4</ele>
    <time>2019-09-24T15:24:11.000Z</time>
   </trkpt>
   <trkpt lat="-8.046641" lon="-34.898051">
    <ele>14.3</ele>
    <time>2019-09-24T15:24:12.000Z</time>
   </trkpt>
   <trkpt lat="-8.046682" lon="-34.898055">
    <ele>14.3</ele>
    <time>2019-09-24T15:24:13.000Z</time>
   </trkpt>
   <trkpt lat="-8.046725" lon="-34.898051">
    <ele>14.3</ele>
    <time>2019-09-24T15:24:14.000Z</time>
   </trkpt>
   <trkpt lat="-8.046766" lon="-34.898037">
    <ele>14.2</ele>
    <time>2019-09-24T15:24:15.000Z</time>
   </trkpt>
   <trkpt lat="-8.046793" lon="-34.898044">
    <ele>14.2</ele>
    <time>2019-09-24T15:24:16.000Z</time>
   </trkpt>
   <trkpt lat="-8.046826" lon="-34.898043">
    <ele>14.2</ele>
    <time>2019-09-24T15:24:17.000Z</time>
   </trkpt>
   <trkpt lat="-8.04686" lon="-34.898054">
    <ele>14.2</ele>
    <time>2019-09-24T15:24:18.000Z</time>
   </trkpt>
   <trkpt lat="-8.04689" lon="-34.898054">
    <ele>14.2</ele>
    <time>2019-09-24T15:24:19.000Z</time>
   </trkpt>
   <trkpt lat="-8.046932" lon="-34.898067">
    <ele>14.1</ele>
    <time>2019-09-24T15:24:20.000Z</time>
   </trkpt>
   <trkpt lat="-8.046987" lon="-34.89807">
    <ele>14.1</ele>
    <time>2019-09-24T15:24:22.000Z</time>
   </trkpt>
   <trkpt lat="-8.047015" lon="-34.89807">
    <ele>14.1</ele>
    <time>2019-09-24T15:24:23.000Z</time>
   </trkpt>
   <trkpt lat="-8.047043" lon="-34.898059">
    <ele>14</ele>
    <time>2019-09-24T15:24:24.000Z</time>
   </trkpt>
   <trkpt lat="-8.047072" lon="-34.898067">
    <ele>14</ele>
    <time>2019-09-24T15:24:26.000Z</time>
   </trkpt>
   <trkpt lat="-8.047087" lon="-34.898105">
    <ele>14</ele>
    <time>2019-09-24T15:24:28.000Z</time>
   </trkpt>
   <trkpt lat="-8.047097" lon="-34.898134">
    <ele>14</ele>
    <time>2019-09-24T15:24:29.000Z</time>
   </trkpt>
   <trkpt lat="-8.047103" lon="-34.898175">
    <ele>13.9</ele>
    <time>2019-09-24T15:24:30.000Z</time>
   </trkpt>
   <trkpt lat="-8.047109" lon="-34.898224">
    <ele>14.1</ele>
    <time>2019-09-24T15:24:31.000Z</time>
   </trkpt>
   <trkpt lat="-8.047127" lon="-34.898272">
    <ele>14.3</ele>
    <time>2019-09-24T15:24:32.000Z</time>
   </trkpt>
   <trkpt lat="-8.047112" lon="-34.898321">
    <ele>14.5</ele>
    <time>2019-09-24T15:24:33.000Z</time>
   </trkpt>
   <trkpt lat="-8.0471" lon="-34.898361">
    <ele>14.6</ele>
    <time>2019-09-24T15:24:34.000Z</time>
   </trkpt>
   <trkpt lat="-8.047113" lon="-34.898424">
    <ele>14.8</ele>
    <time>2019-09-24T15:24:35.000Z</time>
   </trkpt>
   <trkpt lat="-8.047116" lon="-34.898463">
    <ele>14.9</ele>
    <time>2019-09-24T15:24:36.000Z</time>
   </trkpt>
   <trkpt lat="-8.047114" lon="-34.898503">
    <ele>15</ele>
    <time>2019-09-24T15:24:37.000Z</time>
   </trkpt>
   <trkpt lat="-8.047106" lon="-34.898545">
    <ele>15.1</ele>
    <time>2019-09-24T15:24:38.000Z</time>
   </trkpt>
   <trkpt lat="-8.0471" lon="-34.898582">
    <ele>15.2</ele>
    <time>2019-09-24T15:24:39.000Z</time>
   </trkpt>
   <trkpt lat="-8.047096" lon="-34.898615">
    <ele>15.3</ele>
    <time>2019-09-24T15:24:40.000Z</time>
   </trkpt>
   <trkpt lat="-8.047107" lon="-34.89866">
    <ele>15.4</ele>
    <time>2019-09-24T15:24:42.000Z</time>
   </trkpt>
   <trkpt lat="-8.047107" lon="-34.898694">
    <ele>15.5</ele>
    <time>2019-09-24T15:24:43.000Z</time>
   </trkpt>
   <trkpt lat="-8.047106" lon="-34.898724">
    <ele>15.6</ele>
    <time>2019-09-24T15:24:44.000Z</time>
   </trkpt>
   <trkpt lat="-8.047114" lon="-34.898754">
    <ele>15.7</ele>
    <time>2019-09-24T15:24:45.000Z</time>
   </trkpt>
   <trkpt lat="-8.04711" lon="-34.898798">
    <ele>15.8</ele>
    <time>2019-09-24T15:24:46.000Z</time>
   </trkpt>
   <trkpt lat="-8.047108" lon="-34.898851">
    <ele>15.7</ele>
    <time>2019-09-24T15:24:47.000Z</time>
   </trkpt>
   <trkpt lat="-8.047122" lon="-34.898899">
    <ele>15.7</ele>
    <time>2019-09-24T15:24:48.000Z</time>
   </trkpt>
   <trkpt lat="-8.047128" lon="-34.898934">
    <ele>15.6</ele>
    <time>2019-09-24T15:24:49.000Z</time>
   </trkpt>
   <trkpt lat="-8.04713" lon="-34.898973">
    <ele>15.5</ele>
    <time>2019-09-24T15:24:50.000Z</time>
   </trkpt>
   <trkpt lat="-8.047156" lon="-34.899051">
    <ele>15.4</ele>
    <time>2019-09-24T15:24:51.000Z</time>
   </trkpt>
   <trkpt lat="-8.047169" lon="-34.899108">
    <ele>15.3</ele>
    <time>2019-09-24T15:24:52.000Z</time>
   </trkpt>
   <trkpt lat="-8.047165" lon="-34.89915">
    <ele>15.3</ele>
    <time>2019-09-24T15:24:53.000Z</time>
   </trkpt>
   <trkpt lat="-8.047164" lon="-34.899197">
    <ele>15.2</ele>
    <time>2019-09-24T15:24:54.000Z</time>
   </trkpt>
   <trkpt lat="-8.047163" lon="-34.899241">
    <ele>15.1</ele>
    <time>2019-09-24T15:24:55.000Z</time>
   </trkpt>
   <trkpt lat="-8.047163" lon="-34.899274">
    <ele>15.1</ele>
    <time>2019-09-24T15:24:56.000Z</time>
   </trkpt>
   <trkpt lat="-8.047159" lon="-34.89932">
    <ele>15</ele>
    <time>2019-09-24T15:24:57.000Z</time>
   </trkpt>
   <trkpt lat="-8.047167" lon="-34.899396">
    <ele>14.8</ele>
    <time>2019-09-24T15:24:58.000Z</time>
   </trkpt>
   <trkpt lat="-8.047165" lon="-34.899451">
    <ele>14.6</ele>
    <time>2019-09-24T15:24:59.000Z</time>
   </trkpt>
   <trkpt lat="-8.047164" lon="-34.899504">
    <ele>14.4</ele>
    <time>2019-09-24T15:25:00.000Z</time>
   </trkpt>
   <trkpt lat="-8.047169" lon="-34.899542">
    <ele>14.4</ele>
    <time>2019-09-24T15:25:01.000Z</time>
   </trkpt>
   <trkpt lat="-8.047177" lon="-34.899575">
    <ele>14.3</ele>
    <time>2019-09-24T15:25:02.000Z</time>
   </trkpt>
   <trkpt lat="-8.047182" lon="-34.899626">
    <ele>14.2</ele>
    <time>2019-09-24T15:25:04.000Z</time>
   </trkpt>
   <trkpt lat="-8.047199" lon="-34.899663">
    <ele>14.2</ele>
    <time>2019-09-24T15:25:06.000Z</time>
   </trkpt>
   <trkpt lat="-8.047225" lon="-34.899672">
    <ele>14.1</ele>
    <time>2019-09-24T15:25:08.000Z</time>
   </trkpt>
   <trkpt lat="-8.04725" lon="-34.899656">
    <ele>14.1</ele>
    <time>2019-09-24T15:25:10.000Z</time>
   </trkpt>
   <trkpt lat="-8.047249" lon="-34.899684">
    <ele>14.1</ele>
    <time>2019-09-24T15:25:20.000Z</time>
   </trkpt>
   <trkpt lat="-8.047223" lon="-34.899673">
    <ele>14</ele>
    <time>2019-09-24T15:25:33.000Z</time>
   </trkpt>
   <trkpt lat="-8.04728" lon="-34.899701">
    <ele>13.8</ele>
    <time>2019-09-24T15:25:42.000Z</time>
   </trkpt>
   <trkpt lat="-8.047306" lon="-34.899713">
    <ele>13.8</ele>
    <time>2019-09-24T15:25:43.000Z</time>
   </trkpt>
   <trkpt lat="-8.047339" lon="-34.899721">
    <ele>13.7</ele>
    <time>2019-09-24T15:25:44.000Z</time>
   </trkpt>
   <trkpt lat="-8.047374" lon="-34.89973">
    <ele>13.6</ele>
    <time>2019-09-24T15:25:45.000Z</time>
   </trkpt>
   <trkpt lat="-8.0474" lon="-34.899743">
    <ele>13.6</ele>
    <time>2019-09-24T15:25:46.000Z</time>
   </trkpt>
   <trkpt lat="-8.047436" lon="-34.899767">
    <ele>13.5</ele>
    <time>2019-09-24T15:25:47.000Z</time>
   </trkpt>
   <trkpt lat="-8.047476" lon="-34.899785">
    <ele>13.4</ele>
    <time>2019-09-24T15:25:48.000Z</time>
   </trkpt>
   <trkpt lat="-8.047515" lon="-34.899806">
    <ele>13.3</ele>
    <time>2019-09-24T15:25:49.000Z</time>
   </trkpt>
   <trkpt lat="-8.047563" lon="-34.899816">
    <ele>13.2</ele>
    <time>2019-09-24T15:25:50.000Z</time>
   </trkpt>
   <trkpt lat="-8.047601" lon="-34.899831">
    <ele>13.2</ele>
    <time>2019-09-24T15:25:51.000Z</time>
   </trkpt>
   <trkpt lat="-8.047636" lon="-34.899848">
    <ele>13.1</ele>
    <time>2019-09-24T15:25:52.000Z</time>
   </trkpt>
   <trkpt lat="-8.047693" lon="-34.899873">
    <ele>13.2</ele>
    <time>2019-09-24T15:25:54.000Z</time>
   </trkpt>
   <trkpt lat="-8.04772" lon="-34.899903">
    <ele>13.3</ele>
    <time>2019-09-24T15:25:55.000Z</time>
   </trkpt>
   <trkpt lat="-8.047744" lon="-34.899944">
    <ele>13.4</ele>
    <time>2019-09-24T15:25:56.000Z</time>
   </trkpt>
   <trkpt lat="-8.04777" lon="-34.899973">
    <ele>13.5</ele>
    <time>2019-09-24T15:25:57.000Z</time>
   </trkpt>
   <trkpt lat="-8.047792" lon="-34.9">
    <ele>13.5</ele>
    <time>2019-09-24T15:25:58.000Z</time>
   </trkpt>
   <trkpt lat="-8.047814" lon="-34.900032">
    <ele>13.6</ele>
    <time>2019-09-24T15:25:59.000Z</time>
   </trkpt>
   <trkpt lat="-8.047837" lon="-34.900057">
    <ele>13.6</ele>
    <time>2019-09-24T15:26:00.000Z</time>
   </trkpt>
   <trkpt lat="-8.047878" lon="-34.90008">
    <ele>13.7</ele>
    <time>2019-09-24T15:26:01.000Z</time>
   </trkpt>
   <trkpt lat="-8.047919" lon="-34.900106">
    <ele>13.8</ele>
    <time>2019-09-24T15:26:02.000Z</time>
   </trkpt>
   <trkpt lat="-8.047966" lon="-34.900128">
    <ele>13.8</ele>
    <time>2019-09-24T15:26:03.000Z</time>
   </trkpt>
   <trkpt lat="-8.048015" lon="-34.90015">
    <ele>13.9</ele>
    <time>2019-09-24T15:26:04.000Z</time>
   </trkpt>
   <trkpt lat="-8.048061" lon="-34.900171">
    <ele>13.9</ele>
    <time>2019-09-24T15:26:05.000Z</time>
   </trkpt>
   <trkpt lat="-8.048105" lon="-34.90019">
    <ele>14</ele>
    <time>2019-09-24T15:26:06.000Z</time>
   </trkpt>
   <trkpt lat="-8.048144" lon="-34.900214">
    <ele>14</ele>
    <time>2019-09-24T15:26:07.000Z</time>
   </trkpt>
   <trkpt lat="-8.048185" lon="-34.900244">
    <ele>14.1</ele>
    <time>2019-09-24T15:26:08.000Z</time>
   </trkpt>
   <trkpt lat="-8.048237" lon="-34.900273">
    <ele>14.1</ele>
    <time>2019-09-24T15:26:09.000Z</time>
   </trkpt>
   <trkpt lat="-8.048292" lon="-34.900294">
    <ele>14.2</ele>
    <time>2019-09-24T15:26:10.000Z</time>
   </trkpt>
   <trkpt lat="-8.048346" lon="-34.900314">
    <ele>14.2</ele>
    <time>2019-09-24T15:26:11.000Z</time>
   </trkpt>
   <trkpt lat="-8.048389" lon="-34.900341">
    <ele>14.3</ele>
    <time>2019-09-24T15:26:12.000Z</time>
   </trkpt>
   <trkpt lat="-8.048429" lon="-34.900367">
    <ele>14.3</ele>
    <time>2019-09-24T15:26:13.000Z</time>
   </trkpt>
   <trkpt lat="-8.048466" lon="-34.900389">
    <ele>14.4</ele>
    <time>2019-09-24T15:26:14.000Z</time>
   </trkpt>
   <trkpt lat="-8.048501" lon="-34.900423">
    <ele>14.4</ele>
    <time>2019-09-24T15:26:15.000Z</time>
   </trkpt>
   <trkpt lat="-8.048544" lon="-34.900455">
    <ele>14.5</ele>
    <time>2019-09-24T15:26:16.000Z</time>
   </trkpt>
   <trkpt lat="-8.048583" lon="-34.900466">
    <ele>14.5</ele>
    <time>2019-09-24T15:26:17.000Z</time>
   </trkpt>
   <trkpt lat="-8.048617" lon="-34.900483">
    <ele>14.6</ele>
    <time>2019-09-24T15:26:18.000Z</time>
   </trkpt>
   <trkpt lat="-8.048649" lon="-34.900504">
    <ele>14.6</ele>
    <time>2019-09-24T15:26:19.000Z</time>
   </trkpt>
   <trkpt lat="-8.04868" lon="-34.900519">
    <ele>14.7</ele>
    <time>2019-09-24T15:26:20.000Z</time>
   </trkpt>
   <trkpt lat="-8.04872" lon="-34.900544">
    <ele>14.7</ele>
    <time>2019-09-24T15:26:21.000Z</time>
   </trkpt>
   <trkpt lat="-8.048756" lon="-34.900563">
    <ele>14.8</ele>
    <time>2019-09-24T15:26:22.000Z</time>
   </trkpt>
   <trkpt lat="-8.048791" lon="-34.900575">
    <ele>14.8</ele>
    <time>2019-09-24T15:26:23.000Z</time>
   </trkpt>
   <trkpt lat="-8.048822" lon="-34.900594">
    <ele>14.9</ele>
    <time>2019-09-24T15:26:24.000Z</time>
   </trkpt>
   <trkpt lat="-8.048858" lon="-34.900621">
    <ele>14.9</ele>
    <time>2019-09-24T15:26:25.000Z</time>
   </trkpt>
   <trkpt lat="-8.048905" lon="-34.900638">
    <ele>15</ele>
    <time>2019-09-24T15:26:26.000Z</time>
   </trkpt>
   <trkpt lat="-8.048953" lon="-34.900645">
    <ele>15</ele>
    <time>2019-09-24T15:26:27.000Z</time>
   </trkpt>
   <trkpt lat="-8.048998" lon="-34.900678">
    <ele>14.9</ele>
    <time>2019-09-24T15:26:28.000Z</time>
   </trkpt>
   <trkpt lat="-8.049041" lon="-34.9007">
    <ele>14.9</ele>
    <time>2019-09-24T15:26:29.000Z</time>
   </trkpt>
   <trkpt lat="-8.049082" lon="-34.90073">
    <ele>14.9</ele>
    <time>2019-09-24T15:26:30.000Z</time>
   </trkpt>
   <trkpt lat="-8.049124" lon="-34.900765">
    <ele>14.9</ele>
    <time>2019-09-24T15:26:31.000Z</time>
   </trkpt>
   <trkpt lat="-8.049156" lon="-34.900791">
    <ele>14.9</ele>
    <time>2019-09-24T15:26:32.000Z</time>
   </trkpt>
   <trkpt lat="-8.049194" lon="-34.900812">
    <ele>14.8</ele>
    <time>2019-09-24T15:26:33.000Z</time>
   </trkpt>
   <trkpt lat="-8.049237" lon="-34.900832">
    <ele>14.8</ele>
    <time>2019-09-24T15:26:34.000Z</time>
   </trkpt>
   <trkpt lat="-8.049278" lon="-34.900856">
    <ele>14.8</ele>
    <time>2019-09-24T15:26:35.000Z</time>
   </trkpt>
   <trkpt lat="-8.049321" lon="-34.900879">
    <ele>14.7</ele>
    <time>2019-09-24T15:26:36.000Z</time>
   </trkpt>
   <trkpt lat="-8.04937" lon="-34.900901">
    <ele>14.7</ele>
    <time>2019-09-24T15:26:37.000Z</time>
   </trkpt>
   <trkpt lat="-8.049418" lon="-34.900918">
    <ele>14.7</ele>
    <time>2019-09-24T15:26:38.000Z</time>
   </trkpt>
   <trkpt lat="-8.049477" lon="-34.900939">
    <ele>14.6</ele>
    <time>2019-09-24T15:26:39.000Z</time>
   </trkpt>
   <trkpt lat="-8.04952" lon="-34.900959">
    <ele>14.6</ele>
    <time>2019-09-24T15:26:40.000Z</time>
   </trkpt>
   <trkpt lat="-8.049564" lon="-34.900985">
    <ele>14.5</ele>
    <time>2019-09-24T15:26:41.000Z</time>
   </trkpt>
   <trkpt lat="-8.049615" lon="-34.901011">
    <ele>14.5</ele>
    <time>2019-09-24T15:26:42.000Z</time>
   </trkpt>
   <trkpt lat="-8.049667" lon="-34.901035">
    <ele>14.5</ele>
    <time>2019-09-24T15:26:43.000Z</time>
   </trkpt>
   <trkpt lat="-8.049722" lon="-34.901047">
    <ele>14.5</ele>
    <time>2019-09-24T15:26:44.000Z</time>
   </trkpt>
   <trkpt lat="-8.049778" lon="-34.90106">
    <ele>14.5</ele>
    <time>2019-09-24T15:26:45.000Z</time>
   </trkpt>
   <trkpt lat="-8.049827" lon="-34.901069">
    <ele>14.5</ele>
    <time>2019-09-24T15:26:46.000Z</time>
   </trkpt>
   <trkpt lat="-8.049874" lon="-34.90108">
    <ele>14.4</ele>
    <time>2019-09-24T15:26:47.000Z</time>
   </trkpt>
   <trkpt lat="-8.049929" lon="-34.901073">
    <ele>14.4</ele>
    <time>2019-09-24T15:26:48.000Z</time>
   </trkpt>
   <trkpt lat="-8.049982" lon="-34.901076">
    <ele>14.4</ele>
    <time>2019-09-24T15:26:49.000Z</time>
   </trkpt>
   <trkpt lat="-8.050031" lon="-34.901086">
    <ele>14.4</ele>
    <time>2019-09-24T15:26:50.000Z</time>
   </trkpt>
   <trkpt lat="-8.050081" lon="-34.901093">
    <ele>14.4</ele>
    <time>2019-09-24T15:26:51.000Z</time>
   </trkpt>
   <trkpt lat="-8.050133" lon="-34.901098">
    <ele>14.4</ele>
    <time>2019-09-24T15:26:52.000Z</time>
   </trkpt>
   <trkpt lat="-8.050186" lon="-34.901101">
    <ele>14.3</ele>
    <time>2019-09-24T15:26:53.000Z</time>
   </trkpt>
   <trkpt lat="-8.050232" lon="-34.901103">
    <ele>14.3</ele>
    <time>2019-09-24T15:26:54.000Z</time>
   </trkpt>
   <trkpt lat="-8.050269" lon="-34.901102">
    <ele>14.2</ele>
    <time>2019-09-24T15:26:55.000Z</time>
   </trkpt>
   <trkpt lat="-8.050321" lon="-34.901095">
    <ele>14.1</ele>
    <time>2019-09-24T15:26:56.000Z</time>
   </trkpt>
   <trkpt lat="-8.050361" lon="-34.901094">
    <ele>14.1</ele>
    <time>2019-09-24T15:26:57.000Z</time>
   </trkpt>
   <trkpt lat="-8.050395" lon="-34.901096">
    <ele>14</ele>
    <time>2019-09-24T15:26:58.000Z</time>
   </trkpt>
   <trkpt lat="-8.050435" lon="-34.901094">
    <ele>13.9</ele>
    <time>2019-09-24T15:26:59.000Z</time>
   </trkpt>
   <trkpt lat="-8.050474" lon="-34.901101">
    <ele>13.8</ele>
    <time>2019-09-24T15:27:00.000Z</time>
   </trkpt>
   <trkpt lat="-8.050516" lon="-34.901104">
    <ele>13.7</ele>
    <time>2019-09-24T15:27:01.000Z</time>
   </trkpt>
   <trkpt lat="-8.050558" lon="-34.901107">
    <ele>13.6</ele>
    <time>2019-09-24T15:27:02.000Z</time>
   </trkpt>
   <trkpt lat="-8.050597" lon="-34.901098">
    <ele>13.5</ele>
    <time>2019-09-24T15:27:03.000Z</time>
   </trkpt>
   <trkpt lat="-8.050639" lon="-34.901085">
    <ele>13.3</ele>
    <time>2019-09-24T15:27:04.000Z</time>
   </trkpt>
   <trkpt lat="-8.050676" lon="-34.90108">
    <ele>13.2</ele>
    <time>2019-09-24T15:27:05.000Z</time>
   </trkpt>
   <trkpt lat="-8.050715" lon="-34.901077">
    <ele>13.1</ele>
    <time>2019-09-24T15:27:06.000Z</time>
   </trkpt>
   <trkpt lat="-8.050756" lon="-34.901084">
    <ele>12.9</ele>
    <time>2019-09-24T15:27:07.000Z</time>
   </trkpt>
   <trkpt lat="-8.050787" lon="-34.901092">
    <ele>12.8</ele>
    <time>2019-09-24T15:27:08.000Z</time>
   </trkpt>
   <trkpt lat="-8.05082" lon="-34.901105">
    <ele>12.6</ele>
    <time>2019-09-24T15:27:09.000Z</time>
   </trkpt>
   <trkpt lat="-8.050844" lon="-34.901133">
    <ele>12.5</ele>
    <time>2019-09-24T15:27:10.000Z</time>
   </trkpt>
   <trkpt lat="-8.050874" lon="-34.901177">
    <ele>12.4</ele>
    <time>2019-09-24T15:27:11.000Z</time>
   </trkpt>
   <trkpt lat="-8.050883" lon="-34.901221">
    <ele>12.5</ele>
    <time>2019-09-24T15:27:12.000Z</time>
   </trkpt>
   <trkpt lat="-8.050893" lon="-34.901264">
    <ele>12.5</ele>
    <time>2019-09-24T15:27:13.000Z</time>
   </trkpt>
   <trkpt lat="-8.050896" lon="-34.901308">
    <ele>12.6</ele>
    <time>2019-09-24T15:27:14.000Z</time>
   </trkpt>
   <trkpt lat="-8.050898" lon="-34.901346">
    <ele>12.6</ele>
    <time>2019-09-24T15:27:15.000Z</time>
   </trkpt>
   <trkpt lat="-8.050888" lon="-34.901386">
    <ele>12.7</ele>
    <time>2019-09-24T15:27:16.000Z</time>
   </trkpt>
   <trkpt lat="-8.050871" lon="-34.901428">
    <ele>12.7</ele>
    <time>2019-09-24T15:27:17.000Z</time>
   </trkpt>
   <trkpt lat="-8.05086" lon="-34.901469">
    <ele>12.7</ele>
    <time>2019-09-24T15:27:18.000Z</time>
   </trkpt>
   <trkpt lat="-8.050836" lon="-34.901499">
    <ele>12.8</ele>
    <time>2019-09-24T15:27:19.000Z</time>
   </trkpt>
   <trkpt lat="-8.050807" lon="-34.90155">
    <ele>12.8</ele>
    <time>2019-09-24T15:27:21.000Z</time>
   </trkpt>
   <trkpt lat="-8.0508" lon="-34.901586">
    <ele>12.9</ele>
    <time>2019-09-24T15:27:22.000Z</time>
   </trkpt>
   <trkpt lat="-8.050796" lon="-34.901625">
    <ele>12.9</ele>
    <time>2019-09-24T15:27:23.000Z</time>
   </trkpt>
   <trkpt lat="-8.050787" lon="-34.901661">
    <ele>13</ele>
    <time>2019-09-24T15:27:24.000Z</time>
   </trkpt>
   <trkpt lat="-8.050797" lon="-34.901708">
    <ele>13</ele>
    <time>2019-09-24T15:27:25.000Z</time>
   </trkpt>
   <trkpt lat="-8.050806" lon="-34.901741">
    <ele>13.1</ele>
    <time>2019-09-24T15:27:26.000Z</time>
   </trkpt>
   <trkpt lat="-8.050809" lon="-34.901777">
    <ele>13.1</ele>
    <time>2019-09-24T15:27:27.000Z</time>
   </trkpt>
   <trkpt lat="-8.050809" lon="-34.901808">
    <ele>13.1</ele>
    <time>2019-09-24T15:27:28.000Z</time>
   </trkpt>
   <trkpt lat="-8.050806" lon="-34.901848">
    <ele>13.8</ele>
    <time>2019-09-24T15:27:29.000Z</time>
   </trkpt>
   <trkpt lat="-8.050813" lon="-34.901886">
    <ele>14.1</ele>
    <time>2019-09-24T15:27:30.000Z</time>
   </trkpt>
   <trkpt lat="-8.050821" lon="-34.901922">
    <ele>14.5</ele>
    <time>2019-09-24T15:27:31.000Z</time>
   </trkpt>
   <trkpt lat="-8.050847" lon="-34.901948">
    <ele>14.7</ele>
    <time>2019-09-24T15:27:32.000Z</time>
   </trkpt>
   <trkpt lat="-8.050887" lon="-34.90197">
    <ele>14.6</ele>
    <time>2019-09-24T15:27:33.000Z</time>
   </trkpt>
   <trkpt lat="-8.05093" lon="-34.901979">
    <ele>14.4</ele>
    <time>2019-09-24T15:27:34.000Z</time>
   </trkpt>
   <trkpt lat="-8.050968" lon="-34.901993">
    <ele>14.3</ele>
    <time>2019-09-24T15:27:35.000Z</time>
   </trkpt>
   <trkpt lat="-8.051006" lon="-34.902007">
    <ele>14.2</ele>
    <time>2019-09-24T15:27:36.000Z</time>
   </trkpt>
   <trkpt lat="-8.051044" lon="-34.902018">
    <ele>14.1</ele>
    <time>2019-09-24T15:27:37.000Z</time>
   </trkpt>
   <trkpt lat="-8.051085" lon="-34.902024">
    <ele>14.1</ele>
    <time>2019-09-24T15:27:38.000Z</time>
   </trkpt>
   <trkpt lat="-8.051135" lon="-34.902015">
    <ele>14</ele>
    <time>2019-09-24T15:27:39.000Z</time>
   </trkpt>
   <trkpt lat="-8.051176" lon="-34.902004">
    <ele>14</ele>
    <time>2019-09-24T15:27:40.000Z</time>
   </trkpt>
   <trkpt lat="-8.05121" lon="-34.902006">
    <ele>13.9</ele>
    <time>2019-09-24T15:27:41.000Z</time>
   </trkpt>
   <trkpt lat="-8.051252" lon="-34.90201">
    <ele>13.9</ele>
    <time>2019-09-24T15:27:42.000Z</time>
   </trkpt>
   <trkpt lat="-8.05129" lon="-34.902014">
    <ele>13.8</ele>
    <time>2019-09-24T15:27:43.000Z</time>
   </trkpt>
   <trkpt lat="-8.051329" lon="-34.902014">
    <ele>13.7</ele>
    <time>2019-09-24T15:27:44.000Z</time>
   </trkpt>
   <trkpt lat="-8.051365" lon="-34.90202">
    <ele>13.6</ele>
    <time>2019-09-24T15:27:45.000Z</time>
   </trkpt>
   <trkpt lat="-8.051407" lon="-34.902037">
    <ele>13.5</ele>
    <time>2019-09-24T15:27:46.000Z</time>
   </trkpt>
   <trkpt lat="-8.05145" lon="-34.902049">
    <ele>13.4</ele>
    <time>2019-09-24T15:27:47.000Z</time>
   </trkpt>
   <trkpt lat="-8.05149" lon="-34.902071">
    <ele>13.3</ele>
    <time>2019-09-24T15:27:48.000Z</time>
   </trkpt>
   <trkpt lat="-8.051528" lon="-34.902088">
    <ele>13.1</ele>
    <time>2019-09-24T15:27:49.000Z</time>
   </trkpt>
   <trkpt lat="-8.051561" lon="-34.902099">
    <ele>13</ele>
    <time>2019-09-24T15:27:50.000Z</time>
   </trkpt>
   <trkpt lat="-8.051604" lon="-34.902112">
    <ele>12.9</ele>
    <time>2019-09-24T15:27:51.000Z</time>
   </trkpt>
   <trkpt lat="-8.051639" lon="-34.902119">
    <ele>12.8</ele>
    <time>2019-09-24T15:27:52.000Z</time>
   </trkpt>
   <trkpt lat="-8.051678" lon="-34.902131">
    <ele>12.7</ele>
    <time>2019-09-24T15:27:53.000Z</time>
   </trkpt>
   <trkpt lat="-8.051717" lon="-34.902142">
    <ele>12.6</ele>
    <time>2019-09-24T15:27:54.000Z</time>
   </trkpt>
   <trkpt lat="-8.051758" lon="-34.902139">
    <ele>12.5</ele>
    <time>2019-09-24T15:27:55.000Z</time>
   </trkpt>
   <trkpt lat="-8.051804" lon="-34.902139">
    <ele>12.4</ele>
    <time>2019-09-24T15:27:56.000Z</time>
   </trkpt>
   <trkpt lat="-8.051847" lon="-34.902136">
    <ele>12.3</ele>
    <time>2019-09-24T15:27:57.000Z</time>
   </trkpt>
   <trkpt lat="-8.051896" lon="-34.90215">
    <ele>12.2</ele>
    <time>2019-09-24T15:27:58.000Z</time>
   </trkpt>
   <trkpt lat="-8.051938" lon="-34.902152">
    <ele>12.1</ele>
    <time>2019-09-24T15:27:59.000Z</time>
   </trkpt>
   <trkpt lat="-8.051986" lon="-34.902155">
    <ele>12</ele>
    <time>2019-09-24T15:28:00.000Z</time>
   </trkpt>
   <trkpt lat="-8.052027" lon="-34.90216">
    <ele>12</ele>
    <time>2019-09-24T15:28:01.000Z</time>
   </trkpt>
   <trkpt lat="-8.052066" lon="-34.902167">
    <ele>11.9</ele>
    <time>2019-09-24T15:28:02.000Z</time>
   </trkpt>
   <trkpt lat="-8.052108" lon="-34.90218">
    <ele>11.8</ele>
    <time>2019-09-24T15:28:03.000Z</time>
   </trkpt>
   <trkpt lat="-8.052145" lon="-34.902184">
    <ele>11.6</ele>
    <time>2019-09-24T15:28:04.000Z</time>
   </trkpt>
   <trkpt lat="-8.05218" lon="-34.902186">
    <ele>11.6</ele>
    <time>2019-09-24T15:28:05.000Z</time>
   </trkpt>
   <trkpt lat="-8.052218" lon="-34.902193">
    <ele>11.5</ele>
    <time>2019-09-24T15:28:06.000Z</time>
   </trkpt>
   <trkpt lat="-8.052247" lon="-34.902199">
    <ele>11.4</ele>
    <time>2019-09-24T15:28:07.000Z</time>
   </trkpt>
   <trkpt lat="-8.052278" lon="-34.902205">
    <ele>11.3</ele>
    <time>2019-09-24T15:28:08.000Z</time>
   </trkpt>
   <trkpt lat="-8.052339" lon="-34.90221">
    <ele>11.2</ele>
    <time>2019-09-24T15:28:10.000Z</time>
   </trkpt>
   <trkpt lat="-8.052376" lon="-34.902217">
    <ele>11.1</ele>
    <time>2019-09-24T15:28:11.000Z</time>
   </trkpt>
   <trkpt lat="-8.052401" lon="-34.90223">
    <ele>11.1</ele>
    <time>2019-09-24T15:28:12.000Z</time>
   </trkpt>
   <trkpt lat="-8.052427" lon="-34.902238">
    <ele>11</ele>
    <time>2019-09-24T15:28:13.000Z</time>
   </trkpt>
   <trkpt lat="-8.052463" lon="-34.902238">
    <ele>11</ele>
    <time>2019-09-24T15:28:14.000Z</time>
   </trkpt>
   <trkpt lat="-8.052513" lon="-34.90225">
    <ele>11</ele>
    <time>2019-09-24T15:28:16.000Z</time>
   </trkpt>
   <trkpt lat="-8.05257" lon="-34.902256">
    <ele>11</ele>
    <time>2019-09-24T15:28:18.000Z</time>
   </trkpt>
   <trkpt lat="-8.052614" lon="-34.902258">
    <ele>11</ele>
    <time>2019-09-24T15:28:20.000Z</time>
   </trkpt>
   <trkpt lat="-8.052652" lon="-34.902253">
    <ele>11</ele>
    <time>2019-09-24T15:28:22.000Z</time>
   </trkpt>
   <trkpt lat="-8.052703" lon="-34.902261">
    <ele>11</ele>
    <time>2019-09-24T15:28:24.000Z</time>
   </trkpt>
   <trkpt lat="-8.052732" lon="-34.902275">
    <ele>11</ele>
    <time>2019-09-24T15:28:26.000Z</time>
   </trkpt>
   <trkpt lat="-8.052768" lon="-34.902262">
    <ele>11</ele>
    <time>2019-09-24T15:28:50.000Z</time>
   </trkpt>
   <trkpt lat="-8.05282" lon="-34.902255">
    <ele>11.6</ele>
    <time>2019-09-24T15:28:52.000Z</time>
   </trkpt>
   <trkpt lat="-8.052861" lon="-34.902254">
    <ele>12</ele>
    <time>2019-09-24T15:28:53.000Z</time>
   </trkpt>
   <trkpt lat="-8.052915" lon="-34.902256">
    <ele>12.4</ele>
    <time>2019-09-24T15:28:54.000Z</time>
   </trkpt>
   <trkpt lat="-8.052973" lon="-34.902266">
    <ele>12.9</ele>
    <time>2019-09-24T15:28:55.000Z</time>
   </trkpt>
   <trkpt lat="-8.053019" lon="-34.902256">
    <ele>13.2</ele>
    <time>2019-09-24T15:28:56.000Z</time>
   </trkpt>
   <trkpt lat="-8.053062" lon="-34.902248">
    <ele>13.6</ele>
    <time>2019-09-24T15:28:57.000Z</time>
   </trkpt>
   <trkpt lat="-8.05311" lon="-34.902234">
    <ele>14</ele>
    <time>2019-09-24T15:28:58.000Z</time>
   </trkpt>
   <trkpt lat="-8.053149" lon="-34.902215">
    <ele>14.3</ele>
    <time>2019-09-24T15:28:59.000Z</time>
   </trkpt>
   <trkpt lat="-8.05319" lon="-34.902202">
    <ele>14.5</ele>
    <time>2019-09-24T15:29:00.000Z</time>
   </trkpt>
   <trkpt lat="-8.053234" lon="-34.902187">
    <ele>14.7</ele>
    <time>2019-09-24T15:29:01.000Z</time>
   </trkpt>
   <trkpt lat="-8.053272" lon="-34.902169">
    <ele>14.9</ele>
    <time>2019-09-24T15:29:02.000Z</time>
   </trkpt>
   <trkpt lat="-8.053313" lon="-34.902154">
    <ele>15.1</ele>
    <time>2019-09-24T15:29:03.000Z</time>
   </trkpt>
   <trkpt lat="-8.053359" lon="-34.902108">
    <ele>15.3</ele>
    <time>2019-09-24T15:29:04.000Z</time>
   </trkpt>
   <trkpt lat="-8.053404" lon="-34.902102">
    <ele>15.5</ele>
    <time>2019-09-24T15:29:05.000Z</time>
   </trkpt>
   <trkpt lat="-8.053448" lon="-34.902087">
    <ele>15.7</ele>
    <time>2019-09-24T15:29:06.000Z</time>
   </trkpt>
   <trkpt lat="-8.053486" lon="-34.902077">
    <ele>15.8</ele>
    <time>2019-09-24T15:29:07.000Z</time>
   </trkpt>
   <trkpt lat="-8.053526" lon="-34.902078">
    <ele>16</ele>
    <time>2019-09-24T15:29:08.000Z</time>
   </trkpt>
   <trkpt lat="-8.053562" lon="-34.902084">
    <ele>16.1</ele>
    <time>2019-09-24T15:29:09.000Z</time>
   </trkpt>
   <trkpt lat="-8.053596" lon="-34.902075">
    <ele>16.3</ele>
    <time>2019-09-24T15:29:10.000Z</time>
   </trkpt>
   <trkpt lat="-8.053637" lon="-34.902064">
    <ele>16.4</ele>
    <time>2019-09-24T15:29:11.000Z</time>
   </trkpt>
   <trkpt lat="-8.053686" lon="-34.902053">
    <ele>16.6</ele>
    <time>2019-09-24T15:29:12.000Z</time>
   </trkpt>
   <trkpt lat="-8.053733" lon="-34.902041">
    <ele>16.8</ele>
    <time>2019-09-24T15:29:13.000Z</time>
   </trkpt>
   <trkpt lat="-8.053781" lon="-34.902031">
    <ele>16.2</ele>
    <time>2019-09-24T15:29:14.000Z</time>
   </trkpt>
   <trkpt lat="-8.05381" lon="-34.902003">
    <ele>15.5</ele>
    <time>2019-09-24T15:29:15.000Z</time>
   </trkpt>
   <trkpt lat="-8.053853" lon="-34.901993">
    <ele>14.6</ele>
    <time>2019-09-24T15:29:16.000Z</time>
   </trkpt>
   <trkpt lat="-8.053888" lon="-34.901985">
    <ele>13.9</ele>
    <time>2019-09-24T15:29:17.000Z</time>
   </trkpt>
   <trkpt lat="-8.05392" lon="-34.901977">
    <ele>13.2</ele>
    <time>2019-09-24T15:29:18.000Z</time>
   </trkpt>
   <trkpt lat="-8.053971" lon="-34.901965">
    <ele>12.2</ele>
    <time>2019-09-24T15:29:19.000Z</time>
   </trkpt>
   <trkpt lat="-8.054013" lon="-34.901953">
    <ele>11.3</ele>
    <time>2019-09-24T15:29:20.000Z</time>
   </trkpt>
   <trkpt lat="-8.054053" lon="-34.901943">
    <ele>10.5</ele>
    <time>2019-09-24T15:29:21.000Z</time>
   </trkpt>
   <trkpt lat="-8.0541" lon="-34.901929">
    <ele>9.8</ele>
    <time>2019-09-24T15:29:22.000Z</time>
   </trkpt>
   <trkpt lat="-8.054141" lon="-34.901911">
    <ele>9.7</ele>
    <time>2019-09-24T15:29:23.000Z</time>
   </trkpt>
   <trkpt lat="-8.054188" lon="-34.901901">
    <ele>9.4</ele>
    <time>2019-09-24T15:29:24.000Z</time>
   </trkpt>
   <trkpt lat="-8.054232" lon="-34.901885">
    <ele>9.1</ele>
    <time>2019-09-24T15:29:25.000Z</time>
   </trkpt>
   <trkpt lat="-8.054272" lon="-34.901869">
    <ele>9.2</ele>
    <time>2019-09-24T15:29:26.000Z</time>
   </trkpt>
   <trkpt lat="-8.054309" lon="-34.901861">
    <ele>9.4</ele>
    <time>2019-09-24T15:29:27.000Z</time>
   </trkpt>
   <trkpt lat="-8.054349" lon="-34.901843">
    <ele>9.6</ele>
    <time>2019-09-24T15:29:28.000Z</time>
   </trkpt>
   <trkpt lat="-8.054393" lon="-34.901831">
    <ele>9.8</ele>
    <time>2019-09-24T15:29:29.000Z</time>
   </trkpt>
   <trkpt lat="-8.054432" lon="-34.901815">
    <ele>9.9</ele>
    <time>2019-09-24T15:29:30.000Z</time>
   </trkpt>
   <trkpt lat="-8.054468" lon="-34.901803">
    <ele>10</ele>
    <time>2019-09-24T15:29:31.000Z</time>
   </trkpt>
   <trkpt lat="-8.054501" lon="-34.9018">
    <ele>10</ele>
    <time>2019-09-24T15:29:32.000Z</time>
   </trkpt>
   <trkpt lat="-8.054554" lon="-34.901782">
    <ele>9.9</ele>
    <time>2019-09-24T15:29:33.000Z</time>
   </trkpt>
   <trkpt lat="-8.054584" lon="-34.901743">
    <ele>9.8</ele>
    <time>2019-09-24T15:29:34.000Z</time>
   </trkpt>
   <trkpt lat="-8.054603" lon="-34.901693">
    <ele>9.7</ele>
    <time>2019-09-24T15:29:35.000Z</time>
   </trkpt>
   <trkpt lat="-8.05461" lon="-34.901653">
    <ele>9.7</ele>
    <time>2019-09-24T15:29:36.000Z</time>
   </trkpt>
   <trkpt lat="-8.054591" lon="-34.90162">
    <ele>9.6</ele>
    <time>2019-09-24T15:29:37.000Z</time>
   </trkpt>
   <trkpt lat="-8.054579" lon="-34.901592">
    <ele>9.6</ele>
    <time>2019-09-24T15:29:38.000Z</time>
   </trkpt>
   <trkpt lat="-8.054563" lon="-34.901564">
    <ele>9.5</ele>
    <time>2019-09-24T15:29:39.000Z</time>
   </trkpt>
   <trkpt lat="-8.054563" lon="-34.901536">
    <ele>10.2</ele>
    <time>2019-09-24T15:29:40.000Z</time>
   </trkpt>
   <trkpt lat="-8.054567" lon="-34.901498">
    <ele>10.6</ele>
    <time>2019-09-24T15:29:41.000Z</time>
   </trkpt>
   <trkpt lat="-8.054585" lon="-34.901466">
    <ele>11</ele>
    <time>2019-09-24T15:29:42.000Z</time>
   </trkpt>
   <trkpt lat="-8.054612" lon="-34.90143">
    <ele>11.4</ele>
    <time>2019-09-24T15:29:43.000Z</time>
   </trkpt>
   <trkpt lat="-8.054637" lon="-34.901398">
    <ele>11.7</ele>
    <time>2019-09-24T15:29:44.000Z</time>
   </trkpt>
   <trkpt lat="-8.054666" lon="-34.901371">
    <ele>11.9</ele>
    <time>2019-09-24T15:29:45.000Z</time>
   </trkpt>
   <trkpt lat="-8.054686" lon="-34.901347">
    <ele>12.1</ele>
    <time>2019-09-24T15:29:46.000Z</time>
   </trkpt>
   <trkpt lat="-8.054715" lon="-34.901308">
    <ele>12.3</ele>
    <time>2019-09-24T15:29:48.000Z</time>
   </trkpt>
   <trkpt lat="-8.054737" lon="-34.901264">
    <ele>12.6</ele>
    <time>2019-09-24T15:29:50.000Z</time>
   </trkpt>
   <trkpt lat="-8.054752" lon="-34.90124">
    <ele>12.6</ele>
    <time>2019-09-24T15:29:51.000Z</time>
   </trkpt>
   <trkpt lat="-8.05479" lon="-34.901202">
    <ele>12.8</ele>
    <time>2019-09-24T15:29:53.000Z</time>
   </trkpt>
   <trkpt lat="-8.05482" lon="-34.901177">
    <ele>12.9</ele>
    <time>2019-09-24T15:29:54.000Z</time>
   </trkpt>
   <trkpt lat="-8.054846" lon="-34.901144">
    <ele>13</ele>
    <time>2019-09-24T15:29:55.000Z</time>
   </trkpt>
   <trkpt lat="-8.054872" lon="-34.901119">
    <ele>13</ele>
    <time>2019-09-24T15:29:56.000Z</time>
   </trkpt>
   <trkpt lat="-8.054898" lon="-34.901082">
    <ele>13.1</ele>
    <time>2019-09-24T15:29:58.000Z</time>
   </trkpt>
   <trkpt lat="-8.054924" lon="-34.901027">
    <ele>13.2</ele>
    <time>2019-09-24T15:30:00.000Z</time>
   </trkpt>
   <trkpt lat="-8.05495" lon="-34.901003">
    <ele>13.2</ele>
    <time>2019-09-24T15:30:01.000Z</time>
   </trkpt>
   <trkpt lat="-8.054971" lon="-34.900977">
    <ele>13.3</ele>
    <time>2019-09-24T15:30:02.000Z</time>
   </trkpt>
   <trkpt lat="-8.054985" lon="-34.900954">
    <ele>13.3</ele>
    <time>2019-09-24T15:30:03.000Z</time>
   </trkpt>
   <trkpt lat="-8.055008" lon="-34.900931">
    <ele>13.4</ele>
    <time>2019-09-24T15:30:04.000Z</time>
   </trkpt>
   <trkpt lat="-8.055036" lon="-34.900907">
    <ele>13.4</ele>
    <time>2019-09-24T15:30:05.000Z</time>
   </trkpt>
   <trkpt lat="-8.055069" lon="-34.900881">
    <ele>13.5</ele>
    <time>2019-09-24T15:30:06.000Z</time>
   </trkpt>
   <trkpt lat="-8.055111" lon="-34.90086">
    <ele>13.6</ele>
    <time>2019-09-24T15:30:07.000Z</time>
   </trkpt>
   <trkpt lat="-8.055147" lon="-34.90083">
    <ele>13.6</ele>
    <time>2019-09-24T15:30:08.000Z</time>
   </trkpt>
   <trkpt lat="-8.055187" lon="-34.900802">
    <ele>13.7</ele>
    <time>2019-09-24T15:30:09.000Z</time>
   </trkpt>
   <trkpt lat="-8.055225" lon="-34.90077">
    <ele>13.9</ele>
    <time>2019-09-24T15:30:10.000Z</time>
   </trkpt>
   <trkpt lat="-8.055256" lon="-34.900739">
    <ele>14</ele>
    <time>2019-09-24T15:30:11.000Z</time>
   </trkpt>
   <trkpt lat="-8.055277" lon="-34.900706">
    <ele>14.2</ele>
    <time>2019-09-24T15:30:12.000Z</time>
   </trkpt>
   <trkpt lat="-8.055294" lon="-34.900682">
    <ele>14</ele>
    <time>2019-09-24T15:30:13.000Z</time>
   </trkpt>
   <trkpt lat="-8.055302" lon="-34.900647">
    <ele>13.9</ele>
    <time>2019-09-24T15:30:14.000Z</time>
   </trkpt>
   <trkpt lat="-8.05531" lon="-34.900613">
    <ele>13.8</ele>
    <time>2019-09-24T15:30:15.000Z</time>
   </trkpt>
   <trkpt lat="-8.055305" lon="-34.900576">
    <ele>13.6</ele>
    <time>2019-09-24T15:30:16.000Z</time>
   </trkpt>
   <trkpt lat="-8.055306" lon="-34.900537">
    <ele>13.5</ele>
    <time>2019-09-24T15:30:17.000Z</time>
   </trkpt>
   <trkpt lat="-8.055308" lon="-34.900501">
    <ele>13.4</ele>
    <time>2019-09-24T15:30:18.000Z</time>
   </trkpt>
   <trkpt lat="-8.055311" lon="-34.900467">
    <ele>13.3</ele>
    <time>2019-09-24T15:30:19.000Z</time>
   </trkpt>
   <trkpt lat="-8.055294" lon="-34.900436">
    <ele>13.1</ele>
    <time>2019-09-24T15:30:20.000Z</time>
   </trkpt>
   <trkpt lat="-8.055276" lon="-34.900398">
    <ele>13</ele>
    <time>2019-09-24T15:30:21.000Z</time>
   </trkpt>
   <trkpt lat="-8.055261" lon="-34.900362">
    <ele>12.9</ele>
    <time>2019-09-24T15:30:22.000Z</time>
   </trkpt>
   <trkpt lat="-8.055245" lon="-34.900322">
    <ele>12.7</ele>
    <time>2019-09-24T15:30:23.000Z</time>
   </trkpt>
   <trkpt lat="-8.055236" lon="-34.900285">
    <ele>12.6</ele>
    <time>2019-09-24T15:30:24.000Z</time>
   </trkpt>
   <trkpt lat="-8.055228" lon="-34.900247">
    <ele>12.6</ele>
    <time>2019-09-24T15:30:25.000Z</time>
   </trkpt>
   <trkpt lat="-8.055233" lon="-34.90021">
    <ele>12.5</ele>
    <time>2019-09-24T15:30:26.000Z</time>
   </trkpt>
   <trkpt lat="-8.055246" lon="-34.900175">
    <ele>12.4</ele>
    <time>2019-09-24T15:30:27.000Z</time>
   </trkpt>
   <trkpt lat="-8.055269" lon="-34.900154">
    <ele>12.2</ele>
    <time>2019-09-24T15:30:28.000Z</time>
   </trkpt>
   <trkpt lat="-8.055297" lon="-34.900144">
    <ele>12.1</ele>
    <time>2019-09-24T15:30:29.000Z</time>
   </trkpt>
   <trkpt lat="-8.055333" lon="-34.900138">
    <ele>12.4</ele>
    <time>2019-09-24T15:30:30.000Z</time>
   </trkpt>
   <trkpt lat="-8.05538" lon="-34.900136">
    <ele>12.6</ele>
    <time>2019-09-24T15:30:31.000Z</time>
   </trkpt>
   <trkpt lat="-8.055431" lon="-34.900141">
    <ele>12.8</ele>
    <time>2019-09-24T15:30:32.000Z</time>
   </trkpt>
   <trkpt lat="-8.055477" lon="-34.900143">
    <ele>12.9</ele>
    <time>2019-09-24T15:30:33.000Z</time>
   </trkpt>
   <trkpt lat="-8.055524" lon="-34.90014">
    <ele>13</ele>
    <time>2019-09-24T15:30:34.000Z</time>
   </trkpt>
   <trkpt lat="-8.055568" lon="-34.900147">
    <ele>13.1</ele>
    <time>2019-09-24T15:30:35.000Z</time>
   </trkpt>
   <trkpt lat="-8.055609" lon="-34.900148">
    <ele>13.1</ele>
    <time>2019-09-24T15:30:36.000Z</time>
   </trkpt>
   <trkpt lat="-8.055646" lon="-34.900154">
    <ele>13.2</ele>
    <time>2019-09-24T15:30:37.000Z</time>
   </trkpt>
   <trkpt lat="-8.055681" lon="-34.900154">
    <ele>13.3</ele>
    <time>2019-09-24T15:30:38.000Z</time>
   </trkpt>
   <trkpt lat="-8.055748" lon="-34.900153">
    <ele>13.5</ele>
    <time>2019-09-24T15:30:39.000Z</time>
   </trkpt>
   <trkpt lat="-8.055805" lon="-34.900164">
    <ele>13.7</ele>
    <time>2019-09-24T15:30:40.000Z</time>
   </trkpt>
   <trkpt lat="-8.055853" lon="-34.900162">
    <ele>13.8</ele>
    <time>2019-09-24T15:30:41.000Z</time>
   </trkpt>
   <trkpt lat="-8.055901" lon="-34.900161">
    <ele>14</ele>
    <time>2019-09-24T15:30:42.000Z</time>
   </trkpt>
   <trkpt lat="-8.055945" lon="-34.900156">
    <ele>14.1</ele>
    <time>2019-09-24T15:30:43.000Z</time>
   </trkpt>
   <trkpt lat="-8.055981" lon="-34.900149">
    <ele>14.1</ele>
    <time>2019-09-24T15:30:44.000Z</time>
   </trkpt>
   <trkpt lat="-8.056016" lon="-34.900142">
    <ele>14</ele>
    <time>2019-09-24T15:30:45.000Z</time>
   </trkpt>
   <trkpt lat="-8.056055" lon="-34.900128">
    <ele>14</ele>
    <time>2019-09-24T15:30:46.000Z</time>
   </trkpt>
   <trkpt lat="-8.056091" lon="-34.900122">
    <ele>14</ele>
    <time>2019-09-24T15:30:47.000Z</time>
   </trkpt>
   <trkpt lat="-8.056137" lon="-34.900109">
    <ele>13.9</ele>
    <time>2019-09-24T15:30:48.000Z</time>
   </trkpt>
   <trkpt lat="-8.056171" lon="-34.900101">
    <ele>13.9</ele>
    <time>2019-09-24T15:30:49.000Z</time>
   </trkpt>
   <trkpt lat="-8.056204" lon="-34.9001">
    <ele>13.8</ele>
    <time>2019-09-24T15:30:50.000Z</time>
   </trkpt>
   <trkpt lat="-8.056235" lon="-34.900099">
    <ele>13.8</ele>
    <time>2019-09-24T15:30:51.000Z</time>
   </trkpt>
   <trkpt lat="-8.056264" lon="-34.900101">
    <ele>13.7</ele>
    <time>2019-09-24T15:30:52.000Z</time>
   </trkpt>
   <trkpt lat="-8.056295" lon="-34.900096">
    <ele>13.6</ele>
    <time>2019-09-24T15:30:53.000Z</time>
   </trkpt>
   <trkpt lat="-8.056324" lon="-34.90009">
    <ele>13.5</ele>
    <time>2019-09-24T15:30:54.000Z</time>
   </trkpt>
   <trkpt lat="-8.056378" lon="-34.900093">
    <ele>13.4</ele>
    <time>2019-09-24T15:30:56.000Z</time>
   </trkpt>
   <trkpt lat="-8.056413" lon="-34.900094">
    <ele>13.2</ele>
    <time>2019-09-24T15:30:58.000Z</time>
   </trkpt>
   <trkpt lat="-8.056461" lon="-34.900086">
    <ele>12.9</ele>
    <time>2019-09-24T15:31:00.000Z</time>
   </trkpt>
   <trkpt lat="-8.056525" lon="-34.900078">
    <ele>12.3</ele>
    <time>2019-09-24T15:31:02.000Z</time>
   </trkpt>
   <trkpt lat="-8.056557" lon="-34.900076">
    <ele>11.9</ele>
    <time>2019-09-24T15:31:40.000Z</time>
   </trkpt>
   <trkpt lat="-8.056589" lon="-34.900073">
    <ele>11.6</ele>
    <time>2019-09-24T15:31:41.000Z</time>
   </trkpt>
   <trkpt lat="-8.056633" lon="-34.900077">
    <ele>11.2</ele>
    <time>2019-09-24T15:31:42.000Z</time>
   </trkpt>
   <trkpt lat="-8.056672" lon="-34.900078">
    <ele>10.8</ele>
    <time>2019-09-24T15:31:43.000Z</time>
   </trkpt>
   <trkpt lat="-8.05672" lon="-34.900086">
    <ele>10.4</ele>
    <time>2019-09-24T15:31:44.000Z</time>
   </trkpt>
   <trkpt lat="-8.056768" lon="-34.900087">
    <ele>10.2</ele>
    <time>2019-09-24T15:31:45.000Z</time>
   </trkpt>
   <trkpt lat="-8.056817" lon="-34.900085">
    <ele>10</ele>
    <time>2019-09-24T15:31:46.000Z</time>
   </trkpt>
   <trkpt lat="-8.056864" lon="-34.900084">
    <ele>9.9</ele>
    <time>2019-09-24T15:31:47.000Z</time>
   </trkpt>
   <trkpt lat="-8.056913" lon="-34.900084">
    <ele>9.7</ele>
    <time>2019-09-24T15:31:48.000Z</time>
   </trkpt>
   <trkpt lat="-8.05696" lon="-34.900082">
    <ele>9.5</ele>
    <time>2019-09-24T15:31:49.000Z</time>
   </trkpt>
   <trkpt lat="-8.057005" lon="-34.900079">
    <ele>9.4</ele>
    <time>2019-09-24T15:31:50.000Z</time>
   </trkpt>
   <trkpt lat="-8.057052" lon="-34.900079">
    <ele>9.3</ele>
    <time>2019-09-24T15:31:51.000Z</time>
   </trkpt>
   <trkpt lat="-8.057096" lon="-34.900077">
    <ele>9.3</ele>
    <time>2019-09-24T15:31:52.000Z</time>
   </trkpt>
   <trkpt lat="-8.057142" lon="-34.900084">
    <ele>9.5</ele>
    <time>2019-09-24T15:31:53.000Z</time>
   </trkpt>
   <trkpt lat="-8.057186" lon="-34.900088">
    <ele>9.6</ele>
    <time>2019-09-24T15:31:54.000Z</time>
   </trkpt>
   <trkpt lat="-8.057233" lon="-34.900083">
    <ele>9.8</ele>
    <time>2019-09-24T15:31:55.000Z</time>
   </trkpt>
   <trkpt lat="-8.057273" lon="-34.900089">
    <ele>9.9</ele>
    <time>2019-09-24T15:31:56.000Z</time>
   </trkpt>
   <trkpt lat="-8.057316" lon="-34.900089">
    <ele>10.1</ele>
    <time>2019-09-24T15:31:57.000Z</time>
   </trkpt>
   <trkpt lat="-8.057357" lon="-34.90009">
    <ele>10.2</ele>
    <time>2019-09-24T15:31:58.000Z</time>
   </trkpt>
   <trkpt lat="-8.057392" lon="-34.900086">
    <ele>10.2</ele>
    <time>2019-09-24T15:31:59.000Z</time>
   </trkpt>
   <trkpt lat="-8.057429" lon="-34.900082">
    <ele>10.2</ele>
    <time>2019-09-24T15:32:00.000Z</time>
   </trkpt>
   <trkpt lat="-8.057464" lon="-34.900072">
    <ele>10.3</ele>
    <time>2019-09-24T15:32:01.000Z</time>
   </trkpt>
   <trkpt lat="-8.057492" lon="-34.90006">
    <ele>10.1</ele>
    <time>2019-09-24T15:32:02.000Z</time>
   </trkpt>
   <trkpt lat="-8.05753" lon="-34.900034">
    <ele>10</ele>
    <time>2019-09-24T15:32:04.000Z</time>
   </trkpt>
   <trkpt lat="-8.057543" lon="-34.900006">
    <ele>9.9</ele>
    <time>2019-09-24T15:32:05.000Z</time>
   </trkpt>
   <trkpt lat="-8.057541" lon="-34.899975">
    <ele>9.9</ele>
    <time>2019-09-24T15:32:06.000Z</time>
   </trkpt>
   <trkpt lat="-8.057536" lon="-34.899934">
    <ele>9.6</ele>
    <time>2019-09-24T15:32:07.000Z</time>
   </trkpt>
   <trkpt lat="-8.057533" lon="-34.899894">
    <ele>9.4</ele>
    <time>2019-09-24T15:32:08.000Z</time>
   </trkpt>
   <trkpt lat="-8.057532" lon="-34.899855">
    <ele>9.2</ele>
    <time>2019-09-24T15:32:09.000Z</time>
   </trkpt>
   <trkpt lat="-8.05754" lon="-34.899811">
    <ele>9</ele>
    <time>2019-09-24T15:32:10.000Z</time>
   </trkpt>
   <trkpt lat="-8.057544" lon="-34.899762">
    <ele>8.8</ele>
    <time>2019-09-24T15:32:11.000Z</time>
   </trkpt>
   <trkpt lat="-8.057541" lon="-34.899713">
    <ele>8.6</ele>
    <time>2019-09-24T15:32:12.000Z</time>
   </trkpt>
   <trkpt lat="-8.057541" lon="-34.899663">
    <ele>8.3</ele>
    <time>2019-09-24T15:32:13.000Z</time>
   </trkpt>
   <trkpt lat="-8.057546" lon="-34.899609">
    <ele>7.9</ele>
    <time>2019-09-24T15:32:14.000Z</time>
   </trkpt>
   <trkpt lat="-8.057545" lon="-34.89956">
    <ele>7.6</ele>
    <time>2019-09-24T15:32:15.000Z</time>
   </trkpt>
   <trkpt lat="-8.057535" lon="-34.899514">
    <ele>7.2</ele>
    <time>2019-09-24T15:32:16.000Z</time>
   </trkpt>
   <trkpt lat="-8.057523" lon="-34.899476">
    <ele>7.1</ele>
    <time>2019-09-24T15:32:17.000Z</time>
   </trkpt>
   <trkpt lat="-8.057526" lon="-34.89944">
    <ele>7</ele>
    <time>2019-09-24T15:32:18.000Z</time>
   </trkpt>
   <trkpt lat="-8.057528" lon="-34.899402">
    <ele>6.9</ele>
    <time>2019-09-24T15:32:19.000Z</time>
   </trkpt>
   <trkpt lat="-8.057528" lon="-34.899361">
    <ele>6.9</ele>
    <time>2019-09-24T15:32:20.000Z</time>
   </trkpt>
   <trkpt lat="-8.057522" lon="-34.89932">
    <ele>6.8</ele>
    <time>2019-09-24T15:32:21.000Z</time>
   </trkpt>
   <trkpt lat="-8.057521" lon="-34.899283">
    <ele>6.8</ele>
    <time>2019-09-24T15:32:22.000Z</time>
   </trkpt>
   <trkpt lat="-8.057528" lon="-34.899252">
    <ele>6.7</ele>
    <time>2019-09-24T15:32:23.000Z</time>
   </trkpt>
   <trkpt lat="-8.057536" lon="-34.89922">
    <ele>6.7</ele>
    <time>2019-09-24T15:32:24.000Z</time>
   </trkpt>
   <trkpt lat="-8.05753" lon="-34.89918">
    <ele>6.6</ele>
    <time>2019-09-24T15:32:26.000Z</time>
   </trkpt>
   <trkpt lat="-8.057564" lon="-34.899161">
    <ele>6.5</ele>
    <time>2019-09-24T15:32:33.000Z</time>
   </trkpt>
   <trkpt lat="-8.057591" lon="-34.899153">
    <ele>6.5</ele>
    <time>2019-09-24T15:32:35.000Z</time>
   </trkpt>
   <trkpt lat="-8.057621" lon="-34.899149">
    <ele>6.4</ele>
    <time>2019-09-24T15:32:37.000Z</time>
   </trkpt>
   <trkpt lat="-8.057651" lon="-34.899139">
    <ele>6.4</ele>
    <time>2019-09-24T15:32:39.000Z</time>
   </trkpt>
   <trkpt lat="-8.057686" lon="-34.899165">
    <ele>6.3</ele>
    <time>2019-09-24T15:32:45.000Z</time>
   </trkpt>
   <trkpt lat="-8.057709" lon="-34.899179">
    <ele>6.3</ele>
    <time>2019-09-24T15:32:46.000Z</time>
   </trkpt>
   <trkpt lat="-8.057735" lon="-34.899197">
    <ele>6.2</ele>
    <time>2019-09-24T15:32:50.000Z</time>
   </trkpt>
   <trkpt lat="-8.057762" lon="-34.89919">
    <ele>6.2</ele>
    <time>2019-09-24T15:32:55.000Z</time>
   </trkpt>
   <trkpt lat="-8.057621" lon="-34.898664">
    <ele>9.1</ele>
    <time>2019-09-24T15:33:19.000Z</time>
   </trkpt>
   <trkpt lat="-8.057857" lon="-34.898771">
    <ele>8</ele>
    <time>2019-09-24T15:33:21.000Z</time>
   </trkpt>
   <trkpt lat="-8.057869" lon="-34.898832">
    <ele>7.8</ele>
    <time>2019-09-24T15:33:22.000Z</time>
   </trkpt>
   <trkpt lat="-8.057869" lon="-34.898874">
    <ele>7.7</ele>
    <time>2019-09-24T15:33:23.000Z</time>
   </trkpt>
   <trkpt lat="-8.057879" lon="-34.898902">
    <ele>7.6</ele>
    <time>2019-09-24T15:33:26.000Z</time>
   </trkpt>
  </trkseg>
 </trk>
</gpx>
