<?xml version="1.0" encoding="UTF-8"?>
<gpx creator="StravaGPX" version="1.1" xmlns="http://www.topografix.com/GPX/1/1">
 <metadata>
  <time>2025-08-18T19:15:56Z</time>
 </metadata>
 <trk>
  <name>Night Ride</name>
  <type>1</type>
  <trkseg>
   <trkpt lat="52.5035" lon="13.407156">
    <ele>37</ele>
    <time>2025-08-18T19:15:56.000Z</time>
   </trkpt>
   <trkpt lat="52.5035" lon="13.407156">
    <ele>37.2</ele>
    <time>2025-08-18T19:15:57.000Z</time>
   </trkpt>
   <trkpt lat="52.5035" lon="13.407156">
    <ele>37.4</ele>
    <time>2025-08-18T19:16:03.000Z</time>
   </trkpt>
   <trkpt lat="52.5035" lon="13.407156">
    <ele>37.4</ele>
    <time>2025-08-18T19:16:04.000Z</time>
   </trkpt>
   <trkpt lat="52.5035" lon="13.407156">
    <ele>37.2</ele>
    <time>2025-08-18T19:16:36.000Z</time>
   </trkpt>
   <trkpt lat="52.50359" lon="13.407284">
    <ele>37.2</ele>
    <time>2025-08-18T19:16:41.000Z</time>
   </trkpt>
   <trkpt lat="52.503744" lon="13.407413">
    <ele>37.4</ele>
    <time>2025-08-18T19:16:46.000Z</time>
   </trkpt>
   <trkpt lat="52.504023" lon="13.407705">
    <ele>37.4</ele>
    <time>2025-08-18T19:16:53.000Z</time>
   </trkpt>
   <trkpt lat="52.504227" lon="13.407957">
    <ele>37.2</ele>
    <time>2025-08-18T19:16:59.000Z</time>
   </trkpt>
   <trkpt lat="52.504268" lon="13.408033">
    <ele>37.2</ele>
    <time>2025-08-18T19:17:01.000Z</time>
   </trkpt>
   <trkpt lat="52.504274" lon="13.408089">
    <ele>37.2</ele>
    <time>2025-08-18T19:17:03.000Z</time>
   </trkpt>
   <trkpt lat="52.504237" lon="13.408267">
    <ele>37.2</ele>
    <time>2025-08-18T19:17:06.000Z</time>
   </trkpt>
   <trkpt lat="52.504144" lon="13.408614">
    <ele>37.2</ele>
    <time>2025-08-18T19:17:12.000Z</time>
   </trkpt>
   <trkpt lat="52.50412" lon="13.408722">
    <ele>37.2</ele>
    <time>2025-08-18T19:17:14.000Z</time>
   </trkpt>
   <trkpt lat="52.504075" lon="13.408908">
    <ele>37</ele>
    <time>2025-08-18T19:17:17.000Z</time>
   </trkpt>
   <trkpt lat="52.504037" lon="13.409095">
    <ele>37</ele>
    <time>2025-08-18T19:17:20.000Z</time>
   </trkpt>
   <trkpt lat="52.504008" lon="13.409215">
    <ele>37</ele>
    <time>2025-08-18T19:17:22.000Z</time>
   </trkpt>
   <trkpt lat="52.503992" lon="13.409392">
    <ele>37</ele>
    <time>2025-08-18T19:17:25.000Z</time>
   </trkpt>
   <trkpt lat="52.503974" lon="13.409516">
    <ele>37</ele>
    <time>2025-08-18T19:17:27.000Z</time>
   </trkpt>
   <trkpt lat="52.503949" lon="13.40964">
    <ele>36.8</ele>
    <time>2025-08-18T19:17:29.000Z</time>
   </trkpt>
   <trkpt lat="52.503921" lon="13.409758">
    <ele>36.8</ele>
    <time>2025-08-18T19:17:31.000Z</time>
   </trkpt>
   <trkpt lat="52.503923" lon="13.409821">
    <ele>36.8</ele>
    <time>2025-08-18T19:17:32.000Z</time>
   </trkpt>
   <trkpt lat="52.503841" lon="13.410035">
    <ele>37</ele>
    <time>2025-08-18T19:17:36.000Z</time>
   </trkpt>
   <trkpt lat="52.503702" lon="13.410224">
    <ele>37</ele>
    <time>2025-08-18T19:17:40.000Z</time>
   </trkpt>
   <trkpt lat="52.503664" lon="13.410248">
    <ele>37</ele>
    <time>2025-08-18T19:17:41.000Z</time>
   </trkpt>
   <trkpt lat="52.503627" lon="13.410265">
    <ele>37</ele>
    <time>2025-08-18T19:17:42.000Z</time>
   </trkpt>
   <trkpt lat="52.503531" lon="13.410307">
    <ele>37</ele>
    <time>2025-08-18T19:17:45.000Z</time>
   </trkpt>
   <trkpt lat="52.503407" lon="13.410351">
    <ele>37</ele>
    <time>2025-08-18T19:17:48.000Z</time>
   </trkpt>
   <trkpt lat="52.503372" lon="13.410404">
    <ele>37</ele>
    <time>2025-08-18T19:17:49.000Z</time>
   </trkpt>
   <trkpt lat="52.50335" lon="13.410471">
    <ele>37</ele>
    <time>2025-08-18T19:17:50.000Z</time>
   </trkpt>
   <trkpt lat="52.503367" lon="13.410612">
    <ele>37</ele>
    <time>2025-08-18T19:17:52.000Z</time>
   </trkpt>
   <trkpt lat="52.503455" lon="13.410988">
    <ele>37.2</ele>
    <time>2025-08-18T19:17:57.000Z</time>
   </trkpt>
   <trkpt lat="52.503433" lon="13.411187">
    <ele>37.2</ele>
    <time>2025-08-18T19:18:00.000Z</time>
   </trkpt>
   <trkpt lat="52.503391" lon="13.411298">
    <ele>37</ele>
    <time>2025-08-18T19:18:02.000Z</time>
   </trkpt>
   <trkpt lat="52.503353" lon="13.411402">
    <ele>37</ele>
    <time>2025-08-18T19:18:04.000Z</time>
   </trkpt>
   <trkpt lat="52.503284" lon="13.411633">
    <ele>37</ele>
    <time>2025-08-18T19:18:08.000Z</time>
   </trkpt>
   <trkpt lat="52.503233" lon="13.411834">
    <ele>37</ele>
    <time>2025-08-18T19:18:11.000Z</time>
   </trkpt>
   <trkpt lat="52.50314" lon="13.412087">
    <ele>37</ele>
    <time>2025-08-18T19:18:15.000Z</time>
   </trkpt>
   <trkpt lat="52.50303" lon="13.412361">
    <ele>37</ele>
    <time>2025-08-18T19:18:19.000Z</time>
   </trkpt>
   <trkpt lat="52.503005" lon="13.41243">
    <ele>37</ele>
    <time>2025-08-18T19:18:20.000Z</time>
   </trkpt>
   <trkpt lat="52.502979" lon="13.412507">
    <ele>37</ele>
    <time>2025-08-18T19:18:21.000Z</time>
   </trkpt>
   <trkpt lat="52.502927" lon="13.412864">
    <ele>37.2</ele>
    <time>2025-08-18T19:18:25.000Z</time>
   </trkpt>
   <trkpt lat="52.502917" lon="13.413053">
    <ele>37.2</ele>
    <time>2025-08-18T19:18:27.000Z</time>
   </trkpt>
   <trkpt lat="52.502913" lon="13.413231">
    <ele>37.2</ele>
    <time>2025-08-18T19:18:29.000Z</time>
   </trkpt>
   <trkpt lat="52.502869" lon="13.413386">
    <ele>37.2</ele>
    <time>2025-08-18T19:18:31.000Z</time>
   </trkpt>
   <trkpt lat="52.502847" lon="13.413467">
    <ele>37.2</ele>
    <time>2025-08-18T19:18:32.000Z</time>
   </trkpt>
   <trkpt lat="52.502742" lon="13.413911">
    <ele>37</ele>
    <time>2025-08-18T19:18:38.000Z</time>
   </trkpt>
   <trkpt lat="52.502709" lon="13.414045">
    <ele>37</ele>
    <time>2025-08-18T19:18:40.000Z</time>
   </trkpt>
   <trkpt lat="52.502672" lon="13.414174">
    <ele>37</ele>
    <time>2025-08-18T19:18:42.000Z</time>
   </trkpt>
   <trkpt lat="52.502648" lon="13.414313">
    <ele>37</ele>
    <time>2025-08-18T19:18:44.000Z</time>
   </trkpt>
   <trkpt lat="52.502582" lon="13.414579">
    <ele>37</ele>
    <time>2025-08-18T19:18:49.000Z</time>
   </trkpt>
   <trkpt lat="52.502462" lon="13.414787">
    <ele>37</ele>
    <time>2025-08-18T19:18:54.000Z</time>
   </trkpt>
   <trkpt lat="52.502406" lon="13.414857">
    <ele>37</ele>
    <time>2025-08-18T19:18:56.000Z</time>
   </trkpt>
   <trkpt lat="52.502357" lon="13.414954">
    <ele>37</ele>
    <time>2025-08-18T19:18:58.000Z</time>
   </trkpt>
   <trkpt lat="52.50224" lon="13.415287">
    <ele>37.2</ele>
    <time>2025-08-18T19:19:03.000Z</time>
   </trkpt>
   <trkpt lat="52.502066" lon="13.415882">
    <ele>37</ele>
    <time>2025-08-18T19:19:10.000Z</time>
   </trkpt>
   <trkpt lat="52.501985" lon="13.41654">
    <ele>37.2</ele>
    <time>2025-08-18T19:19:18.000Z</time>
   </trkpt>
   <trkpt lat="52.501952" lon="13.416701">
    <ele>37.2</ele>
    <time>2025-08-18T19:19:20.000Z</time>
   </trkpt>
   <trkpt lat="52.50193" lon="13.416777">
    <ele>37.2</ele>
    <time>2025-08-18T19:19:21.000Z</time>
   </trkpt>
   <trkpt lat="52.501899" lon="13.416867">
    <ele>37.2</ele>
    <time>2025-08-18T19:19:22.000Z</time>
   </trkpt>
   <trkpt lat="52.501758" lon="13.417407">
    <ele>37</ele>
    <time>2025-08-18T19:19:29.000Z</time>
   </trkpt>
   <trkpt lat="52.501737" lon="13.41748">
    <ele>37</ele>
    <time>2025-08-18T19:19:30.000Z</time>
   </trkpt>
   <trkpt lat="52.501643" lon="13.417846">
    <ele>36.8</ele>
    <time>2025-08-18T19:19:35.000Z</time>
   </trkpt>
   <trkpt lat="52.501624" lon="13.417924">
    <ele>36.8</ele>
    <time>2025-08-18T19:19:36.000Z</time>
   </trkpt>
   <trkpt lat="52.501589" lon="13.418066">
    <ele>36.8</ele>
    <time>2025-08-18T19:19:38.000Z</time>
   </trkpt>
   <trkpt lat="52.501556" lon="13.418221">
    <ele>36.8</ele>
    <time>2025-08-18T19:19:40.000Z</time>
   </trkpt>
   <trkpt lat="52.501535" lon="13.418292">
    <ele>36.8</ele>
    <time>2025-08-18T19:19:41.000Z</time>
   </trkpt>
   <trkpt lat="52.50151" lon="13.418368">
    <ele>36.8</ele>
    <time>2025-08-18T19:19:42.000Z</time>
   </trkpt>
   <trkpt lat="52.501414" lon="13.418711">
    <ele>36.6</ele>
    <time>2025-08-18T19:19:47.000Z</time>
   </trkpt>
   <trkpt lat="52.501335" lon="13.418967">
    <ele>36.8</ele>
    <time>2025-08-18T19:19:52.000Z</time>
   </trkpt>
   <trkpt lat="52.501314" lon="13.41909">
    <ele>36.8</ele>
    <time>2025-08-18T19:19:57.000Z</time>
   </trkpt>
   <trkpt lat="52.501309" lon="13.419098">
    <ele>37</ele>
    <time>2025-08-18T19:19:58.000Z</time>
   </trkpt>
   <trkpt lat="52.501292" lon="13.419147">
    <ele>37</ele>
    <time>2025-08-18T19:20:10.000Z</time>
   </trkpt>
   <trkpt lat="52.501238" lon="13.41927">
    <ele>37</ele>
    <time>2025-08-18T19:20:13.000Z</time>
   </trkpt>
   <trkpt lat="52.501204" lon="13.41937">
    <ele>37</ele>
    <time>2025-08-18T19:20:15.000Z</time>
   </trkpt>
   <trkpt lat="52.501146" lon="13.419559">
    <ele>36.8</ele>
    <time>2025-08-18T19:20:18.000Z</time>
   </trkpt>
   <trkpt lat="52.501128" lon="13.419625">
    <ele>36.8</ele>
    <time>2025-08-18T19:20:19.000Z</time>
   </trkpt>
   <trkpt lat="52.501093" lon="13.419766">
    <ele>36.8</ele>
    <time>2025-08-18T19:20:21.000Z</time>
   </trkpt>
   <trkpt lat="52.501061" lon="13.419912">
    <ele>36.8</ele>
    <time>2025-08-18T19:20:23.000Z</time>
   </trkpt>
   <trkpt lat="52.500987" lon="13.420193">
    <ele>36.6</ele>
    <time>2025-08-18T19:20:27.000Z</time>
   </trkpt>
   <trkpt lat="52.500938" lon="13.420406">
    <ele>36.6</ele>
    <time>2025-08-18T19:20:30.000Z</time>
   </trkpt>
   <trkpt lat="52.500819" lon="13.420929">
    <ele>36.8</ele>
    <time>2025-08-18T19:20:37.000Z</time>
   </trkpt>
   <trkpt lat="52.500803" lon="13.42101">
    <ele>36.8</ele>
    <time>2025-08-18T19:20:38.000Z</time>
   </trkpt>
   <trkpt lat="52.500691" lon="13.421514">
    <ele>36.8</ele>
    <time>2025-08-18T19:20:44.000Z</time>
   </trkpt>
   <trkpt lat="52.500668" lon="13.421589">
    <ele>36.8</ele>
    <time>2025-08-18T19:20:45.000Z</time>
   </trkpt>
   <trkpt lat="52.500547" lon="13.422036">
    <ele>37</ele>
    <time>2025-08-18T19:20:51.000Z</time>
   </trkpt>
   <trkpt lat="52.500503" lon="13.422164">
    <ele>37.2</ele>
    <time>2025-08-18T19:20:53.000Z</time>
   </trkpt>
   <trkpt lat="52.500476" lon="13.422278">
    <ele>37.2</ele>
    <time>2025-08-18T19:20:55.000Z</time>
   </trkpt>
   <trkpt lat="52.5004" lon="13.422539">
    <ele>37.2</ele>
    <time>2025-08-18T19:21:00.000Z</time>
   </trkpt>
   <trkpt lat="52.500301" lon="13.422716">
    <ele>37.2</ele>
    <time>2025-08-18T19:21:05.000Z</time>
   </trkpt>
   <trkpt lat="52.500294" lon="13.422733">
    <ele>37.2</ele>
    <time>2025-08-18T19:21:06.000Z</time>
   </trkpt>
   <trkpt lat="52.50028" lon="13.422762">
    <ele>37.4</ele>
    <time>2025-08-18T19:21:08.000Z</time>
   </trkpt>
   <trkpt lat="52.500261" lon="13.422812">
    <ele>37.4</ele>
    <time>2025-08-18T19:21:11.000Z</time>
   </trkpt>
   <trkpt lat="52.500199" lon="13.423027">
    <ele>37.6</ele>
    <time>2025-08-18T19:21:16.000Z</time>
   </trkpt>
   <trkpt lat="52.500134" lon="13.423317">
    <ele>37.6</ele>
    <time>2025-08-18T19:21:20.000Z</time>
   </trkpt>
   <trkpt lat="52.5001" lon="13.423465">
    <ele>37.6</ele>
    <time>2025-08-18T19:21:22.000Z</time>
   </trkpt>
   <trkpt lat="52.499974" lon="13.423968">
    <ele>37.6</ele>
    <time>2025-08-18T19:21:28.000Z</time>
   </trkpt>
   <trkpt lat="52.499901" lon="13.424191">
    <ele>37.6</ele>
    <time>2025-08-18T19:21:31.000Z</time>
   </trkpt>
   <trkpt lat="52.499841" lon="13.42444">
    <ele>37.6</ele>
    <time>2025-08-18T19:21:34.000Z</time>
   </trkpt>
   <trkpt lat="52.499601" lon="13.425284">
    <ele>37.6</ele>
    <time>2025-08-18T19:21:45.000Z</time>
   </trkpt>
   <trkpt lat="52.499547" lon="13.425464">
    <ele>37.6</ele>
    <time>2025-08-18T19:21:48.000Z</time>
   </trkpt>
   <trkpt lat="52.499511" lon="13.425582">
    <ele>37.6</ele>
    <time>2025-08-18T19:21:50.000Z</time>
   </trkpt>
   <trkpt lat="52.499448" lon="13.425811">
    <ele>37.8</ele>
    <time>2025-08-18T19:21:54.000Z</time>
   </trkpt>
   <trkpt lat="52.499423" lon="13.425884">
    <ele>37.8</ele>
    <time>2025-08-18T19:21:56.000Z</time>
   </trkpt>
   <trkpt lat="52.499395" lon="13.42598">
    <ele>38</ele>
    <time>2025-08-18T19:22:01.000Z</time>
   </trkpt>
   <trkpt lat="52.499315" lon="13.426264">
    <ele>38</ele>
    <time>2025-08-18T19:22:07.000Z</time>
   </trkpt>
   <trkpt lat="52.499198" lon="13.426581">
    <ele>37.8</ele>
    <time>2025-08-18T19:22:13.000Z</time>
   </trkpt>
   <trkpt lat="52.499105" lon="13.426865">
    <ele>38</ele>
    <time>2025-08-18T19:22:17.000Z</time>
   </trkpt>
   <trkpt lat="52.499085" lon="13.426948">
    <ele>38</ele>
    <time>2025-08-18T19:22:18.000Z</time>
   </trkpt>
   <trkpt lat="52.499004" lon="13.427304">
    <ele>38.2</ele>
    <time>2025-08-18T19:22:22.000Z</time>
   </trkpt>
   <trkpt lat="52.498978" lon="13.427385">
    <ele>38.2</ele>
    <time>2025-08-18T19:22:23.000Z</time>
   </trkpt>
   <trkpt lat="52.498932" lon="13.427527">
    <ele>38.2</ele>
    <time>2025-08-18T19:22:25.000Z</time>
   </trkpt>
   <trkpt lat="52.498907" lon="13.427608">
    <ele>38.2</ele>
    <time>2025-08-18T19:22:26.000Z</time>
   </trkpt>
   <trkpt lat="52.498881" lon="13.42777">
    <ele>38.2</ele>
    <time>2025-08-18T19:22:28.000Z</time>
   </trkpt>
   <trkpt lat="52.498811" lon="13.428025">
    <ele>38.2</ele>
    <time>2025-08-18T19:22:32.000Z</time>
   </trkpt>
   <trkpt lat="52.49872" lon="13.428247">
    <ele>38.2</ele>
    <time>2025-08-18T19:22:37.000Z</time>
   </trkpt>
   <trkpt lat="52.49866" lon="13.428408">
    <ele>38.2</ele>
    <time>2025-08-18T19:22:40.000Z</time>
   </trkpt>
   <trkpt lat="52.498575" lon="13.428681">
    <ele>38.2</ele>
    <time>2025-08-18T19:22:44.000Z</time>
   </trkpt>
   <trkpt lat="52.498385" lon="13.429259">
    <ele>38</ele>
    <time>2025-08-18T19:22:51.000Z</time>
   </trkpt>
   <trkpt lat="52.498333" lon="13.429408">
    <ele>37.8</ele>
    <time>2025-08-18T19:22:53.000Z</time>
   </trkpt>
   <trkpt lat="52.498187" lon="13.429803">
    <ele>37.8</ele>
    <time>2025-08-18T19:22:58.000Z</time>
   </trkpt>
   <trkpt lat="52.498045" lon="13.430189">
    <ele>37.6</ele>
    <time>2025-08-18T19:23:03.000Z</time>
   </trkpt>
   <trkpt lat="52.498009" lon="13.430261">
    <ele>37.6</ele>
    <time>2025-08-18T19:23:04.000Z</time>
   </trkpt>
   <trkpt lat="52.497813" lon="13.430782">
    <ele>37.6</ele>
    <time>2025-08-18T19:23:11.000Z</time>
   </trkpt>
   <trkpt lat="52.497676" lon="13.431133">
    <ele>37.8</ele>
    <time>2025-08-18T19:23:16.000Z</time>
   </trkpt>
   <trkpt lat="52.497629" lon="13.431258">
    <ele>37.8</ele>
    <time>2025-08-18T19:23:18.000Z</time>
   </trkpt>
   <trkpt lat="52.497572" lon="13.431398">
    <ele>37.8</ele>
    <time>2025-08-18T19:23:20.000Z</time>
   </trkpt>
   <trkpt lat="52.497381" lon="13.431968">
    <ele>37.8</ele>
    <time>2025-08-18T19:23:27.000Z</time>
   </trkpt>
   <trkpt lat="52.497221" lon="13.432465">
    <ele>37.8</ele>
    <time>2025-08-18T19:23:33.000Z</time>
   </trkpt>
   <trkpt lat="52.497138" lon="13.432711">
    <ele>37.8</ele>
    <time>2025-08-18T19:23:36.000Z</time>
   </trkpt>
   <trkpt lat="52.497095" lon="13.432866">
    <ele>38</ele>
    <time>2025-08-18T19:23:38.000Z</time>
   </trkpt>
   <trkpt lat="52.497037" lon="13.433047">
    <ele>38</ele>
    <time>2025-08-18T19:23:40.000Z</time>
   </trkpt>
   <trkpt lat="52.496978" lon="13.433218">
    <ele>38</ele>
    <time>2025-08-18T19:23:42.000Z</time>
   </trkpt>
   <trkpt lat="52.496821" lon="13.433665">
    <ele>38</ele>
    <time>2025-08-18T19:23:47.000Z</time>
   </trkpt>
   <trkpt lat="52.496793" lon="13.43375">
    <ele>38</ele>
    <time>2025-08-18T19:23:48.000Z</time>
   </trkpt>
   <trkpt lat="52.496613" lon="13.434222">
    <ele>37.8</ele>
    <time>2025-08-18T19:23:53.000Z</time>
   </trkpt>
   <trkpt lat="52.496561" lon="13.434367">
    <ele>38</ele>
    <time>2025-08-18T19:23:55.000Z</time>
   </trkpt>
   <trkpt lat="52.496426" lon="13.434741">
    <ele>37.8</ele>
    <time>2025-08-18T19:24:00.000Z</time>
   </trkpt>
   <trkpt lat="52.49621" lon="13.435435">
    <ele>38</ele>
    <time>2025-08-18T19:24:08.000Z</time>
   </trkpt>
   <trkpt lat="52.496101" lon="13.435763">
    <ele>38</ele>
    <time>2025-08-18T19:24:12.000Z</time>
   </trkpt>
   <trkpt lat="52.496066" lon="13.435843">
    <ele>38</ele>
    <time>2025-08-18T19:24:13.000Z</time>
   </trkpt>
   <trkpt lat="52.496031" lon="13.435926">
    <ele>38</ele>
    <time>2025-08-18T19:24:14.000Z</time>
   </trkpt>
   <trkpt lat="52.495926" lon="13.436267">
    <ele>38</ele>
    <time>2025-08-18T19:24:18.000Z</time>
   </trkpt>
   <trkpt lat="52.495862" lon="13.436435">
    <ele>38</ele>
    <time>2025-08-18T19:24:20.000Z</time>
   </trkpt>
   <trkpt lat="52.495762" lon="13.436676">
    <ele>38.2</ele>
    <time>2025-08-18T19:24:23.000Z</time>
   </trkpt>
   <trkpt lat="52.495701" lon="13.436832">
    <ele>38.2</ele>
    <time>2025-08-18T19:24:25.000Z</time>
   </trkpt>
   <trkpt lat="52.495545" lon="13.437325">
    <ele>38.2</ele>
    <time>2025-08-18T19:24:31.000Z</time>
   </trkpt>
   <trkpt lat="52.49546" lon="13.437564">
    <ele>38.2</ele>
    <time>2025-08-18T19:24:34.000Z</time>
   </trkpt>
   <trkpt lat="52.495374" lon="13.437894">
    <ele>38.4</ele>
    <time>2025-08-18T19:24:38.000Z</time>
   </trkpt>
   <trkpt lat="52.495312" lon="13.438049">
    <ele>38.4</ele>
    <time>2025-08-18T19:24:40.000Z</time>
   </trkpt>
   <trkpt lat="52.495271" lon="13.438122">
    <ele>38.4</ele>
    <time>2025-08-18T19:24:41.000Z</time>
   </trkpt>
   <trkpt lat="52.495164" lon="13.438356">
    <ele>38.6</ele>
    <time>2025-08-18T19:24:44.000Z</time>
   </trkpt>
   <trkpt lat="52.495098" lon="13.438491">
    <ele>38.6</ele>
    <time>2025-08-18T19:24:46.000Z</time>
   </trkpt>
   <trkpt lat="52.495006" lon="13.438784">
    <ele>38.6</ele>
    <time>2025-08-18T19:24:50.000Z</time>
   </trkpt>
   <trkpt lat="52.494875" lon="13.439203">
    <ele>38.8</ele>
    <time>2025-08-18T19:24:55.000Z</time>
   </trkpt>
   <trkpt lat="52.494801" lon="13.439449">
    <ele>38.8</ele>
    <time>2025-08-18T19:24:58.000Z</time>
   </trkpt>
   <trkpt lat="52.494689" lon="13.439799">
    <ele>38.8</ele>
    <time>2025-08-18T19:25:02.000Z</time>
   </trkpt>
   <trkpt lat="52.494614" lon="13.440055">
    <ele>38.8</ele>
    <time>2025-08-18T19:25:05.000Z</time>
   </trkpt>
   <trkpt lat="52.494578" lon="13.440143">
    <ele>38.6</ele>
    <time>2025-08-18T19:25:06.000Z</time>
   </trkpt>
   <trkpt lat="52.494451" lon="13.440521">
    <ele>38.6</ele>
    <time>2025-08-18T19:25:10.000Z</time>
   </trkpt>
   <trkpt lat="52.494279" lon="13.441032">
    <ele>38.2</ele>
    <time>2025-08-18T19:25:16.000Z</time>
   </trkpt>
   <trkpt lat="52.494118" lon="13.441548">
    <ele>38.2</ele>
    <time>2025-08-18T19:25:22.000Z</time>
   </trkpt>
   <trkpt lat="52.494094" lon="13.441639">
    <ele>38.2</ele>
    <time>2025-08-18T19:25:23.000Z</time>
   </trkpt>
   <trkpt lat="52.493894" lon="13.442246">
    <ele>38</ele>
    <time>2025-08-18T19:25:30.000Z</time>
   </trkpt>
   <trkpt lat="52.493748" lon="13.442716">
    <ele>37.6</ele>
    <time>2025-08-18T19:25:35.000Z</time>
   </trkpt>
   <trkpt lat="52.493738" lon="13.442827">
    <ele>37.4</ele>
    <time>2025-08-18T19:25:36.000Z</time>
   </trkpt>
   <trkpt lat="52.493736" lon="13.442937">
    <ele>37.4</ele>
    <time>2025-08-18T19:25:37.000Z</time>
   </trkpt>
   <trkpt lat="52.493777" lon="13.443141">
    <ele>37.4</ele>
    <time>2025-08-18T19:25:39.000Z</time>
   </trkpt>
   <trkpt lat="52.493865" lon="13.443316">
    <ele>37.2</ele>
    <time>2025-08-18T19:25:41.000Z</time>
   </trkpt>
   <trkpt lat="52.493922" lon="13.44339">
    <ele>37.2</ele>
    <time>2025-08-18T19:25:42.000Z</time>
   </trkpt>
   <trkpt lat="52.494239" lon="13.443815">
    <ele>36.8</ele>
    <time>2025-08-18T19:25:48.000Z</time>
   </trkpt>
   <trkpt lat="52.494329" lon="13.443986">
    <ele>36.6</ele>
    <time>2025-08-18T19:25:50.000Z</time>
   </trkpt>
   <trkpt lat="52.494381" lon="13.444068">
    <ele>36.6</ele>
    <time>2025-08-18T19:25:51.000Z</time>
   </trkpt>
   <trkpt lat="52.494548" lon="13.444303">
    <ele>36.2</ele>
    <time>2025-08-18T19:25:54.000Z</time>
   </trkpt>
   <trkpt lat="52.494594" lon="13.444358">
    <ele>36.2</ele>
    <time>2025-08-18T19:25:55.000Z</time>
   </trkpt>
   <trkpt lat="52.494873" lon="13.444695">
    <ele>36</ele>
    <time>2025-08-18T19:26:00.000Z</time>
   </trkpt>
   <trkpt lat="52.495106" lon="13.445005">
    <ele>36.4</ele>
    <time>2025-08-18T19:26:05.000Z</time>
   </trkpt>
   <trkpt lat="52.495339" lon="13.445328">
    <ele>37</ele>
    <time>2025-08-18T19:26:11.000Z</time>
   </trkpt>
   <trkpt lat="52.495429" lon="13.445456">
    <ele>37.2</ele>
    <time>2025-08-18T19:26:13.000Z</time>
   </trkpt>
   <trkpt lat="52.495558" lon="13.44561">
    <ele>37.2</ele>
    <time>2025-08-18T19:26:16.000Z</time>
   </trkpt>
   <trkpt lat="52.495655" lon="13.445725">
    <ele>37.2</ele>
    <time>2025-08-18T19:26:18.000Z</time>
   </trkpt>
   <trkpt lat="52.495733" lon="13.44586">
    <ele>37.2</ele>
    <time>2025-08-18T19:26:20.000Z</time>
   </trkpt>
   <trkpt lat="52.495839" lon="13.446051">
    <ele>37.2</ele>
    <time>2025-08-18T19:26:23.000Z</time>
   </trkpt>
   <trkpt lat="52.495891" lon="13.446184">
    <ele>37.2</ele>
    <time>2025-08-18T19:26:25.000Z</time>
   </trkpt>
   <trkpt lat="52.495928" lon="13.446246">
    <ele>37.2</ele>
    <time>2025-08-18T19:26:26.000Z</time>
   </trkpt>
   <trkpt lat="52.496013" lon="13.446361">
    <ele>37.2</ele>
    <time>2025-08-18T19:26:28.000Z</time>
   </trkpt>
   <trkpt lat="52.496122" lon="13.446537">
    <ele>37.2</ele>
    <time>2025-08-18T19:26:31.000Z</time>
   </trkpt>
   <trkpt lat="52.49643" lon="13.446938">
    <ele>37.4</ele>
    <time>2025-08-18T19:26:38.000Z</time>
   </trkpt>
   <trkpt lat="52.496756" lon="13.447371">
    <ele>37.8</ele>
    <time>2025-08-18T19:26:46.000Z</time>
   </trkpt>
   <trkpt lat="52.496965" lon="13.447639">
    <ele>38</ele>
    <time>2025-08-18T19:26:51.000Z</time>
   </trkpt>
   <trkpt lat="52.497002" lon="13.447698">
    <ele>38</ele>
    <time>2025-08-18T19:26:52.000Z</time>
   </trkpt>
   <trkpt lat="52.497194" lon="13.447952">
    <ele>38</ele>
    <time>2025-08-18T19:26:57.000Z</time>
   </trkpt>
   <trkpt lat="52.497271" lon="13.448033">
    <ele>38</ele>
    <time>2025-08-18T19:26:59.000Z</time>
   </trkpt>
   <trkpt lat="52.497425" lon="13.448245">
    <ele>38.2</ele>
    <time>2025-08-18T19:27:04.000Z</time>
   </trkpt>
   <trkpt lat="52.497443" lon="13.44833">
    <ele>38.2</ele>
    <time>2025-08-18T19:27:06.000Z</time>
   </trkpt>
   <trkpt lat="52.497435" lon="13.44837">
    <ele>38.2</ele>
    <time>2025-08-18T19:27:07.000Z</time>
   </trkpt>
   <trkpt lat="52.497407" lon="13.448431">
    <ele>38.2</ele>
    <time>2025-08-18T19:27:09.000Z</time>
   </trkpt>
   <trkpt lat="52.497345" lon="13.448541">
    <ele>38.6</ele>
    <time>2025-08-18T19:27:12.000Z</time>
   </trkpt>
   <trkpt lat="52.497279" lon="13.44866">
    <ele>38.8</ele>
    <time>2025-08-18T19:27:15.000Z</time>
   </trkpt>
   <trkpt lat="52.497085" lon="13.449011">
    <ele>38.8</ele>
    <time>2025-08-18T19:27:21.000Z</time>
   </trkpt>
   <trkpt lat="52.496761" lon="13.449561">
    <ele>37.6</ele>
    <time>2025-08-18T19:27:29.000Z</time>
   </trkpt>
   <trkpt lat="52.496407" lon="13.450133">
    <ele>37.2</ele>
    <time>2025-08-18T19:27:38.000Z</time>
   </trkpt>
   <trkpt lat="52.496368" lon="13.450199">
    <ele>37.2</ele>
    <time>2025-08-18T19:27:39.000Z</time>
   </trkpt>
   <trkpt lat="52.496023" lon="13.450777">
    <ele>37.2</ele>
    <time>2025-08-18T19:27:48.000Z</time>
   </trkpt>
   <trkpt lat="52.495804" lon="13.451134">
    <ele>37.2</ele>
    <time>2025-08-18T19:27:54.000Z</time>
   </trkpt>
   <trkpt lat="52.495508" lon="13.451623">
    <ele>37</ele>
    <time>2025-08-18T19:28:02.000Z</time>
   </trkpt>
   <trkpt lat="52.495226" lon="13.452108">
    <ele>36.6</ele>
    <time>2025-08-18T19:28:10.000Z</time>
   </trkpt>
   <trkpt lat="52.4952" lon="13.452138">
    <ele>36.6</ele>
    <time>2025-08-18T19:28:11.000Z</time>
   </trkpt>
   <trkpt lat="52.495143" lon="13.452196">
    <ele>36.6</ele>
    <time>2025-08-18T19:28:13.000Z</time>
   </trkpt>
   <trkpt lat="52.495061" lon="13.452324">
    <ele>36.8</ele>
    <time>2025-08-18T19:28:15.000Z</time>
   </trkpt>
   <trkpt lat="52.494982" lon="13.452465">
    <ele>36.8</ele>
    <time>2025-08-18T19:28:17.000Z</time>
   </trkpt>
   <trkpt lat="52.494728" lon="13.452862">
    <ele>36.8</ele>
    <time>2025-08-18T19:28:23.000Z</time>
   </trkpt>
   <trkpt lat="52.494668" lon="13.452993">
    <ele>37</ele>
    <time>2025-08-18T19:28:25.000Z</time>
   </trkpt>
   <trkpt lat="52.494639" lon="13.453049">
    <ele>36.8</ele>
    <time>2025-08-18T19:28:26.000Z</time>
   </trkpt>
   <trkpt lat="52.494445" lon="13.453287">
    <ele>37.4</ele>
    <time>2025-08-18T19:28:31.000Z</time>
   </trkpt>
   <trkpt lat="52.494261" lon="13.4536">
    <ele>37.2</ele>
    <time>2025-08-18T19:28:37.000Z</time>
   </trkpt>
   <trkpt lat="52.494061" lon="13.453893">
    <ele>36.8</ele>
    <time>2025-08-18T19:28:43.000Z</time>
   </trkpt>
   <trkpt lat="52.494036" lon="13.453944">
    <ele>36.8</ele>
    <time>2025-08-18T19:28:44.000Z</time>
   </trkpt>
   <trkpt lat="52.493961" lon="13.454079">
    <ele>37</ele>
    <time>2025-08-18T19:28:48.000Z</time>
   </trkpt>
   <trkpt lat="52.493954" lon="13.45409">
    <ele>37</ele>
    <time>2025-08-18T19:28:49.000Z</time>
   </trkpt>
   <trkpt lat="52.493944" lon="13.454102">
    <ele>37.2</ele>
    <time>2025-08-18T19:28:52.000Z</time>
   </trkpt>
   <trkpt lat="52.493913" lon="13.454107">
    <ele>37</ele>
    <time>2025-08-18T19:28:54.000Z</time>
   </trkpt>
   <trkpt lat="52.493874" lon="13.454073">
    <ele>37</ele>
    <time>2025-08-18T19:28:56.000Z</time>
   </trkpt>
   <trkpt lat="52.493795" lon="13.453961">
    <ele>37</ele>
    <time>2025-08-18T19:28:59.000Z</time>
   </trkpt>
   <trkpt lat="52.493736" lon="13.453885">
    <ele>37</ele>
    <time>2025-08-18T19:29:01.000Z</time>
   </trkpt>
   <trkpt lat="52.493611" lon="13.453703">
    <ele>36.8</ele>
    <time>2025-08-18T19:29:05.000Z</time>
   </trkpt>
   <trkpt lat="52.493541" lon="13.453599">
    <ele>36.8</ele>
    <time>2025-08-18T19:29:07.000Z</time>
   </trkpt>
   <trkpt lat="52.493447" lon="13.45345">
    <ele>36.8</ele>
    <time>2025-08-18T19:29:10.000Z</time>
   </trkpt>
   <trkpt lat="52.493369" lon="13.453335">
    <ele>37</ele>
    <time>2025-08-18T19:29:12.000Z</time>
   </trkpt>
   <trkpt lat="52.493158" lon="13.453005">
    <ele>37</ele>
    <time>2025-08-18T19:29:17.000Z</time>
   </trkpt>
   <trkpt lat="52.492835" lon="13.452466">
    <ele>37.2</ele>
    <time>2025-08-18T19:29:25.000Z</time>
   </trkpt>
   <trkpt lat="52.492803" lon="13.452401">
    <ele>37.2</ele>
    <time>2025-08-18T19:29:26.000Z</time>
   </trkpt>
   <trkpt lat="52.492757" lon="13.452301">
    <ele>37.2</ele>
    <time>2025-08-18T19:29:28.000Z</time>
   </trkpt>
   <trkpt lat="52.492615" lon="13.452101">
    <ele>37.2</ele>
    <time>2025-08-18T19:29:31.000Z</time>
   </trkpt>
   <trkpt lat="52.492514" lon="13.451958">
    <ele>37.2</ele>
    <time>2025-08-18T19:29:33.000Z</time>
   </trkpt>
   <trkpt lat="52.492364" lon="13.451728">
    <ele>37.2</ele>
    <time>2025-08-18T19:29:37.000Z</time>
   </trkpt>
   <trkpt lat="52.492337" lon="13.451687">
    <ele>37.2</ele>
    <time>2025-08-18T19:29:38.000Z</time>
   </trkpt>
   <trkpt lat="52.492264" lon="13.45157">
    <ele>37.2</ele>
    <time>2025-08-18T19:29:40.000Z</time>
   </trkpt>
   <trkpt lat="52.492199" lon="13.451452">
    <ele>37.2</ele>
    <time>2025-08-18T19:29:42.000Z</time>
   </trkpt>
   <trkpt lat="52.492092" lon="13.45125">
    <ele>37</ele>
    <time>2025-08-18T19:29:45.000Z</time>
   </trkpt>
   <trkpt lat="52.49197" lon="13.451062">
    <ele>37</ele>
    <time>2025-08-18T19:29:48.000Z</time>
   </trkpt>
   <trkpt lat="52.491904" lon="13.45095">
    <ele>36.8</ele>
    <time>2025-08-18T19:29:50.000Z</time>
   </trkpt>
   <trkpt lat="52.491813" lon="13.450844">
    <ele>36.8</ele>
    <time>2025-08-18T19:29:52.000Z</time>
   </trkpt>
   <trkpt lat="52.491758" lon="13.450788">
    <ele>37</ele>
    <time>2025-08-18T19:29:53.000Z</time>
   </trkpt>
   <trkpt lat="52.49152" lon="13.45049">
    <ele>37</ele>
    <time>2025-08-18T19:29:59.000Z</time>
   </trkpt>
   <trkpt lat="52.491435" lon="13.450496">
    <ele>37</ele>
    <time>2025-08-18T19:30:01.000Z</time>
   </trkpt>
   <trkpt lat="52.491396" lon="13.450527">
    <ele>37</ele>
    <time>2025-08-18T19:30:02.000Z</time>
   </trkpt>
   <trkpt lat="52.491357" lon="13.450574">
    <ele>37</ele>
    <time>2025-08-18T19:30:03.000Z</time>
   </trkpt>
   <trkpt lat="52.491278" lon="13.450695">
    <ele>37</ele>
    <time>2025-08-18T19:30:05.000Z</time>
   </trkpt>
   <trkpt lat="52.491254" lon="13.450738">
    <ele>37</ele>
    <time>2025-08-18T19:30:06.000Z</time>
   </trkpt>
   <trkpt lat="52.491199" lon="13.450846">
    <ele>37</ele>
    <time>2025-08-18T19:30:08.000Z</time>
   </trkpt>
   <trkpt lat="52.491142" lon="13.450964">
    <ele>37</ele>
    <time>2025-08-18T19:30:10.000Z</time>
   </trkpt>
   <trkpt lat="52.491108" lon="13.451016">
    <ele>37</ele>
    <time>2025-08-18T19:30:11.000Z</time>
   </trkpt>
   <trkpt lat="52.490955" lon="13.451196">
    <ele>37</ele>
    <time>2025-08-18T19:30:14.000Z</time>
   </trkpt>
   <trkpt lat="52.490894" lon="13.451261">
    <ele>37</ele>
    <time>2025-08-18T19:30:15.000Z</time>
   </trkpt>
   <trkpt lat="52.490799" lon="13.451348">
    <ele>37</ele>
    <time>2025-08-18T19:30:17.000Z</time>
   </trkpt>
   <trkpt lat="52.490771" lon="13.451389">
    <ele>36.8</ele>
    <time>2025-08-18T19:30:18.000Z</time>
   </trkpt>
   <trkpt lat="52.490693" lon="13.451497">
    <ele>37</ele>
    <time>2025-08-18T19:30:20.000Z</time>
   </trkpt>
   <trkpt lat="52.490582" lon="13.45167">
    <ele>36.8</ele>
    <time>2025-08-18T19:30:23.000Z</time>
   </trkpt>
   <trkpt lat="52.490353" lon="13.452002">
    <ele>36.8</ele>
    <time>2025-08-18T19:30:29.000Z</time>
   </trkpt>
   <trkpt lat="52.490104" lon="13.452345">
    <ele>37</ele>
    <time>2025-08-18T19:30:35.000Z</time>
   </trkpt>
   <trkpt lat="52.490027" lon="13.452485">
    <ele>36.8</ele>
    <time>2025-08-18T19:30:38.000Z</time>
   </trkpt>
   <trkpt lat="52.489911" lon="13.452646">
    <ele>36.8</ele>
    <time>2025-08-18T19:30:41.000Z</time>
   </trkpt>
   <trkpt lat="52.489844" lon="13.452777">
    <ele>36.8</ele>
    <time>2025-08-18T19:30:43.000Z</time>
   </trkpt>
   <trkpt lat="52.489762" lon="13.452886">
    <ele>36.6</ele>
    <time>2025-08-18T19:30:45.000Z</time>
   </trkpt>
   <trkpt lat="52.489704" lon="13.452944">
    <ele>36.8</ele>
    <time>2025-08-18T19:30:46.000Z</time>
   </trkpt>
   <trkpt lat="52.489585" lon="13.453107">
    <ele>36.8</ele>
    <time>2025-08-18T19:30:49.000Z</time>
   </trkpt>
   <trkpt lat="52.489563" lon="13.453238">
    <ele>36.8</ele>
    <time>2025-08-18T19:30:51.000Z</time>
   </trkpt>
   <trkpt lat="52.48934" lon="13.453413">
    <ele>37</ele>
    <time>2025-08-18T19:30:55.000Z</time>
   </trkpt>
   <trkpt lat="52.489268" lon="13.453459">
    <ele>37</ele>
    <time>2025-08-18T19:30:57.000Z</time>
   </trkpt>
   <trkpt lat="52.489181" lon="13.453588">
    <ele>37.2</ele>
    <time>2025-08-18T19:31:02.000Z</time>
   </trkpt>
   <trkpt lat="52.489037" lon="13.453782">
    <ele>37.2</ele>
    <time>2025-08-18T19:31:09.000Z</time>
   </trkpt>
   <trkpt lat="52.488952" lon="13.453899">
    <ele>37.4</ele>
    <time>2025-08-18T19:31:12.000Z</time>
   </trkpt>
   <trkpt lat="52.488854" lon="13.454056">
    <ele>37.4</ele>
    <time>2025-08-18T19:31:15.000Z</time>
   </trkpt>
   <trkpt lat="52.488697" lon="13.454277">
    <ele>37.2</ele>
    <time>2025-08-18T19:31:19.000Z</time>
   </trkpt>
   <trkpt lat="52.488499" lon="13.454537">
    <ele>37.2</ele>
    <time>2025-08-18T19:31:23.000Z</time>
   </trkpt>
   <trkpt lat="52.488282" lon="13.454806">
    <ele>37</ele>
    <time>2025-08-18T19:31:27.000Z</time>
   </trkpt>
   <trkpt lat="52.4882" lon="13.454925">
    <ele>36.8</ele>
    <time>2025-08-18T19:31:29.000Z</time>
   </trkpt>
   <trkpt lat="52.48796" lon="13.455268">
    <ele>36.8</ele>
    <time>2025-08-18T19:31:34.000Z</time>
   </trkpt>
   <trkpt lat="52.487667" lon="13.455681">
    <ele>36.8</ele>
    <time>2025-08-18T19:31:40.000Z</time>
   </trkpt>
   <trkpt lat="52.487618" lon="13.455749">
    <ele>36.8</ele>
    <time>2025-08-18T19:31:41.000Z</time>
   </trkpt>
   <trkpt lat="52.487379" lon="13.4561">
    <ele>36.6</ele>
    <time>2025-08-18T19:31:46.000Z</time>
   </trkpt>
   <trkpt lat="52.487272" lon="13.456239">
    <ele>36.6</ele>
    <time>2025-08-18T19:31:48.000Z</time>
   </trkpt>
   <trkpt lat="52.48702" lon="13.456589">
    <ele>36.6</ele>
    <time>2025-08-18T19:31:53.000Z</time>
   </trkpt>
   <trkpt lat="52.48687" lon="13.45681">
    <ele>36.6</ele>
    <time>2025-08-18T19:31:56.000Z</time>
   </trkpt>
   <trkpt lat="52.486602" lon="13.457212">
    <ele>36.4</ele>
    <time>2025-08-18T19:32:02.000Z</time>
   </trkpt>
   <trkpt lat="52.486293" lon="13.457627">
    <ele>36.4</ele>
    <time>2025-08-18T19:32:08.000Z</time>
   </trkpt>
   <trkpt lat="52.486242" lon="13.457703">
    <ele>36.4</ele>
    <time>2025-08-18T19:32:09.000Z</time>
   </trkpt>
   <trkpt lat="52.485779" lon="13.458323">
    <ele>36.2</ele>
    <time>2025-08-18T19:32:18.000Z</time>
   </trkpt>
   <trkpt lat="52.485448" lon="13.458794">
    <ele>36.2</ele>
    <time>2025-08-18T19:32:25.000Z</time>
   </trkpt>
   <trkpt lat="52.485052" lon="13.459378">
    <ele>35.8</ele>
    <time>2025-08-18T19:32:33.000Z</time>
   </trkpt>
   <trkpt lat="52.484666" lon="13.459994">
    <ele>35.8</ele>
    <time>2025-08-18T19:32:41.000Z</time>
   </trkpt>
   <trkpt lat="52.484364" lon="13.460434">
    <ele>36.2</ele>
    <time>2025-08-18T19:32:47.000Z</time>
   </trkpt>
   <trkpt lat="52.484162" lon="13.460718">
    <ele>36.4</ele>
    <time>2025-08-18T19:32:51.000Z</time>
   </trkpt>
   <trkpt lat="52.483764" lon="13.461293">
    <ele>36.4</ele>
    <time>2025-08-18T19:32:59.000Z</time>
   </trkpt>
   <trkpt lat="52.483661" lon="13.461437">
    <ele>36.4</ele>
    <time>2025-08-18T19:33:01.000Z</time>
   </trkpt>
   <trkpt lat="52.483207" lon="13.462068">
    <ele>36.6</ele>
    <time>2025-08-18T19:33:10.000Z</time>
   </trkpt>
   <trkpt lat="52.482809" lon="13.462645">
    <ele>36.6</ele>
    <time>2025-08-18T19:33:18.000Z</time>
   </trkpt>
   <trkpt lat="52.482403" lon="13.463231">
    <ele>36.6</ele>
    <time>2025-08-18T19:33:26.000Z</time>
   </trkpt>
   <trkpt lat="52.48224" lon="13.463458">
    <ele>36.8</ele>
    <time>2025-08-18T19:33:29.000Z</time>
   </trkpt>
   <trkpt lat="52.481878" lon="13.463963">
    <ele>37.2</ele>
    <time>2025-08-18T19:33:36.000Z</time>
   </trkpt>
   <trkpt lat="52.481473" lon="13.464531">
    <ele>37.2</ele>
    <time>2025-08-18T19:33:44.000Z</time>
   </trkpt>
   <trkpt lat="52.481423" lon="13.464601">
    <ele>37.2</ele>
    <time>2025-08-18T19:33:45.000Z</time>
   </trkpt>
   <trkpt lat="52.481018" lon="13.46519">
    <ele>37</ele>
    <time>2025-08-18T19:33:53.000Z</time>
   </trkpt>
   <trkpt lat="52.480917" lon="13.465341">
    <ele>36.8</ele>
    <time>2025-08-18T19:33:55.000Z</time>
   </trkpt>
   <trkpt lat="52.480496" lon="13.465943">
    <ele>36.4</ele>
    <time>2025-08-18T19:34:03.000Z</time>
   </trkpt>
   <trkpt lat="52.48007" lon="13.466531">
    <ele>36.2</ele>
    <time>2025-08-18T19:34:11.000Z</time>
   </trkpt>
   <trkpt lat="52.479968" lon="13.466677">
    <ele>36.2</ele>
    <time>2025-08-18T19:34:13.000Z</time>
   </trkpt>
   <trkpt lat="52.479612" lon="13.467183">
    <ele>36.4</ele>
    <time>2025-08-18T19:34:20.000Z</time>
   </trkpt>
   <trkpt lat="52.479175" lon="13.467794">
    <ele>36.8</ele>
    <time>2025-08-18T19:34:28.000Z</time>
   </trkpt>
   <trkpt lat="52.479118" lon="13.467872">
    <ele>36.8</ele>
    <time>2025-08-18T19:34:29.000Z</time>
   </trkpt>
   <trkpt lat="52.478672" lon="13.468506">
    <ele>36.8</ele>
    <time>2025-08-18T19:34:37.000Z</time>
   </trkpt>
   <trkpt lat="52.478611" lon="13.468591">
    <ele>36.8</ele>
    <time>2025-08-18T19:34:38.000Z</time>
   </trkpt>
   <trkpt lat="52.478281" lon="13.469037">
    <ele>37</ele>
    <time>2025-08-18T19:34:44.000Z</time>
   </trkpt>
   <trkpt lat="52.477843" lon="13.469602">
    <ele>36.8</ele>
    <time>2025-08-18T19:34:52.000Z</time>
   </trkpt>
   <trkpt lat="52.477786" lon="13.469681">
    <ele>36.6</ele>
    <time>2025-08-18T19:34:53.000Z</time>
   </trkpt>
   <trkpt lat="52.477341" lon="13.470306">
    <ele>36.6</ele>
    <time>2025-08-18T19:35:01.000Z</time>
   </trkpt>
   <trkpt lat="52.476902" lon="13.470923">
    <ele>36.6</ele>
    <time>2025-08-18T19:35:09.000Z</time>
   </trkpt>
   <trkpt lat="52.476791" lon="13.471078">
    <ele>36.4</ele>
    <time>2025-08-18T19:35:11.000Z</time>
   </trkpt>
   <trkpt lat="52.476347" lon="13.47171">
    <ele>35.8</ele>
    <time>2025-08-18T19:35:19.000Z</time>
   </trkpt>
   <trkpt lat="52.476238" lon="13.471868">
    <ele>35.6</ele>
    <time>2025-08-18T19:35:21.000Z</time>
   </trkpt>
   <trkpt lat="52.476013" lon="13.472209">
    <ele>35.6</ele>
    <time>2025-08-18T19:35:26.000Z</time>
   </trkpt>
   <trkpt lat="52.475697" lon="13.472649">
    <ele>35.8</ele>
    <time>2025-08-18T19:35:33.000Z</time>
   </trkpt>
   <trkpt lat="52.475606" lon="13.472774">
    <ele>35.8</ele>
    <time>2025-08-18T19:35:35.000Z</time>
   </trkpt>
   <trkpt lat="52.475423" lon="13.47308">
    <ele>35.6</ele>
    <time>2025-08-18T19:35:40.000Z</time>
   </trkpt>
   <trkpt lat="52.475353" lon="13.473273">
    <ele>35.8</ele>
    <time>2025-08-18T19:35:43.000Z</time>
   </trkpt>
   <trkpt lat="52.475329" lon="13.473335">
    <ele>35.8</ele>
    <time>2025-08-18T19:35:44.000Z</time>
   </trkpt>
   <trkpt lat="52.475299" lon="13.473392">
    <ele>35.8</ele>
    <time>2025-08-18T19:35:45.000Z</time>
   </trkpt>
   <trkpt lat="52.475235" lon="13.47348">
    <ele>35.8</ele>
    <time>2025-08-18T19:35:47.000Z</time>
   </trkpt>
   <trkpt lat="52.475173" lon="13.47356">
    <ele>35.8</ele>
    <time>2025-08-18T19:35:49.000Z</time>
   </trkpt>
   <trkpt lat="52.475105" lon="13.473685">
    <ele>36</ele>
    <time>2025-08-18T19:35:52.000Z</time>
   </trkpt>
   <trkpt lat="52.475074" lon="13.473802">
    <ele>36</ele>
    <time>2025-08-18T19:35:54.000Z</time>
   </trkpt>
   <trkpt lat="52.475064" lon="13.473921">
    <ele>36</ele>
    <time>2025-08-18T19:35:56.000Z</time>
   </trkpt>
   <trkpt lat="52.475105" lon="13.474074">
    <ele>36</ele>
    <time>2025-08-18T19:35:59.000Z</time>
   </trkpt>
   <trkpt lat="52.475123" lon="13.474105">
    <ele>36</ele>
    <time>2025-08-18T19:36:00.000Z</time>
   </trkpt>
   <trkpt lat="52.475172" lon="13.47418">
    <ele>36</ele>
    <time>2025-08-18T19:36:02.000Z</time>
   </trkpt>
   <trkpt lat="52.475217" lon="13.474274">
    <ele>36.2</ele>
    <time>2025-08-18T19:36:04.000Z</time>
   </trkpt>
   <trkpt lat="52.475303" lon="13.474449">
    <ele>36.2</ele>
    <time>2025-08-18T19:36:07.000Z</time>
   </trkpt>
   <trkpt lat="52.475335" lon="13.474497">
    <ele>36.2</ele>
    <time>2025-08-18T19:36:08.000Z</time>
   </trkpt>
   <trkpt lat="52.475364" lon="13.474552">
    <ele>36.2</ele>
    <time>2025-08-18T19:36:09.000Z</time>
   </trkpt>
   <trkpt lat="52.475585" lon="13.474991">
    <ele>36</ele>
    <time>2025-08-18T19:36:16.000Z</time>
   </trkpt>
   <trkpt lat="52.475671" lon="13.475161">
    <ele>36</ele>
    <time>2025-08-18T19:36:19.000Z</time>
   </trkpt>
   <trkpt lat="52.475735" lon="13.475254">
    <ele>36</ele>
    <time>2025-08-18T19:36:21.000Z</time>
   </trkpt>
   <trkpt lat="52.475881" lon="13.475604">
    <ele>36</ele>
    <time>2025-08-18T19:36:27.000Z</time>
   </trkpt>
   <trkpt lat="52.475844" lon="13.475762">
    <ele>36.2</ele>
    <time>2025-08-18T19:36:30.000Z</time>
   </trkpt>
   <trkpt lat="52.475752" lon="13.475986">
    <ele>36.2</ele>
    <time>2025-08-18T19:36:35.000Z</time>
   </trkpt>
   <trkpt lat="52.475724" lon="13.476028">
    <ele>36.2</ele>
    <time>2025-08-18T19:36:36.000Z</time>
   </trkpt>
   <trkpt lat="52.475601" lon="13.476207">
    <ele>36.2</ele>
    <time>2025-08-18T19:36:40.000Z</time>
   </trkpt>
   <trkpt lat="52.475497" lon="13.476391">
    <ele>36.2</ele>
    <time>2025-08-18T19:36:45.000Z</time>
   </trkpt>
   <trkpt lat="52.475481" lon="13.476447">
    <ele>36.2</ele>
    <time>2025-08-18T19:36:47.000Z</time>
   </trkpt>
   <trkpt lat="52.475478" lon="13.476452">
    <ele>36.2</ele>
    <time>2025-08-18T19:36:48.000Z</time>
   </trkpt>
   <trkpt lat="52.475477" lon="13.476449">
    <ele>36.2</ele>
    <time>2025-08-18T19:36:50.000Z</time>
   </trkpt>
   <trkpt lat="52.475477" lon="13.476449">
    <ele>36.4</ele>
    <time>2025-08-18T19:36:53.000Z</time>
   </trkpt>
   <trkpt lat="52.47548" lon="13.476454">
    <ele>36.4</ele>
    <time>2025-08-18T19:36:54.000Z</time>
   </trkpt>
  </trkseg>
 </trk>
</gpx>
