<?xml version="1.0" encoding="UTF-8"?>
<gpx creator="StravaGPX" version="1.1" xmlns="http://www.topografix.com/GPX/1/1">
 <metadata>
  <time>2024-08-28T16:18:30Z</time>
 </metadata>
 <trk>
  <name>Evening Ride</name>
  <type>1</type>
  <trkseg>
   <trkpt lat="52.477659" lon="13.478923">
    <ele>-7.2</ele>
    <time>2024-08-28T16:18:30.000Z</time>
   </trkpt>
   <trkpt lat="52.477659" lon="13.478923">
    <ele>35.2</ele>
    <time>2024-08-28T16:18:46.000Z</time>
   </trkpt>
   <trkpt lat="52.477659" lon="13.478923">
    <ele>35.4</ele>
    <time>2024-08-28T16:19:04.000Z</time>
   </trkpt>
   <trkpt lat="52.477659" lon="13.478923">
    <ele>35.4</ele>
    <time>2024-08-28T16:19:05.000Z</time>
   </trkpt>
   <trkpt lat="52.477659" lon="13.478923">
    <ele>35</ele>
    <time>2024-08-28T16:19:18.000Z</time>
   </trkpt>
   <trkpt lat="52.477659" lon="13.478923">
    <ele>35.2</ele>
    <time>2024-08-28T16:19:31.000Z</time>
   </trkpt>
   <trkpt lat="52.477659" lon="13.478923">
    <ele>35.2</ele>
    <time>2024-08-28T16:19:34.000Z</time>
   </trkpt>
   <trkpt lat="52.477659" lon="13.478923">
    <ele>35.6</ele>
    <time>2024-08-28T16:19:49.000Z</time>
   </trkpt>
   <trkpt lat="52.477659" lon="13.478923">
    <ele>35.8</ele>
    <time>2024-08-28T16:19:52.000Z</time>
   </trkpt>
   <trkpt lat="52.477659" lon="13.478923">
    <ele>36</ele>
    <time>2024-08-28T16:20:13.000Z</time>
   </trkpt>
   <trkpt lat="52.477659" lon="13.478923">
    <ele>36.2</ele>
    <time>2024-08-28T16:20:27.000Z</time>
   </trkpt>
   <trkpt lat="52.477867" lon="13.479207">
    <ele>35.6</ele>
    <time>2024-08-28T16:20:34.000Z</time>
   </trkpt>
   <trkpt lat="52.477949" lon="13.479324">
    <ele>35.6</ele>
    <time>2024-08-28T16:20:36.000Z</time>
   </trkpt>
   <trkpt lat="52.477989" lon="13.47938">
    <ele>35.8</ele>
    <time>2024-08-28T16:20:37.000Z</time>
   </trkpt>
   <trkpt lat="52.478068" lon="13.479496">
    <ele>35.8</ele>
    <time>2024-08-28T16:20:39.000Z</time>
   </trkpt>
   <trkpt lat="52.478085" lon="13.479551">
    <ele>35.8</ele>
    <time>2024-08-28T16:20:40.000Z</time>
   </trkpt>
   <trkpt lat="52.478163" lon="13.479762">
    <ele>35.6</ele>
    <time>2024-08-28T16:20:44.000Z</time>
   </trkpt>
   <trkpt lat="52.478443" lon="13.480314">
    <ele>35.6</ele>
    <time>2024-08-28T16:20:53.000Z</time>
   </trkpt>
   <trkpt lat="52.478681" lon="13.480764">
    <ele>35.8</ele>
    <time>2024-08-28T16:21:00.000Z</time>
   </trkpt>
   <trkpt lat="52.478772" lon="13.48107">
    <ele>35.8</ele>
    <time>2024-08-28T16:21:05.000Z</time>
   </trkpt>
   <trkpt lat="52.479054" lon="13.481563">
    <ele>35.8</ele>
    <time>2024-08-28T16:21:13.000Z</time>
   </trkpt>
   <trkpt lat="52.479348" lon="13.482122">
    <ele>35.6</ele>
    <time>2024-08-28T16:21:22.000Z</time>
   </trkpt>
   <trkpt lat="52.479662" lon="13.482741">
    <ele>35.8</ele>
    <time>2024-08-28T16:21:32.000Z</time>
   </trkpt>
   <trkpt lat="52.479858" lon="13.483105">
    <ele>35.8</ele>
    <time>2024-08-28T16:21:38.000Z</time>
   </trkpt>
   <trkpt lat="52.479885" lon="13.483165">
    <ele>35.8</ele>
    <time>2024-08-28T16:21:39.000Z</time>
   </trkpt>
   <trkpt lat="52.479995" lon="13.483417">
    <ele>35.8</ele>
    <time>2024-08-28T16:21:44.000Z</time>
   </trkpt>
   <trkpt lat="52.48" lon="13.483455">
    <ele>35.8</ele>
    <time>2024-08-28T16:21:46.000Z</time>
   </trkpt>
   <trkpt lat="52.48002" lon="13.483504">
    <ele>35.8</ele>
    <time>2024-08-28T16:21:48.000Z</time>
   </trkpt>
   <trkpt lat="52.480083" lon="13.483514">
    <ele>36</ele>
    <time>2024-08-28T16:21:50.000Z</time>
   </trkpt>
   <trkpt lat="52.480122" lon="13.483498">
    <ele>36</ele>
    <time>2024-08-28T16:21:51.000Z</time>
   </trkpt>
   <trkpt lat="52.480163" lon="13.483474">
    <ele>36</ele>
    <time>2024-08-28T16:21:52.000Z</time>
   </trkpt>
   <trkpt lat="52.480323" lon="13.483382">
    <ele>36</ele>
    <time>2024-08-28T16:21:56.000Z</time>
   </trkpt>
   <trkpt lat="52.480643" lon="13.483113">
    <ele>35.8</ele>
    <time>2024-08-28T16:22:03.000Z</time>
   </trkpt>
   <trkpt lat="52.481022" lon="13.482797">
    <ele>35.8</ele>
    <time>2024-08-28T16:22:11.000Z</time>
   </trkpt>
   <trkpt lat="52.481546" lon="13.482302">
    <ele>36</ele>
    <time>2024-08-28T16:22:22.000Z</time>
   </trkpt>
   <trkpt lat="52.481639" lon="13.482217">
    <ele>36</ele>
    <time>2024-08-28T16:22:24.000Z</time>
   </trkpt>
   <trkpt lat="52.481735" lon="13.482146">
    <ele>35.8</ele>
    <time>2024-08-28T16:22:26.000Z</time>
   </trkpt>
   <trkpt lat="52.481869" lon="13.482053">
    <ele>35.8</ele>
    <time>2024-08-28T16:22:29.000Z</time>
   </trkpt>
   <trkpt lat="52.482373" lon="13.481602">
    <ele>35.8</ele>
    <time>2024-08-28T16:22:40.000Z</time>
   </trkpt>
   <trkpt lat="52.482583" lon="13.481404">
    <ele>35.8</ele>
    <time>2024-08-28T16:22:45.000Z</time>
   </trkpt>
   <trkpt lat="52.482947" lon="13.48107">
    <ele>35.8</ele>
    <time>2024-08-28T16:22:53.000Z</time>
   </trkpt>
   <trkpt lat="52.48316" lon="13.48087">
    <ele>36.2</ele>
    <time>2024-08-28T16:22:58.000Z</time>
   </trkpt>
   <trkpt lat="52.483214" lon="13.480801">
    <ele>36</ele>
    <time>2024-08-28T16:23:00.000Z</time>
   </trkpt>
   <trkpt lat="52.483241" lon="13.480781">
    <ele>36</ele>
    <time>2024-08-28T16:23:01.000Z</time>
   </trkpt>
   <trkpt lat="52.483366" lon="13.480672">
    <ele>36</ele>
    <time>2024-08-28T16:23:04.000Z</time>
   </trkpt>
   <trkpt lat="52.483453" lon="13.480605">
    <ele>36</ele>
    <time>2024-08-28T16:23:06.000Z</time>
   </trkpt>
   <trkpt lat="52.483615" lon="13.480459">
    <ele>36</ele>
    <time>2024-08-28T16:23:10.000Z</time>
   </trkpt>
   <trkpt lat="52.483655" lon="13.480421">
    <ele>36</ele>
    <time>2024-08-28T16:23:11.000Z</time>
   </trkpt>
   <trkpt lat="52.483947" lon="13.480142">
    <ele>36</ele>
    <time>2024-08-28T16:23:17.000Z</time>
   </trkpt>
   <trkpt lat="52.484333" lon="13.479769">
    <ele>36</ele>
    <time>2024-08-28T16:23:25.000Z</time>
   </trkpt>
   <trkpt lat="52.484373" lon="13.479722">
    <ele>36</ele>
    <time>2024-08-28T16:23:26.000Z</time>
   </trkpt>
   <trkpt lat="52.484453" lon="13.479625">
    <ele>36</ele>
    <time>2024-08-28T16:23:28.000Z</time>
   </trkpt>
   <trkpt lat="52.484533" lon="13.479556">
    <ele>35.8</ele>
    <time>2024-08-28T16:23:30.000Z</time>
   </trkpt>
   <trkpt lat="52.484618" lon="13.47949">
    <ele>35.8</ele>
    <time>2024-08-28T16:23:32.000Z</time>
   </trkpt>
   <trkpt lat="52.484721" lon="13.47944">
    <ele>35.8</ele>
    <time>2024-08-28T16:23:34.000Z</time>
   </trkpt>
   <trkpt lat="52.484773" lon="13.479406">
    <ele>35.8</ele>
    <time>2024-08-28T16:23:35.000Z</time>
   </trkpt>
   <trkpt lat="52.485113" lon="13.47911">
    <ele>35.6</ele>
    <time>2024-08-28T16:23:42.000Z</time>
   </trkpt>
   <trkpt lat="52.48516" lon="13.479053">
    <ele>35.6</ele>
    <time>2024-08-28T16:23:43.000Z</time>
   </trkpt>
   <trkpt lat="52.485498" lon="13.478724">
    <ele>35.4</ele>
    <time>2024-08-28T16:23:50.000Z</time>
   </trkpt>
   <trkpt lat="52.485917" lon="13.478358">
    <ele>35.6</ele>
    <time>2024-08-28T16:23:58.000Z</time>
   </trkpt>
   <trkpt lat="52.486174" lon="13.478109">
    <ele>36</ele>
    <time>2024-08-28T16:24:04.000Z</time>
   </trkpt>
   <trkpt lat="52.486557" lon="13.477767">
    <ele>35.8</ele>
    <time>2024-08-28T16:24:12.000Z</time>
   </trkpt>
   <trkpt lat="52.486933" lon="13.477413">
    <ele>35.8</ele>
    <time>2024-08-28T16:24:20.000Z</time>
   </trkpt>
   <trkpt lat="52.487125" lon="13.477227">
    <ele>35.8</ele>
    <time>2024-08-28T16:24:24.000Z</time>
   </trkpt>
   <trkpt lat="52.487219" lon="13.477119">
    <ele>36</ele>
    <time>2024-08-28T16:24:26.000Z</time>
   </trkpt>
   <trkpt lat="52.487483" lon="13.476893">
    <ele>35.8</ele>
    <time>2024-08-28T16:24:31.000Z</time>
   </trkpt>
   <trkpt lat="52.487785" lon="13.476506">
    <ele>35.8</ele>
    <time>2024-08-28T16:24:38.000Z</time>
   </trkpt>
   <trkpt lat="52.487858" lon="13.476366">
    <ele>35.6</ele>
    <time>2024-08-28T16:24:40.000Z</time>
   </trkpt>
   <trkpt lat="52.487905" lon="13.476215">
    <ele>35.4</ele>
    <time>2024-08-28T16:24:42.000Z</time>
   </trkpt>
   <trkpt lat="52.48794" lon="13.47607">
    <ele>35.4</ele>
    <time>2024-08-28T16:24:44.000Z</time>
   </trkpt>
   <trkpt lat="52.487961" lon="13.475946">
    <ele>35.2</ele>
    <time>2024-08-28T16:24:46.000Z</time>
   </trkpt>
   <trkpt lat="52.488034" lon="13.47566">
    <ele>35.2</ele>
    <time>2024-08-28T16:24:50.000Z</time>
   </trkpt>
   <trkpt lat="52.48805" lon="13.475594">
    <ele>35.2</ele>
    <time>2024-08-28T16:24:51.000Z</time>
   </trkpt>
   <trkpt lat="52.48808" lon="13.475483">
    <ele>35.2</ele>
    <time>2024-08-28T16:24:53.000Z</time>
   </trkpt>
   <trkpt lat="52.488116" lon="13.475354">
    <ele>35.2</ele>
    <time>2024-08-28T16:24:55.000Z</time>
   </trkpt>
   <trkpt lat="52.488143" lon="13.475208">
    <ele>35.2</ele>
    <time>2024-08-28T16:24:58.000Z</time>
   </trkpt>
   <trkpt lat="52.488155" lon="13.475117">
    <ele>35.2</ele>
    <time>2024-08-28T16:25:00.000Z</time>
   </trkpt>
   <trkpt lat="52.488197" lon="13.474915">
    <ele>35.2</ele>
    <time>2024-08-28T16:25:03.000Z</time>
   </trkpt>
   <trkpt lat="52.488222" lon="13.474754">
    <ele>35.2</ele>
    <time>2024-08-28T16:25:05.000Z</time>
   </trkpt>
   <trkpt lat="52.488281" lon="13.474526">
    <ele>35.4</ele>
    <time>2024-08-28T16:25:08.000Z</time>
   </trkpt>
   <trkpt lat="52.488365" lon="13.474283">
    <ele>35.2</ele>
    <time>2024-08-28T16:25:11.000Z</time>
   </trkpt>
   <trkpt lat="52.488436" lon="13.474045">
    <ele>35.2</ele>
    <time>2024-08-28T16:25:14.000Z</time>
   </trkpt>
   <trkpt lat="52.488479" lon="13.473875">
    <ele>35.4</ele>
    <time>2024-08-28T16:25:16.000Z</time>
   </trkpt>
   <trkpt lat="52.488573" lon="13.473674">
    <ele>35.4</ele>
    <time>2024-08-28T16:25:18.000Z</time>
   </trkpt>
   <trkpt lat="52.488646" lon="13.473493">
    <ele>35.4</ele>
    <time>2024-08-28T16:25:20.000Z</time>
   </trkpt>
   <trkpt lat="52.48869" lon="13.47331">
    <ele>35.6</ele>
    <time>2024-08-28T16:25:22.000Z</time>
   </trkpt>
   <trkpt lat="52.488674" lon="13.473088">
    <ele>35.6</ele>
    <time>2024-08-28T16:25:24.000Z</time>
   </trkpt>
   <trkpt lat="52.488673" lon="13.473036">
    <ele>35.6</ele>
    <time>2024-08-28T16:25:25.000Z</time>
   </trkpt>
   <trkpt lat="52.488697" lon="13.472978">
    <ele>35.6</ele>
    <time>2024-08-28T16:25:26.000Z</time>
   </trkpt>
   <trkpt lat="52.488817" lon="13.472724">
    <ele>35.6</ele>
    <time>2024-08-28T16:25:29.000Z</time>
   </trkpt>
   <trkpt lat="52.488902" lon="13.472543">
    <ele>35.4</ele>
    <time>2024-08-28T16:25:31.000Z</time>
   </trkpt>
   <trkpt lat="52.489071" lon="13.472313">
    <ele>35.4</ele>
    <time>2024-08-28T16:25:33.000Z</time>
   </trkpt>
   <trkpt lat="52.489079" lon="13.472192">
    <ele>35.4</ele>
    <time>2024-08-28T16:25:35.000Z</time>
   </trkpt>
   <trkpt lat="52.489111" lon="13.472036">
    <ele>35.2</ele>
    <time>2024-08-28T16:25:37.000Z</time>
   </trkpt>
   <trkpt lat="52.489098" lon="13.471877">
    <ele>35.2</ele>
    <time>2024-08-28T16:25:39.000Z</time>
   </trkpt>
   <trkpt lat="52.489164" lon="13.471602">
    <ele>35.2</ele>
    <time>2024-08-28T16:25:42.000Z</time>
   </trkpt>
   <trkpt lat="52.489174" lon="13.471527">
    <ele>35.2</ele>
    <time>2024-08-28T16:25:43.000Z</time>
   </trkpt>
   <trkpt lat="52.489246" lon="13.471119">
    <ele>35.4</ele>
    <time>2024-08-28T16:25:48.000Z</time>
   </trkpt>
   <trkpt lat="52.489274" lon="13.471038">
    <ele>35.4</ele>
    <time>2024-08-28T16:25:49.000Z</time>
   </trkpt>
   <trkpt lat="52.489337" lon="13.470874">
    <ele>35.4</ele>
    <time>2024-08-28T16:25:51.000Z</time>
   </trkpt>
   <trkpt lat="52.489386" lon="13.470734">
    <ele>35.6</ele>
    <time>2024-08-28T16:25:53.000Z</time>
   </trkpt>
   <trkpt lat="52.489552" lon="13.470425">
    <ele>35.8</ele>
    <time>2024-08-28T16:25:56.000Z</time>
   </trkpt>
   <trkpt lat="52.489537" lon="13.470401">
    <ele>35.8</ele>
    <time>2024-08-28T16:25:57.000Z</time>
   </trkpt>
   <trkpt lat="52.489539" lon="13.470347">
    <ele>35.8</ele>
    <time>2024-08-28T16:25:58.000Z</time>
   </trkpt>
   <trkpt lat="52.489614" lon="13.470172">
    <ele>36</ele>
    <time>2024-08-28T16:26:00.000Z</time>
   </trkpt>
   <trkpt lat="52.489629" lon="13.470098">
    <ele>36</ele>
    <time>2024-08-28T16:26:01.000Z</time>
   </trkpt>
   <trkpt lat="52.489655" lon="13.470005">
    <ele>36</ele>
    <time>2024-08-28T16:26:02.000Z</time>
   </trkpt>
   <trkpt lat="52.489746" lon="13.469717">
    <ele>35.8</ele>
    <time>2024-08-28T16:26:05.000Z</time>
   </trkpt>
   <trkpt lat="52.489786" lon="13.469624">
    <ele>35.8</ele>
    <time>2024-08-28T16:26:06.000Z</time>
   </trkpt>
   <trkpt lat="52.489787" lon="13.469555">
    <ele>35.8</ele>
    <time>2024-08-28T16:26:07.000Z</time>
   </trkpt>
   <trkpt lat="52.489803" lon="13.469435">
    <ele>35.8</ele>
    <time>2024-08-28T16:26:09.000Z</time>
   </trkpt>
   <trkpt lat="52.489922" lon="13.469133">
    <ele>35.8</ele>
    <time>2024-08-28T16:26:12.000Z</time>
   </trkpt>
   <trkpt lat="52.489968" lon="13.468979">
    <ele>35.8</ele>
    <time>2024-08-28T16:26:14.000Z</time>
   </trkpt>
   <trkpt lat="52.490025" lon="13.468813">
    <ele>35.8</ele>
    <time>2024-08-28T16:26:16.000Z</time>
   </trkpt>
   <trkpt lat="52.490007" lon="13.468583">
    <ele>35.8</ele>
    <time>2024-08-28T16:26:19.000Z</time>
   </trkpt>
   <trkpt lat="52.49007" lon="13.468472">
    <ele>35.6</ele>
    <time>2024-08-28T16:26:20.000Z</time>
   </trkpt>
   <trkpt lat="52.490224" lon="13.468197">
    <ele>35.6</ele>
    <time>2024-08-28T16:26:23.000Z</time>
   </trkpt>
   <trkpt lat="52.490261" lon="13.468019">
    <ele>35.6</ele>
    <time>2024-08-28T16:26:25.000Z</time>
   </trkpt>
   <trkpt lat="52.490325" lon="13.467853">
    <ele>35.6</ele>
    <time>2024-08-28T16:26:27.000Z</time>
   </trkpt>
   <trkpt lat="52.49037" lon="13.467693">
    <ele>35.6</ele>
    <time>2024-08-28T16:26:29.000Z</time>
   </trkpt>
   <trkpt lat="52.490377" lon="13.467617">
    <ele>35.6</ele>
    <time>2024-08-28T16:26:30.000Z</time>
   </trkpt>
   <trkpt lat="52.490386" lon="13.467555">
    <ele>35.6</ele>
    <time>2024-08-28T16:26:31.000Z</time>
   </trkpt>
   <trkpt lat="52.490507" lon="13.467275">
    <ele>35.8</ele>
    <time>2024-08-28T16:26:34.000Z</time>
   </trkpt>
   <trkpt lat="52.490658" lon="13.46683">
    <ele>35.8</ele>
    <time>2024-08-28T16:26:39.000Z</time>
   </trkpt>
   <trkpt lat="52.490677" lon="13.466678">
    <ele>35.8</ele>
    <time>2024-08-28T16:26:42.000Z</time>
   </trkpt>
   <trkpt lat="52.490671" lon="13.466646">
    <ele>35.8</ele>
    <time>2024-08-28T16:26:43.000Z</time>
   </trkpt>
   <trkpt lat="52.490689" lon="13.466514">
    <ele>35.8</ele>
    <time>2024-08-28T16:26:45.000Z</time>
   </trkpt>
   <trkpt lat="52.490729" lon="13.466378">
    <ele>35.8</ele>
    <time>2024-08-28T16:26:47.000Z</time>
   </trkpt>
   <trkpt lat="52.490743" lon="13.466276">
    <ele>35.8</ele>
    <time>2024-08-28T16:26:49.000Z</time>
   </trkpt>
   <trkpt lat="52.490739" lon="13.466189">
    <ele>36</ele>
    <time>2024-08-28T16:26:51.000Z</time>
   </trkpt>
   <trkpt lat="52.490816" lon="13.466017">
    <ele>36</ele>
    <time>2024-08-28T16:26:53.000Z</time>
   </trkpt>
   <trkpt lat="52.49084" lon="13.465864">
    <ele>35.8</ele>
    <time>2024-08-28T16:26:55.000Z</time>
   </trkpt>
   <trkpt lat="52.490935" lon="13.465597">
    <ele>35.8</ele>
    <time>2024-08-28T16:26:58.000Z</time>
   </trkpt>
   <trkpt lat="52.491016" lon="13.465325">
    <ele>35.8</ele>
    <time>2024-08-28T16:27:01.000Z</time>
   </trkpt>
   <trkpt lat="52.491024" lon="13.465261">
    <ele>35.8</ele>
    <time>2024-08-28T16:27:02.000Z</time>
   </trkpt>
   <trkpt lat="52.491052" lon="13.465176">
    <ele>35.8</ele>
    <time>2024-08-28T16:27:03.000Z</time>
   </trkpt>
   <trkpt lat="52.491113" lon="13.465007">
    <ele>35.8</ele>
    <time>2024-08-28T16:27:05.000Z</time>
   </trkpt>
   <trkpt lat="52.491185" lon="13.464811">
    <ele>36</ele>
    <time>2024-08-28T16:27:07.000Z</time>
   </trkpt>
   <trkpt lat="52.491339" lon="13.464577">
    <ele>35.8</ele>
    <time>2024-08-28T16:27:09.000Z</time>
   </trkpt>
   <trkpt lat="52.491353" lon="13.464438">
    <ele>35.8</ele>
    <time>2024-08-28T16:27:10.000Z</time>
   </trkpt>
   <trkpt lat="52.491394" lon="13.464265">
    <ele>35.8</ele>
    <time>2024-08-28T16:27:12.000Z</time>
   </trkpt>
   <trkpt lat="52.491425" lon="13.464123">
    <ele>35.8</ele>
    <time>2024-08-28T16:27:14.000Z</time>
   </trkpt>
   <trkpt lat="52.491425" lon="13.464029">
    <ele>36</ele>
    <time>2024-08-28T16:27:16.000Z</time>
   </trkpt>
   <trkpt lat="52.491518" lon="13.463936">
    <ele>36.2</ele>
    <time>2024-08-28T16:27:18.000Z</time>
   </trkpt>
   <trkpt lat="52.491523" lon="13.463874">
    <ele>36.4</ele>
    <time>2024-08-28T16:27:19.000Z</time>
   </trkpt>
   <trkpt lat="52.491623" lon="13.463404">
    <ele>36.2</ele>
    <time>2024-08-28T16:27:24.000Z</time>
   </trkpt>
   <trkpt lat="52.491745" lon="13.462966">
    <ele>36.2</ele>
    <time>2024-08-28T16:27:29.000Z</time>
   </trkpt>
   <trkpt lat="52.491838" lon="13.462695">
    <ele>35.8</ele>
    <time>2024-08-28T16:27:32.000Z</time>
   </trkpt>
   <trkpt lat="52.491884" lon="13.462572">
    <ele>35.8</ele>
    <time>2024-08-28T16:27:34.000Z</time>
   </trkpt>
   <trkpt lat="52.491915" lon="13.462514">
    <ele>35.8</ele>
    <time>2024-08-28T16:27:35.000Z</time>
   </trkpt>
   <trkpt lat="52.49196" lon="13.462441">
    <ele>35.8</ele>
    <time>2024-08-28T16:27:36.000Z</time>
   </trkpt>
   <trkpt lat="52.492055" lon="13.462172">
    <ele>35.8</ele>
    <time>2024-08-28T16:27:38.000Z</time>
   </trkpt>
   <trkpt lat="52.492129" lon="13.462041">
    <ele>35.8</ele>
    <time>2024-08-28T16:27:39.000Z</time>
   </trkpt>
   <trkpt lat="52.492154" lon="13.461945">
    <ele>35.8</ele>
    <time>2024-08-28T16:27:40.000Z</time>
   </trkpt>
   <trkpt lat="52.492164" lon="13.461795">
    <ele>35.8</ele>
    <time>2024-08-28T16:27:42.000Z</time>
   </trkpt>
   <trkpt lat="52.492192" lon="13.461711">
    <ele>35.8</ele>
    <time>2024-08-28T16:27:43.000Z</time>
   </trkpt>
   <trkpt lat="52.492198" lon="13.461642">
    <ele>35.8</ele>
    <time>2024-08-28T16:27:44.000Z</time>
   </trkpt>
   <trkpt lat="52.492284" lon="13.461362">
    <ele>35.8</ele>
    <time>2024-08-28T16:27:47.000Z</time>
   </trkpt>
   <trkpt lat="52.492308" lon="13.461326">
    <ele>35.8</ele>
    <time>2024-08-28T16:27:48.000Z</time>
   </trkpt>
   <trkpt lat="52.492424" lon="13.461079">
    <ele>35.8</ele>
    <time>2024-08-28T16:27:53.000Z</time>
   </trkpt>
   <trkpt lat="52.492446" lon="13.46065">
    <ele>36</ele>
    <time>2024-08-28T16:27:58.000Z</time>
   </trkpt>
   <trkpt lat="52.492576" lon="13.460505">
    <ele>36</ele>
    <time>2024-08-28T16:28:02.000Z</time>
   </trkpt>
   <trkpt lat="52.492694" lon="13.460371">
    <ele>36</ele>
    <time>2024-08-28T16:28:23.000Z</time>
   </trkpt>
   <trkpt lat="52.492739" lon="13.460303">
    <ele>35.8</ele>
    <time>2024-08-28T16:28:25.000Z</time>
   </trkpt>
   <trkpt lat="52.492754" lon="13.460194">
    <ele>35.8</ele>
    <time>2024-08-28T16:28:28.000Z</time>
   </trkpt>
   <trkpt lat="52.492764" lon="13.459963">
    <ele>36</ele>
    <time>2024-08-28T16:28:34.000Z</time>
   </trkpt>
   <trkpt lat="52.492788" lon="13.459872">
    <ele>36.2</ele>
    <time>2024-08-28T16:28:37.000Z</time>
   </trkpt>
   <trkpt lat="52.492818" lon="13.459765">
    <ele>36.4</ele>
    <time>2024-08-28T16:29:15.000Z</time>
   </trkpt>
   <trkpt lat="52.492836" lon="13.459687">
    <ele>36.4</ele>
    <time>2024-08-28T16:29:17.000Z</time>
   </trkpt>
   <trkpt lat="52.492894" lon="13.459419">
    <ele>36.2</ele>
    <time>2024-08-28T16:29:22.000Z</time>
   </trkpt>
   <trkpt lat="52.493044" lon="13.458976">
    <ele>36</ele>
    <time>2024-08-28T16:29:30.000Z</time>
   </trkpt>
   <trkpt lat="52.493069" lon="13.458922">
    <ele>36</ele>
    <time>2024-08-28T16:29:31.000Z</time>
   </trkpt>
   <trkpt lat="52.493134" lon="13.45869">
    <ele>36</ele>
    <time>2024-08-28T16:29:35.000Z</time>
   </trkpt>
   <trkpt lat="52.493232" lon="13.458295">
    <ele>36</ele>
    <time>2024-08-28T16:29:41.000Z</time>
   </trkpt>
   <trkpt lat="52.493248" lon="13.458235">
    <ele>36</ele>
    <time>2024-08-28T16:29:42.000Z</time>
   </trkpt>
   <trkpt lat="52.493296" lon="13.458088">
    <ele>36</ele>
    <time>2024-08-28T16:29:44.000Z</time>
   </trkpt>
   <trkpt lat="52.493364" lon="13.457908">
    <ele>36</ele>
    <time>2024-08-28T16:29:46.000Z</time>
   </trkpt>
   <trkpt lat="52.493387" lon="13.45777">
    <ele>36</ele>
    <time>2024-08-28T16:29:48.000Z</time>
   </trkpt>
   <trkpt lat="52.493408" lon="13.457695">
    <ele>36</ele>
    <time>2024-08-28T16:29:49.000Z</time>
   </trkpt>
   <trkpt lat="52.493421" lon="13.457628">
    <ele>36</ele>
    <time>2024-08-28T16:29:50.000Z</time>
   </trkpt>
   <trkpt lat="52.493495" lon="13.457371">
    <ele>36</ele>
    <time>2024-08-28T16:29:53.000Z</time>
   </trkpt>
   <trkpt lat="52.493511" lon="13.457293">
    <ele>36</ele>
    <time>2024-08-28T16:29:54.000Z</time>
   </trkpt>
   <trkpt lat="52.4936" lon="13.456992">
    <ele>35.8</ele>
    <time>2024-08-28T16:29:57.000Z</time>
   </trkpt>
   <trkpt lat="52.493807" lon="13.456378">
    <ele>35.8</ele>
    <time>2024-08-28T16:30:03.000Z</time>
   </trkpt>
   <trkpt lat="52.494004" lon="13.455813">
    <ele>36</ele>
    <time>2024-08-28T16:30:09.000Z</time>
   </trkpt>
   <trkpt lat="52.494091" lon="13.455553">
    <ele>36.2</ele>
    <time>2024-08-28T16:30:12.000Z</time>
   </trkpt>
   <trkpt lat="52.494187" lon="13.455291">
    <ele>36.2</ele>
    <time>2024-08-28T16:30:15.000Z</time>
   </trkpt>
   <trkpt lat="52.494333" lon="13.454675">
    <ele>36.2</ele>
    <time>2024-08-28T16:30:22.000Z</time>
   </trkpt>
   <trkpt lat="52.494525" lon="13.454065">
    <ele>36</ele>
    <time>2024-08-28T16:30:29.000Z</time>
   </trkpt>
   <trkpt lat="52.494583" lon="13.45389">
    <ele>36</ele>
    <time>2024-08-28T16:30:31.000Z</time>
   </trkpt>
   <trkpt lat="52.494644" lon="13.453654">
    <ele>36.2</ele>
    <time>2024-08-28T16:30:34.000Z</time>
   </trkpt>
   <trkpt lat="52.49479" lon="13.453229">
    <ele>35.8</ele>
    <time>2024-08-28T16:30:40.000Z</time>
   </trkpt>
   <trkpt lat="52.494821" lon="13.453171">
    <ele>35.8</ele>
    <time>2024-08-28T16:30:41.000Z</time>
   </trkpt>
   <trkpt lat="52.494908" lon="13.453036">
    <ele>35.8</ele>
    <time>2024-08-28T16:30:44.000Z</time>
   </trkpt>
   <trkpt lat="52.494962" lon="13.452942">
    <ele>35.8</ele>
    <time>2024-08-28T16:30:46.000Z</time>
   </trkpt>
   <trkpt lat="52.495165" lon="13.452608">
    <ele>36</ele>
    <time>2024-08-28T16:30:52.000Z</time>
   </trkpt>
   <trkpt lat="52.495427" lon="13.452156">
    <ele>35.8</ele>
    <time>2024-08-28T16:30:58.000Z</time>
   </trkpt>
   <trkpt lat="52.495782" lon="13.451566">
    <ele>36</ele>
    <time>2024-08-28T16:31:06.000Z</time>
   </trkpt>
   <trkpt lat="52.495956" lon="13.451272">
    <ele>36.4</ele>
    <time>2024-08-28T16:31:11.000Z</time>
   </trkpt>
   <trkpt lat="52.49598" lon="13.451218">
    <ele>36.4</ele>
    <time>2024-08-28T16:31:12.000Z</time>
   </trkpt>
   <trkpt lat="52.496045" lon="13.451122">
    <ele>36.4</ele>
    <time>2024-08-28T16:31:14.000Z</time>
   </trkpt>
   <trkpt lat="52.496086" lon="13.451074">
    <ele>36.4</ele>
    <time>2024-08-28T16:31:15.000Z</time>
   </trkpt>
   <trkpt lat="52.496252" lon="13.450786">
    <ele>36.4</ele>
    <time>2024-08-28T16:31:19.000Z</time>
   </trkpt>
   <trkpt lat="52.496503" lon="13.450367">
    <ele>36.4</ele>
    <time>2024-08-28T16:31:25.000Z</time>
   </trkpt>
   <trkpt lat="52.496541" lon="13.450302">
    <ele>36.6</ele>
    <time>2024-08-28T16:31:26.000Z</time>
   </trkpt>
   <trkpt lat="52.496845" lon="13.449776">
    <ele>36.8</ele>
    <time>2024-08-28T16:31:34.000Z</time>
   </trkpt>
   <trkpt lat="52.497182" lon="13.449169">
    <ele>36.6</ele>
    <time>2024-08-28T16:31:42.000Z</time>
   </trkpt>
   <trkpt lat="52.497513" lon="13.448603">
    <ele>37.2</ele>
    <time>2024-08-28T16:31:50.000Z</time>
   </trkpt>
   <trkpt lat="52.497555" lon="13.448529">
    <ele>37.4</ele>
    <time>2024-08-28T16:31:51.000Z</time>
   </trkpt>
   <trkpt lat="52.497728" lon="13.448206">
    <ele>37.6</ele>
    <time>2024-08-28T16:31:55.000Z</time>
   </trkpt>
   <trkpt lat="52.497781" lon="13.448127">
    <ele>37.8</ele>
    <time>2024-08-28T16:31:56.000Z</time>
   </trkpt>
   <trkpt lat="52.498141" lon="13.447538">
    <ele>36.8</ele>
    <time>2024-08-28T16:32:03.000Z</time>
   </trkpt>
   <trkpt lat="52.498336" lon="13.447202">
    <ele>36.4</ele>
    <time>2024-08-28T16:32:07.000Z</time>
   </trkpt>
   <trkpt lat="52.498524" lon="13.446858">
    <ele>36</ele>
    <time>2024-08-28T16:32:11.000Z</time>
   </trkpt>
   <trkpt lat="52.498935" lon="13.446146">
    <ele>35.8</ele>
    <time>2024-08-28T16:32:20.000Z</time>
   </trkpt>
   <trkpt lat="52.498977" lon="13.446071">
    <ele>35.8</ele>
    <time>2024-08-28T16:32:21.000Z</time>
   </trkpt>
   <trkpt lat="52.499104" lon="13.445841">
    <ele>35.8</ele>
    <time>2024-08-28T16:32:24.000Z</time>
   </trkpt>
   <trkpt lat="52.49923" lon="13.445613">
    <ele>36</ele>
    <time>2024-08-28T16:32:27.000Z</time>
   </trkpt>
   <trkpt lat="52.499318" lon="13.445478">
    <ele>36</ele>
    <time>2024-08-28T16:32:29.000Z</time>
   </trkpt>
   <trkpt lat="52.499402" lon="13.445332">
    <ele>36.2</ele>
    <time>2024-08-28T16:32:31.000Z</time>
   </trkpt>
   <trkpt lat="52.499487" lon="13.445175">
    <ele>36.2</ele>
    <time>2024-08-28T16:32:33.000Z</time>
   </trkpt>
   <trkpt lat="52.499528" lon="13.445091">
    <ele>36.2</ele>
    <time>2024-08-28T16:32:34.000Z</time>
   </trkpt>
   <trkpt lat="52.49976" lon="13.444635">
    <ele>35.8</ele>
    <time>2024-08-28T16:32:40.000Z</time>
   </trkpt>
   <trkpt lat="52.49984" lon="13.444508">
    <ele>35.6</ele>
    <time>2024-08-28T16:32:42.000Z</time>
   </trkpt>
   <trkpt lat="52.49994" lon="13.444321">
    <ele>35.6</ele>
    <time>2024-08-28T16:32:45.000Z</time>
   </trkpt>
   <trkpt lat="52.500034" lon="13.444156">
    <ele>36</ele>
    <time>2024-08-28T16:32:50.000Z</time>
   </trkpt>
   <trkpt lat="52.50007" lon="13.444117">
    <ele>36.2</ele>
    <time>2024-08-28T16:33:10.000Z</time>
   </trkpt>
   <trkpt lat="52.500139" lon="13.443995">
    <ele>36.2</ele>
    <time>2024-08-28T16:33:13.000Z</time>
   </trkpt>
   <trkpt lat="52.500293" lon="13.4437">
    <ele>36</ele>
    <time>2024-08-28T16:33:18.000Z</time>
   </trkpt>
   <trkpt lat="52.500531" lon="13.443233">
    <ele>35.8</ele>
    <time>2024-08-28T16:33:25.000Z</time>
   </trkpt>
   <trkpt lat="52.500817" lon="13.442679">
    <ele>35.8</ele>
    <time>2024-08-28T16:33:33.000Z</time>
   </trkpt>
   <trkpt lat="52.501055" lon="13.442208">
    <ele>36</ele>
    <time>2024-08-28T16:33:41.000Z</time>
   </trkpt>
   <trkpt lat="52.501081" lon="13.442176">
    <ele>36</ele>
    <time>2024-08-28T16:33:42.000Z</time>
   </trkpt>
   <trkpt lat="52.501157" lon="13.442056">
    <ele>36</ele>
    <time>2024-08-28T16:33:45.000Z</time>
   </trkpt>
   <trkpt lat="52.501256" lon="13.441886">
    <ele>36</ele>
    <time>2024-08-28T16:33:50.000Z</time>
   </trkpt>
   <trkpt lat="52.501302" lon="13.441844">
    <ele>36</ele>
    <time>2024-08-28T16:33:53.000Z</time>
   </trkpt>
   <trkpt lat="52.501302" lon="13.441829">
    <ele>36</ele>
    <time>2024-08-28T16:33:54.000Z</time>
   </trkpt>
   <trkpt lat="52.501293" lon="13.441718">
    <ele>36.2</ele>
    <time>2024-08-28T16:34:06.000Z</time>
   </trkpt>
   <trkpt lat="52.501268" lon="13.441614">
    <ele>36.2</ele>
    <time>2024-08-28T16:34:08.000Z</time>
   </trkpt>
   <trkpt lat="52.501242" lon="13.441561">
    <ele>36.2</ele>
    <time>2024-08-28T16:34:09.000Z</time>
   </trkpt>
   <trkpt lat="52.501179" lon="13.441457">
    <ele>36.2</ele>
    <time>2024-08-28T16:34:11.000Z</time>
   </trkpt>
   <trkpt lat="52.501112" lon="13.441371">
    <ele>36.4</ele>
    <time>2024-08-28T16:34:13.000Z</time>
   </trkpt>
   <trkpt lat="52.50094" lon="13.441098">
    <ele>36.2</ele>
    <time>2024-08-28T16:34:18.000Z</time>
   </trkpt>
   <trkpt lat="52.500918" lon="13.441033">
    <ele>36.2</ele>
    <time>2024-08-28T16:34:19.000Z</time>
   </trkpt>
   <trkpt lat="52.50091" lon="13.440968">
    <ele>36.2</ele>
    <time>2024-08-28T16:34:20.000Z</time>
   </trkpt>
   <trkpt lat="52.500886" lon="13.440747">
    <ele>36.4</ele>
    <time>2024-08-28T16:34:23.000Z</time>
   </trkpt>
   <trkpt lat="52.500853" lon="13.440473">
    <ele>36.4</ele>
    <time>2024-08-28T16:34:27.000Z</time>
   </trkpt>
   <trkpt lat="52.500848" lon="13.4404">
    <ele>36.4</ele>
    <time>2024-08-28T16:34:28.000Z</time>
   </trkpt>
   <trkpt lat="52.500838" lon="13.440259">
    <ele>36.4</ele>
    <time>2024-08-28T16:34:30.000Z</time>
   </trkpt>
   <trkpt lat="52.500811" lon="13.440034">
    <ele>36.6</ele>
    <time>2024-08-28T16:34:33.000Z</time>
   </trkpt>
   <trkpt lat="52.500771" lon="13.439798">
    <ele>36.2</ele>
    <time>2024-08-28T16:34:36.000Z</time>
   </trkpt>
   <trkpt lat="52.500712" lon="13.439568">
    <ele>36.4</ele>
    <time>2024-08-28T16:34:39.000Z</time>
   </trkpt>
   <trkpt lat="52.500699" lon="13.439481">
    <ele>36.4</ele>
    <time>2024-08-28T16:34:40.000Z</time>
   </trkpt>
   <trkpt lat="52.500663" lon="13.439251">
    <ele>36.4</ele>
    <time>2024-08-28T16:34:43.000Z</time>
   </trkpt>
   <trkpt lat="52.500658" lon="13.439191">
    <ele>36.4</ele>
    <time>2024-08-28T16:34:44.000Z</time>
   </trkpt>
   <trkpt lat="52.500637" lon="13.439026">
    <ele>36.4</ele>
    <time>2024-08-28T16:34:46.000Z</time>
   </trkpt>
   <trkpt lat="52.500606" lon="13.438864">
    <ele>36.6</ele>
    <time>2024-08-28T16:34:48.000Z</time>
   </trkpt>
   <trkpt lat="52.500551" lon="13.438682">
    <ele>36.6</ele>
    <time>2024-08-28T16:34:50.000Z</time>
   </trkpt>
   <trkpt lat="52.500535" lon="13.438599">
    <ele>36.8</ele>
    <time>2024-08-28T16:34:51.000Z</time>
   </trkpt>
   <trkpt lat="52.500541" lon="13.438377">
    <ele>36.8</ele>
    <time>2024-08-28T16:34:54.000Z</time>
   </trkpt>
   <trkpt lat="52.500533" lon="13.438254">
    <ele>36.8</ele>
    <time>2024-08-28T16:34:58.000Z</time>
   </trkpt>
   <trkpt lat="52.500506" lon="13.438154">
    <ele>36.8</ele>
    <time>2024-08-28T16:35:01.000Z</time>
   </trkpt>
   <trkpt lat="52.500496" lon="13.43813">
    <ele>36.8</ele>
    <time>2024-08-28T16:35:02.000Z</time>
   </trkpt>
   <trkpt lat="52.500451" lon="13.437929">
    <ele>36.8</ele>
    <time>2024-08-28T16:35:08.000Z</time>
   </trkpt>
   <trkpt lat="52.500434" lon="13.437817">
    <ele>36.8</ele>
    <time>2024-08-28T16:35:12.000Z</time>
   </trkpt>
   <trkpt lat="52.500425" lon="13.437761">
    <ele>36.8</ele>
    <time>2024-08-28T16:35:14.000Z</time>
   </trkpt>
   <trkpt lat="52.500385" lon="13.437491">
    <ele>36.8</ele>
    <time>2024-08-28T16:35:21.000Z</time>
   </trkpt>
   <trkpt lat="52.500377" lon="13.437426">
    <ele>36.8</ele>
    <time>2024-08-28T16:35:22.000Z</time>
   </trkpt>
   <trkpt lat="52.500385" lon="13.437222">
    <ele>36.8</ele>
    <time>2024-08-28T16:35:25.000Z</time>
   </trkpt>
   <trkpt lat="52.500347" lon="13.437">
    <ele>36.8</ele>
    <time>2024-08-28T16:35:28.000Z</time>
   </trkpt>
   <trkpt lat="52.500308" lon="13.436786">
    <ele>36.8</ele>
    <time>2024-08-28T16:35:31.000Z</time>
   </trkpt>
   <trkpt lat="52.500293" lon="13.436709">
    <ele>36.8</ele>
    <time>2024-08-28T16:35:32.000Z</time>
   </trkpt>
   <trkpt lat="52.500269" lon="13.436547">
    <ele>36.8</ele>
    <time>2024-08-28T16:35:34.000Z</time>
   </trkpt>
   <trkpt lat="52.500255" lon="13.436466">
    <ele>36.8</ele>
    <time>2024-08-28T16:35:35.000Z</time>
   </trkpt>
   <trkpt lat="52.500248" lon="13.436391">
    <ele>36.8</ele>
    <time>2024-08-28T16:35:36.000Z</time>
   </trkpt>
   <trkpt lat="52.500221" lon="13.436259">
    <ele>36.8</ele>
    <time>2024-08-28T16:35:38.000Z</time>
   </trkpt>
   <trkpt lat="52.500176" lon="13.436004">
    <ele>36.8</ele>
    <time>2024-08-28T16:35:41.000Z</time>
   </trkpt>
   <trkpt lat="52.500158" lon="13.435911">
    <ele>36.8</ele>
    <time>2024-08-28T16:35:42.000Z</time>
   </trkpt>
   <trkpt lat="52.500141" lon="13.435833">
    <ele>36.8</ele>
    <time>2024-08-28T16:35:43.000Z</time>
   </trkpt>
   <trkpt lat="52.500115" lon="13.435676">
    <ele>36.8</ele>
    <time>2024-08-28T16:35:45.000Z</time>
   </trkpt>
   <trkpt lat="52.500094" lon="13.435576">
    <ele>36.8</ele>
    <time>2024-08-28T16:35:46.000Z</time>
   </trkpt>
   <trkpt lat="52.500041" lon="13.435301">
    <ele>36.6</ele>
    <time>2024-08-28T16:35:49.000Z</time>
   </trkpt>
   <trkpt lat="52.500021" lon="13.43513">
    <ele>36.8</ele>
    <time>2024-08-28T16:35:51.000Z</time>
   </trkpt>
   <trkpt lat="52.5" lon="13.435033">
    <ele>36.8</ele>
    <time>2024-08-28T16:35:52.000Z</time>
   </trkpt>
   <trkpt lat="52.499918" lon="13.434641">
    <ele>37</ele>
    <time>2024-08-28T16:35:56.000Z</time>
   </trkpt>
   <trkpt lat="52.499893" lon="13.434463">
    <ele>37.2</ele>
    <time>2024-08-28T16:35:58.000Z</time>
   </trkpt>
   <trkpt lat="52.499897" lon="13.434265">
    <ele>37.6</ele>
    <time>2024-08-28T16:36:01.000Z</time>
   </trkpt>
   <trkpt lat="52.499902" lon="13.434183">
    <ele>37.6</ele>
    <time>2024-08-28T16:36:02.000Z</time>
   </trkpt>
   <trkpt lat="52.499903" lon="13.434046">
    <ele>37.6</ele>
    <time>2024-08-28T16:36:04.000Z</time>
   </trkpt>
   <trkpt lat="52.499899" lon="13.433925">
    <ele>37.6</ele>
    <time>2024-08-28T16:36:06.000Z</time>
   </trkpt>
   <trkpt lat="52.499895" lon="13.433867">
    <ele>37.6</ele>
    <time>2024-08-28T16:36:07.000Z</time>
   </trkpt>
   <trkpt lat="52.499879" lon="13.433759">
    <ele>37.4</ele>
    <time>2024-08-28T16:36:09.000Z</time>
   </trkpt>
   <trkpt lat="52.499853" lon="13.433699">
    <ele>37.4</ele>
    <time>2024-08-28T16:36:10.000Z</time>
   </trkpt>
   <trkpt lat="52.499825" lon="13.433639">
    <ele>37.4</ele>
    <time>2024-08-28T16:36:11.000Z</time>
   </trkpt>
   <trkpt lat="52.499774" lon="13.433413">
    <ele>37.2</ele>
    <time>2024-08-28T16:36:14.000Z</time>
   </trkpt>
   <trkpt lat="52.499735" lon="13.433162">
    <ele>37.4</ele>
    <time>2024-08-28T16:36:17.000Z</time>
   </trkpt>
   <trkpt lat="52.499716" lon="13.432985">
    <ele>37.4</ele>
    <time>2024-08-28T16:36:19.000Z</time>
   </trkpt>
   <trkpt lat="52.499709" lon="13.432893">
    <ele>37.4</ele>
    <time>2024-08-28T16:36:20.000Z</time>
   </trkpt>
   <trkpt lat="52.499715" lon="13.432819">
    <ele>37.4</ele>
    <time>2024-08-28T16:36:21.000Z</time>
   </trkpt>
   <trkpt lat="52.499709" lon="13.432682">
    <ele>37.4</ele>
    <time>2024-08-28T16:36:23.000Z</time>
   </trkpt>
   <trkpt lat="52.499701" lon="13.432552">
    <ele>37.6</ele>
    <time>2024-08-28T16:36:25.000Z</time>
   </trkpt>
   <trkpt lat="52.499682" lon="13.432404">
    <ele>37.6</ele>
    <time>2024-08-28T16:36:27.000Z</time>
   </trkpt>
   <trkpt lat="52.499646" lon="13.432243">
    <ele>37.6</ele>
    <time>2024-08-28T16:36:29.000Z</time>
   </trkpt>
   <trkpt lat="52.49962" lon="13.432094">
    <ele>37.6</ele>
    <time>2024-08-28T16:36:31.000Z</time>
   </trkpt>
   <trkpt lat="52.49961" lon="13.432019">
    <ele>37.6</ele>
    <time>2024-08-28T16:36:32.000Z</time>
   </trkpt>
   <trkpt lat="52.499527" lon="13.431591">
    <ele>37.6</ele>
    <time>2024-08-28T16:36:37.000Z</time>
   </trkpt>
   <trkpt lat="52.499515" lon="13.431509">
    <ele>37.6</ele>
    <time>2024-08-28T16:36:38.000Z</time>
   </trkpt>
   <trkpt lat="52.499506" lon="13.431431">
    <ele>37.6</ele>
    <time>2024-08-28T16:36:39.000Z</time>
   </trkpt>
   <trkpt lat="52.499467" lon="13.431015">
    <ele>37.6</ele>
    <time>2024-08-28T16:36:44.000Z</time>
   </trkpt>
   <trkpt lat="52.499487" lon="13.430783">
    <ele>37.6</ele>
    <time>2024-08-28T16:36:47.000Z</time>
   </trkpt>
   <trkpt lat="52.499505" lon="13.430466">
    <ele>37.4</ele>
    <time>2024-08-28T16:36:51.000Z</time>
   </trkpt>
   <trkpt lat="52.499536" lon="13.430114">
    <ele>37.2</ele>
    <time>2024-08-28T16:36:56.000Z</time>
   </trkpt>
   <trkpt lat="52.499546" lon="13.43005">
    <ele>37.4</ele>
    <time>2024-08-28T16:36:57.000Z</time>
   </trkpt>
   <trkpt lat="52.499537" lon="13.42981">
    <ele>37.4</ele>
    <time>2024-08-28T16:37:01.000Z</time>
   </trkpt>
   <trkpt lat="52.499472" lon="13.429393">
    <ele>37.6</ele>
    <time>2024-08-28T16:37:07.000Z</time>
   </trkpt>
   <trkpt lat="52.499457" lon="13.429256">
    <ele>37.6</ele>
    <time>2024-08-28T16:37:09.000Z</time>
   </trkpt>
   <trkpt lat="52.499423" lon="13.429028">
    <ele>37.6</ele>
    <time>2024-08-28T16:37:12.000Z</time>
   </trkpt>
   <trkpt lat="52.499403" lon="13.428945">
    <ele>37.6</ele>
    <time>2024-08-28T16:37:13.000Z</time>
   </trkpt>
   <trkpt lat="52.499379" lon="13.428785">
    <ele>37.4</ele>
    <time>2024-08-28T16:37:15.000Z</time>
   </trkpt>
   <trkpt lat="52.499348" lon="13.42866">
    <ele>37.4</ele>
    <time>2024-08-28T16:37:17.000Z</time>
   </trkpt>
   <trkpt lat="52.499337" lon="13.42856">
    <ele>37.2</ele>
    <time>2024-08-28T16:37:18.000Z</time>
   </trkpt>
   <trkpt lat="52.499332" lon="13.428456">
    <ele>37.2</ele>
    <time>2024-08-28T16:37:19.000Z</time>
   </trkpt>
   <trkpt lat="52.499324" lon="13.428259">
    <ele>37.2</ele>
    <time>2024-08-28T16:37:21.000Z</time>
   </trkpt>
   <trkpt lat="52.499317" lon="13.428174">
    <ele>37.2</ele>
    <time>2024-08-28T16:37:22.000Z</time>
   </trkpt>
   <trkpt lat="52.499324" lon="13.427954">
    <ele>37.4</ele>
    <time>2024-08-28T16:37:25.000Z</time>
   </trkpt>
   <trkpt lat="52.499312" lon="13.427826">
    <ele>37.4</ele>
    <time>2024-08-28T16:37:27.000Z</time>
   </trkpt>
   <trkpt lat="52.499304" lon="13.427714">
    <ele>37.4</ele>
    <time>2024-08-28T16:37:29.000Z</time>
   </trkpt>
   <trkpt lat="52.499281" lon="13.427566">
    <ele>37.4</ele>
    <time>2024-08-28T16:37:31.000Z</time>
   </trkpt>
   <trkpt lat="52.499259" lon="13.427427">
    <ele>37.4</ele>
    <time>2024-08-28T16:37:33.000Z</time>
   </trkpt>
   <trkpt lat="52.499254" lon="13.427149">
    <ele>37.2</ele>
    <time>2024-08-28T16:37:37.000Z</time>
   </trkpt>
   <trkpt lat="52.499257" lon="13.427074">
    <ele>37.2</ele>
    <time>2024-08-28T16:37:38.000Z</time>
   </trkpt>
   <trkpt lat="52.499279" lon="13.426617">
    <ele>37</ele>
    <time>2024-08-28T16:37:44.000Z</time>
   </trkpt>
   <trkpt lat="52.499366" lon="13.426299">
    <ele>36.6</ele>
    <time>2024-08-28T16:37:48.000Z</time>
   </trkpt>
   <trkpt lat="52.499421" lon="13.426139">
    <ele>36.6</ele>
    <time>2024-08-28T16:37:50.000Z</time>
   </trkpt>
   <trkpt lat="52.499485" lon="13.425886">
    <ele>36.6</ele>
    <time>2024-08-28T16:37:53.000Z</time>
   </trkpt>
   <trkpt lat="52.499657" lon="13.425315">
    <ele>36.6</ele>
    <time>2024-08-28T16:38:00.000Z</time>
   </trkpt>
   <trkpt lat="52.499753" lon="13.425011">
    <ele>36.6</ele>
    <time>2024-08-28T16:38:04.000Z</time>
   </trkpt>
   <trkpt lat="52.499782" lon="13.424938">
    <ele>36.6</ele>
    <time>2024-08-28T16:38:05.000Z</time>
   </trkpt>
   <trkpt lat="52.499808" lon="13.42486">
    <ele>36.6</ele>
    <time>2024-08-28T16:38:06.000Z</time>
   </trkpt>
   <trkpt lat="52.499872" lon="13.424704">
    <ele>36.6</ele>
    <time>2024-08-28T16:38:08.000Z</time>
   </trkpt>
   <trkpt lat="52.499889" lon="13.424609">
    <ele>36.6</ele>
    <time>2024-08-28T16:38:09.000Z</time>
   </trkpt>
   <trkpt lat="52.5" lon="13.42426">
    <ele>36.6</ele>
    <time>2024-08-28T16:38:13.000Z</time>
   </trkpt>
   <trkpt lat="52.500066" lon="13.424082">
    <ele>36.6</ele>
    <time>2024-08-28T16:38:15.000Z</time>
   </trkpt>
   <trkpt lat="52.500143" lon="13.423833">
    <ele>36.6</ele>
    <time>2024-08-28T16:38:18.000Z</time>
   </trkpt>
   <trkpt lat="52.500182" lon="13.423675">
    <ele>36.6</ele>
    <time>2024-08-28T16:38:20.000Z</time>
   </trkpt>
   <trkpt lat="52.500197" lon="13.423607">
    <ele>36.6</ele>
    <time>2024-08-28T16:38:21.000Z</time>
   </trkpt>
   <trkpt lat="52.50021" lon="13.423538">
    <ele>36.6</ele>
    <time>2024-08-28T16:38:22.000Z</time>
   </trkpt>
   <trkpt lat="52.500252" lon="13.423326">
    <ele>36.6</ele>
    <time>2024-08-28T16:38:26.000Z</time>
   </trkpt>
   <trkpt lat="52.500262" lon="13.423292">
    <ele>36.6</ele>
    <time>2024-08-28T16:38:28.000Z</time>
   </trkpt>
   <trkpt lat="52.500277" lon="13.42323">
    <ele>36.8</ele>
    <time>2024-08-28T16:38:45.000Z</time>
   </trkpt>
   <trkpt lat="52.500286" lon="13.423186">
    <ele>36.8</ele>
    <time>2024-08-28T16:38:46.000Z</time>
   </trkpt>
   <trkpt lat="52.500329" lon="13.423022">
    <ele>36.6</ele>
    <time>2024-08-28T16:38:49.000Z</time>
   </trkpt>
   <trkpt lat="52.500369" lon="13.422894">
    <ele>36.4</ele>
    <time>2024-08-28T16:38:51.000Z</time>
   </trkpt>
   <trkpt lat="52.500485" lon="13.422457">
    <ele>36.6</ele>
    <time>2024-08-28T16:38:57.000Z</time>
   </trkpt>
   <trkpt lat="52.500628" lon="13.422011">
    <ele>36.2</ele>
    <time>2024-08-28T16:39:03.000Z</time>
   </trkpt>
   <trkpt lat="52.500644" lon="13.421921">
    <ele>36.2</ele>
    <time>2024-08-28T16:39:04.000Z</time>
   </trkpt>
   <trkpt lat="52.500664" lon="13.421834">
    <ele>36.2</ele>
    <time>2024-08-28T16:39:05.000Z</time>
   </trkpt>
   <trkpt lat="52.500772" lon="13.421528">
    <ele>36.2</ele>
    <time>2024-08-28T16:39:09.000Z</time>
   </trkpt>
   <trkpt lat="52.500849" lon="13.421291">
    <ele>36.2</ele>
    <time>2024-08-28T16:39:12.000Z</time>
   </trkpt>
   <trkpt lat="52.500896" lon="13.421135">
    <ele>36</ele>
    <time>2024-08-28T16:39:14.000Z</time>
   </trkpt>
   <trkpt lat="52.50095" lon="13.420979">
    <ele>36</ele>
    <time>2024-08-28T16:39:16.000Z</time>
   </trkpt>
   <trkpt lat="52.501027" lon="13.420762">
    <ele>36</ele>
    <time>2024-08-28T16:39:19.000Z</time>
   </trkpt>
   <trkpt lat="52.501052" lon="13.420692">
    <ele>36</ele>
    <time>2024-08-28T16:39:20.000Z</time>
   </trkpt>
   <trkpt lat="52.501081" lon="13.420619">
    <ele>36</ele>
    <time>2024-08-28T16:39:21.000Z</time>
   </trkpt>
   <trkpt lat="52.501189" lon="13.420188">
    <ele>36</ele>
    <time>2024-08-28T16:39:26.000Z</time>
   </trkpt>
   <trkpt lat="52.501292" lon="13.419701">
    <ele>36</ele>
    <time>2024-08-28T16:39:32.000Z</time>
   </trkpt>
   <trkpt lat="52.501303" lon="13.419569">
    <ele>36</ele>
    <time>2024-08-28T16:39:36.000Z</time>
   </trkpt>
   <trkpt lat="52.501312" lon="13.419524">
    <ele>36</ele>
    <time>2024-08-28T16:39:56.000Z</time>
   </trkpt>
   <trkpt lat="52.501358" lon="13.419418">
    <ele>36</ele>
    <time>2024-08-28T16:39:59.000Z</time>
   </trkpt>
   <trkpt lat="52.501411" lon="13.419186">
    <ele>35.6</ele>
    <time>2024-08-28T16:40:03.000Z</time>
   </trkpt>
   <trkpt lat="52.501452" lon="13.419018">
    <ele>35.8</ele>
    <time>2024-08-28T16:40:06.000Z</time>
   </trkpt>
   <trkpt lat="52.50146" lon="13.418998">
    <ele>35.8</ele>
    <time>2024-08-28T16:40:07.000Z</time>
   </trkpt>
   <trkpt lat="52.501466" lon="13.418987">
    <ele>35.8</ele>
    <time>2024-08-28T16:40:08.000Z</time>
   </trkpt>
   <trkpt lat="52.501475" lon="13.418913">
    <ele>36</ele>
    <time>2024-08-28T16:40:16.000Z</time>
   </trkpt>
   <trkpt lat="52.501491" lon="13.41885">
    <ele>35.8</ele>
    <time>2024-08-28T16:40:18.000Z</time>
   </trkpt>
   <trkpt lat="52.50156" lon="13.418655">
    <ele>35.8</ele>
    <time>2024-08-28T16:40:22.000Z</time>
   </trkpt>
   <trkpt lat="52.501665" lon="13.418357">
    <ele>35.8</ele>
    <time>2024-08-28T16:40:28.000Z</time>
   </trkpt>
   <trkpt lat="52.50169" lon="13.418273">
    <ele>35.8</ele>
    <time>2024-08-28T16:40:30.000Z</time>
   </trkpt>
   <trkpt lat="52.501714" lon="13.418229">
    <ele>35.8</ele>
    <time>2024-08-28T16:40:32.000Z</time>
   </trkpt>
   <trkpt lat="52.501731" lon="13.418092">
    <ele>35.8</ele>
    <time>2024-08-28T16:40:36.000Z</time>
   </trkpt>
   <trkpt lat="52.501757" lon="13.418024">
    <ele>35.8</ele>
    <time>2024-08-28T16:40:38.000Z</time>
   </trkpt>
   <trkpt lat="52.501804" lon="13.417906">
    <ele>35.8</ele>
    <time>2024-08-28T16:40:41.000Z</time>
   </trkpt>
   <trkpt lat="52.50188" lon="13.41762">
    <ele>36</ele>
    <time>2024-08-28T16:40:45.000Z</time>
   </trkpt>
   <trkpt lat="52.501895" lon="13.417548">
    <ele>36</ele>
    <time>2024-08-28T16:40:46.000Z</time>
   </trkpt>
   <trkpt lat="52.501947" lon="13.417417">
    <ele>36</ele>
    <time>2024-08-28T16:40:48.000Z</time>
   </trkpt>
   <trkpt lat="52.502009" lon="13.417274">
    <ele>36</ele>
    <time>2024-08-28T16:40:50.000Z</time>
   </trkpt>
   <trkpt lat="52.502098" lon="13.416879">
    <ele>36.2</ele>
    <time>2024-08-28T16:40:56.000Z</time>
   </trkpt>
   <trkpt lat="52.502086" lon="13.416801">
    <ele>36.2</ele>
    <time>2024-08-28T16:40:58.000Z</time>
   </trkpt>
   <trkpt lat="52.502095" lon="13.416774">
    <ele>36.4</ele>
    <time>2024-08-28T16:41:20.000Z</time>
   </trkpt>
   <trkpt lat="52.502107" lon="13.416746">
    <ele>36.6</ele>
    <time>2024-08-28T16:41:21.000Z</time>
   </trkpt>
   <trkpt lat="52.502146" lon="13.416644">
    <ele>36.6</ele>
    <time>2024-08-28T16:41:24.000Z</time>
   </trkpt>
   <trkpt lat="52.502236" lon="13.416416">
    <ele>36.6</ele>
    <time>2024-08-28T16:41:28.000Z</time>
   </trkpt>
   <trkpt lat="52.502264" lon="13.416355">
    <ele>36.4</ele>
    <time>2024-08-28T16:41:29.000Z</time>
   </trkpt>
   <trkpt lat="52.502291" lon="13.416288">
    <ele>36.4</ele>
    <time>2024-08-28T16:41:30.000Z</time>
   </trkpt>
   <trkpt lat="52.502403" lon="13.415921">
    <ele>36.6</ele>
    <time>2024-08-28T16:41:35.000Z</time>
   </trkpt>
   <trkpt lat="52.502545" lon="13.415329">
    <ele>36.4</ele>
    <time>2024-08-28T16:41:43.000Z</time>
   </trkpt>
   <trkpt lat="52.502573" lon="13.415164">
    <ele>36.4</ele>
    <time>2024-08-28T16:41:47.000Z</time>
   </trkpt>
   <trkpt lat="52.502573" lon="13.415164">
    <ele>36.4</ele>
    <time>2024-08-28T16:41:49.000Z</time>
   </trkpt>
   <trkpt lat="52.50259" lon="13.415113">
    <ele>36.4</ele>
    <time>2024-08-28T16:42:10.000Z</time>
   </trkpt>
   <trkpt lat="52.502589" lon="13.414895">
    <ele>36.4</ele>
    <time>2024-08-28T16:42:14.000Z</time>
   </trkpt>
   <trkpt lat="52.502618" lon="13.414774">
    <ele>36.6</ele>
    <time>2024-08-28T16:42:16.000Z</time>
   </trkpt>
   <trkpt lat="52.502701" lon="13.414516">
    <ele>36.6</ele>
    <time>2024-08-28T16:42:20.000Z</time>
   </trkpt>
   <trkpt lat="52.502786" lon="13.414239">
    <ele>36.6</ele>
    <time>2024-08-28T16:42:24.000Z</time>
   </trkpt>
   <trkpt lat="52.50285" lon="13.414107">
    <ele>36.6</ele>
    <time>2024-08-28T16:42:26.000Z</time>
   </trkpt>
   <trkpt lat="52.502875" lon="13.414043">
    <ele>36.4</ele>
    <time>2024-08-28T16:42:27.000Z</time>
   </trkpt>
   <trkpt lat="52.503031" lon="13.413598">
    <ele>36.4</ele>
    <time>2024-08-28T16:42:33.000Z</time>
   </trkpt>
   <trkpt lat="52.503055" lon="13.413524">
    <ele>36.4</ele>
    <time>2024-08-28T16:42:34.000Z</time>
   </trkpt>
   <trkpt lat="52.503163" lon="13.413229">
    <ele>36.4</ele>
    <time>2024-08-28T16:42:38.000Z</time>
   </trkpt>
   <trkpt lat="52.503268" lon="13.412734">
    <ele>36.2</ele>
    <time>2024-08-28T16:42:44.000Z</time>
   </trkpt>
   <trkpt lat="52.503281" lon="13.41265">
    <ele>36.2</ele>
    <time>2024-08-28T16:42:45.000Z</time>
   </trkpt>
   <trkpt lat="52.503339" lon="13.41237">
    <ele>36</ele>
    <time>2024-08-28T16:42:49.000Z</time>
   </trkpt>
   <trkpt lat="52.503346" lon="13.412306">
    <ele>36</ele>
    <time>2024-08-28T16:42:50.000Z</time>
   </trkpt>
   <trkpt lat="52.503407" lon="13.412053">
    <ele>36.2</ele>
    <time>2024-08-28T16:42:54.000Z</time>
   </trkpt>
   <trkpt lat="52.503425" lon="13.411979">
    <ele>36.2</ele>
    <time>2024-08-28T16:42:55.000Z</time>
   </trkpt>
   <trkpt lat="52.503459" lon="13.41184">
    <ele>36.2</ele>
    <time>2024-08-28T16:42:57.000Z</time>
   </trkpt>
   <trkpt lat="52.503497" lon="13.4117">
    <ele>36.4</ele>
    <time>2024-08-28T16:42:59.000Z</time>
   </trkpt>
   <trkpt lat="52.50351" lon="13.411623">
    <ele>36.4</ele>
    <time>2024-08-28T16:43:00.000Z</time>
   </trkpt>
   <trkpt lat="52.50354" lon="13.411465">
    <ele>36.4</ele>
    <time>2024-08-28T16:43:02.000Z</time>
   </trkpt>
   <trkpt lat="52.503581" lon="13.411338">
    <ele>36.4</ele>
    <time>2024-08-28T16:43:04.000Z</time>
   </trkpt>
   <trkpt lat="52.503642" lon="13.411251">
    <ele>36.4</ele>
    <time>2024-08-28T16:43:06.000Z</time>
   </trkpt>
   <trkpt lat="52.503682" lon="13.411231">
    <ele>36.4</ele>
    <time>2024-08-28T16:43:07.000Z</time>
   </trkpt>
   <trkpt lat="52.503722" lon="13.411207">
    <ele>36.4</ele>
    <time>2024-08-28T16:43:08.000Z</time>
   </trkpt>
   <trkpt lat="52.503833" lon="13.411105">
    <ele>36.4</ele>
    <time>2024-08-28T16:43:11.000Z</time>
   </trkpt>
   <trkpt lat="52.503884" lon="13.410989">
    <ele>36.4</ele>
    <time>2024-08-28T16:43:13.000Z</time>
   </trkpt>
   <trkpt lat="52.503899" lon="13.410917">
    <ele>36.4</ele>
    <time>2024-08-28T16:43:14.000Z</time>
   </trkpt>
   <trkpt lat="52.503905" lon="13.41084">
    <ele>36.4</ele>
    <time>2024-08-28T16:43:15.000Z</time>
   </trkpt>
   <trkpt lat="52.503879" lon="13.410605">
    <ele>36.2</ele>
    <time>2024-08-28T16:43:18.000Z</time>
   </trkpt>
   <trkpt lat="52.503862" lon="13.410455">
    <ele>36.2</ele>
    <time>2024-08-28T16:43:20.000Z</time>
   </trkpt>
   <trkpt lat="52.503889" lon="13.410309">
    <ele>36.2</ele>
    <time>2024-08-28T16:43:22.000Z</time>
   </trkpt>
   <trkpt lat="52.504042" lon="13.409735">
    <ele>36.2</ele>
    <time>2024-08-28T16:43:30.000Z</time>
   </trkpt>
   <trkpt lat="52.504144" lon="13.409395">
    <ele>36.2</ele>
    <time>2024-08-28T16:43:35.000Z</time>
   </trkpt>
   <trkpt lat="52.504194" lon="13.409282">
    <ele>36.2</ele>
    <time>2024-08-28T16:43:37.000Z</time>
   </trkpt>
   <trkpt lat="52.504282" lon="13.408938">
    <ele>36.4</ele>
    <time>2024-08-28T16:43:42.000Z</time>
   </trkpt>
   <trkpt lat="52.504293" lon="13.408864">
    <ele>36.4</ele>
    <time>2024-08-28T16:43:43.000Z</time>
   </trkpt>
   <trkpt lat="52.504305" lon="13.408794">
    <ele>36.4</ele>
    <time>2024-08-28T16:43:44.000Z</time>
   </trkpt>
   <trkpt lat="52.504345" lon="13.408682">
    <ele>36.4</ele>
    <time>2024-08-28T16:43:46.000Z</time>
   </trkpt>
   <trkpt lat="52.504366" lon="13.408623">
    <ele>36.4</ele>
    <time>2024-08-28T16:43:47.000Z</time>
   </trkpt>
   <trkpt lat="52.504384" lon="13.408561">
    <ele>36.4</ele>
    <time>2024-08-28T16:43:48.000Z</time>
   </trkpt>
   <trkpt lat="52.504465" lon="13.408265">
    <ele>36.4</ele>
    <time>2024-08-28T16:43:53.000Z</time>
   </trkpt>
   <trkpt lat="52.504499" lon="13.40806">
    <ele>36.4</ele>
    <time>2024-08-28T16:43:57.000Z</time>
   </trkpt>
   <trkpt lat="52.504491" lon="13.408038">
    <ele>36.6</ele>
    <time>2024-08-28T16:43:58.000Z</time>
   </trkpt>
   <trkpt lat="52.504462" lon="13.408025">
    <ele>36.4</ele>
    <time>2024-08-28T16:44:01.000Z</time>
   </trkpt>
   <trkpt lat="52.504433" lon="13.407976">
    <ele>36.4</ele>
    <time>2024-08-28T16:44:07.000Z</time>
   </trkpt>
   <trkpt lat="52.504308" lon="13.407861">
    <ele>36.4</ele>
    <time>2024-08-28T16:44:12.000Z</time>
   </trkpt>
   <trkpt lat="52.504067" lon="13.40766">
    <ele>36.4</ele>
    <time>2024-08-28T16:44:19.000Z</time>
   </trkpt>
   <trkpt lat="52.503777" lon="13.407415">
    <ele>36.4</ele>
    <time>2024-08-28T16:44:27.000Z</time>
   </trkpt>
   <trkpt lat="52.503701" lon="13.407357">
    <ele>36.6</ele>
    <time>2024-08-28T16:44:29.000Z</time>
   </trkpt>
   <trkpt lat="52.503563" lon="13.407269">
    <ele>36.8</ele>
    <time>2024-08-28T16:44:33.000Z</time>
   </trkpt>
   <trkpt lat="52.503488" lon="13.4073">
    <ele>36.8</ele>
    <time>2024-08-28T16:44:36.000Z</time>
   </trkpt>
   <trkpt lat="52.503488" lon="13.4073">
    <ele>36.8</ele>
    <time>2024-08-28T16:44:50.000Z</time>
   </trkpt>
   <trkpt lat="52.50323" lon="13.408269">
    <ele>36.8</ele>
    <time>2024-08-28T16:44:52.000Z</time>
   </trkpt>
   <trkpt lat="52.503173" lon="13.408253">
    <ele>37</ele>
    <time>2024-08-28T16:44:54.000Z</time>
   </trkpt>
   <trkpt lat="52.503177" lon="13.408221">
    <ele>37</ele>
    <time>2024-08-28T16:44:56.000Z</time>
   </trkpt>
   <trkpt lat="52.503213" lon="13.408276">
    <ele>37.4</ele>
    <time>2024-08-28T16:44:59.000Z</time>
   </trkpt>
   <trkpt lat="52.503227" lon="13.408293">
    <ele>37.4</ele>
    <time>2024-08-28T16:45:01.000Z</time>
   </trkpt>
  </trkseg>
 </trk>
</gpx>
