<?xml version="1.0" encoding="UTF-8"?>
<gpx creator="StravaGPX" version="1.1" xmlns="http://www.topografix.com/GPX/1/1">
 <metadata>
  <time>2026-07-31T16:36:43Z</time>
 </metadata>
 <trk>
  <name>Evening Ride</name>
  <type>1</type>
  <trkseg>
   <trkpt lat="52.475791" lon="13.475525">
    <ele>34.8</ele>
    <time>2026-07-31T16:36:43.000Z</time>
   </trkpt>
   <trkpt lat="52.475665" lon="13.475249">
    <ele>36.4</ele>
    <time>2026-07-31T16:36:49.000Z</time>
   </trkpt>
   <trkpt lat="52.475624" lon="13.475154">
    <ele>36.4</ele>
    <time>2026-07-31T16:36:51.000Z</time>
   </trkpt>
   <trkpt lat="52.475484" lon="13.474863">
    <ele>36.2</ele>
    <time>2026-07-31T16:36:57.000Z</time>
   </trkpt>
   <trkpt lat="52.475282" lon="13.474425">
    <ele>36.2</ele>
    <time>2026-07-31T16:37:06.000Z</time>
   </trkpt>
   <trkpt lat="52.475236" lon="13.474336">
    <ele>36.4</ele>
    <time>2026-07-31T16:37:08.000Z</time>
   </trkpt>
   <trkpt lat="52.475081" lon="13.47405">
    <ele>36.4</ele>
    <time>2026-07-31T16:37:15.000Z</time>
   </trkpt>
   <trkpt lat="52.475008" lon="13.473946">
    <ele>36.6</ele>
    <time>2026-07-31T16:37:20.000Z</time>
   </trkpt>
   <trkpt lat="52.475005" lon="13.473941">
    <ele>36.6</ele>
    <time>2026-07-31T16:37:21.000Z</time>
   </trkpt>
   <trkpt lat="52.475003" lon="13.473943">
    <ele>36.6</ele>
    <time>2026-07-31T16:37:22.000Z</time>
   </trkpt>
   <trkpt lat="52.475021" lon="13.473902">
    <ele>36.6</ele>
    <time>2026-07-31T16:37:26.000Z</time>
   </trkpt>
   <trkpt lat="52.475029" lon="13.473865">
    <ele>36.6</ele>
    <time>2026-07-31T16:37:27.000Z</time>
   </trkpt>
   <trkpt lat="52.475063" lon="13.473708">
    <ele>36.6</ele>
    <time>2026-07-31T16:37:30.000Z</time>
   </trkpt>
   <trkpt lat="52.475085" lon="13.473657">
    <ele>36.6</ele>
    <time>2026-07-31T16:37:31.000Z</time>
   </trkpt>
   <trkpt lat="52.475176" lon="13.473504">
    <ele>36.4</ele>
    <time>2026-07-31T16:37:48.000Z</time>
   </trkpt>
   <trkpt lat="52.475289" lon="13.473345">
    <ele>36.4</ele>
    <time>2026-07-31T16:37:51.000Z</time>
   </trkpt>
   <trkpt lat="52.475353" lon="13.473247">
    <ele>36.4</ele>
    <time>2026-07-31T16:37:53.000Z</time>
   </trkpt>
   <trkpt lat="52.475429" lon="13.473131">
    <ele>36.4</ele>
    <time>2026-07-31T16:37:55.000Z</time>
   </trkpt>
   <trkpt lat="52.475538" lon="13.472967">
    <ele>36.6</ele>
    <time>2026-07-31T16:37:58.000Z</time>
   </trkpt>
   <trkpt lat="52.475905" lon="13.472439">
    <ele>36.6</ele>
    <time>2026-07-31T16:38:07.000Z</time>
   </trkpt>
   <trkpt lat="52.476256" lon="13.471935">
    <ele>36.8</ele>
    <time>2026-07-31T16:38:15.000Z</time>
   </trkpt>
   <trkpt lat="52.476657" lon="13.471382">
    <ele>36.6</ele>
    <time>2026-07-31T16:38:24.000Z</time>
   </trkpt>
   <trkpt lat="52.477088" lon="13.470774">
    <ele>36.6</ele>
    <time>2026-07-31T16:38:34.000Z</time>
   </trkpt>
   <trkpt lat="52.477528" lon="13.470198">
    <ele>37.2</ele>
    <time>2026-07-31T16:38:44.000Z</time>
   </trkpt>
   <trkpt lat="52.477571" lon="13.47014">
    <ele>37.2</ele>
    <time>2026-07-31T16:38:45.000Z</time>
   </trkpt>
   <trkpt lat="52.477795" lon="13.469846">
    <ele>37.4</ele>
    <time>2026-07-31T16:38:50.000Z</time>
   </trkpt>
   <trkpt lat="52.477884" lon="13.469722">
    <ele>37.4</ele>
    <time>2026-07-31T16:38:52.000Z</time>
   </trkpt>
   <trkpt lat="52.47814" lon="13.469366">
    <ele>37.4</ele>
    <time>2026-07-31T16:38:58.000Z</time>
   </trkpt>
   <trkpt lat="52.478274" lon="13.469194">
    <ele>37.4</ele>
    <time>2026-07-31T16:39:01.000Z</time>
   </trkpt>
   <trkpt lat="52.478707" lon="13.468631">
    <ele>37.6</ele>
    <time>2026-07-31T16:39:11.000Z</time>
   </trkpt>
   <trkpt lat="52.478883" lon="13.468397">
    <ele>37.4</ele>
    <time>2026-07-31T16:39:15.000Z</time>
   </trkpt>
   <trkpt lat="52.47928" lon="13.467829">
    <ele>37.4</ele>
    <time>2026-07-31T16:39:24.000Z</time>
   </trkpt>
   <trkpt lat="52.479579" lon="13.467402">
    <ele>37.6</ele>
    <time>2026-07-31T16:39:31.000Z</time>
   </trkpt>
   <trkpt lat="52.480015" lon="13.466767">
    <ele>37.8</ele>
    <time>2026-07-31T16:39:41.000Z</time>
   </trkpt>
   <trkpt lat="52.480147" lon="13.466578">
    <ele>37.6</ele>
    <time>2026-07-31T16:39:44.000Z</time>
   </trkpt>
   <trkpt lat="52.480567" lon="13.465991">
    <ele>37.6</ele>
    <time>2026-07-31T16:39:53.000Z</time>
   </trkpt>
   <trkpt lat="52.480613" lon="13.465927">
    <ele>37.6</ele>
    <time>2026-07-31T16:39:54.000Z</time>
   </trkpt>
   <trkpt lat="52.480654" lon="13.465863">
    <ele>37.6</ele>
    <time>2026-07-31T16:39:55.000Z</time>
   </trkpt>
   <trkpt lat="52.480777" lon="13.465684">
    <ele>37.6</ele>
    <time>2026-07-31T16:39:58.000Z</time>
   </trkpt>
   <trkpt lat="52.48105" lon="13.465306">
    <ele>37.6</ele>
    <time>2026-07-31T16:40:04.000Z</time>
   </trkpt>
   <trkpt lat="52.481325" lon="13.464903">
    <ele>38</ele>
    <time>2026-07-31T16:40:10.000Z</time>
   </trkpt>
   <trkpt lat="52.481419" lon="13.464772">
    <ele>38.2</ele>
    <time>2026-07-31T16:40:12.000Z</time>
   </trkpt>
   <trkpt lat="52.481693" lon="13.464394">
    <ele>38.4</ele>
    <time>2026-07-31T16:40:18.000Z</time>
   </trkpt>
   <trkpt lat="52.481744" lon="13.46433">
    <ele>38.4</ele>
    <time>2026-07-31T16:40:19.000Z</time>
   </trkpt>
   <trkpt lat="52.481993" lon="13.463971">
    <ele>38.6</ele>
    <time>2026-07-31T16:40:24.000Z</time>
   </trkpt>
   <trkpt lat="52.482367" lon="13.463448">
    <ele>38.8</ele>
    <time>2026-07-31T16:40:32.000Z</time>
   </trkpt>
   <trkpt lat="52.482704" lon="13.462976">
    <ele>38.6</ele>
    <time>2026-07-31T16:40:39.000Z</time>
   </trkpt>
   <trkpt lat="52.483085" lon="13.462422">
    <ele>38.4</ele>
    <time>2026-07-31T16:40:47.000Z</time>
   </trkpt>
   <trkpt lat="52.483468" lon="13.461886">
    <ele>38.4</ele>
    <time>2026-07-31T16:40:55.000Z</time>
   </trkpt>
   <trkpt lat="52.483902" lon="13.46127">
    <ele>38.4</ele>
    <time>2026-07-31T16:41:04.000Z</time>
   </trkpt>
   <trkpt lat="52.483999" lon="13.461132">
    <ele>38.4</ele>
    <time>2026-07-31T16:41:06.000Z</time>
   </trkpt>
   <trkpt lat="52.484482" lon="13.460447">
    <ele>38.4</ele>
    <time>2026-07-31T16:41:16.000Z</time>
   </trkpt>
   <trkpt lat="52.484842" lon="13.459911">
    <ele>38.2</ele>
    <time>2026-07-31T16:41:24.000Z</time>
   </trkpt>
   <trkpt lat="52.48519" lon="13.459349">
    <ele>38.2</ele>
    <time>2026-07-31T16:41:32.000Z</time>
   </trkpt>
   <trkpt lat="52.485238" lon="13.459279">
    <ele>38.2</ele>
    <time>2026-07-31T16:41:33.000Z</time>
   </trkpt>
   <trkpt lat="52.485678" lon="13.458643">
    <ele>38</ele>
    <time>2026-07-31T16:41:42.000Z</time>
   </trkpt>
   <trkpt lat="52.485731" lon="13.458582">
    <ele>38</ele>
    <time>2026-07-31T16:41:43.000Z</time>
   </trkpt>
   <trkpt lat="52.486137" lon="13.458042">
    <ele>38</ele>
    <time>2026-07-31T16:41:51.000Z</time>
   </trkpt>
   <trkpt lat="52.486573" lon="13.457414">
    <ele>38</ele>
    <time>2026-07-31T16:42:00.000Z</time>
   </trkpt>
   <trkpt lat="52.486668" lon="13.457277">
    <ele>38.2</ele>
    <time>2026-07-31T16:42:02.000Z</time>
   </trkpt>
   <trkpt lat="52.487104" lon="13.456667">
    <ele>38.2</ele>
    <time>2026-07-31T16:42:11.000Z</time>
   </trkpt>
   <trkpt lat="52.487249" lon="13.456458">
    <ele>38.4</ele>
    <time>2026-07-31T16:42:14.000Z</time>
   </trkpt>
   <trkpt lat="52.487591" lon="13.455984">
    <ele>38.4</ele>
    <time>2026-07-31T16:42:21.000Z</time>
   </trkpt>
   <trkpt lat="52.487964" lon="13.455448">
    <ele>38.6</ele>
    <time>2026-07-31T16:42:29.000Z</time>
   </trkpt>
   <trkpt lat="52.488423" lon="13.454808">
    <ele>38.6</ele>
    <time>2026-07-31T16:42:39.000Z</time>
   </trkpt>
   <trkpt lat="52.488459" lon="13.454761">
    <ele>38.6</ele>
    <time>2026-07-31T16:42:40.000Z</time>
   </trkpt>
   <trkpt lat="52.48852" lon="13.454685">
    <ele>38.8</ele>
    <time>2026-07-31T16:42:42.000Z</time>
   </trkpt>
   <trkpt lat="52.488581" lon="13.454595">
    <ele>39</ele>
    <time>2026-07-31T16:42:44.000Z</time>
   </trkpt>
   <trkpt lat="52.488645" lon="13.45451">
    <ele>39</ele>
    <time>2026-07-31T16:42:46.000Z</time>
   </trkpt>
   <trkpt lat="52.488762" lon="13.454341">
    <ele>39</ele>
    <time>2026-07-31T16:42:50.000Z</time>
   </trkpt>
   <trkpt lat="52.488856" lon="13.454203">
    <ele>39</ele>
    <time>2026-07-31T16:42:55.000Z</time>
   </trkpt>
   <trkpt lat="52.488856" lon="13.454203">
    <ele>39</ele>
    <time>2026-07-31T16:42:56.000Z</time>
   </trkpt>
   <trkpt lat="52.488889" lon="13.454167">
    <ele>39.2</ele>
    <time>2026-07-31T16:43:15.000Z</time>
   </trkpt>
   <trkpt lat="52.488912" lon="13.454141">
    <ele>39.2</ele>
    <time>2026-07-31T16:43:16.000Z</time>
   </trkpt>
   <trkpt lat="52.48905" lon="13.453918">
    <ele>39.2</ele>
    <time>2026-07-31T16:43:21.000Z</time>
   </trkpt>
   <trkpt lat="52.489112" lon="13.453812">
    <ele>39.2</ele>
    <time>2026-07-31T16:43:23.000Z</time>
   </trkpt>
   <trkpt lat="52.489176" lon="13.453714">
    <ele>39.2</ele>
    <time>2026-07-31T16:43:25.000Z</time>
   </trkpt>
   <trkpt lat="52.489247" lon="13.453592">
    <ele>39</ele>
    <time>2026-07-31T16:43:27.000Z</time>
   </trkpt>
   <trkpt lat="52.489323" lon="13.453481">
    <ele>39</ele>
    <time>2026-07-31T16:43:29.000Z</time>
   </trkpt>
   <trkpt lat="52.489359" lon="13.453432">
    <ele>39</ele>
    <time>2026-07-31T16:43:30.000Z</time>
   </trkpt>
   <trkpt lat="52.489583" lon="13.453127">
    <ele>39</ele>
    <time>2026-07-31T16:43:35.000Z</time>
   </trkpt>
   <trkpt lat="52.489638" lon="13.453063">
    <ele>39</ele>
    <time>2026-07-31T16:43:36.000Z</time>
   </trkpt>
   <trkpt lat="52.489687" lon="13.453004">
    <ele>39</ele>
    <time>2026-07-31T16:43:37.000Z</time>
   </trkpt>
   <trkpt lat="52.48988" lon="13.452715">
    <ele>39</ele>
    <time>2026-07-31T16:43:41.000Z</time>
   </trkpt>
   <trkpt lat="52.489929" lon="13.452642">
    <ele>39</ele>
    <time>2026-07-31T16:43:42.000Z</time>
   </trkpt>
   <trkpt lat="52.490077" lon="13.45242">
    <ele>39</ele>
    <time>2026-07-31T16:43:45.000Z</time>
   </trkpt>
   <trkpt lat="52.490135" lon="13.452353">
    <ele>39</ele>
    <time>2026-07-31T16:43:46.000Z</time>
   </trkpt>
   <trkpt lat="52.490431" lon="13.451925">
    <ele>39.2</ele>
    <time>2026-07-31T16:43:52.000Z</time>
   </trkpt>
   <trkpt lat="52.490481" lon="13.451858">
    <ele>39.2</ele>
    <time>2026-07-31T16:43:53.000Z</time>
   </trkpt>
   <trkpt lat="52.490795" lon="13.451451">
    <ele>39.2</ele>
    <time>2026-07-31T16:43:59.000Z</time>
   </trkpt>
   <trkpt lat="52.490991" lon="13.451171">
    <ele>39.2</ele>
    <time>2026-07-31T16:44:03.000Z</time>
   </trkpt>
   <trkpt lat="52.491077" lon="13.451036">
    <ele>39.2</ele>
    <time>2026-07-31T16:44:05.000Z</time>
   </trkpt>
   <trkpt lat="52.491207" lon="13.450858">
    <ele>39.2</ele>
    <time>2026-07-31T16:44:08.000Z</time>
   </trkpt>
   <trkpt lat="52.491332" lon="13.450694">
    <ele>39.4</ele>
    <time>2026-07-31T16:44:11.000Z</time>
   </trkpt>
   <trkpt lat="52.491446" lon="13.450553">
    <ele>39.4</ele>
    <time>2026-07-31T16:44:14.000Z</time>
   </trkpt>
   <trkpt lat="52.49152" lon="13.450553">
    <ele>39.4</ele>
    <time>2026-07-31T16:44:16.000Z</time>
   </trkpt>
   <trkpt lat="52.491636" lon="13.450727">
    <ele>39.4</ele>
    <time>2026-07-31T16:44:19.000Z</time>
   </trkpt>
   <trkpt lat="52.491722" lon="13.450883">
    <ele>39.2</ele>
    <time>2026-07-31T16:44:22.000Z</time>
   </trkpt>
   <trkpt lat="52.491784" lon="13.450949">
    <ele>39.2</ele>
    <time>2026-07-31T16:44:24.000Z</time>
   </trkpt>
   <trkpt lat="52.49187" lon="13.450919">
    <ele>39.2</ele>
    <time>2026-07-31T16:44:26.000Z</time>
   </trkpt>
   <trkpt lat="52.49191" lon="13.45087">
    <ele>39.2</ele>
    <time>2026-07-31T16:44:27.000Z</time>
   </trkpt>
   <trkpt lat="52.491948" lon="13.450808">
    <ele>39.2</ele>
    <time>2026-07-31T16:44:28.000Z</time>
   </trkpt>
   <trkpt lat="52.492108" lon="13.450501">
    <ele>39.4</ele>
    <time>2026-07-31T16:44:32.000Z</time>
   </trkpt>
   <trkpt lat="52.492347" lon="13.450038">
    <ele>39.6</ele>
    <time>2026-07-31T16:44:38.000Z</time>
   </trkpt>
   <trkpt lat="52.492692" lon="13.449229">
    <ele>39.4</ele>
    <time>2026-07-31T16:44:47.000Z</time>
   </trkpt>
   <trkpt lat="52.492799" lon="13.448957">
    <ele>39.2</ele>
    <time>2026-07-31T16:44:50.000Z</time>
   </trkpt>
   <trkpt lat="52.492935" lon="13.448608">
    <ele>39.2</ele>
    <time>2026-07-31T16:44:54.000Z</time>
   </trkpt>
   <trkpt lat="52.493191" lon="13.448013">
    <ele>39.2</ele>
    <time>2026-07-31T16:45:01.000Z</time>
   </trkpt>
   <trkpt lat="52.493372" lon="13.447713">
    <ele>39.2</ele>
    <time>2026-07-31T16:45:05.000Z</time>
   </trkpt>
   <trkpt lat="52.493468" lon="13.447579">
    <ele>39.2</ele>
    <time>2026-07-31T16:45:07.000Z</time>
   </trkpt>
   <trkpt lat="52.493766" lon="13.447182">
    <ele>39.2</ele>
    <time>2026-07-31T16:45:13.000Z</time>
   </trkpt>
   <trkpt lat="52.493906" lon="13.446983">
    <ele>39.2</ele>
    <time>2026-07-31T16:45:16.000Z</time>
   </trkpt>
   <trkpt lat="52.494045" lon="13.446789">
    <ele>39.2</ele>
    <time>2026-07-31T16:45:19.000Z</time>
   </trkpt>
   <trkpt lat="52.494139" lon="13.446678">
    <ele>39.2</ele>
    <time>2026-07-31T16:45:21.000Z</time>
   </trkpt>
   <trkpt lat="52.494181" lon="13.446628">
    <ele>39.2</ele>
    <time>2026-07-31T16:45:22.000Z</time>
   </trkpt>
   <trkpt lat="52.494219" lon="13.446569">
    <ele>39.2</ele>
    <time>2026-07-31T16:45:23.000Z</time>
   </trkpt>
   <trkpt lat="52.494293" lon="13.446457">
    <ele>39.2</ele>
    <time>2026-07-31T16:45:25.000Z</time>
   </trkpt>
   <trkpt lat="52.494325" lon="13.446419">
    <ele>39.2</ele>
    <time>2026-07-31T16:45:26.000Z</time>
   </trkpt>
   <trkpt lat="52.494397" lon="13.44641">
    <ele>39.2</ele>
    <time>2026-07-31T16:45:28.000Z</time>
   </trkpt>
   <trkpt lat="52.494427" lon="13.446441">
    <ele>39.2</ele>
    <time>2026-07-31T16:45:29.000Z</time>
   </trkpt>
   <trkpt lat="52.494635" lon="13.446726">
    <ele>40</ele>
    <time>2026-07-31T16:45:37.000Z</time>
   </trkpt>
   <trkpt lat="52.494852" lon="13.446966">
    <ele>40.2</ele>
    <time>2026-07-31T16:45:44.000Z</time>
   </trkpt>
   <trkpt lat="52.495039" lon="13.44706">
    <ele>40.4</ele>
    <time>2026-07-31T16:45:48.000Z</time>
   </trkpt>
   <trkpt lat="52.495045" lon="13.447022">
    <ele>40.4</ele>
    <time>2026-07-31T16:45:49.000Z</time>
   </trkpt>
   <trkpt lat="52.495062" lon="13.447008">
    <ele>40.4</ele>
    <time>2026-07-31T16:45:50.000Z</time>
   </trkpt>
   <trkpt lat="52.495056" lon="13.446937">
    <ele>40.4</ele>
    <time>2026-07-31T16:45:52.000Z</time>
   </trkpt>
   <trkpt lat="52.49505" lon="13.446832">
    <ele>40.4</ele>
    <time>2026-07-31T16:45:54.000Z</time>
   </trkpt>
   <trkpt lat="52.495095" lon="13.446682">
    <ele>40.2</ele>
    <time>2026-07-31T16:45:56.000Z</time>
   </trkpt>
   <trkpt lat="52.495115" lon="13.446604">
    <ele>40.2</ele>
    <time>2026-07-31T16:45:57.000Z</time>
   </trkpt>
   <trkpt lat="52.495185" lon="13.446433">
    <ele>39.8</ele>
    <time>2026-07-31T16:46:00.000Z</time>
   </trkpt>
   <trkpt lat="52.495348" lon="13.44613">
    <ele>39.6</ele>
    <time>2026-07-31T16:46:07.000Z</time>
   </trkpt>
   <trkpt lat="52.495464" lon="13.4459">
    <ele>41.2</ele>
    <time>2026-07-31T16:46:13.000Z</time>
   </trkpt>
   <trkpt lat="52.495482" lon="13.445858">
    <ele>41.2</ele>
    <time>2026-07-31T16:46:14.000Z</time>
   </trkpt>
   <trkpt lat="52.495495" lon="13.445817">
    <ele>41.4</ele>
    <time>2026-07-31T16:46:15.000Z</time>
   </trkpt>
   <trkpt lat="52.495464" lon="13.445699">
    <ele>41.4</ele>
    <time>2026-07-31T16:46:18.000Z</time>
   </trkpt>
   <trkpt lat="52.495292" lon="13.445469">
    <ele>41</ele>
    <time>2026-07-31T16:46:23.000Z</time>
   </trkpt>
   <trkpt lat="52.495176" lon="13.445309">
    <ele>40</ele>
    <time>2026-07-31T16:46:26.000Z</time>
   </trkpt>
   <trkpt lat="52.495144" lon="13.445203">
    <ele>39.4</ele>
    <time>2026-07-31T16:46:28.000Z</time>
   </trkpt>
   <trkpt lat="52.495104" lon="13.445016">
    <ele>39.2</ele>
    <time>2026-07-31T16:46:32.000Z</time>
   </trkpt>
   <trkpt lat="52.495054" lon="13.444926">
    <ele>39.2</ele>
    <time>2026-07-31T16:46:34.000Z</time>
   </trkpt>
   <trkpt lat="52.494948" lon="13.444792">
    <ele>39.2</ele>
    <time>2026-07-31T16:46:37.000Z</time>
   </trkpt>
   <trkpt lat="52.494734" lon="13.444511">
    <ele>39</ele>
    <time>2026-07-31T16:46:42.000Z</time>
   </trkpt>
   <trkpt lat="52.494691" lon="13.444448">
    <ele>39</ele>
    <time>2026-07-31T16:46:43.000Z</time>
   </trkpt>
   <trkpt lat="52.494439" lon="13.444138">
    <ele>38.6</ele>
    <time>2026-07-31T16:46:48.000Z</time>
   </trkpt>
   <trkpt lat="52.494298" lon="13.443928">
    <ele>38.4</ele>
    <time>2026-07-31T16:46:51.000Z</time>
   </trkpt>
   <trkpt lat="52.494224" lon="13.443771">
    <ele>38.2</ele>
    <time>2026-07-31T16:46:53.000Z</time>
   </trkpt>
   <trkpt lat="52.494082" lon="13.44358">
    <ele>38</ele>
    <time>2026-07-31T16:46:56.000Z</time>
   </trkpt>
   <trkpt lat="52.493985" lon="13.443468">
    <ele>38</ele>
    <time>2026-07-31T16:46:58.000Z</time>
   </trkpt>
   <trkpt lat="52.493849" lon="13.443279">
    <ele>38.4</ele>
    <time>2026-07-31T16:47:01.000Z</time>
   </trkpt>
   <trkpt lat="52.493787" lon="13.443114">
    <ele>38.8</ele>
    <time>2026-07-31T16:47:03.000Z</time>
   </trkpt>
   <trkpt lat="52.493766" lon="13.443021">
    <ele>38.8</ele>
    <time>2026-07-31T16:47:04.000Z</time>
   </trkpt>
   <trkpt lat="52.493754" lon="13.442823">
    <ele>38.8</ele>
    <time>2026-07-31T16:47:06.000Z</time>
   </trkpt>
   <trkpt lat="52.493778" lon="13.442625">
    <ele>39</ele>
    <time>2026-07-31T16:47:08.000Z</time>
   </trkpt>
   <trkpt lat="52.493824" lon="13.442443">
    <ele>39.2</ele>
    <time>2026-07-31T16:47:10.000Z</time>
   </trkpt>
   <trkpt lat="52.494008" lon="13.441936">
    <ele>39.4</ele>
    <time>2026-07-31T16:47:16.000Z</time>
   </trkpt>
   <trkpt lat="52.494277" lon="13.441149">
    <ele>40</ele>
    <time>2026-07-31T16:47:25.000Z</time>
   </trkpt>
   <trkpt lat="52.494418" lon="13.4407">
    <ele>40</ele>
    <time>2026-07-31T16:47:30.000Z</time>
   </trkpt>
   <trkpt lat="52.494453" lon="13.440617">
    <ele>40</ele>
    <time>2026-07-31T16:47:31.000Z</time>
   </trkpt>
   <trkpt lat="52.494524" lon="13.44045">
    <ele>40</ele>
    <time>2026-07-31T16:47:33.000Z</time>
   </trkpt>
   <trkpt lat="52.494582" lon="13.440266">
    <ele>40</ele>
    <time>2026-07-31T16:47:35.000Z</time>
   </trkpt>
   <trkpt lat="52.494642" lon="13.440077">
    <ele>40</ele>
    <time>2026-07-31T16:47:37.000Z</time>
   </trkpt>
   <trkpt lat="52.494869" lon="13.439456">
    <ele>40</ele>
    <time>2026-07-31T16:47:44.000Z</time>
   </trkpt>
   <trkpt lat="52.494961" lon="13.439193">
    <ele>40</ele>
    <time>2026-07-31T16:47:47.000Z</time>
   </trkpt>
   <trkpt lat="52.495114" lon="13.438759">
    <ele>40.2</ele>
    <time>2026-07-31T16:47:52.000Z</time>
   </trkpt>
   <trkpt lat="52.495353" lon="13.438033">
    <ele>40.2</ele>
    <time>2026-07-31T16:48:00.000Z</time>
   </trkpt>
   <trkpt lat="52.495566" lon="13.437383">
    <ele>40</ele>
    <time>2026-07-31T16:48:07.000Z</time>
   </trkpt>
   <trkpt lat="52.495782" lon="13.436737">
    <ele>40.2</ele>
    <time>2026-07-31T16:48:14.000Z</time>
   </trkpt>
   <trkpt lat="52.496007" lon="13.4361">
    <ele>40</ele>
    <time>2026-07-31T16:48:21.000Z</time>
   </trkpt>
   <trkpt lat="52.496281" lon="13.435286">
    <ele>39.8</ele>
    <time>2026-07-31T16:48:30.000Z</time>
   </trkpt>
   <trkpt lat="52.496405" lon="13.434935">
    <ele>40</ele>
    <time>2026-07-31T16:48:34.000Z</time>
   </trkpt>
   <trkpt lat="52.496458" lon="13.434752">
    <ele>40</ele>
    <time>2026-07-31T16:48:36.000Z</time>
   </trkpt>
   <trkpt lat="52.496701" lon="13.434055">
    <ele>40</ele>
    <time>2026-07-31T16:48:44.000Z</time>
   </trkpt>
   <trkpt lat="52.496912" lon="13.433446">
    <ele>40</ele>
    <time>2026-07-31T16:48:51.000Z</time>
   </trkpt>
   <trkpt lat="52.49694" lon="13.433359">
    <ele>40</ele>
    <time>2026-07-31T16:48:52.000Z</time>
   </trkpt>
   <trkpt lat="52.497172" lon="13.432675">
    <ele>40</ele>
    <time>2026-07-31T16:49:00.000Z</time>
   </trkpt>
   <trkpt lat="52.497255" lon="13.43242">
    <ele>40</ele>
    <time>2026-07-31T16:49:03.000Z</time>
   </trkpt>
   <trkpt lat="52.497344" lon="13.432172">
    <ele>40.2</ele>
    <time>2026-07-31T16:49:06.000Z</time>
   </trkpt>
   <trkpt lat="52.497418" lon="13.432031">
    <ele>40.2</ele>
    <time>2026-07-31T16:49:08.000Z</time>
   </trkpt>
   <trkpt lat="52.497539" lon="13.431723">
    <ele>40.4</ele>
    <time>2026-07-31T16:49:12.000Z</time>
   </trkpt>
   <trkpt lat="52.497839" lon="13.431024">
    <ele>40.4</ele>
    <time>2026-07-31T16:49:21.000Z</time>
   </trkpt>
   <trkpt lat="52.498029" lon="13.430577">
    <ele>40.2</ele>
    <time>2026-07-31T16:49:27.000Z</time>
   </trkpt>
   <trkpt lat="52.498055" lon="13.430509">
    <ele>40.2</ele>
    <time>2026-07-31T16:49:28.000Z</time>
   </trkpt>
   <trkpt lat="52.498175" lon="13.430247">
    <ele>40.2</ele>
    <time>2026-07-31T16:49:32.000Z</time>
   </trkpt>
   <trkpt lat="52.498267" lon="13.430014">
    <ele>40.2</ele>
    <time>2026-07-31T16:49:35.000Z</time>
   </trkpt>
   <trkpt lat="52.498289" lon="13.429937">
    <ele>40.2</ele>
    <time>2026-07-31T16:49:36.000Z</time>
   </trkpt>
   <trkpt lat="52.498392" lon="13.429633">
    <ele>40.2</ele>
    <time>2026-07-31T16:49:40.000Z</time>
   </trkpt>
   <trkpt lat="52.498452" lon="13.429486">
    <ele>40</ele>
    <time>2026-07-31T16:49:42.000Z</time>
   </trkpt>
   <trkpt lat="52.498503" lon="13.429307">
    <ele>40</ele>
    <time>2026-07-31T16:49:44.000Z</time>
   </trkpt>
   <trkpt lat="52.498532" lon="13.42923">
    <ele>40</ele>
    <time>2026-07-31T16:49:45.000Z</time>
   </trkpt>
   <trkpt lat="52.498764" lon="13.428483">
    <ele>40.2</ele>
    <time>2026-07-31T16:49:54.000Z</time>
   </trkpt>
   <trkpt lat="52.498929" lon="13.427984">
    <ele>40.2</ele>
    <time>2026-07-31T16:50:01.000Z</time>
   </trkpt>
   <trkpt lat="52.498994" lon="13.427766">
    <ele>40.2</ele>
    <time>2026-07-31T16:50:05.000Z</time>
   </trkpt>
   <trkpt lat="52.499005" lon="13.427731">
    <ele>40.2</ele>
    <time>2026-07-31T16:50:07.000Z</time>
   </trkpt>
   <trkpt lat="52.499015" lon="13.427702">
    <ele>40.2</ele>
    <time>2026-07-31T16:51:09.000Z</time>
   </trkpt>
   <trkpt lat="52.499081" lon="13.427493">
    <ele>40.2</ele>
    <time>2026-07-31T16:51:14.000Z</time>
   </trkpt>
   <trkpt lat="52.499124" lon="13.427248">
    <ele>40.2</ele>
    <time>2026-07-31T16:51:18.000Z</time>
   </trkpt>
   <trkpt lat="52.499135" lon="13.427141">
    <ele>40.2</ele>
    <time>2026-07-31T16:51:20.000Z</time>
   </trkpt>
   <trkpt lat="52.499165" lon="13.427046">
    <ele>40</ele>
    <time>2026-07-31T16:51:23.000Z</time>
   </trkpt>
   <trkpt lat="52.499241" lon="13.426876">
    <ele>40</ele>
    <time>2026-07-31T16:51:27.000Z</time>
   </trkpt>
   <trkpt lat="52.499245" lon="13.42684">
    <ele>40</ele>
    <time>2026-07-31T16:51:31.000Z</time>
   </trkpt>
   <trkpt lat="52.499262" lon="13.426725">
    <ele>40</ele>
    <time>2026-07-31T16:51:43.000Z</time>
   </trkpt>
   <trkpt lat="52.499275" lon="13.426596">
    <ele>40</ele>
    <time>2026-07-31T16:51:45.000Z</time>
   </trkpt>
   <trkpt lat="52.499264" lon="13.426106">
    <ele>39.8</ele>
    <time>2026-07-31T16:51:51.000Z</time>
   </trkpt>
   <trkpt lat="52.499264" lon="13.426032">
    <ele>39.6</ele>
    <time>2026-07-31T16:51:52.000Z</time>
   </trkpt>
   <trkpt lat="52.499266" lon="13.425679">
    <ele>39.6</ele>
    <time>2026-07-31T16:51:56.000Z</time>
   </trkpt>
   <trkpt lat="52.499262" lon="13.425486">
    <ele>39.6</ele>
    <time>2026-07-31T16:51:58.000Z</time>
   </trkpt>
   <trkpt lat="52.499248" lon="13.425294">
    <ele>39.6</ele>
    <time>2026-07-31T16:52:00.000Z</time>
   </trkpt>
   <trkpt lat="52.499244" lon="13.425203">
    <ele>39.6</ele>
    <time>2026-07-31T16:52:01.000Z</time>
   </trkpt>
   <trkpt lat="52.499248" lon="13.424927">
    <ele>39.8</ele>
    <time>2026-07-31T16:52:04.000Z</time>
   </trkpt>
   <trkpt lat="52.499244" lon="13.424581">
    <ele>40</ele>
    <time>2026-07-31T16:52:08.000Z</time>
   </trkpt>
   <trkpt lat="52.499239" lon="13.424407">
    <ele>40</ele>
    <time>2026-07-31T16:52:10.000Z</time>
   </trkpt>
   <trkpt lat="52.499241" lon="13.424043">
    <ele>39.8</ele>
    <time>2026-07-31T16:52:14.000Z</time>
   </trkpt>
   <trkpt lat="52.499245" lon="13.423435">
    <ele>39.6</ele>
    <time>2026-07-31T16:52:21.000Z</time>
   </trkpt>
   <trkpt lat="52.499252" lon="13.423266">
    <ele>39.8</ele>
    <time>2026-07-31T16:52:23.000Z</time>
   </trkpt>
   <trkpt lat="52.499259" lon="13.422924">
    <ele>39.8</ele>
    <time>2026-07-31T16:52:27.000Z</time>
   </trkpt>
   <trkpt lat="52.499253" lon="13.422788">
    <ele>39.8</ele>
    <time>2026-07-31T16:52:29.000Z</time>
   </trkpt>
   <trkpt lat="52.499246" lon="13.422682">
    <ele>39.8</ele>
    <time>2026-07-31T16:52:31.000Z</time>
   </trkpt>
   <trkpt lat="52.499262" lon="13.422612">
    <ele>39.8</ele>
    <time>2026-07-31T16:52:35.000Z</time>
   </trkpt>
   <trkpt lat="52.499279" lon="13.42256">
    <ele>39.6</ele>
    <time>2026-07-31T16:53:08.000Z</time>
   </trkpt>
   <trkpt lat="52.499303" lon="13.42248">
    <ele>39.4</ele>
    <time>2026-07-31T16:53:10.000Z</time>
   </trkpt>
   <trkpt lat="52.499311" lon="13.422156">
    <ele>39.4</ele>
    <time>2026-07-31T16:53:14.000Z</time>
   </trkpt>
   <trkpt lat="52.499313" lon="13.42186">
    <ele>39.4</ele>
    <time>2026-07-31T16:53:17.000Z</time>
   </trkpt>
   <trkpt lat="52.499298" lon="13.421679">
    <ele>39.4</ele>
    <time>2026-07-31T16:53:19.000Z</time>
   </trkpt>
   <trkpt lat="52.499298" lon="13.421488">
    <ele>39.4</ele>
    <time>2026-07-31T16:53:21.000Z</time>
   </trkpt>
   <trkpt lat="52.499281" lon="13.421284">
    <ele>39.4</ele>
    <time>2026-07-31T16:53:23.000Z</time>
   </trkpt>
   <trkpt lat="52.499241" lon="13.420899">
    <ele>39.4</ele>
    <time>2026-07-31T16:53:27.000Z</time>
   </trkpt>
   <trkpt lat="52.499218" lon="13.420603">
    <ele>39.4</ele>
    <time>2026-07-31T16:53:30.000Z</time>
   </trkpt>
   <trkpt lat="52.499198" lon="13.420412">
    <ele>39.4</ele>
    <time>2026-07-31T16:53:32.000Z</time>
   </trkpt>
   <trkpt lat="52.499184" lon="13.420161">
    <ele>39.4</ele>
    <time>2026-07-31T16:53:35.000Z</time>
   </trkpt>
   <trkpt lat="52.49919" lon="13.419908">
    <ele>39.4</ele>
    <time>2026-07-31T16:53:38.000Z</time>
   </trkpt>
   <trkpt lat="52.499187" lon="13.419745">
    <ele>39.4</ele>
    <time>2026-07-31T16:53:40.000Z</time>
   </trkpt>
   <trkpt lat="52.499177" lon="13.41958">
    <ele>39.4</ele>
    <time>2026-07-31T16:53:42.000Z</time>
   </trkpt>
   <trkpt lat="52.499165" lon="13.419233">
    <ele>39.6</ele>
    <time>2026-07-31T16:53:46.000Z</time>
   </trkpt>
   <trkpt lat="52.499171" lon="13.4189">
    <ele>39.4</ele>
    <time>2026-07-31T16:53:50.000Z</time>
   </trkpt>
   <trkpt lat="52.499199" lon="13.418742">
    <ele>39.4</ele>
    <time>2026-07-31T16:53:52.000Z</time>
   </trkpt>
   <trkpt lat="52.499292" lon="13.418576">
    <ele>39.2</ele>
    <time>2026-07-31T16:53:55.000Z</time>
   </trkpt>
   <trkpt lat="52.499365" lon="13.41846">
    <ele>39.2</ele>
    <time>2026-07-31T16:53:59.000Z</time>
   </trkpt>
   <trkpt lat="52.499398" lon="13.418399">
    <ele>39.2</ele>
    <time>2026-07-31T16:54:03.000Z</time>
   </trkpt>
   <trkpt lat="52.499408" lon="13.41838">
    <ele>38.8</ele>
    <time>2026-07-31T16:54:45.000Z</time>
   </trkpt>
   <trkpt lat="52.499415" lon="13.418355">
    <ele>38.8</ele>
    <time>2026-07-31T16:54:46.000Z</time>
   </trkpt>
   <trkpt lat="52.499415" lon="13.418192">
    <ele>38.8</ele>
    <time>2026-07-31T16:54:49.000Z</time>
   </trkpt>
   <trkpt lat="52.499361" lon="13.417933">
    <ele>39</ele>
    <time>2026-07-31T16:54:54.000Z</time>
   </trkpt>
   <trkpt lat="52.499326" lon="13.417854">
    <ele>39.2</ele>
    <time>2026-07-31T16:54:58.000Z</time>
   </trkpt>
   <trkpt lat="52.499323" lon="13.417849">
    <ele>39.2</ele>
    <time>2026-07-31T16:54:59.000Z</time>
   </trkpt>
   <trkpt lat="52.499303" lon="13.417758">
    <ele>39.2</ele>
    <time>2026-07-31T16:55:06.000Z</time>
   </trkpt>
   <trkpt lat="52.49931" lon="13.417713">
    <ele>39.2</ele>
    <time>2026-07-31T16:55:07.000Z</time>
   </trkpt>
   <trkpt lat="52.499383" lon="13.417497">
    <ele>39.2</ele>
    <time>2026-07-31T16:55:11.000Z</time>
   </trkpt>
   <trkpt lat="52.499422" lon="13.417377">
    <ele>39.2</ele>
    <time>2026-07-31T16:55:13.000Z</time>
   </trkpt>
   <trkpt lat="52.499462" lon="13.417248">
    <ele>39.4</ele>
    <time>2026-07-31T16:55:15.000Z</time>
   </trkpt>
   <trkpt lat="52.499594" lon="13.416728">
    <ele>39.4</ele>
    <time>2026-07-31T16:55:22.000Z</time>
   </trkpt>
   <trkpt lat="52.499627" lon="13.416588">
    <ele>39.4</ele>
    <time>2026-07-31T16:55:24.000Z</time>
   </trkpt>
   <trkpt lat="52.499683" lon="13.416453">
    <ele>39.4</ele>
    <time>2026-07-31T16:55:26.000Z</time>
   </trkpt>
   <trkpt lat="52.499742" lon="13.416307">
    <ele>39.6</ele>
    <time>2026-07-31T16:55:28.000Z</time>
   </trkpt>
   <trkpt lat="52.499823" lon="13.41608">
    <ele>39.6</ele>
    <time>2026-07-31T16:55:31.000Z</time>
   </trkpt>
   <trkpt lat="52.499852" lon="13.416002">
    <ele>39.6</ele>
    <time>2026-07-31T16:55:32.000Z</time>
   </trkpt>
   <trkpt lat="52.499974" lon="13.415606">
    <ele>39.2</ele>
    <time>2026-07-31T16:55:37.000Z</time>
   </trkpt>
   <trkpt lat="52.499999" lon="13.41553">
    <ele>39</ele>
    <time>2026-07-31T16:55:38.000Z</time>
   </trkpt>
   <trkpt lat="52.500086" lon="13.415309">
    <ele>39</ele>
    <time>2026-07-31T16:55:41.000Z</time>
   </trkpt>
   <trkpt lat="52.500205" lon="13.41472">
    <ele>39.2</ele>
    <time>2026-07-31T16:55:48.000Z</time>
   </trkpt>
   <trkpt lat="52.500259" lon="13.414576">
    <ele>39.2</ele>
    <time>2026-07-31T16:55:50.000Z</time>
   </trkpt>
   <trkpt lat="52.500312" lon="13.414333">
    <ele>39.4</ele>
    <time>2026-07-31T16:55:53.000Z</time>
   </trkpt>
   <trkpt lat="52.500435" lon="13.413852">
    <ele>39.8</ele>
    <time>2026-07-31T16:55:59.000Z</time>
   </trkpt>
   <trkpt lat="52.500489" lon="13.413695">
    <ele>39.8</ele>
    <time>2026-07-31T16:56:01.000Z</time>
   </trkpt>
   <trkpt lat="52.500626" lon="13.413292">
    <ele>39.4</ele>
    <time>2026-07-31T16:56:06.000Z</time>
   </trkpt>
   <trkpt lat="52.500778" lon="13.412745">
    <ele>39.2</ele>
    <time>2026-07-31T16:56:12.000Z</time>
   </trkpt>
   <trkpt lat="52.501024" lon="13.41195">
    <ele>38.8</ele>
    <time>2026-07-31T16:56:21.000Z</time>
   </trkpt>
   <trkpt lat="52.50126" lon="13.411162">
    <ele>38.6</ele>
    <time>2026-07-31T16:56:30.000Z</time>
   </trkpt>
   <trkpt lat="52.501503" lon="13.410377">
    <ele>38.8</ele>
    <time>2026-07-31T16:56:39.000Z</time>
   </trkpt>
   <trkpt lat="52.501685" lon="13.409829">
    <ele>38.8</ele>
    <time>2026-07-31T16:56:46.000Z</time>
   </trkpt>
   <trkpt lat="52.50175" lon="13.40955">
    <ele>38.8</ele>
    <time>2026-07-31T16:56:51.000Z</time>
   </trkpt>
   <trkpt lat="52.501761" lon="13.409501">
    <ele>38.8</ele>
    <time>2026-07-31T16:56:54.000Z</time>
   </trkpt>
   <trkpt lat="52.501782" lon="13.40942">
    <ele>39.4</ele>
    <time>2026-07-31T16:57:29.000Z</time>
   </trkpt>
   <trkpt lat="52.501836" lon="13.409207">
    <ele>39.4</ele>
    <time>2026-07-31T16:57:33.000Z</time>
   </trkpt>
   <trkpt lat="52.501849" lon="13.409141">
    <ele>39.4</ele>
    <time>2026-07-31T16:57:34.000Z</time>
   </trkpt>
   <trkpt lat="52.501875" lon="13.409008">
    <ele>39.4</ele>
    <time>2026-07-31T16:57:36.000Z</time>
   </trkpt>
   <trkpt lat="52.50191" lon="13.408875">
    <ele>39.4</ele>
    <time>2026-07-31T16:57:38.000Z</time>
   </trkpt>
   <trkpt lat="52.501957" lon="13.408743">
    <ele>39.4</ele>
    <time>2026-07-31T16:57:40.000Z</time>
   </trkpt>
   <trkpt lat="52.502016" lon="13.408616">
    <ele>39.4</ele>
    <time>2026-07-31T16:57:42.000Z</time>
   </trkpt>
   <trkpt lat="52.502039" lon="13.408541">
    <ele>39.4</ele>
    <time>2026-07-31T16:57:43.000Z</time>
   </trkpt>
   <trkpt lat="52.502065" lon="13.408469">
    <ele>39.2</ele>
    <time>2026-07-31T16:57:44.000Z</time>
   </trkpt>
   <trkpt lat="52.502158" lon="13.408263">
    <ele>39.2</ele>
    <time>2026-07-31T16:57:47.000Z</time>
   </trkpt>
   <trkpt lat="52.502191" lon="13.408192">
    <ele>39.2</ele>
    <time>2026-07-31T16:57:48.000Z</time>
   </trkpt>
   <trkpt lat="52.502221" lon="13.408117">
    <ele>39.2</ele>
    <time>2026-07-31T16:57:49.000Z</time>
   </trkpt>
   <trkpt lat="52.502309" lon="13.407887">
    <ele>39.2</ele>
    <time>2026-07-31T16:57:52.000Z</time>
   </trkpt>
   <trkpt lat="52.502324" lon="13.407802">
    <ele>39.2</ele>
    <time>2026-07-31T16:57:53.000Z</time>
   </trkpt>
   <trkpt lat="52.502329" lon="13.407623">
    <ele>39.2</ele>
    <time>2026-07-31T16:57:55.000Z</time>
   </trkpt>
   <trkpt lat="52.502373" lon="13.407349">
    <ele>39.2</ele>
    <time>2026-07-31T16:57:58.000Z</time>
   </trkpt>
   <trkpt lat="52.502456" lon="13.406969">
    <ele>39.4</ele>
    <time>2026-07-31T16:58:03.000Z</time>
   </trkpt>
   <trkpt lat="52.502477" lon="13.406901">
    <ele>39.4</ele>
    <time>2026-07-31T16:58:04.000Z</time>
   </trkpt>
   <trkpt lat="52.502497" lon="13.406836">
    <ele>39.6</ele>
    <time>2026-07-31T16:58:05.000Z</time>
   </trkpt>
   <trkpt lat="52.502518" lon="13.406722">
    <ele>39.6</ele>
    <time>2026-07-31T16:58:07.000Z</time>
   </trkpt>
   <trkpt lat="52.502543" lon="13.406674">
    <ele>39.6</ele>
    <time>2026-07-31T16:58:08.000Z</time>
   </trkpt>
   <trkpt lat="52.502581" lon="13.40664">
    <ele>39.6</ele>
    <time>2026-07-31T16:58:09.000Z</time>
   </trkpt>
   <trkpt lat="52.502667" lon="13.406616">
    <ele>39.8</ele>
    <time>2026-07-31T16:58:11.000Z</time>
   </trkpt>
   <trkpt lat="52.502712" lon="13.406632">
    <ele>39.8</ele>
    <time>2026-07-31T16:58:12.000Z</time>
   </trkpt>
   <trkpt lat="52.503037" lon="13.406876">
    <ele>39.6</ele>
    <time>2026-07-31T16:58:19.000Z</time>
   </trkpt>
   <trkpt lat="52.503379" lon="13.407171">
    <ele>39.6</ele>
    <time>2026-07-31T16:58:27.000Z</time>
   </trkpt>
   <trkpt lat="52.503404" lon="13.407212">
    <ele>39.6</ele>
    <time>2026-07-31T16:58:30.000Z</time>
   </trkpt>
   <trkpt lat="52.503401" lon="13.407223">
    <ele>39.6</ele>
    <time>2026-07-31T16:58:32.000Z</time>
   </trkpt>
   <trkpt lat="52.503219" lon="13.40823">
    <ele>39.8</ele>
    <time>2026-07-31T16:58:46.000Z</time>
   </trkpt>
   <trkpt lat="52.503211" lon="13.408244">
    <ele>39.8</ele>
    <time>2026-07-31T16:58:47.000Z</time>
   </trkpt>
   <trkpt lat="52.503175" lon="13.408138">
    <ele>40</ele>
    <time>2026-07-31T16:58:50.000Z</time>
   </trkpt>
   <trkpt lat="52.503172" lon="13.408126">
    <ele>40</ele>
    <time>2026-07-31T16:58:51.000Z</time>
   </trkpt>
   <trkpt lat="52.503182" lon="13.408181">
    <ele>40.2</ele>
    <time>2026-07-31T16:58:53.000Z</time>
   </trkpt>
   <trkpt lat="52.50322" lon="13.408242">
    <ele>40.4</ele>
    <time>2026-07-31T16:58:55.000Z</time>
   </trkpt>
   <trkpt lat="52.503216" lon="13.408239">
    <ele>40.4</ele>
    <time>2026-07-31T16:58:56.000Z</time>
   </trkpt>
   <trkpt lat="52.503251" lon="13.408277">
    <ele>40.4</ele>
    <time>2026-07-31T16:58:58.000Z</time>
   </trkpt>
   <trkpt lat="52.503324" lon="13.408383">
    <ele>40.4</ele>
    <time>2026-07-31T16:58:59.000Z</time>
   </trkpt>
   <trkpt lat="52.503382" lon="13.408426">
    <ele>40.4</ele>
    <time>2026-07-31T16:59:00.000Z</time>
   </trkpt>
   <trkpt lat="52.503401" lon="13.408421">
    <ele>40.4</ele>
    <time>2026-07-31T16:59:01.000Z</time>
   </trkpt>
   <trkpt lat="52.503404" lon="13.408417">
    <ele>40.4</ele>
    <time>2026-07-31T16:59:03.000Z</time>
   </trkpt>
   <trkpt lat="52.503401" lon="13.408422">
    <ele>40.4</ele>
    <time>2026-07-31T16:59:04.000Z</time>
   </trkpt>
   <trkpt lat="52.503411" lon="13.40847">
    <ele>39.2</ele>
    <time>2026-07-31T16:59:09.000Z</time>
   </trkpt>
  </trkseg>
 </trk>
</gpx>
