<?xml version="1.0" encoding="UTF-8"?>
<gpx creator="StravaGPX" version="1.1" xmlns="http://www.topografix.com/GPX/1/1">
 <metadata>
  <time>2020-01-22T22:13:33Z</time>
 </metadata>
 <trk>
  <name>Evening Ride</name>
  <type>1</type>
  <trkseg>
   <trkpt lat="-8.065139" lon="-34.896254">
    <ele>3</ele>
    <time>2020-01-22T22:13:33.000Z</time>
   </trkpt>
   <trkpt lat="-8.064975" lon="-34.896258">
    <ele>3.3</ele>
    <time>2020-01-22T22:14:01.000Z</time>
   </trkpt>
   <trkpt lat="-8.064991" lon="-34.896315">
    <ele>3.4</ele>
    <time>2020-01-22T22:14:03.000Z</time>
   </trkpt>
   <trkpt lat="-8.064996" lon="-34.896359">
    <ele>3.5</ele>
    <time>2020-01-22T22:14:04.000Z</time>
   </trkpt>
   <trkpt lat="-8.064999" lon="-34.896405">
    <ele>3.6</ele>
    <time>2020-01-22T22:14:05.000Z</time>
   </trkpt>
   <trkpt lat="-8.064993" lon="-34.896442">
    <ele>3.7</ele>
    <time>2020-01-22T22:14:06.000Z</time>
   </trkpt>
   <trkpt lat="-8.065004" lon="-34.896469">
    <ele>3.7</ele>
    <time>2020-01-22T22:14:07.000Z</time>
   </trkpt>
   <trkpt lat="-8.065016" lon="-34.8965">
    <ele>3.8</ele>
    <time>2020-01-22T22:14:08.000Z</time>
   </trkpt>
   <trkpt lat="-8.065045" lon="-34.896564">
    <ele>3.9</ele>
    <time>2020-01-22T22:14:09.000Z</time>
   </trkpt>
   <trkpt lat="-8.065074" lon="-34.896617">
    <ele>4.1</ele>
    <time>2020-01-22T22:14:10.000Z</time>
   </trkpt>
   <trkpt lat="-8.065111" lon="-34.896666">
    <ele>4.2</ele>
    <time>2020-01-22T22:14:11.000Z</time>
   </trkpt>
   <trkpt lat="-8.065153" lon="-34.896694">
    <ele>4.2</ele>
    <time>2020-01-22T22:14:12.000Z</time>
   </trkpt>
   <trkpt lat="-8.065182" lon="-34.896735">
    <ele>4.3</ele>
    <time>2020-01-22T22:14:13.000Z</time>
   </trkpt>
   <trkpt lat="-8.065209" lon="-34.896762">
    <ele>4.4</ele>
    <time>2020-01-22T22:14:14.000Z</time>
   </trkpt>
   <trkpt lat="-8.065241" lon="-34.896781">
    <ele>4.4</ele>
    <time>2020-01-22T22:14:15.000Z</time>
   </trkpt>
   <trkpt lat="-8.065212" lon="-34.896772">
    <ele>4.5</ele>
    <time>2020-01-22T22:14:19.000Z</time>
   </trkpt>
   <trkpt lat="-8.065185" lon="-34.89677">
    <ele>4.5</ele>
    <time>2020-01-22T22:14:22.000Z</time>
   </trkpt>
   <trkpt lat="-8.065156" lon="-34.896801">
    <ele>4.6</ele>
    <time>2020-01-22T22:14:27.000Z</time>
   </trkpt>
   <trkpt lat="-8.065123" lon="-34.896813">
    <ele>5</ele>
    <time>2020-01-22T22:14:30.000Z</time>
   </trkpt>
   <trkpt lat="-8.065087" lon="-34.89682">
    <ele>5</ele>
    <time>2020-01-22T22:14:33.000Z</time>
   </trkpt>
   <trkpt lat="-8.065054" lon="-34.896834">
    <ele>5</ele>
    <time>2020-01-22T22:14:35.000Z</time>
   </trkpt>
   <trkpt lat="-8.065017" lon="-34.896845">
    <ele>5.1</ele>
    <time>2020-01-22T22:14:36.000Z</time>
   </trkpt>
   <trkpt lat="-8.064979" lon="-34.896862">
    <ele>5.1</ele>
    <time>2020-01-22T22:14:37.000Z</time>
   </trkpt>
   <trkpt lat="-8.064938" lon="-34.896878">
    <ele>5.1</ele>
    <time>2020-01-22T22:14:38.000Z</time>
   </trkpt>
   <trkpt lat="-8.064889" lon="-34.896888">
    <ele>5.2</ele>
    <time>2020-01-22T22:14:39.000Z</time>
   </trkpt>
   <trkpt lat="-8.064839" lon="-34.896901">
    <ele>5.2</ele>
    <time>2020-01-22T22:14:40.000Z</time>
   </trkpt>
   <trkpt lat="-8.064789" lon="-34.896911">
    <ele>5.2</ele>
    <time>2020-01-22T22:14:41.000Z</time>
   </trkpt>
   <trkpt lat="-8.064734" lon="-34.896923">
    <ele>5.3</ele>
    <time>2020-01-22T22:14:42.000Z</time>
   </trkpt>
   <trkpt lat="-8.064683" lon="-34.89693">
    <ele>5.3</ele>
    <time>2020-01-22T22:14:43.000Z</time>
   </trkpt>
   <trkpt lat="-8.064641" lon="-34.896938">
    <ele>5.3</ele>
    <time>2020-01-22T22:14:44.000Z</time>
   </trkpt>
   <trkpt lat="-8.064601" lon="-34.896941">
    <ele>5.2</ele>
    <time>2020-01-22T22:14:45.000Z</time>
   </trkpt>
   <trkpt lat="-8.06457" lon="-34.896942">
    <ele>5.2</ele>
    <time>2020-01-22T22:14:46.000Z</time>
   </trkpt>
   <trkpt lat="-8.064537" lon="-34.896958">
    <ele>5.1</ele>
    <time>2020-01-22T22:14:49.000Z</time>
   </trkpt>
   <trkpt lat="-8.064518" lon="-34.896984">
    <ele>5.1</ele>
    <time>2020-01-22T22:14:50.000Z</time>
   </trkpt>
   <trkpt lat="-8.064488" lon="-34.896994">
    <ele>5</ele>
    <time>2020-01-22T22:14:51.000Z</time>
   </trkpt>
   <trkpt lat="-8.064459" lon="-34.897006">
    <ele>5</ele>
    <time>2020-01-22T22:14:52.000Z</time>
   </trkpt>
   <trkpt lat="-8.064428" lon="-34.897013">
    <ele>5.1</ele>
    <time>2020-01-22T22:14:53.000Z</time>
   </trkpt>
   <trkpt lat="-8.064396" lon="-34.897019">
    <ele>5.2</ele>
    <time>2020-01-22T22:14:54.000Z</time>
   </trkpt>
   <trkpt lat="-8.064359" lon="-34.89703">
    <ele>5.2</ele>
    <time>2020-01-22T22:14:55.000Z</time>
   </trkpt>
   <trkpt lat="-8.064323" lon="-34.897038">
    <ele>5.3</ele>
    <time>2020-01-22T22:14:56.000Z</time>
   </trkpt>
   <trkpt lat="-8.064288" lon="-34.89708">
    <ele>5.3</ele>
    <time>2020-01-22T22:14:57.000Z</time>
   </trkpt>
   <trkpt lat="-8.064241" lon="-34.897091">
    <ele>5.4</ele>
    <time>2020-01-22T22:14:58.000Z</time>
   </trkpt>
   <trkpt lat="-8.064194" lon="-34.897093">
    <ele>5.5</ele>
    <time>2020-01-22T22:14:59.000Z</time>
   </trkpt>
   <trkpt lat="-8.064147" lon="-34.897105">
    <ele>5.5</ele>
    <time>2020-01-22T22:15:00.000Z</time>
   </trkpt>
   <trkpt lat="-8.0641" lon="-34.897109">
    <ele>5.5</ele>
    <time>2020-01-22T22:15:01.000Z</time>
   </trkpt>
   <trkpt lat="-8.064049" lon="-34.897111">
    <ele>5.6</ele>
    <time>2020-01-22T22:15:02.000Z</time>
   </trkpt>
   <trkpt lat="-8.063983" lon="-34.897114">
    <ele>5.6</ele>
    <time>2020-01-22T22:15:03.000Z</time>
   </trkpt>
   <trkpt lat="-8.063909" lon="-34.897114">
    <ele>5.6</ele>
    <time>2020-01-22T22:15:04.000Z</time>
   </trkpt>
   <trkpt lat="-8.063843" lon="-34.897106">
    <ele>5.6</ele>
    <time>2020-01-22T22:15:05.000Z</time>
   </trkpt>
   <trkpt lat="-8.063777" lon="-34.897107">
    <ele>5.6</ele>
    <time>2020-01-22T22:15:06.000Z</time>
   </trkpt>
   <trkpt lat="-8.063711" lon="-34.897112">
    <ele>5.5</ele>
    <time>2020-01-22T22:15:07.000Z</time>
   </trkpt>
   <trkpt lat="-8.063653" lon="-34.897118">
    <ele>5.5</ele>
    <time>2020-01-22T22:15:08.000Z</time>
   </trkpt>
   <trkpt lat="-8.063588" lon="-34.897126">
    <ele>5.4</ele>
    <time>2020-01-22T22:15:09.000Z</time>
   </trkpt>
   <trkpt lat="-8.063527" lon="-34.897129">
    <ele>5.3</ele>
    <time>2020-01-22T22:15:10.000Z</time>
   </trkpt>
   <trkpt lat="-8.063458" lon="-34.897133">
    <ele>5.2</ele>
    <time>2020-01-22T22:15:11.000Z</time>
   </trkpt>
   <trkpt lat="-8.063406" lon="-34.897141">
    <ele>5.2</ele>
    <time>2020-01-22T22:15:12.000Z</time>
   </trkpt>
   <trkpt lat="-8.063363" lon="-34.897146">
    <ele>5.1</ele>
    <time>2020-01-22T22:15:13.000Z</time>
   </trkpt>
   <trkpt lat="-8.063323" lon="-34.897153">
    <ele>5</ele>
    <time>2020-01-22T22:15:14.000Z</time>
   </trkpt>
   <trkpt lat="-8.063281" lon="-34.897157">
    <ele>5</ele>
    <time>2020-01-22T22:15:15.000Z</time>
   </trkpt>
   <trkpt lat="-8.063238" lon="-34.897163">
    <ele>4.9</ele>
    <time>2020-01-22T22:15:16.000Z</time>
   </trkpt>
   <trkpt lat="-8.063198" lon="-34.897168">
    <ele>4.8</ele>
    <time>2020-01-22T22:15:17.000Z</time>
   </trkpt>
   <trkpt lat="-8.063167" lon="-34.897172">
    <ele>4.7</ele>
    <time>2020-01-22T22:15:18.000Z</time>
   </trkpt>
   <trkpt lat="-8.063129" lon="-34.897177">
    <ele>4.6</ele>
    <time>2020-01-22T22:15:19.000Z</time>
   </trkpt>
   <trkpt lat="-8.063084" lon="-34.897183">
    <ele>4.5</ele>
    <time>2020-01-22T22:15:20.000Z</time>
   </trkpt>
   <trkpt lat="-8.063026" lon="-34.89718">
    <ele>4.3</ele>
    <time>2020-01-22T22:15:21.000Z</time>
   </trkpt>
   <trkpt lat="-8.062976" lon="-34.897175">
    <ele>4.1</ele>
    <time>2020-01-22T22:15:22.000Z</time>
   </trkpt>
   <trkpt lat="-8.062934" lon="-34.897161">
    <ele>4</ele>
    <time>2020-01-22T22:15:23.000Z</time>
   </trkpt>
   <trkpt lat="-8.062894" lon="-34.897149">
    <ele>3.8</ele>
    <time>2020-01-22T22:15:24.000Z</time>
   </trkpt>
   <trkpt lat="-8.062838" lon="-34.897149">
    <ele>3.7</ele>
    <time>2020-01-22T22:15:25.000Z</time>
   </trkpt>
   <trkpt lat="-8.062769" lon="-34.89717">
    <ele>3.5</ele>
    <time>2020-01-22T22:15:26.000Z</time>
   </trkpt>
   <trkpt lat="-8.062707" lon="-34.897183">
    <ele>3.4</ele>
    <time>2020-01-22T22:15:27.000Z</time>
   </trkpt>
   <trkpt lat="-8.062641" lon="-34.897189">
    <ele>3.2</ele>
    <time>2020-01-22T22:15:28.000Z</time>
   </trkpt>
   <trkpt lat="-8.062578" lon="-34.897197">
    <ele>3.2</ele>
    <time>2020-01-22T22:15:29.000Z</time>
   </trkpt>
   <trkpt lat="-8.062512" lon="-34.89721">
    <ele>3</ele>
    <time>2020-01-22T22:15:30.000Z</time>
   </trkpt>
   <trkpt lat="-8.062448" lon="-34.897221">
    <ele>3.2</ele>
    <time>2020-01-22T22:15:31.000Z</time>
   </trkpt>
   <trkpt lat="-8.062391" lon="-34.897233">
    <ele>3.4</ele>
    <time>2020-01-22T22:15:32.000Z</time>
   </trkpt>
   <trkpt lat="-8.062331" lon="-34.897246">
    <ele>3.6</ele>
    <time>2020-01-22T22:15:33.000Z</time>
   </trkpt>
   <trkpt lat="-8.062273" lon="-34.897255">
    <ele>3.8</ele>
    <time>2020-01-22T22:15:34.000Z</time>
   </trkpt>
   <trkpt lat="-8.062208" lon="-34.89727">
    <ele>4</ele>
    <time>2020-01-22T22:15:35.000Z</time>
   </trkpt>
   <trkpt lat="-8.062136" lon="-34.897284">
    <ele>4.5</ele>
    <time>2020-01-22T22:15:36.000Z</time>
   </trkpt>
   <trkpt lat="-8.06207" lon="-34.897289">
    <ele>4.8</ele>
    <time>2020-01-22T22:15:37.000Z</time>
   </trkpt>
   <trkpt lat="-8.062003" lon="-34.897296">
    <ele>5.1</ele>
    <time>2020-01-22T22:15:38.000Z</time>
   </trkpt>
   <trkpt lat="-8.061934" lon="-34.897306">
    <ele>5.4</ele>
    <time>2020-01-22T22:15:39.000Z</time>
   </trkpt>
   <trkpt lat="-8.061874" lon="-34.897321">
    <ele>5.7</ele>
    <time>2020-01-22T22:15:40.000Z</time>
   </trkpt>
   <trkpt lat="-8.061807" lon="-34.897327">
    <ele>5.9</ele>
    <time>2020-01-22T22:15:41.000Z</time>
   </trkpt>
   <trkpt lat="-8.061738" lon="-34.89733">
    <ele>6.1</ele>
    <time>2020-01-22T22:15:42.000Z</time>
   </trkpt>
   <trkpt lat="-8.061677" lon="-34.897337">
    <ele>6.3</ele>
    <time>2020-01-22T22:15:43.000Z</time>
   </trkpt>
   <trkpt lat="-8.061615" lon="-34.897349">
    <ele>6.5</ele>
    <time>2020-01-22T22:15:44.000Z</time>
   </trkpt>
   <trkpt lat="-8.061559" lon="-34.897357">
    <ele>6.7</ele>
    <time>2020-01-22T22:15:45.000Z</time>
   </trkpt>
   <trkpt lat="-8.061489" lon="-34.897364">
    <ele>6.9</ele>
    <time>2020-01-22T22:15:46.000Z</time>
   </trkpt>
   <trkpt lat="-8.061421" lon="-34.897391">
    <ele>7.1</ele>
    <time>2020-01-22T22:15:47.000Z</time>
   </trkpt>
   <trkpt lat="-8.061388" lon="-34.8974">
    <ele>7.2</ele>
    <time>2020-01-22T22:15:48.000Z</time>
   </trkpt>
   <trkpt lat="-8.061344" lon="-34.897404">
    <ele>7.3</ele>
    <time>2020-01-22T22:15:49.000Z</time>
   </trkpt>
   <trkpt lat="-8.061287" lon="-34.897404">
    <ele>7.5</ele>
    <time>2020-01-22T22:15:50.000Z</time>
   </trkpt>
   <trkpt lat="-8.061228" lon="-34.897419">
    <ele>7.6</ele>
    <time>2020-01-22T22:15:51.000Z</time>
   </trkpt>
   <trkpt lat="-8.061172" lon="-34.897424">
    <ele>7.8</ele>
    <time>2020-01-22T22:15:52.000Z</time>
   </trkpt>
   <trkpt lat="-8.06111" lon="-34.897425">
    <ele>8</ele>
    <time>2020-01-22T22:15:53.000Z</time>
   </trkpt>
   <trkpt lat="-8.061048" lon="-34.897433">
    <ele>8.2</ele>
    <time>2020-01-22T22:15:54.000Z</time>
   </trkpt>
   <trkpt lat="-8.060994" lon="-34.897427">
    <ele>8.4</ele>
    <time>2020-01-22T22:15:55.000Z</time>
   </trkpt>
   <trkpt lat="-8.060956" lon="-34.897427">
    <ele>8.5</ele>
    <time>2020-01-22T22:15:56.000Z</time>
   </trkpt>
   <trkpt lat="-8.06091" lon="-34.897428">
    <ele>8.6</ele>
    <time>2020-01-22T22:15:57.000Z</time>
   </trkpt>
   <trkpt lat="-8.060858" lon="-34.897437">
    <ele>8.8</ele>
    <time>2020-01-22T22:15:58.000Z</time>
   </trkpt>
   <trkpt lat="-8.060814" lon="-34.897438">
    <ele>8.9</ele>
    <time>2020-01-22T22:15:59.000Z</time>
   </trkpt>
   <trkpt lat="-8.060779" lon="-34.897439">
    <ele>9</ele>
    <time>2020-01-22T22:16:00.000Z</time>
   </trkpt>
   <trkpt lat="-8.06074" lon="-34.89744">
    <ele>9.2</ele>
    <time>2020-01-22T22:16:02.000Z</time>
   </trkpt>
   <trkpt lat="-8.060702" lon="-34.897449">
    <ele>9.3</ele>
    <time>2020-01-22T22:16:04.000Z</time>
   </trkpt>
   <trkpt lat="-8.060665" lon="-34.897459">
    <ele>9.5</ele>
    <time>2020-01-22T22:16:05.000Z</time>
   </trkpt>
   <trkpt lat="-8.060621" lon="-34.897455">
    <ele>9.6</ele>
    <time>2020-01-22T22:16:06.000Z</time>
   </trkpt>
   <trkpt lat="-8.060588" lon="-34.897453">
    <ele>9.8</ele>
    <time>2020-01-22T22:16:07.000Z</time>
   </trkpt>
   <trkpt lat="-8.060551" lon="-34.897457">
    <ele>10.1</ele>
    <time>2020-01-22T22:16:08.000Z</time>
   </trkpt>
   <trkpt lat="-8.060517" lon="-34.897464">
    <ele>10.2</ele>
    <time>2020-01-22T22:16:09.000Z</time>
   </trkpt>
   <trkpt lat="-8.060476" lon="-34.897473">
    <ele>10.2</ele>
    <time>2020-01-22T22:16:10.000Z</time>
   </trkpt>
   <trkpt lat="-8.06042" lon="-34.897486">
    <ele>10.3</ele>
    <time>2020-01-22T22:16:11.000Z</time>
   </trkpt>
   <trkpt lat="-8.060375" lon="-34.897497">
    <ele>10.4</ele>
    <time>2020-01-22T22:16:12.000Z</time>
   </trkpt>
   <trkpt lat="-8.060318" lon="-34.89751">
    <ele>10.5</ele>
    <time>2020-01-22T22:16:13.000Z</time>
   </trkpt>
   <trkpt lat="-8.060272" lon="-34.897516">
    <ele>10.6</ele>
    <time>2020-01-22T22:16:14.000Z</time>
   </trkpt>
   <trkpt lat="-8.060227" lon="-34.897521">
    <ele>10.6</ele>
    <time>2020-01-22T22:16:15.000Z</time>
   </trkpt>
   <trkpt lat="-8.060181" lon="-34.897532">
    <ele>10.7</ele>
    <time>2020-01-22T22:16:16.000Z</time>
   </trkpt>
   <trkpt lat="-8.060135" lon="-34.897542">
    <ele>10.8</ele>
    <time>2020-01-22T22:16:17.000Z</time>
   </trkpt>
   <trkpt lat="-8.060096" lon="-34.89755">
    <ele>10.7</ele>
    <time>2020-01-22T22:16:18.000Z</time>
   </trkpt>
   <trkpt lat="-8.060052" lon="-34.897557">
    <ele>10.7</ele>
    <time>2020-01-22T22:16:19.000Z</time>
   </trkpt>
   <trkpt lat="-8.060001" lon="-34.897567">
    <ele>10.6</ele>
    <time>2020-01-22T22:16:20.000Z</time>
   </trkpt>
   <trkpt lat="-8.059954" lon="-34.897571">
    <ele>10.6</ele>
    <time>2020-01-22T22:16:21.000Z</time>
   </trkpt>
   <trkpt lat="-8.059901" lon="-34.897573">
    <ele>10.5</ele>
    <time>2020-01-22T22:16:22.000Z</time>
   </trkpt>
   <trkpt lat="-8.059846" lon="-34.897586">
    <ele>10.4</ele>
    <time>2020-01-22T22:16:23.000Z</time>
   </trkpt>
   <trkpt lat="-8.059781" lon="-34.897587">
    <ele>10.3</ele>
    <time>2020-01-22T22:16:24.000Z</time>
   </trkpt>
   <trkpt lat="-8.059717" lon="-34.897596">
    <ele>10.3</ele>
    <time>2020-01-22T22:16:25.000Z</time>
   </trkpt>
   <trkpt lat="-8.059657" lon="-34.897598">
    <ele>10.2</ele>
    <time>2020-01-22T22:16:26.000Z</time>
   </trkpt>
   <trkpt lat="-8.059601" lon="-34.897604">
    <ele>10.1</ele>
    <time>2020-01-22T22:16:27.000Z</time>
   </trkpt>
   <trkpt lat="-8.059552" lon="-34.897612">
    <ele>10.1</ele>
    <time>2020-01-22T22:16:28.000Z</time>
   </trkpt>
   <trkpt lat="-8.059496" lon="-34.897616">
    <ele>10</ele>
    <time>2020-01-22T22:16:29.000Z</time>
   </trkpt>
   <trkpt lat="-8.059445" lon="-34.897624">
    <ele>10</ele>
    <time>2020-01-22T22:16:30.000Z</time>
   </trkpt>
   <trkpt lat="-8.059378" lon="-34.897598">
    <ele>9.9</ele>
    <time>2020-01-22T22:16:31.000Z</time>
   </trkpt>
   <trkpt lat="-8.059334" lon="-34.897592">
    <ele>9.8</ele>
    <time>2020-01-22T22:16:32.000Z</time>
   </trkpt>
   <trkpt lat="-8.059302" lon="-34.89758">
    <ele>9.8</ele>
    <time>2020-01-22T22:16:33.000Z</time>
   </trkpt>
   <trkpt lat="-8.05926" lon="-34.897574">
    <ele>9.7</ele>
    <time>2020-01-22T22:16:34.000Z</time>
   </trkpt>
   <trkpt lat="-8.059233" lon="-34.89758">
    <ele>9.7</ele>
    <time>2020-01-22T22:16:35.000Z</time>
   </trkpt>
   <trkpt lat="-8.059204" lon="-34.897587">
    <ele>9.7</ele>
    <time>2020-01-22T22:16:36.000Z</time>
   </trkpt>
   <trkpt lat="-8.059171" lon="-34.897598">
    <ele>9.6</ele>
    <time>2020-01-22T22:16:39.000Z</time>
   </trkpt>
   <trkpt lat="-8.059142" lon="-34.897623">
    <ele>9.6</ele>
    <time>2020-01-22T22:16:41.000Z</time>
   </trkpt>
   <trkpt lat="-8.059112" lon="-34.897626">
    <ele>9.5</ele>
    <time>2020-01-22T22:16:44.000Z</time>
   </trkpt>
   <trkpt lat="-8.059077" lon="-34.897634">
    <ele>9.5</ele>
    <time>2020-01-22T22:16:46.000Z</time>
   </trkpt>
   <trkpt lat="-8.059025" lon="-34.897649">
    <ele>9.4</ele>
    <time>2020-01-22T22:16:48.000Z</time>
   </trkpt>
   <trkpt lat="-8.058984" lon="-34.897653">
    <ele>9.4</ele>
    <time>2020-01-22T22:16:53.000Z</time>
   </trkpt>
   <trkpt lat="-8.058951" lon="-34.897658">
    <ele>9.3</ele>
    <time>2020-01-22T22:16:55.000Z</time>
   </trkpt>
   <trkpt lat="-8.058922" lon="-34.89765">
    <ele>9.3</ele>
    <time>2020-01-22T22:16:56.000Z</time>
   </trkpt>
   <trkpt lat="-8.058883" lon="-34.89764">
    <ele>9.3</ele>
    <time>2020-01-22T22:16:57.000Z</time>
   </trkpt>
   <trkpt lat="-8.05885" lon="-34.897644">
    <ele>9.5</ele>
    <time>2020-01-22T22:16:58.000Z</time>
   </trkpt>
   <trkpt lat="-8.058819" lon="-34.897648">
    <ele>9.8</ele>
    <time>2020-01-22T22:16:59.000Z</time>
   </trkpt>
   <trkpt lat="-8.058786" lon="-34.897655">
    <ele>10.2</ele>
    <time>2020-01-22T22:17:00.000Z</time>
   </trkpt>
   <trkpt lat="-8.058753" lon="-34.897677">
    <ele>10.4</ele>
    <time>2020-01-22T22:17:01.000Z</time>
   </trkpt>
   <trkpt lat="-8.058718" lon="-34.897676">
    <ele>10.1</ele>
    <time>2020-01-22T22:17:02.000Z</time>
   </trkpt>
   <trkpt lat="-8.058679" lon="-34.897665">
    <ele>9.9</ele>
    <time>2020-01-22T22:17:03.000Z</time>
   </trkpt>
   <trkpt lat="-8.058641" lon="-34.89766">
    <ele>9.6</ele>
    <time>2020-01-22T22:17:04.000Z</time>
   </trkpt>
   <trkpt lat="-8.058598" lon="-34.897658">
    <ele>9.4</ele>
    <time>2020-01-22T22:17:05.000Z</time>
   </trkpt>
   <trkpt lat="-8.058556" lon="-34.89766">
    <ele>9.1</ele>
    <time>2020-01-22T22:17:06.000Z</time>
   </trkpt>
   <trkpt lat="-8.058499" lon="-34.897654">
    <ele>8.9</ele>
    <time>2020-01-22T22:17:07.000Z</time>
   </trkpt>
   <trkpt lat="-8.058448" lon="-34.897664">
    <ele>8.6</ele>
    <time>2020-01-22T22:17:08.000Z</time>
   </trkpt>
   <trkpt lat="-8.058407" lon="-34.89766">
    <ele>8.4</ele>
    <time>2020-01-22T22:17:09.000Z</time>
   </trkpt>
   <trkpt lat="-8.05836" lon="-34.897664">
    <ele>8.2</ele>
    <time>2020-01-22T22:17:10.000Z</time>
   </trkpt>
   <trkpt lat="-8.058307" lon="-34.897666">
    <ele>8.1</ele>
    <time>2020-01-22T22:17:11.000Z</time>
   </trkpt>
   <trkpt lat="-8.058258" lon="-34.897661">
    <ele>7.9</ele>
    <time>2020-01-22T22:17:12.000Z</time>
   </trkpt>
   <trkpt lat="-8.058205" lon="-34.897652">
    <ele>7.9</ele>
    <time>2020-01-22T22:17:13.000Z</time>
   </trkpt>
   <trkpt lat="-8.058149" lon="-34.897646">
    <ele>7.8</ele>
    <time>2020-01-22T22:17:14.000Z</time>
   </trkpt>
   <trkpt lat="-8.058094" lon="-34.897656">
    <ele>7.7</ele>
    <time>2020-01-22T22:17:15.000Z</time>
   </trkpt>
   <trkpt lat="-8.058044" lon="-34.897647">
    <ele>7.6</ele>
    <time>2020-01-22T22:17:16.000Z</time>
   </trkpt>
   <trkpt lat="-8.057993" lon="-34.897644">
    <ele>7.6</ele>
    <time>2020-01-22T22:17:17.000Z</time>
   </trkpt>
   <trkpt lat="-8.057948" lon="-34.897642">
    <ele>7.5</ele>
    <time>2020-01-22T22:17:18.000Z</time>
   </trkpt>
   <trkpt lat="-8.057898" lon="-34.897633">
    <ele>7.5</ele>
    <time>2020-01-22T22:17:19.000Z</time>
   </trkpt>
   <trkpt lat="-8.057858" lon="-34.897637">
    <ele>7.4</ele>
    <time>2020-01-22T22:17:20.000Z</time>
   </trkpt>
   <trkpt lat="-8.057824" lon="-34.897642">
    <ele>7.4</ele>
    <time>2020-01-22T22:17:21.000Z</time>
   </trkpt>
   <trkpt lat="-8.057794" lon="-34.897657">
    <ele>7.4</ele>
    <time>2020-01-22T22:17:22.000Z</time>
   </trkpt>
   <trkpt lat="-8.057755" lon="-34.897654">
    <ele>7.3</ele>
    <time>2020-01-22T22:17:23.000Z</time>
   </trkpt>
   <trkpt lat="-8.057713" lon="-34.897666">
    <ele>7.3</ele>
    <time>2020-01-22T22:17:24.000Z</time>
   </trkpt>
   <trkpt lat="-8.057672" lon="-34.897659">
    <ele>7.2</ele>
    <time>2020-01-22T22:17:25.000Z</time>
   </trkpt>
   <trkpt lat="-8.057633" lon="-34.897653">
    <ele>7.2</ele>
    <time>2020-01-22T22:17:26.000Z</time>
   </trkpt>
   <trkpt lat="-8.057594" lon="-34.897648">
    <ele>7.2</ele>
    <time>2020-01-22T22:17:27.000Z</time>
   </trkpt>
   <trkpt lat="-8.057554" lon="-34.897643">
    <ele>7.1</ele>
    <time>2020-01-22T22:17:28.000Z</time>
   </trkpt>
   <trkpt lat="-8.057519" lon="-34.897643">
    <ele>7.1</ele>
    <time>2020-01-22T22:17:29.000Z</time>
   </trkpt>
   <trkpt lat="-8.057486" lon="-34.897636">
    <ele>7</ele>
    <time>2020-01-22T22:17:30.000Z</time>
   </trkpt>
   <trkpt lat="-8.057453" lon="-34.897628">
    <ele>7.2</ele>
    <time>2020-01-22T22:17:31.000Z</time>
   </trkpt>
   <trkpt lat="-8.057418" lon="-34.897626">
    <ele>7.3</ele>
    <time>2020-01-22T22:17:32.000Z</time>
   </trkpt>
   <trkpt lat="-8.05738" lon="-34.897626">
    <ele>7.5</ele>
    <time>2020-01-22T22:17:33.000Z</time>
   </trkpt>
   <trkpt lat="-8.057345" lon="-34.897628">
    <ele>7.7</ele>
    <time>2020-01-22T22:17:34.000Z</time>
   </trkpt>
   <trkpt lat="-8.057302" lon="-34.897621">
    <ele>7.9</ele>
    <time>2020-01-22T22:17:35.000Z</time>
   </trkpt>
   <trkpt lat="-8.057261" lon="-34.897622">
    <ele>8.1</ele>
    <time>2020-01-22T22:17:36.000Z</time>
   </trkpt>
   <trkpt lat="-8.057218" lon="-34.897622">
    <ele>8.3</ele>
    <time>2020-01-22T22:17:37.000Z</time>
   </trkpt>
   <trkpt lat="-8.057171" lon="-34.897617">
    <ele>8.7</ele>
    <time>2020-01-22T22:17:38.000Z</time>
   </trkpt>
   <trkpt lat="-8.057128" lon="-34.897612">
    <ele>8.7</ele>
    <time>2020-01-22T22:17:39.000Z</time>
   </trkpt>
   <trkpt lat="-8.05709" lon="-34.897616">
    <ele>8.7</ele>
    <time>2020-01-22T22:17:40.000Z</time>
   </trkpt>
   <trkpt lat="-8.057052" lon="-34.897613">
    <ele>8.7</ele>
    <time>2020-01-22T22:17:41.000Z</time>
   </trkpt>
   <trkpt lat="-8.057019" lon="-34.897611">
    <ele>8.7</ele>
    <time>2020-01-22T22:17:42.000Z</time>
   </trkpt>
   <trkpt lat="-8.056985" lon="-34.897606">
    <ele>8.8</ele>
    <time>2020-01-22T22:17:43.000Z</time>
   </trkpt>
   <trkpt lat="-8.056952" lon="-34.897603">
    <ele>8.8</ele>
    <time>2020-01-22T22:17:44.000Z</time>
   </trkpt>
   <trkpt lat="-8.056924" lon="-34.897604">
    <ele>8.8</ele>
    <time>2020-01-22T22:17:45.000Z</time>
   </trkpt>
   <trkpt lat="-8.05688" lon="-34.897597">
    <ele>8.8</ele>
    <time>2020-01-22T22:17:47.000Z</time>
   </trkpt>
   <trkpt lat="-8.056791" lon="-34.89762">
    <ele>8.8</ele>
    <time>2020-01-22T22:17:50.000Z</time>
   </trkpt>
   <trkpt lat="-8.056745" lon="-34.897629">
    <ele>8.9</ele>
    <time>2020-01-22T22:17:52.000Z</time>
   </trkpt>
   <trkpt lat="-8.056698" lon="-34.897637">
    <ele>8.5</ele>
    <time>2020-01-22T22:17:54.000Z</time>
   </trkpt>
   <trkpt lat="-8.056652" lon="-34.897646">
    <ele>8.3</ele>
    <time>2020-01-22T22:18:12.000Z</time>
   </trkpt>
   <trkpt lat="-8.056605" lon="-34.897654">
    <ele>8</ele>
    <time>2020-01-22T22:18:13.000Z</time>
   </trkpt>
   <trkpt lat="-8.056549" lon="-34.897647">
    <ele>7.7</ele>
    <time>2020-01-22T22:18:14.000Z</time>
   </trkpt>
   <trkpt lat="-8.056497" lon="-34.897639">
    <ele>7</ele>
    <time>2020-01-22T22:18:15.000Z</time>
   </trkpt>
   <trkpt lat="-8.056439" lon="-34.897633">
    <ele>6.5</ele>
    <time>2020-01-22T22:18:16.000Z</time>
   </trkpt>
   <trkpt lat="-8.056381" lon="-34.897634">
    <ele>6.1</ele>
    <time>2020-01-22T22:18:17.000Z</time>
   </trkpt>
   <trkpt lat="-8.056316" lon="-34.897638">
    <ele>5.9</ele>
    <time>2020-01-22T22:18:18.000Z</time>
   </trkpt>
   <trkpt lat="-8.056235" lon="-34.897646">
    <ele>5.8</ele>
    <time>2020-01-22T22:18:19.000Z</time>
   </trkpt>
   <trkpt lat="-8.056163" lon="-34.897641">
    <ele>5.9</ele>
    <time>2020-01-22T22:18:20.000Z</time>
   </trkpt>
   <trkpt lat="-8.056088" lon="-34.897645">
    <ele>6</ele>
    <time>2020-01-22T22:18:21.000Z</time>
   </trkpt>
   <trkpt lat="-8.056006" lon="-34.897648">
    <ele>6.3</ele>
    <time>2020-01-22T22:18:22.000Z</time>
   </trkpt>
   <trkpt lat="-8.055925" lon="-34.897632">
    <ele>6.4</ele>
    <time>2020-01-22T22:18:23.000Z</time>
   </trkpt>
   <trkpt lat="-8.055845" lon="-34.897618">
    <ele>7</ele>
    <time>2020-01-22T22:18:24.000Z</time>
   </trkpt>
   <trkpt lat="-8.055771" lon="-34.897607">
    <ele>7.8</ele>
    <time>2020-01-22T22:18:25.000Z</time>
   </trkpt>
   <trkpt lat="-8.055692" lon="-34.89759">
    <ele>8.7</ele>
    <time>2020-01-22T22:18:26.000Z</time>
   </trkpt>
   <trkpt lat="-8.055618" lon="-34.89757">
    <ele>9.5</ele>
    <time>2020-01-22T22:18:27.000Z</time>
   </trkpt>
   <trkpt lat="-8.055545" lon="-34.897549">
    <ele>10.8</ele>
    <time>2020-01-22T22:18:28.000Z</time>
   </trkpt>
   <trkpt lat="-8.055481" lon="-34.897527">
    <ele>10.7</ele>
    <time>2020-01-22T22:18:29.000Z</time>
   </trkpt>
   <trkpt lat="-8.055408" lon="-34.897498">
    <ele>10.6</ele>
    <time>2020-01-22T22:18:30.000Z</time>
   </trkpt>
   <trkpt lat="-8.055333" lon="-34.897469">
    <ele>10.5</ele>
    <time>2020-01-22T22:18:31.000Z</time>
   </trkpt>
   <trkpt lat="-8.055256" lon="-34.89743">
    <ele>10.5</ele>
    <time>2020-01-22T22:18:32.000Z</time>
   </trkpt>
   <trkpt lat="-8.055187" lon="-34.897406">
    <ele>10.4</ele>
    <time>2020-01-22T22:18:33.000Z</time>
   </trkpt>
   <trkpt lat="-8.055107" lon="-34.897369">
    <ele>10.4</ele>
    <time>2020-01-22T22:18:34.000Z</time>
   </trkpt>
   <trkpt lat="-8.055048" lon="-34.897337">
    <ele>10.3</ele>
    <time>2020-01-22T22:18:35.000Z</time>
   </trkpt>
   <trkpt lat="-8.054983" lon="-34.897299">
    <ele>10.3</ele>
    <time>2020-01-22T22:18:36.000Z</time>
   </trkpt>
   <trkpt lat="-8.054919" lon="-34.897255">
    <ele>10.3</ele>
    <time>2020-01-22T22:18:37.000Z</time>
   </trkpt>
   <trkpt lat="-8.054853" lon="-34.897207">
    <ele>10.2</ele>
    <time>2020-01-22T22:18:38.000Z</time>
   </trkpt>
   <trkpt lat="-8.054788" lon="-34.897163">
    <ele>10.1</ele>
    <time>2020-01-22T22:18:39.000Z</time>
   </trkpt>
   <trkpt lat="-8.054729" lon="-34.897122">
    <ele>10.1</ele>
    <time>2020-01-22T22:18:40.000Z</time>
   </trkpt>
   <trkpt lat="-8.05466" lon="-34.89708">
    <ele>10</ele>
    <time>2020-01-22T22:18:41.000Z</time>
   </trkpt>
   <trkpt lat="-8.054595" lon="-34.897041">
    <ele>9.9</ele>
    <time>2020-01-22T22:18:42.000Z</time>
   </trkpt>
   <trkpt lat="-8.054539" lon="-34.897">
    <ele>9.8</ele>
    <time>2020-01-22T22:18:43.000Z</time>
   </trkpt>
   <trkpt lat="-8.054483" lon="-34.896954">
    <ele>9.7</ele>
    <time>2020-01-22T22:18:44.000Z</time>
   </trkpt>
   <trkpt lat="-8.05443" lon="-34.896915">
    <ele>9.6</ele>
    <time>2020-01-22T22:18:45.000Z</time>
   </trkpt>
   <trkpt lat="-8.054396" lon="-34.896884">
    <ele>9.5</ele>
    <time>2020-01-22T22:18:46.000Z</time>
   </trkpt>
   <trkpt lat="-8.054364" lon="-34.896848">
    <ele>9.3</ele>
    <time>2020-01-22T22:18:47.000Z</time>
   </trkpt>
   <trkpt lat="-8.05432" lon="-34.896812">
    <ele>9.1</ele>
    <time>2020-01-22T22:18:48.000Z</time>
   </trkpt>
   <trkpt lat="-8.054271" lon="-34.89678">
    <ele>9</ele>
    <time>2020-01-22T22:18:49.000Z</time>
   </trkpt>
   <trkpt lat="-8.054216" lon="-34.896741">
    <ele>8.8</ele>
    <time>2020-01-22T22:18:50.000Z</time>
   </trkpt>
   <trkpt lat="-8.054168" lon="-34.896701">
    <ele>8.6</ele>
    <time>2020-01-22T22:18:51.000Z</time>
   </trkpt>
   <trkpt lat="-8.054127" lon="-34.89666">
    <ele>8.5</ele>
    <time>2020-01-22T22:18:52.000Z</time>
   </trkpt>
   <trkpt lat="-8.054084" lon="-34.896623">
    <ele>8.3</ele>
    <time>2020-01-22T22:18:53.000Z</time>
   </trkpt>
   <trkpt lat="-8.054031" lon="-34.896579">
    <ele>8</ele>
    <time>2020-01-22T22:18:54.000Z</time>
   </trkpt>
   <trkpt lat="-8.053983" lon="-34.89654">
    <ele>7.8</ele>
    <time>2020-01-22T22:18:55.000Z</time>
   </trkpt>
   <trkpt lat="-8.053934" lon="-34.8965">
    <ele>7.5</ele>
    <time>2020-01-22T22:18:56.000Z</time>
   </trkpt>
   <trkpt lat="-8.053904" lon="-34.896468">
    <ele>7.3</ele>
    <time>2020-01-22T22:18:57.000Z</time>
   </trkpt>
   <trkpt lat="-8.053869" lon="-34.896438">
    <ele>7</ele>
    <time>2020-01-22T22:18:58.000Z</time>
   </trkpt>
   <trkpt lat="-8.053811" lon="-34.896394">
    <ele>6.5</ele>
    <time>2020-01-22T22:19:00.000Z</time>
   </trkpt>
   <trkpt lat="-8.053775" lon="-34.896367">
    <ele>6.2</ele>
    <time>2020-01-22T22:19:01.000Z</time>
   </trkpt>
   <trkpt lat="-8.053733" lon="-34.896337">
    <ele>5.7</ele>
    <time>2020-01-22T22:19:02.000Z</time>
   </trkpt>
   <trkpt lat="-8.05369" lon="-34.896313">
    <ele>5.3</ele>
    <time>2020-01-22T22:19:03.000Z</time>
   </trkpt>
   <trkpt lat="-8.053656" lon="-34.896282">
    <ele>4.8</ele>
    <time>2020-01-22T22:19:04.000Z</time>
   </trkpt>
   <trkpt lat="-8.05362" lon="-34.896253">
    <ele>4.5</ele>
    <time>2020-01-22T22:19:05.000Z</time>
   </trkpt>
   <trkpt lat="-8.053579" lon="-34.896234">
    <ele>4.2</ele>
    <time>2020-01-22T22:19:06.000Z</time>
   </trkpt>
   <trkpt lat="-8.053537" lon="-34.89621">
    <ele>4</ele>
    <time>2020-01-22T22:19:07.000Z</time>
   </trkpt>
   <trkpt lat="-8.053504" lon="-34.896191">
    <ele>3.8</ele>
    <time>2020-01-22T22:19:08.000Z</time>
   </trkpt>
   <trkpt lat="-8.053464" lon="-34.896147">
    <ele>3.6</ele>
    <time>2020-01-22T22:19:09.000Z</time>
   </trkpt>
   <trkpt lat="-8.053436" lon="-34.896121">
    <ele>3.4</ele>
    <time>2020-01-22T22:19:10.000Z</time>
   </trkpt>
   <trkpt lat="-8.053398" lon="-34.896084">
    <ele>3.2</ele>
    <time>2020-01-22T22:19:11.000Z</time>
   </trkpt>
   <trkpt lat="-8.053369" lon="-34.896057">
    <ele>2.9</ele>
    <time>2020-01-22T22:19:12.000Z</time>
   </trkpt>
   <trkpt lat="-8.053331" lon="-34.89602">
    <ele>2.7</ele>
    <time>2020-01-22T22:19:13.000Z</time>
   </trkpt>
   <trkpt lat="-8.053296" lon="-34.895993">
    <ele>2.4</ele>
    <time>2020-01-22T22:19:14.000Z</time>
   </trkpt>
   <trkpt lat="-8.053259" lon="-34.895963">
    <ele>2.2</ele>
    <time>2020-01-22T22:19:15.000Z</time>
   </trkpt>
   <trkpt lat="-8.053221" lon="-34.895935">
    <ele>2</ele>
    <time>2020-01-22T22:19:16.000Z</time>
   </trkpt>
   <trkpt lat="-8.05317" lon="-34.895906">
    <ele>1.8</ele>
    <time>2020-01-22T22:19:17.000Z</time>
   </trkpt>
   <trkpt lat="-8.05312" lon="-34.895876">
    <ele>1.7</ele>
    <time>2020-01-22T22:19:18.000Z</time>
   </trkpt>
   <trkpt lat="-8.053063" lon="-34.895836">
    <ele>1.9</ele>
    <time>2020-01-22T22:19:19.000Z</time>
   </trkpt>
   <trkpt lat="-8.053021" lon="-34.895811">
    <ele>3.2</ele>
    <time>2020-01-22T22:19:20.000Z</time>
   </trkpt>
   <trkpt lat="-8.052981" lon="-34.895785">
    <ele>4.3</ele>
    <time>2020-01-22T22:19:21.000Z</time>
   </trkpt>
   <trkpt lat="-8.052935" lon="-34.895761">
    <ele>5.6</ele>
    <time>2020-01-22T22:19:22.000Z</time>
   </trkpt>
   <trkpt lat="-8.052881" lon="-34.895732">
    <ele>7</ele>
    <time>2020-01-22T22:19:23.000Z</time>
   </trkpt>
   <trkpt lat="-8.052815" lon="-34.895704">
    <ele>8.4</ele>
    <time>2020-01-22T22:19:24.000Z</time>
   </trkpt>
   <trkpt lat="-8.052759" lon="-34.895673">
    <ele>9.3</ele>
    <time>2020-01-22T22:19:25.000Z</time>
   </trkpt>
   <trkpt lat="-8.052712" lon="-34.895638">
    <ele>10.2</ele>
    <time>2020-01-22T22:19:26.000Z</time>
   </trkpt>
   <trkpt lat="-8.052658" lon="-34.895601">
    <ele>11.1</ele>
    <time>2020-01-22T22:19:27.000Z</time>
   </trkpt>
   <trkpt lat="-8.052599" lon="-34.895567">
    <ele>11.2</ele>
    <time>2020-01-22T22:19:28.000Z</time>
   </trkpt>
   <trkpt lat="-8.052547" lon="-34.895537">
    <ele>11.3</ele>
    <time>2020-01-22T22:19:29.000Z</time>
   </trkpt>
   <trkpt lat="-8.052499" lon="-34.89551">
    <ele>11.3</ele>
    <time>2020-01-22T22:19:30.000Z</time>
   </trkpt>
   <trkpt lat="-8.052448" lon="-34.895479">
    <ele>10.5</ele>
    <time>2020-01-22T22:19:31.000Z</time>
   </trkpt>
   <trkpt lat="-8.052406" lon="-34.895438">
    <ele>10.2</ele>
    <time>2020-01-22T22:19:32.000Z</time>
   </trkpt>
   <trkpt lat="-8.052346" lon="-34.895394">
    <ele>9.6</ele>
    <time>2020-01-22T22:19:33.000Z</time>
   </trkpt>
   <trkpt lat="-8.052284" lon="-34.895355">
    <ele>9.2</ele>
    <time>2020-01-22T22:19:34.000Z</time>
   </trkpt>
   <trkpt lat="-8.052225" lon="-34.895327">
    <ele>8.8</ele>
    <time>2020-01-22T22:19:35.000Z</time>
   </trkpt>
   <trkpt lat="-8.052172" lon="-34.895294">
    <ele>8.6</ele>
    <time>2020-01-22T22:19:36.000Z</time>
   </trkpt>
   <trkpt lat="-8.052107" lon="-34.89526">
    <ele>8.2</ele>
    <time>2020-01-22T22:19:37.000Z</time>
   </trkpt>
   <trkpt lat="-8.052047" lon="-34.895219">
    <ele>7.9</ele>
    <time>2020-01-22T22:19:38.000Z</time>
   </trkpt>
   <trkpt lat="-8.051988" lon="-34.895181">
    <ele>7.7</ele>
    <time>2020-01-22T22:19:39.000Z</time>
   </trkpt>
   <trkpt lat="-8.051937" lon="-34.895143">
    <ele>7.6</ele>
    <time>2020-01-22T22:19:40.000Z</time>
   </trkpt>
   <trkpt lat="-8.051883" lon="-34.895102">
    <ele>7.4</ele>
    <time>2020-01-22T22:19:41.000Z</time>
   </trkpt>
   <trkpt lat="-8.051828" lon="-34.895075">
    <ele>7.3</ele>
    <time>2020-01-22T22:19:42.000Z</time>
   </trkpt>
   <trkpt lat="-8.051799" lon="-34.895059">
    <ele>7.3</ele>
    <time>2020-01-22T22:19:43.000Z</time>
   </trkpt>
   <trkpt lat="-8.051775" lon="-34.895038">
    <ele>7.3</ele>
    <time>2020-01-22T22:19:44.000Z</time>
   </trkpt>
   <trkpt lat="-8.051754" lon="-34.895016">
    <ele>7.2</ele>
    <time>2020-01-22T22:19:45.000Z</time>
   </trkpt>
   <trkpt lat="-8.051734" lon="-34.894988">
    <ele>7.2</ele>
    <time>2020-01-22T22:19:47.000Z</time>
   </trkpt>
   <trkpt lat="-8.051761" lon="-34.894998">
    <ele>7.2</ele>
    <time>2020-01-22T22:19:56.000Z</time>
   </trkpt>
   <trkpt lat="-8.051695" lon="-34.895025">
    <ele>6.5</ele>
    <time>2020-01-22T22:20:19.000Z</time>
   </trkpt>
   <trkpt lat="-8.051671" lon="-34.895049">
    <ele>6.5</ele>
    <time>2020-01-22T22:20:21.000Z</time>
   </trkpt>
   <trkpt lat="-8.051644" lon="-34.895051">
    <ele>6.5</ele>
    <time>2020-01-22T22:20:24.000Z</time>
   </trkpt>
   <trkpt lat="-8.051611" lon="-34.895058">
    <ele>6.5</ele>
    <time>2020-01-22T22:20:32.000Z</time>
   </trkpt>
   <trkpt lat="-8.05159" lon="-34.895031">
    <ele>6.2</ele>
    <time>2020-01-22T22:20:46.000Z</time>
   </trkpt>
   <trkpt lat="-8.051561" lon="-34.895024">
    <ele>6</ele>
    <time>2020-01-22T22:20:48.000Z</time>
   </trkpt>
   <trkpt lat="-8.051501" lon="-34.895008">
    <ele>5.7</ele>
    <time>2020-01-22T22:20:50.000Z</time>
   </trkpt>
   <trkpt lat="-8.051452" lon="-34.894965">
    <ele>5.4</ele>
    <time>2020-01-22T22:20:51.000Z</time>
   </trkpt>
   <trkpt lat="-8.051402" lon="-34.89491">
    <ele>5.1</ele>
    <time>2020-01-22T22:20:52.000Z</time>
   </trkpt>
   <trkpt lat="-8.051354" lon="-34.89487">
    <ele>4.8</ele>
    <time>2020-01-22T22:20:53.000Z</time>
   </trkpt>
   <trkpt lat="-8.051304" lon="-34.894815">
    <ele>4.4</ele>
    <time>2020-01-22T22:20:54.000Z</time>
   </trkpt>
   <trkpt lat="-8.051257" lon="-34.894779">
    <ele>4</ele>
    <time>2020-01-22T22:20:56.000Z</time>
   </trkpt>
   <trkpt lat="-8.051206" lon="-34.894739">
    <ele>3.5</ele>
    <time>2020-01-22T22:20:57.000Z</time>
   </trkpt>
   <trkpt lat="-8.05115" lon="-34.894694">
    <ele>2.9</ele>
    <time>2020-01-22T22:20:58.000Z</time>
   </trkpt>
   <trkpt lat="-8.051097" lon="-34.894648">
    <ele>2.1</ele>
    <time>2020-01-22T22:20:59.000Z</time>
   </trkpt>
   <trkpt lat="-8.051049" lon="-34.894613">
    <ele>1.3</ele>
    <time>2020-01-22T22:21:00.000Z</time>
   </trkpt>
   <trkpt lat="-8.050999" lon="-34.894576">
    <ele>0.6</ele>
    <time>2020-01-22T22:21:01.000Z</time>
   </trkpt>
   <trkpt lat="-8.050954" lon="-34.894536">
    <ele>0.1</ele>
    <time>2020-01-22T22:21:02.000Z</time>
   </trkpt>
   <trkpt lat="-8.050905" lon="-34.8945">
    <ele>-0.6</ele>
    <time>2020-01-22T22:21:03.000Z</time>
   </trkpt>
   <trkpt lat="-8.050854" lon="-34.894459">
    <ele>-1.4</ele>
    <time>2020-01-22T22:21:04.000Z</time>
   </trkpt>
   <trkpt lat="-8.050802" lon="-34.89442">
    <ele>-2.2</ele>
    <time>2020-01-22T22:21:05.000Z</time>
   </trkpt>
   <trkpt lat="-8.050754" lon="-34.894381">
    <ele>-3</ele>
    <time>2020-01-22T22:21:06.000Z</time>
   </trkpt>
   <trkpt lat="-8.050703" lon="-34.894347">
    <ele>-3</ele>
    <time>2020-01-22T22:21:07.000Z</time>
   </trkpt>
   <trkpt lat="-8.050652" lon="-34.894311">
    <ele>-2.9</ele>
    <time>2020-01-22T22:21:08.000Z</time>
   </trkpt>
   <trkpt lat="-8.050609" lon="-34.894268">
    <ele>-2.9</ele>
    <time>2020-01-22T22:21:09.000Z</time>
   </trkpt>
   <trkpt lat="-8.050559" lon="-34.894227">
    <ele>-3</ele>
    <time>2020-01-22T22:21:10.000Z</time>
   </trkpt>
   <trkpt lat="-8.050509" lon="-34.894186">
    <ele>-3.1</ele>
    <time>2020-01-22T22:21:11.000Z</time>
   </trkpt>
   <trkpt lat="-8.050462" lon="-34.894144">
    <ele>-3.2</ele>
    <time>2020-01-22T22:21:12.000Z</time>
   </trkpt>
   <trkpt lat="-8.05041" lon="-34.894103">
    <ele>-3.3</ele>
    <time>2020-01-22T22:21:13.000Z</time>
   </trkpt>
   <trkpt lat="-8.05036" lon="-34.894064">
    <ele>-3.4</ele>
    <time>2020-01-22T22:21:14.000Z</time>
   </trkpt>
   <trkpt lat="-8.050313" lon="-34.894017">
    <ele>-3.6</ele>
    <time>2020-01-22T22:21:15.000Z</time>
   </trkpt>
   <trkpt lat="-8.050268" lon="-34.89398">
    <ele>-3.7</ele>
    <time>2020-01-22T22:21:16.000Z</time>
   </trkpt>
   <trkpt lat="-8.050225" lon="-34.893945">
    <ele>-3.7</ele>
    <time>2020-01-22T22:21:17.000Z</time>
   </trkpt>
   <trkpt lat="-8.050165" lon="-34.893914">
    <ele>-3.8</ele>
    <time>2020-01-22T22:21:18.000Z</time>
   </trkpt>
   <trkpt lat="-8.050116" lon="-34.893878">
    <ele>-3.8</ele>
    <time>2020-01-22T22:21:19.000Z</time>
   </trkpt>
   <trkpt lat="-8.050066" lon="-34.893843">
    <ele>-3.8</ele>
    <time>2020-01-22T22:21:20.000Z</time>
   </trkpt>
   <trkpt lat="-8.050011" lon="-34.893818">
    <ele>-3.8</ele>
    <time>2020-01-22T22:21:21.000Z</time>
   </trkpt>
   <trkpt lat="-8.049963" lon="-34.893779">
    <ele>-3.7</ele>
    <time>2020-01-22T22:21:22.000Z</time>
   </trkpt>
   <trkpt lat="-8.049912" lon="-34.893745">
    <ele>-3.6</ele>
    <time>2020-01-22T22:21:23.000Z</time>
   </trkpt>
   <trkpt lat="-8.049863" lon="-34.893705">
    <ele>-3.5</ele>
    <time>2020-01-22T22:21:24.000Z</time>
   </trkpt>
   <trkpt lat="-8.049806" lon="-34.893668">
    <ele>-3.3</ele>
    <time>2020-01-22T22:21:25.000Z</time>
   </trkpt>
   <trkpt lat="-8.049754" lon="-34.89363">
    <ele>-3.2</ele>
    <time>2020-01-22T22:21:26.000Z</time>
   </trkpt>
   <trkpt lat="-8.049704" lon="-34.893594">
    <ele>-3</ele>
    <time>2020-01-22T22:21:27.000Z</time>
   </trkpt>
   <trkpt lat="-8.049658" lon="-34.893558">
    <ele>-2.9</ele>
    <time>2020-01-22T22:21:28.000Z</time>
   </trkpt>
   <trkpt lat="-8.049612" lon="-34.893519">
    <ele>-2.8</ele>
    <time>2020-01-22T22:21:29.000Z</time>
   </trkpt>
   <trkpt lat="-8.049571" lon="-34.893487">
    <ele>-2.6</ele>
    <time>2020-01-22T22:21:30.000Z</time>
   </trkpt>
   <trkpt lat="-8.049526" lon="-34.893453">
    <ele>-2.5</ele>
    <time>2020-01-22T22:21:31.000Z</time>
   </trkpt>
   <trkpt lat="-8.049479" lon="-34.893413">
    <ele>-2.3</ele>
    <time>2020-01-22T22:21:32.000Z</time>
   </trkpt>
   <trkpt lat="-8.049438" lon="-34.893366">
    <ele>-2.2</ele>
    <time>2020-01-22T22:21:33.000Z</time>
   </trkpt>
   <trkpt lat="-8.049387" lon="-34.893329">
    <ele>-2</ele>
    <time>2020-01-22T22:21:34.000Z</time>
   </trkpt>
   <trkpt lat="-8.049341" lon="-34.893291">
    <ele>-1.9</ele>
    <time>2020-01-22T22:21:35.000Z</time>
   </trkpt>
   <trkpt lat="-8.049291" lon="-34.893243">
    <ele>-1.7</ele>
    <time>2020-01-22T22:21:36.000Z</time>
   </trkpt>
   <trkpt lat="-8.049252" lon="-34.893208">
    <ele>-1.5</ele>
    <time>2020-01-22T22:21:37.000Z</time>
   </trkpt>
   <trkpt lat="-8.04921" lon="-34.89317">
    <ele>-1.4</ele>
    <time>2020-01-22T22:21:38.000Z</time>
   </trkpt>
   <trkpt lat="-8.049176" lon="-34.893134">
    <ele>-1.1</ele>
    <time>2020-01-22T22:21:39.000Z</time>
   </trkpt>
   <trkpt lat="-8.049132" lon="-34.893101">
    <ele>-0.9</ele>
    <time>2020-01-22T22:21:40.000Z</time>
   </trkpt>
   <trkpt lat="-8.049091" lon="-34.893069">
    <ele>-0.6</ele>
    <time>2020-01-22T22:21:41.000Z</time>
   </trkpt>
   <trkpt lat="-8.049046" lon="-34.893043">
    <ele>-0.2</ele>
    <time>2020-01-22T22:21:42.000Z</time>
   </trkpt>
   <trkpt lat="-8.049001" lon="-34.893016">
    <ele>0.4</ele>
    <time>2020-01-22T22:21:43.000Z</time>
   </trkpt>
   <trkpt lat="-8.048961" lon="-34.892992">
    <ele>0.8</ele>
    <time>2020-01-22T22:21:44.000Z</time>
   </trkpt>
   <trkpt lat="-8.048926" lon="-34.892964">
    <ele>1.2</ele>
    <time>2020-01-22T22:21:45.000Z</time>
   </trkpt>
   <trkpt lat="-8.048878" lon="-34.892942">
    <ele>1.6</ele>
    <time>2020-01-22T22:21:46.000Z</time>
   </trkpt>
   <trkpt lat="-8.048842" lon="-34.892909">
    <ele>2.1</ele>
    <time>2020-01-22T22:21:47.000Z</time>
   </trkpt>
   <trkpt lat="-8.048829" lon="-34.892884">
    <ele>2.5</ele>
    <time>2020-01-22T22:21:48.000Z</time>
   </trkpt>
   <trkpt lat="-8.048813" lon="-34.892857">
    <ele>3</ele>
    <time>2020-01-22T22:21:52.000Z</time>
   </trkpt>
   <trkpt lat="-8.048795" lon="-34.892834">
    <ele>3.1</ele>
    <time>2020-01-22T22:21:55.000Z</time>
   </trkpt>
   <trkpt lat="-8.048766" lon="-34.892864">
    <ele>3.1</ele>
    <time>2020-01-22T22:22:00.000Z</time>
   </trkpt>
   <trkpt lat="-8.048745" lon="-34.892912">
    <ele>3.1</ele>
    <time>2020-01-22T22:22:02.000Z</time>
   </trkpt>
   <trkpt lat="-8.048716" lon="-34.892958">
    <ele>2.8</ele>
    <time>2020-01-22T22:22:04.000Z</time>
   </trkpt>
   <trkpt lat="-8.048688" lon="-34.892989">
    <ele>2.7</ele>
    <time>2020-01-22T22:22:05.000Z</time>
   </trkpt>
   <trkpt lat="-8.048666" lon="-34.893028">
    <ele>2.6</ele>
    <time>2020-01-22T22:22:06.000Z</time>
   </trkpt>
   <trkpt lat="-8.048631" lon="-34.893074">
    <ele>4.2</ele>
    <time>2020-01-22T22:22:07.000Z</time>
   </trkpt>
   <trkpt lat="-8.048608" lon="-34.893117">
    <ele>5.5</ele>
    <time>2020-01-22T22:22:08.000Z</time>
   </trkpt>
   <trkpt lat="-8.048588" lon="-34.893176">
    <ele>7.1</ele>
    <time>2020-01-22T22:22:09.000Z</time>
   </trkpt>
   <trkpt lat="-8.048552" lon="-34.893244">
    <ele>8</ele>
    <time>2020-01-22T22:22:10.000Z</time>
   </trkpt>
   <trkpt lat="-8.048513" lon="-34.893303">
    <ele>8</ele>
    <time>2020-01-22T22:22:11.000Z</time>
   </trkpt>
   <trkpt lat="-8.048475" lon="-34.893365">
    <ele>8</ele>
    <time>2020-01-22T22:22:12.000Z</time>
   </trkpt>
   <trkpt lat="-8.04844" lon="-34.893425">
    <ele>8</ele>
    <time>2020-01-22T22:22:13.000Z</time>
   </trkpt>
   <trkpt lat="-8.048395" lon="-34.893492">
    <ele>8</ele>
    <time>2020-01-22T22:22:14.000Z</time>
   </trkpt>
   <trkpt lat="-8.048365" lon="-34.893558">
    <ele>8</ele>
    <time>2020-01-22T22:22:15.000Z</time>
   </trkpt>
   <trkpt lat="-8.048328" lon="-34.89362">
    <ele>8</ele>
    <time>2020-01-22T22:22:16.000Z</time>
   </trkpt>
   <trkpt lat="-8.048294" lon="-34.893684">
    <ele>8</ele>
    <time>2020-01-22T22:22:17.000Z</time>
   </trkpt>
   <trkpt lat="-8.048264" lon="-34.893745">
    <ele>8</ele>
    <time>2020-01-22T22:22:18.000Z</time>
   </trkpt>
   <trkpt lat="-8.048256" lon="-34.893799">
    <ele>8</ele>
    <time>2020-01-22T22:22:19.000Z</time>
   </trkpt>
   <trkpt lat="-8.048234" lon="-34.893839">
    <ele>8.1</ele>
    <time>2020-01-22T22:22:20.000Z</time>
   </trkpt>
   <trkpt lat="-8.048212" lon="-34.893877">
    <ele>8.1</ele>
    <time>2020-01-22T22:22:21.000Z</time>
   </trkpt>
   <trkpt lat="-8.048181" lon="-34.893927">
    <ele>8.2</ele>
    <time>2020-01-22T22:22:22.000Z</time>
   </trkpt>
   <trkpt lat="-8.048151" lon="-34.893986">
    <ele>8.4</ele>
    <time>2020-01-22T22:22:23.000Z</time>
   </trkpt>
   <trkpt lat="-8.048128" lon="-34.894029">
    <ele>8.6</ele>
    <time>2020-01-22T22:22:24.000Z</time>
   </trkpt>
   <trkpt lat="-8.048102" lon="-34.894082">
    <ele>8.7</ele>
    <time>2020-01-22T22:22:25.000Z</time>
   </trkpt>
   <trkpt lat="-8.048077" lon="-34.894132">
    <ele>8.8</ele>
    <time>2020-01-22T22:22:26.000Z</time>
   </trkpt>
   <trkpt lat="-8.048052" lon="-34.894179">
    <ele>8.9</ele>
    <time>2020-01-22T22:22:27.000Z</time>
   </trkpt>
   <trkpt lat="-8.048024" lon="-34.894236">
    <ele>8.9</ele>
    <time>2020-01-22T22:22:28.000Z</time>
   </trkpt>
   <trkpt lat="-8.047993" lon="-34.894302">
    <ele>9</ele>
    <time>2020-01-22T22:22:29.000Z</time>
   </trkpt>
   <trkpt lat="-8.047965" lon="-34.894358">
    <ele>9.2</ele>
    <time>2020-01-22T22:22:30.000Z</time>
   </trkpt>
   <trkpt lat="-8.04794" lon="-34.894412">
    <ele>9.4</ele>
    <time>2020-01-22T22:22:31.000Z</time>
   </trkpt>
   <trkpt lat="-8.047922" lon="-34.894468">
    <ele>9.7</ele>
    <time>2020-01-22T22:22:32.000Z</time>
   </trkpt>
   <trkpt lat="-8.047907" lon="-34.894535">
    <ele>10.1</ele>
    <time>2020-01-22T22:22:33.000Z</time>
   </trkpt>
   <trkpt lat="-8.047891" lon="-34.894582">
    <ele>10.3</ele>
    <time>2020-01-22T22:22:34.000Z</time>
   </trkpt>
   <trkpt lat="-8.047871" lon="-34.894633">
    <ele>10.5</ele>
    <time>2020-01-22T22:22:35.000Z</time>
   </trkpt>
   <trkpt lat="-8.047858" lon="-34.894677">
    <ele>10.6</ele>
    <time>2020-01-22T22:22:36.000Z</time>
   </trkpt>
   <trkpt lat="-8.047833" lon="-34.894729">
    <ele>10.8</ele>
    <time>2020-01-22T22:22:37.000Z</time>
   </trkpt>
   <trkpt lat="-8.047806" lon="-34.894787">
    <ele>10.9</ele>
    <time>2020-01-22T22:22:38.000Z</time>
   </trkpt>
   <trkpt lat="-8.047773" lon="-34.89483">
    <ele>11</ele>
    <time>2020-01-22T22:22:39.000Z</time>
   </trkpt>
   <trkpt lat="-8.04775" lon="-34.894875">
    <ele>11.1</ele>
    <time>2020-01-22T22:22:40.000Z</time>
   </trkpt>
   <trkpt lat="-8.047723" lon="-34.894909">
    <ele>11.2</ele>
    <time>2020-01-22T22:22:41.000Z</time>
   </trkpt>
   <trkpt lat="-8.047713" lon="-34.894938">
    <ele>11.3</ele>
    <time>2020-01-22T22:22:42.000Z</time>
   </trkpt>
   <trkpt lat="-8.047694" lon="-34.89498">
    <ele>11.5</ele>
    <time>2020-01-22T22:22:43.000Z</time>
   </trkpt>
   <trkpt lat="-8.047678" lon="-34.895036">
    <ele>11.6</ele>
    <time>2020-01-22T22:22:44.000Z</time>
   </trkpt>
   <trkpt lat="-8.04765" lon="-34.895075">
    <ele>11.7</ele>
    <time>2020-01-22T22:22:45.000Z</time>
   </trkpt>
   <trkpt lat="-8.047647" lon="-34.895108">
    <ele>11.8</ele>
    <time>2020-01-22T22:22:46.000Z</time>
   </trkpt>
   <trkpt lat="-8.047654" lon="-34.895137">
    <ele>11.9</ele>
    <time>2020-01-22T22:22:47.000Z</time>
   </trkpt>
   <trkpt lat="-8.047679" lon="-34.895158">
    <ele>11.4</ele>
    <time>2020-01-22T22:22:48.000Z</time>
   </trkpt>
   <trkpt lat="-8.047717" lon="-34.89519">
    <ele>11.2</ele>
    <time>2020-01-22T22:22:49.000Z</time>
   </trkpt>
   <trkpt lat="-8.047766" lon="-34.895225">
    <ele>11</ele>
    <time>2020-01-22T22:22:50.000Z</time>
   </trkpt>
   <trkpt lat="-8.047826" lon="-34.895256">
    <ele>10.7</ele>
    <time>2020-01-22T22:22:51.000Z</time>
   </trkpt>
   <trkpt lat="-8.047877" lon="-34.8953">
    <ele>10.5</ele>
    <time>2020-01-22T22:22:52.000Z</time>
   </trkpt>
   <trkpt lat="-8.047936" lon="-34.895326">
    <ele>10.2</ele>
    <time>2020-01-22T22:22:53.000Z</time>
   </trkpt>
   <trkpt lat="-8.047989" lon="-34.895365">
    <ele>10</ele>
    <time>2020-01-22T22:22:54.000Z</time>
   </trkpt>
   <trkpt lat="-8.048046" lon="-34.895404">
    <ele>9.6</ele>
    <time>2020-01-22T22:22:55.000Z</time>
   </trkpt>
   <trkpt lat="-8.048102" lon="-34.89544">
    <ele>9.4</ele>
    <time>2020-01-22T22:22:56.000Z</time>
   </trkpt>
   <trkpt lat="-8.048155" lon="-34.895481">
    <ele>9.2</ele>
    <time>2020-01-22T22:22:57.000Z</time>
   </trkpt>
   <trkpt lat="-8.048204" lon="-34.895522">
    <ele>8.9</ele>
    <time>2020-01-22T22:22:58.000Z</time>
   </trkpt>
   <trkpt lat="-8.04824" lon="-34.895569">
    <ele>9.3</ele>
    <time>2020-01-22T22:22:59.000Z</time>
   </trkpt>
   <trkpt lat="-8.048271" lon="-34.895615">
    <ele>9.6</ele>
    <time>2020-01-22T22:23:00.000Z</time>
   </trkpt>
   <trkpt lat="-8.048304" lon="-34.89567">
    <ele>9.9</ele>
    <time>2020-01-22T22:23:01.000Z</time>
   </trkpt>
   <trkpt lat="-8.048342" lon="-34.895721">
    <ele>10.2</ele>
    <time>2020-01-22T22:23:02.000Z</time>
   </trkpt>
   <trkpt lat="-8.048382" lon="-34.895766">
    <ele>10.5</ele>
    <time>2020-01-22T22:23:03.000Z</time>
   </trkpt>
   <trkpt lat="-8.048422" lon="-34.895813">
    <ele>10.7</ele>
    <time>2020-01-22T22:23:04.000Z</time>
   </trkpt>
   <trkpt lat="-8.04846" lon="-34.89586">
    <ele>10.8</ele>
    <time>2020-01-22T22:23:05.000Z</time>
   </trkpt>
   <trkpt lat="-8.048491" lon="-34.895899">
    <ele>11</ele>
    <time>2020-01-22T22:23:06.000Z</time>
   </trkpt>
   <trkpt lat="-8.048523" lon="-34.89594">
    <ele>11.2</ele>
    <time>2020-01-22T22:23:07.000Z</time>
   </trkpt>
   <trkpt lat="-8.048558" lon="-34.895978">
    <ele>11.3</ele>
    <time>2020-01-22T22:23:08.000Z</time>
   </trkpt>
   <trkpt lat="-8.048595" lon="-34.896012">
    <ele>11.5</ele>
    <time>2020-01-22T22:23:09.000Z</time>
   </trkpt>
   <trkpt lat="-8.048633" lon="-34.896038">
    <ele>11.7</ele>
    <time>2020-01-22T22:23:10.000Z</time>
   </trkpt>
   <trkpt lat="-8.048667" lon="-34.896065">
    <ele>11.8</ele>
    <time>2020-01-22T22:23:11.000Z</time>
   </trkpt>
   <trkpt lat="-8.048703" lon="-34.896099">
    <ele>11.8</ele>
    <time>2020-01-22T22:23:12.000Z</time>
   </trkpt>
   <trkpt lat="-8.048735" lon="-34.896131">
    <ele>11.9</ele>
    <time>2020-01-22T22:23:13.000Z</time>
   </trkpt>
   <trkpt lat="-8.04876" lon="-34.896162">
    <ele>11.9</ele>
    <time>2020-01-22T22:23:14.000Z</time>
   </trkpt>
   <trkpt lat="-8.048785" lon="-34.896195">
    <ele>11.9</ele>
    <time>2020-01-22T22:23:15.000Z</time>
   </trkpt>
   <trkpt lat="-8.048818" lon="-34.896236">
    <ele>12</ele>
    <time>2020-01-22T22:23:17.000Z</time>
   </trkpt>
   <trkpt lat="-8.04884" lon="-34.896257">
    <ele>12</ele>
    <time>2020-01-22T22:23:18.000Z</time>
   </trkpt>
   <trkpt lat="-8.048856" lon="-34.89628">
    <ele>12</ele>
    <time>2020-01-22T22:23:19.000Z</time>
   </trkpt>
   <trkpt lat="-8.048895" lon="-34.896297">
    <ele>12</ele>
    <time>2020-01-22T22:23:24.000Z</time>
   </trkpt>
   <trkpt lat="-8.048894" lon="-34.896326">
    <ele>12.1</ele>
    <time>2020-01-22T22:23:29.000Z</time>
   </trkpt>
   <trkpt lat="-8.048909" lon="-34.896362">
    <ele>12.1</ele>
    <time>2020-01-22T22:23:33.000Z</time>
   </trkpt>
   <trkpt lat="-8.048921" lon="-34.896397">
    <ele>12.1</ele>
    <time>2020-01-22T22:23:35.000Z</time>
   </trkpt>
   <trkpt lat="-8.048901" lon="-34.896438">
    <ele>12.1</ele>
    <time>2020-01-22T22:23:37.000Z</time>
   </trkpt>
   <trkpt lat="-8.048853" lon="-34.896486">
    <ele>12.1</ele>
    <time>2020-01-22T22:23:39.000Z</time>
   </trkpt>
   <trkpt lat="-8.048821" lon="-34.896524">
    <ele>12.1</ele>
    <time>2020-01-22T22:23:40.000Z</time>
   </trkpt>
   <trkpt lat="-8.048787" lon="-34.896548">
    <ele>11.9</ele>
    <time>2020-01-22T22:23:41.000Z</time>
   </trkpt>
   <trkpt lat="-8.048746" lon="-34.896571">
    <ele>11.7</ele>
    <time>2020-01-22T22:23:42.000Z</time>
   </trkpt>
   <trkpt lat="-8.04871" lon="-34.896587">
    <ele>11.5</ele>
    <time>2020-01-22T22:23:43.000Z</time>
   </trkpt>
   <trkpt lat="-8.048671" lon="-34.896598">
    <ele>11.3</ele>
    <time>2020-01-22T22:23:44.000Z</time>
   </trkpt>
   <trkpt lat="-8.048637" lon="-34.896615">
    <ele>11.2</ele>
    <time>2020-01-22T22:23:45.000Z</time>
   </trkpt>
   <trkpt lat="-8.048599" lon="-34.896632">
    <ele>11.1</ele>
    <time>2020-01-22T22:23:47.000Z</time>
   </trkpt>
   <trkpt lat="-8.04856" lon="-34.896635">
    <ele>10.9</ele>
    <time>2020-01-22T22:23:49.000Z</time>
   </trkpt>
   <trkpt lat="-8.048526" lon="-34.896655">
    <ele>10.8</ele>
    <time>2020-01-22T22:23:52.000Z</time>
   </trkpt>
   <trkpt lat="-8.048497" lon="-34.896691">
    <ele>10.6</ele>
    <time>2020-01-22T22:23:54.000Z</time>
   </trkpt>
   <trkpt lat="-8.04847" lon="-34.896715">
    <ele>10.5</ele>
    <time>2020-01-22T22:23:59.000Z</time>
   </trkpt>
   <trkpt lat="-8.048443" lon="-34.896742">
    <ele>10.4</ele>
    <time>2020-01-22T22:24:01.000Z</time>
   </trkpt>
   <trkpt lat="-8.048398" lon="-34.896745">
    <ele>10.3</ele>
    <time>2020-01-22T22:24:03.000Z</time>
   </trkpt>
   <trkpt lat="-8.048365" lon="-34.896749">
    <ele>10.2</ele>
    <time>2020-01-22T22:24:06.000Z</time>
   </trkpt>
   <trkpt lat="-8.048326" lon="-34.896762">
    <ele>10.1</ele>
    <time>2020-01-22T22:24:09.000Z</time>
   </trkpt>
   <trkpt lat="-8.048299" lon="-34.896773">
    <ele>10.1</ele>
    <time>2020-01-22T22:24:11.000Z</time>
   </trkpt>
   <trkpt lat="-8.048269" lon="-34.896786">
    <ele>10.2</ele>
    <time>2020-01-22T22:24:12.000Z</time>
   </trkpt>
   <trkpt lat="-8.048235" lon="-34.896807">
    <ele>10.4</ele>
    <time>2020-01-22T22:24:13.000Z</time>
   </trkpt>
   <trkpt lat="-8.0482" lon="-34.896822">
    <ele>10.5</ele>
    <time>2020-01-22T22:24:14.000Z</time>
   </trkpt>
   <trkpt lat="-8.048158" lon="-34.896837">
    <ele>10.7</ele>
    <time>2020-01-22T22:24:15.000Z</time>
   </trkpt>
   <trkpt lat="-8.048094" lon="-34.896864">
    <ele>11.2</ele>
    <time>2020-01-22T22:24:16.000Z</time>
   </trkpt>
   <trkpt lat="-8.048033" lon="-34.896888">
    <ele>11.4</ele>
    <time>2020-01-22T22:24:17.000Z</time>
   </trkpt>
   <trkpt lat="-8.047976" lon="-34.896904">
    <ele>12.2</ele>
    <time>2020-01-22T22:24:18.000Z</time>
   </trkpt>
   <trkpt lat="-8.047923" lon="-34.89692">
    <ele>12.4</ele>
    <time>2020-01-22T22:24:19.000Z</time>
   </trkpt>
   <trkpt lat="-8.047875" lon="-34.896934">
    <ele>12.5</ele>
    <time>2020-01-22T22:24:20.000Z</time>
   </trkpt>
   <trkpt lat="-8.047823" lon="-34.896949">
    <ele>12.7</ele>
    <time>2020-01-22T22:24:21.000Z</time>
   </trkpt>
   <trkpt lat="-8.047774" lon="-34.89696">
    <ele>12.8</ele>
    <time>2020-01-22T22:24:22.000Z</time>
   </trkpt>
   <trkpt lat="-8.047721" lon="-34.896962">
    <ele>13</ele>
    <time>2020-01-22T22:24:23.000Z</time>
   </trkpt>
   <trkpt lat="-8.047676" lon="-34.896959">
    <ele>13.1</ele>
    <time>2020-01-22T22:24:24.000Z</time>
   </trkpt>
   <trkpt lat="-8.047636" lon="-34.896914">
    <ele>13.4</ele>
    <time>2020-01-22T22:24:25.000Z</time>
   </trkpt>
   <trkpt lat="-8.047597" lon="-34.896861">
    <ele>13.8</ele>
    <time>2020-01-22T22:24:26.000Z</time>
   </trkpt>
   <trkpt lat="-8.047547" lon="-34.896833">
    <ele>14</ele>
    <time>2020-01-22T22:24:27.000Z</time>
   </trkpt>
   <trkpt lat="-8.047514" lon="-34.896788">
    <ele>14.2</ele>
    <time>2020-01-22T22:24:28.000Z</time>
   </trkpt>
   <trkpt lat="-8.047482" lon="-34.896739">
    <ele>14.4</ele>
    <time>2020-01-22T22:24:29.000Z</time>
   </trkpt>
   <trkpt lat="-8.047458" lon="-34.89669">
    <ele>14.6</ele>
    <time>2020-01-22T22:24:30.000Z</time>
   </trkpt>
   <trkpt lat="-8.047418" lon="-34.896639">
    <ele>14.9</ele>
    <time>2020-01-22T22:24:31.000Z</time>
   </trkpt>
   <trkpt lat="-8.04739" lon="-34.896588">
    <ele>15.1</ele>
    <time>2020-01-22T22:24:32.000Z</time>
   </trkpt>
   <trkpt lat="-8.047359" lon="-34.896535">
    <ele>15.4</ele>
    <time>2020-01-22T22:24:33.000Z</time>
   </trkpt>
   <trkpt lat="-8.047334" lon="-34.896492">
    <ele>15.6</ele>
    <time>2020-01-22T22:24:34.000Z</time>
   </trkpt>
   <trkpt lat="-8.047311" lon="-34.896449">
    <ele>15.9</ele>
    <time>2020-01-22T22:24:35.000Z</time>
   </trkpt>
   <trkpt lat="-8.047264" lon="-34.896426">
    <ele>16.2</ele>
    <time>2020-01-22T22:24:36.000Z</time>
   </trkpt>
   <trkpt lat="-8.047215" lon="-34.896395">
    <ele>16.6</ele>
    <time>2020-01-22T22:24:37.000Z</time>
   </trkpt>
   <trkpt lat="-8.047177" lon="-34.896359">
    <ele>16.9</ele>
    <time>2020-01-22T22:24:38.000Z</time>
   </trkpt>
   <trkpt lat="-8.047116" lon="-34.89633">
    <ele>17.3</ele>
    <time>2020-01-22T22:24:39.000Z</time>
   </trkpt>
   <trkpt lat="-8.04708" lon="-34.896275">
    <ele>17.7</ele>
    <time>2020-01-22T22:24:40.000Z</time>
   </trkpt>
   <trkpt lat="-8.04704" lon="-34.896225">
    <ele>18</ele>
    <time>2020-01-22T22:24:41.000Z</time>
   </trkpt>
   <trkpt lat="-8.046995" lon="-34.896168">
    <ele>18.3</ele>
    <time>2020-01-22T22:24:42.000Z</time>
   </trkpt>
   <trkpt lat="-8.046948" lon="-34.896111">
    <ele>18.7</ele>
    <time>2020-01-22T22:24:43.000Z</time>
   </trkpt>
   <trkpt lat="-8.0469" lon="-34.896067">
    <ele>19</ele>
    <time>2020-01-22T22:24:44.000Z</time>
   </trkpt>
   <trkpt lat="-8.04686" lon="-34.896029">
    <ele>19.3</ele>
    <time>2020-01-22T22:24:45.000Z</time>
   </trkpt>
   <trkpt lat="-8.046836" lon="-34.896002">
    <ele>19.4</ele>
    <time>2020-01-22T22:24:46.000Z</time>
   </trkpt>
   <trkpt lat="-8.046802" lon="-34.895972">
    <ele>19.6</ele>
    <time>2020-01-22T22:24:47.000Z</time>
   </trkpt>
   <trkpt lat="-8.046766" lon="-34.895944">
    <ele>19.9</ele>
    <time>2020-01-22T22:24:48.000Z</time>
   </trkpt>
   <trkpt lat="-8.046724" lon="-34.895912">
    <ele>20.1</ele>
    <time>2020-01-22T22:24:49.000Z</time>
   </trkpt>
   <trkpt lat="-8.046682" lon="-34.895872">
    <ele>20.4</ele>
    <time>2020-01-22T22:24:50.000Z</time>
   </trkpt>
   <trkpt lat="-8.046644" lon="-34.89583">
    <ele>20.6</ele>
    <time>2020-01-22T22:24:51.000Z</time>
   </trkpt>
   <trkpt lat="-8.046614" lon="-34.8958">
    <ele>20.8</ele>
    <time>2020-01-22T22:24:52.000Z</time>
   </trkpt>
   <trkpt lat="-8.046585" lon="-34.89577">
    <ele>21</ele>
    <time>2020-01-22T22:24:53.000Z</time>
   </trkpt>
   <trkpt lat="-8.046555" lon="-34.895742">
    <ele>21.2</ele>
    <time>2020-01-22T22:24:54.000Z</time>
   </trkpt>
   <trkpt lat="-8.046509" lon="-34.895723">
    <ele>21.5</ele>
    <time>2020-01-22T22:24:55.000Z</time>
   </trkpt>
   <trkpt lat="-8.046462" lon="-34.895712">
    <ele>21.7</ele>
    <time>2020-01-22T22:24:56.000Z</time>
   </trkpt>
   <trkpt lat="-8.046416" lon="-34.895701">
    <ele>21.8</ele>
    <time>2020-01-22T22:24:57.000Z</time>
   </trkpt>
   <trkpt lat="-8.046377" lon="-34.895699">
    <ele>22</ele>
    <time>2020-01-22T22:24:58.000Z</time>
   </trkpt>
   <trkpt lat="-8.046338" lon="-34.895669">
    <ele>22.2</ele>
    <time>2020-01-22T22:25:00.000Z</time>
   </trkpt>
   <trkpt lat="-8.046299" lon="-34.89563">
    <ele>22.3</ele>
    <time>2020-01-22T22:25:02.000Z</time>
   </trkpt>
   <trkpt lat="-8.046269" lon="-34.895603">
    <ele>22.5</ele>
    <time>2020-01-22T22:25:04.000Z</time>
   </trkpt>
   <trkpt lat="-8.04625" lon="-34.89558">
    <ele>22.5</ele>
    <time>2020-01-22T22:25:07.000Z</time>
   </trkpt>
   <trkpt lat="-8.046237" lon="-34.895553">
    <ele>22.6</ele>
    <time>2020-01-22T22:25:11.000Z</time>
   </trkpt>
   <trkpt lat="-8.046209" lon="-34.895451">
    <ele>22.8</ele>
    <time>2020-01-22T22:25:23.000Z</time>
   </trkpt>
   <trkpt lat="-8.046168" lon="-34.895427">
    <ele>23</ele>
    <time>2020-01-22T22:25:25.000Z</time>
   </trkpt>
   <trkpt lat="-8.046136" lon="-34.895415">
    <ele>23.1</ele>
    <time>2020-01-22T22:25:26.000Z</time>
   </trkpt>
   <trkpt lat="-8.0461" lon="-34.895397">
    <ele>23.2</ele>
    <time>2020-01-22T22:25:27.000Z</time>
   </trkpt>
   <trkpt lat="-8.046056" lon="-34.895394">
    <ele>23.3</ele>
    <time>2020-01-22T22:25:28.000Z</time>
   </trkpt>
   <trkpt lat="-8.046012" lon="-34.895394">
    <ele>23.4</ele>
    <time>2020-01-22T22:25:29.000Z</time>
   </trkpt>
   <trkpt lat="-8.045957" lon="-34.895389">
    <ele>23.6</ele>
    <time>2020-01-22T22:25:30.000Z</time>
   </trkpt>
   <trkpt lat="-8.045912" lon="-34.895391">
    <ele>23.8</ele>
    <time>2020-01-22T22:25:31.000Z</time>
   </trkpt>
   <trkpt lat="-8.045881" lon="-34.895375">
    <ele>24.2</ele>
    <time>2020-01-22T22:25:32.000Z</time>
   </trkpt>
   <trkpt lat="-8.045854" lon="-34.895348">
    <ele>23.8</ele>
    <time>2020-01-22T22:25:33.000Z</time>
   </trkpt>
   <trkpt lat="-8.045835" lon="-34.895325">
    <ele>23.6</ele>
    <time>2020-01-22T22:25:34.000Z</time>
   </trkpt>
   <trkpt lat="-8.045814" lon="-34.895294">
    <ele>23.2</ele>
    <time>2020-01-22T22:25:35.000Z</time>
   </trkpt>
   <trkpt lat="-8.045792" lon="-34.895277">
    <ele>22.9</ele>
    <time>2020-01-22T22:25:36.000Z</time>
   </trkpt>
   <trkpt lat="-8.04575" lon="-34.895256">
    <ele>22.5</ele>
    <time>2020-01-22T22:25:38.000Z</time>
   </trkpt>
   <trkpt lat="-8.045689" lon="-34.895232">
    <ele>21.9</ele>
    <time>2020-01-22T22:25:40.000Z</time>
   </trkpt>
   <trkpt lat="-8.04565" lon="-34.895208">
    <ele>21.6</ele>
    <time>2020-01-22T22:25:41.000Z</time>
   </trkpt>
   <trkpt lat="-8.045613" lon="-34.89518">
    <ele>21.3</ele>
    <time>2020-01-22T22:25:42.000Z</time>
   </trkpt>
   <trkpt lat="-8.045571" lon="-34.895148">
    <ele>21</ele>
    <time>2020-01-22T22:25:43.000Z</time>
   </trkpt>
   <trkpt lat="-8.045532" lon="-34.895111">
    <ele>20.7</ele>
    <time>2020-01-22T22:25:44.000Z</time>
   </trkpt>
   <trkpt lat="-8.045484" lon="-34.89508">
    <ele>20.5</ele>
    <time>2020-01-22T22:25:45.000Z</time>
   </trkpt>
   <trkpt lat="-8.045448" lon="-34.895041">
    <ele>20.2</ele>
    <time>2020-01-22T22:25:46.000Z</time>
   </trkpt>
   <trkpt lat="-8.045404" lon="-34.89501">
    <ele>19.8</ele>
    <time>2020-01-22T22:25:47.000Z</time>
   </trkpt>
   <trkpt lat="-8.045359" lon="-34.894974">
    <ele>19.4</ele>
    <time>2020-01-22T22:25:48.000Z</time>
   </trkpt>
   <trkpt lat="-8.04531" lon="-34.894935">
    <ele>19</ele>
    <time>2020-01-22T22:25:49.000Z</time>
   </trkpt>
   <trkpt lat="-8.045269" lon="-34.894894">
    <ele>18.7</ele>
    <time>2020-01-22T22:25:50.000Z</time>
   </trkpt>
   <trkpt lat="-8.045234" lon="-34.894848">
    <ele>18.3</ele>
    <time>2020-01-22T22:25:51.000Z</time>
   </trkpt>
   <trkpt lat="-8.045192" lon="-34.894812">
    <ele>18</ele>
    <time>2020-01-22T22:25:52.000Z</time>
   </trkpt>
   <trkpt lat="-8.045152" lon="-34.894772">
    <ele>17.8</ele>
    <time>2020-01-22T22:25:53.000Z</time>
   </trkpt>
   <trkpt lat="-8.045116" lon="-34.894735">
    <ele>17.5</ele>
    <time>2020-01-22T22:25:54.000Z</time>
   </trkpt>
   <trkpt lat="-8.045079" lon="-34.894699">
    <ele>17.3</ele>
    <time>2020-01-22T22:25:55.000Z</time>
   </trkpt>
   <trkpt lat="-8.045044" lon="-34.894664">
    <ele>17</ele>
    <time>2020-01-22T22:25:56.000Z</time>
   </trkpt>
   <trkpt lat="-8.045008" lon="-34.894635">
    <ele>16.8</ele>
    <time>2020-01-22T22:25:57.000Z</time>
   </trkpt>
   <trkpt lat="-8.044967" lon="-34.894597">
    <ele>16.5</ele>
    <time>2020-01-22T22:25:58.000Z</time>
   </trkpt>
   <trkpt lat="-8.044924" lon="-34.894566">
    <ele>16.3</ele>
    <time>2020-01-22T22:25:59.000Z</time>
   </trkpt>
   <trkpt lat="-8.044885" lon="-34.894537">
    <ele>16</ele>
    <time>2020-01-22T22:26:00.000Z</time>
   </trkpt>
   <trkpt lat="-8.044833" lon="-34.894519">
    <ele>15.8</ele>
    <time>2020-01-22T22:26:01.000Z</time>
   </trkpt>
   <trkpt lat="-8.0448" lon="-34.894498">
    <ele>15.5</ele>
    <time>2020-01-22T22:26:02.000Z</time>
   </trkpt>
   <trkpt lat="-8.04477" lon="-34.894478">
    <ele>15.4</ele>
    <time>2020-01-22T22:26:03.000Z</time>
   </trkpt>
   <trkpt lat="-8.044742" lon="-34.894466">
    <ele>15.2</ele>
    <time>2020-01-22T22:26:04.000Z</time>
   </trkpt>
   <trkpt lat="-8.044711" lon="-34.894453">
    <ele>15.1</ele>
    <time>2020-01-22T22:26:05.000Z</time>
   </trkpt>
   <trkpt lat="-8.044672" lon="-34.894424">
    <ele>14.8</ele>
    <time>2020-01-22T22:26:06.000Z</time>
   </trkpt>
   <trkpt lat="-8.044638" lon="-34.894393">
    <ele>14.6</ele>
    <time>2020-01-22T22:26:07.000Z</time>
   </trkpt>
   <trkpt lat="-8.044601" lon="-34.894363">
    <ele>14.4</ele>
    <time>2020-01-22T22:26:08.000Z</time>
   </trkpt>
   <trkpt lat="-8.04456" lon="-34.894318">
    <ele>14.2</ele>
    <time>2020-01-22T22:26:09.000Z</time>
   </trkpt>
   <trkpt lat="-8.044525" lon="-34.894266">
    <ele>13.9</ele>
    <time>2020-01-22T22:26:10.000Z</time>
   </trkpt>
   <trkpt lat="-8.044479" lon="-34.894222">
    <ele>13.7</ele>
    <time>2020-01-22T22:26:11.000Z</time>
   </trkpt>
   <trkpt lat="-8.044432" lon="-34.894184">
    <ele>13.6</ele>
    <time>2020-01-22T22:26:12.000Z</time>
   </trkpt>
   <trkpt lat="-8.044389" lon="-34.894142">
    <ele>13.7</ele>
    <time>2020-01-22T22:26:13.000Z</time>
   </trkpt>
   <trkpt lat="-8.044342" lon="-34.894091">
    <ele>13.9</ele>
    <time>2020-01-22T22:26:14.000Z</time>
   </trkpt>
   <trkpt lat="-8.044291" lon="-34.89406">
    <ele>14</ele>
    <time>2020-01-22T22:26:15.000Z</time>
   </trkpt>
   <trkpt lat="-8.044236" lon="-34.89403">
    <ele>14.2</ele>
    <time>2020-01-22T22:26:16.000Z</time>
   </trkpt>
   <trkpt lat="-8.044167" lon="-34.894013">
    <ele>14.4</ele>
    <time>2020-01-22T22:26:17.000Z</time>
   </trkpt>
   <trkpt lat="-8.044112" lon="-34.893992">
    <ele>14.5</ele>
    <time>2020-01-22T22:26:18.000Z</time>
   </trkpt>
   <trkpt lat="-8.044079" lon="-34.893962">
    <ele>14.5</ele>
    <time>2020-01-22T22:26:19.000Z</time>
   </trkpt>
   <trkpt lat="-8.044047" lon="-34.893923">
    <ele>14.5</ele>
    <time>2020-01-22T22:26:20.000Z</time>
   </trkpt>
   <trkpt lat="-8.044003" lon="-34.893879">
    <ele>14.6</ele>
    <time>2020-01-22T22:26:21.000Z</time>
   </trkpt>
   <trkpt lat="-8.043958" lon="-34.893838">
    <ele>14.6</ele>
    <time>2020-01-22T22:26:22.000Z</time>
   </trkpt>
   <trkpt lat="-8.04392" lon="-34.893801">
    <ele>14.6</ele>
    <time>2020-01-22T22:26:23.000Z</time>
   </trkpt>
   <trkpt lat="-8.043884" lon="-34.893772">
    <ele>14.6</ele>
    <time>2020-01-22T22:26:24.000Z</time>
   </trkpt>
   <trkpt lat="-8.043848" lon="-34.893745">
    <ele>14.7</ele>
    <time>2020-01-22T22:26:25.000Z</time>
   </trkpt>
   <trkpt lat="-8.043816" lon="-34.89371">
    <ele>14.7</ele>
    <time>2020-01-22T22:26:26.000Z</time>
   </trkpt>
   <trkpt lat="-8.043788" lon="-34.893688">
    <ele>14.7</ele>
    <time>2020-01-22T22:26:27.000Z</time>
   </trkpt>
   <trkpt lat="-8.043766" lon="-34.893666">
    <ele>14.7</ele>
    <time>2020-01-22T22:26:28.000Z</time>
   </trkpt>
   <trkpt lat="-8.043735" lon="-34.893645">
    <ele>14.8</ele>
    <time>2020-01-22T22:26:30.000Z</time>
   </trkpt>
   <trkpt lat="-8.043715" lon="-34.89362">
    <ele>14.9</ele>
    <time>2020-01-22T22:26:33.000Z</time>
   </trkpt>
   <trkpt lat="-8.043699" lon="-34.893587">
    <ele>14.9</ele>
    <time>2020-01-22T22:26:37.000Z</time>
   </trkpt>
   <trkpt lat="-8.043685" lon="-34.89356">
    <ele>15</ele>
    <time>2020-01-22T22:26:39.000Z</time>
   </trkpt>
   <trkpt lat="-8.043667" lon="-34.893538">
    <ele>15.1</ele>
    <time>2020-01-22T22:26:40.000Z</time>
   </trkpt>
   <trkpt lat="-8.043643" lon="-34.893515">
    <ele>15.2</ele>
    <time>2020-01-22T22:26:42.000Z</time>
   </trkpt>
   <trkpt lat="-8.043613" lon="-34.893508">
    <ele>15.2</ele>
    <time>2020-01-22T22:26:43.000Z</time>
   </trkpt>
   <trkpt lat="-8.043579" lon="-34.893503">
    <ele>15.3</ele>
    <time>2020-01-22T22:26:44.000Z</time>
   </trkpt>
   <trkpt lat="-8.043553" lon="-34.89349">
    <ele>15.4</ele>
    <time>2020-01-22T22:26:45.000Z</time>
   </trkpt>
   <trkpt lat="-8.043522" lon="-34.893476">
    <ele>15.5</ele>
    <time>2020-01-22T22:26:46.000Z</time>
   </trkpt>
   <trkpt lat="-8.043499" lon="-34.893451">
    <ele>15.5</ele>
    <time>2020-01-22T22:26:47.000Z</time>
   </trkpt>
   <trkpt lat="-8.043474" lon="-34.893428">
    <ele>15.6</ele>
    <time>2020-01-22T22:26:48.000Z</time>
   </trkpt>
   <trkpt lat="-8.043434" lon="-34.893401">
    <ele>15.6</ele>
    <time>2020-01-22T22:26:49.000Z</time>
   </trkpt>
   <trkpt lat="-8.04339" lon="-34.893367">
    <ele>15.7</ele>
    <time>2020-01-22T22:26:50.000Z</time>
   </trkpt>
   <trkpt lat="-8.043351" lon="-34.893338">
    <ele>15.7</ele>
    <time>2020-01-22T22:26:51.000Z</time>
   </trkpt>
   <trkpt lat="-8.043303" lon="-34.893306">
    <ele>15.7</ele>
    <time>2020-01-22T22:26:52.000Z</time>
   </trkpt>
   <trkpt lat="-8.043256" lon="-34.893265">
    <ele>15.7</ele>
    <time>2020-01-22T22:26:53.000Z</time>
   </trkpt>
   <trkpt lat="-8.043202" lon="-34.893225">
    <ele>15.8</ele>
    <time>2020-01-22T22:26:54.000Z</time>
   </trkpt>
   <trkpt lat="-8.043152" lon="-34.893197">
    <ele>15.8</ele>
    <time>2020-01-22T22:26:55.000Z</time>
   </trkpt>
   <trkpt lat="-8.043106" lon="-34.893164">
    <ele>15.9</ele>
    <time>2020-01-22T22:26:56.000Z</time>
   </trkpt>
   <trkpt lat="-8.043054" lon="-34.893131">
    <ele>16.1</ele>
    <time>2020-01-22T22:26:57.000Z</time>
   </trkpt>
   <trkpt lat="-8.043005" lon="-34.893102">
    <ele>16.2</ele>
    <time>2020-01-22T22:26:58.000Z</time>
   </trkpt>
   <trkpt lat="-8.042958" lon="-34.893067">
    <ele>16.3</ele>
    <time>2020-01-22T22:26:59.000Z</time>
   </trkpt>
   <trkpt lat="-8.042908" lon="-34.893018">
    <ele>16.5</ele>
    <time>2020-01-22T22:27:00.000Z</time>
   </trkpt>
   <trkpt lat="-8.042846" lon="-34.892974">
    <ele>16.7</ele>
    <time>2020-01-22T22:27:01.000Z</time>
   </trkpt>
   <trkpt lat="-8.042791" lon="-34.892932">
    <ele>16.7</ele>
    <time>2020-01-22T22:27:02.000Z</time>
   </trkpt>
   <trkpt lat="-8.042715" lon="-34.892894">
    <ele>16.8</ele>
    <time>2020-01-22T22:27:03.000Z</time>
   </trkpt>
   <trkpt lat="-8.042656" lon="-34.892858">
    <ele>16.8</ele>
    <time>2020-01-22T22:27:04.000Z</time>
   </trkpt>
   <trkpt lat="-8.042598" lon="-34.89283">
    <ele>16.9</ele>
    <time>2020-01-22T22:27:05.000Z</time>
   </trkpt>
   <trkpt lat="-8.042553" lon="-34.892795">
    <ele>16.9</ele>
    <time>2020-01-22T22:27:06.000Z</time>
   </trkpt>
   <trkpt lat="-8.042504" lon="-34.892761">
    <ele>16.9</ele>
    <time>2020-01-22T22:27:07.000Z</time>
   </trkpt>
   <trkpt lat="-8.042457" lon="-34.892724">
    <ele>16.9</ele>
    <time>2020-01-22T22:27:08.000Z</time>
   </trkpt>
   <trkpt lat="-8.042418" lon="-34.892686">
    <ele>16.9</ele>
    <time>2020-01-22T22:27:09.000Z</time>
   </trkpt>
   <trkpt lat="-8.04238" lon="-34.892648">
    <ele>16.9</ele>
    <time>2020-01-22T22:27:10.000Z</time>
   </trkpt>
   <trkpt lat="-8.042344" lon="-34.892609">
    <ele>17</ele>
    <time>2020-01-22T22:27:11.000Z</time>
   </trkpt>
   <trkpt lat="-8.042303" lon="-34.892573">
    <ele>16.9</ele>
    <time>2020-01-22T22:27:12.000Z</time>
   </trkpt>
   <trkpt lat="-8.042274" lon="-34.892538">
    <ele>16.8</ele>
    <time>2020-01-22T22:27:13.000Z</time>
   </trkpt>
   <trkpt lat="-8.042245" lon="-34.892493">
    <ele>16.7</ele>
    <time>2020-01-22T22:27:14.000Z</time>
   </trkpt>
   <trkpt lat="-8.042209" lon="-34.892444">
    <ele>16.6</ele>
    <time>2020-01-22T22:27:15.000Z</time>
   </trkpt>
   <trkpt lat="-8.042176" lon="-34.892398">
    <ele>16.5</ele>
    <time>2020-01-22T22:27:16.000Z</time>
   </trkpt>
   <trkpt lat="-8.042147" lon="-34.892355">
    <ele>16.4</ele>
    <time>2020-01-22T22:27:17.000Z</time>
   </trkpt>
   <trkpt lat="-8.042116" lon="-34.892316">
    <ele>16.3</ele>
    <time>2020-01-22T22:27:18.000Z</time>
   </trkpt>
   <trkpt lat="-8.042084" lon="-34.892282">
    <ele>16.2</ele>
    <time>2020-01-22T22:27:19.000Z</time>
   </trkpt>
   <trkpt lat="-8.042053" lon="-34.892252">
    <ele>16.1</ele>
    <time>2020-01-22T22:27:20.000Z</time>
   </trkpt>
   <trkpt lat="-8.042026" lon="-34.892215">
    <ele>16</ele>
    <time>2020-01-22T22:27:21.000Z</time>
   </trkpt>
   <trkpt lat="-8.041994" lon="-34.892174">
    <ele>16</ele>
    <time>2020-01-22T22:27:22.000Z</time>
   </trkpt>
   <trkpt lat="-8.041958" lon="-34.892124">
    <ele>15.9</ele>
    <time>2020-01-22T22:27:23.000Z</time>
   </trkpt>
   <trkpt lat="-8.04192" lon="-34.89209">
    <ele>15.9</ele>
    <time>2020-01-22T22:27:24.000Z</time>
   </trkpt>
   <trkpt lat="-8.041879" lon="-34.892056">
    <ele>15.8</ele>
    <time>2020-01-22T22:27:25.000Z</time>
   </trkpt>
   <trkpt lat="-8.041831" lon="-34.892027">
    <ele>15.8</ele>
    <time>2020-01-22T22:27:26.000Z</time>
   </trkpt>
   <trkpt lat="-8.041792" lon="-34.891985">
    <ele>15.7</ele>
    <time>2020-01-22T22:27:27.000Z</time>
   </trkpt>
   <trkpt lat="-8.041744" lon="-34.891951">
    <ele>15.5</ele>
    <time>2020-01-22T22:27:28.000Z</time>
   </trkpt>
   <trkpt lat="-8.041706" lon="-34.891916">
    <ele>15.4</ele>
    <time>2020-01-22T22:27:29.000Z</time>
   </trkpt>
   <trkpt lat="-8.041677" lon="-34.891867">
    <ele>15.2</ele>
    <time>2020-01-22T22:27:30.000Z</time>
   </trkpt>
   <trkpt lat="-8.04165" lon="-34.891827">
    <ele>15.1</ele>
    <time>2020-01-22T22:27:31.000Z</time>
   </trkpt>
   <trkpt lat="-8.041623" lon="-34.891789">
    <ele>15</ele>
    <time>2020-01-22T22:27:32.000Z</time>
   </trkpt>
   <trkpt lat="-8.041589" lon="-34.891757">
    <ele>14.9</ele>
    <time>2020-01-22T22:27:33.000Z</time>
   </trkpt>
   <trkpt lat="-8.041551" lon="-34.89171">
    <ele>14.8</ele>
    <time>2020-01-22T22:27:34.000Z</time>
   </trkpt>
   <trkpt lat="-8.041509" lon="-34.891664">
    <ele>14.7</ele>
    <time>2020-01-22T22:27:35.000Z</time>
   </trkpt>
   <trkpt lat="-8.041476" lon="-34.891611">
    <ele>14.6</ele>
    <time>2020-01-22T22:27:36.000Z</time>
   </trkpt>
   <trkpt lat="-8.041436" lon="-34.891568">
    <ele>14.4</ele>
    <time>2020-01-22T22:27:37.000Z</time>
   </trkpt>
   <trkpt lat="-8.041394" lon="-34.891529">
    <ele>14.2</ele>
    <time>2020-01-22T22:27:38.000Z</time>
   </trkpt>
   <trkpt lat="-8.041358" lon="-34.891499">
    <ele>14.1</ele>
    <time>2020-01-22T22:27:39.000Z</time>
   </trkpt>
   <trkpt lat="-8.041327" lon="-34.89148">
    <ele>14</ele>
    <time>2020-01-22T22:27:40.000Z</time>
   </trkpt>
   <trkpt lat="-8.041285" lon="-34.891485">
    <ele>13.7</ele>
    <time>2020-01-22T22:27:42.000Z</time>
   </trkpt>
   <trkpt lat="-8.041256" lon="-34.891501">
    <ele>13.6</ele>
    <time>2020-01-22T22:27:43.000Z</time>
   </trkpt>
   <trkpt lat="-8.041238" lon="-34.891527">
    <ele>13.5</ele>
    <time>2020-01-22T22:27:44.000Z</time>
   </trkpt>
   <trkpt lat="-8.041192" lon="-34.891573">
    <ele>13.4</ele>
    <time>2020-01-22T22:27:45.000Z</time>
   </trkpt>
   <trkpt lat="-8.041151" lon="-34.891607">
    <ele>13.3</ele>
    <time>2020-01-22T22:27:46.000Z</time>
   </trkpt>
   <trkpt lat="-8.041093" lon="-34.891636">
    <ele>13.2</ele>
    <time>2020-01-22T22:27:47.000Z</time>
   </trkpt>
   <trkpt lat="-8.041024" lon="-34.891658">
    <ele>13.1</ele>
    <time>2020-01-22T22:27:48.000Z</time>
   </trkpt>
   <trkpt lat="-8.040972" lon="-34.891673">
    <ele>13</ele>
    <time>2020-01-22T22:27:49.000Z</time>
   </trkpt>
   <trkpt lat="-8.04092" lon="-34.891693">
    <ele>13</ele>
    <time>2020-01-22T22:27:50.000Z</time>
   </trkpt>
   <trkpt lat="-8.040865" lon="-34.891708">
    <ele>13</ele>
    <time>2020-01-22T22:27:51.000Z</time>
   </trkpt>
   <trkpt lat="-8.0408" lon="-34.891724">
    <ele>13</ele>
    <time>2020-01-22T22:27:52.000Z</time>
   </trkpt>
   <trkpt lat="-8.040735" lon="-34.891739">
    <ele>13</ele>
    <time>2020-01-22T22:27:53.000Z</time>
   </trkpt>
   <trkpt lat="-8.040681" lon="-34.891744">
    <ele>13</ele>
    <time>2020-01-22T22:27:54.000Z</time>
   </trkpt>
   <trkpt lat="-8.040643" lon="-34.891752">
    <ele>13</ele>
    <time>2020-01-22T22:27:55.000Z</time>
   </trkpt>
   <trkpt lat="-8.040627" lon="-34.891719">
    <ele>12.9</ele>
    <time>2020-01-22T22:27:56.000Z</time>
   </trkpt>
   <trkpt lat="-8.040603" lon="-34.891679">
    <ele>12.8</ele>
    <time>2020-01-22T22:27:57.000Z</time>
   </trkpt>
   <trkpt lat="-8.040546" lon="-34.891639">
    <ele>12.6</ele>
    <time>2020-01-22T22:27:58.000Z</time>
   </trkpt>
   <trkpt lat="-8.040484" lon="-34.891592">
    <ele>12.4</ele>
    <time>2020-01-22T22:27:59.000Z</time>
   </trkpt>
   <trkpt lat="-8.040424" lon="-34.891549">
    <ele>12.1</ele>
    <time>2020-01-22T22:28:00.000Z</time>
   </trkpt>
   <trkpt lat="-8.040374" lon="-34.891511">
    <ele>11.9</ele>
    <time>2020-01-22T22:28:01.000Z</time>
   </trkpt>
   <trkpt lat="-8.040315" lon="-34.891464">
    <ele>11.7</ele>
    <time>2020-01-22T22:28:02.000Z</time>
   </trkpt>
   <trkpt lat="-8.04026" lon="-34.891422">
    <ele>11.5</ele>
    <time>2020-01-22T22:28:03.000Z</time>
   </trkpt>
   <trkpt lat="-8.040211" lon="-34.891377">
    <ele>11.2</ele>
    <time>2020-01-22T22:28:04.000Z</time>
   </trkpt>
   <trkpt lat="-8.040157" lon="-34.89134">
    <ele>11</ele>
    <time>2020-01-22T22:28:05.000Z</time>
   </trkpt>
   <trkpt lat="-8.040113" lon="-34.891288">
    <ele>10.8</ele>
    <time>2020-01-22T22:28:06.000Z</time>
   </trkpt>
   <trkpt lat="-8.04007" lon="-34.891248">
    <ele>10.7</ele>
    <time>2020-01-22T22:28:07.000Z</time>
   </trkpt>
   <trkpt lat="-8.040025" lon="-34.891202">
    <ele>10.6</ele>
    <time>2020-01-22T22:28:08.000Z</time>
   </trkpt>
   <trkpt lat="-8.039986" lon="-34.891148">
    <ele>10.6</ele>
    <time>2020-01-22T22:28:09.000Z</time>
   </trkpt>
   <trkpt lat="-8.039945" lon="-34.891097">
    <ele>11</ele>
    <time>2020-01-22T22:28:10.000Z</time>
   </trkpt>
   <trkpt lat="-8.039906" lon="-34.891045">
    <ele>11.6</ele>
    <time>2020-01-22T22:28:11.000Z</time>
   </trkpt>
   <trkpt lat="-8.039864" lon="-34.890999">
    <ele>12</ele>
    <time>2020-01-22T22:28:12.000Z</time>
   </trkpt>
   <trkpt lat="-8.039828" lon="-34.890949">
    <ele>12.3</ele>
    <time>2020-01-22T22:28:13.000Z</time>
   </trkpt>
   <trkpt lat="-8.039796" lon="-34.890898">
    <ele>12.5</ele>
    <time>2020-01-22T22:28:14.000Z</time>
   </trkpt>
   <trkpt lat="-8.039758" lon="-34.890834">
    <ele>12.9</ele>
    <time>2020-01-22T22:28:15.000Z</time>
   </trkpt>
   <trkpt lat="-8.039713" lon="-34.890782">
    <ele>12.9</ele>
    <time>2020-01-22T22:28:16.000Z</time>
   </trkpt>
   <trkpt lat="-8.039682" lon="-34.890727">
    <ele>12.7</ele>
    <time>2020-01-22T22:28:17.000Z</time>
   </trkpt>
   <trkpt lat="-8.039646" lon="-34.890682">
    <ele>12.4</ele>
    <time>2020-01-22T22:28:18.000Z</time>
   </trkpt>
   <trkpt lat="-8.039603" lon="-34.890632">
    <ele>12.2</ele>
    <time>2020-01-22T22:28:19.000Z</time>
   </trkpt>
   <trkpt lat="-8.039569" lon="-34.89059">
    <ele>12</ele>
    <time>2020-01-22T22:28:20.000Z</time>
   </trkpt>
   <trkpt lat="-8.039536" lon="-34.890549">
    <ele>11.7</ele>
    <time>2020-01-22T22:28:21.000Z</time>
   </trkpt>
   <trkpt lat="-8.039512" lon="-34.890514">
    <ele>11.6</ele>
    <time>2020-01-22T22:28:22.000Z</time>
   </trkpt>
   <trkpt lat="-8.039471" lon="-34.890482">
    <ele>11.4</ele>
    <time>2020-01-22T22:28:23.000Z</time>
   </trkpt>
   <trkpt lat="-8.039419" lon="-34.890456">
    <ele>11</ele>
    <time>2020-01-22T22:28:24.000Z</time>
   </trkpt>
   <trkpt lat="-8.039343" lon="-34.89044">
    <ele>11</ele>
    <time>2020-01-22T22:28:25.000Z</time>
   </trkpt>
   <trkpt lat="-8.03926" lon="-34.890411">
    <ele>10.8</ele>
    <time>2020-01-22T22:28:26.000Z</time>
   </trkpt>
   <trkpt lat="-8.039165" lon="-34.8904">
    <ele>10.6</ele>
    <time>2020-01-22T22:28:27.000Z</time>
   </trkpt>
   <trkpt lat="-8.039079" lon="-34.890382">
    <ele>9.5</ele>
    <time>2020-01-22T22:28:28.000Z</time>
   </trkpt>
   <trkpt lat="-8.038999" lon="-34.890362">
    <ele>8.8</ele>
    <time>2020-01-22T22:28:29.000Z</time>
   </trkpt>
   <trkpt lat="-8.038924" lon="-34.890339">
    <ele>8.6</ele>
    <time>2020-01-22T22:28:30.000Z</time>
   </trkpt>
   <trkpt lat="-8.038849" lon="-34.8903">
    <ele>8.8</ele>
    <time>2020-01-22T22:28:31.000Z</time>
   </trkpt>
   <trkpt lat="-8.038796" lon="-34.890268">
    <ele>8.8</ele>
    <time>2020-01-22T22:28:32.000Z</time>
   </trkpt>
   <trkpt lat="-8.038733" lon="-34.890242">
    <ele>8.9</ele>
    <time>2020-01-22T22:28:33.000Z</time>
   </trkpt>
   <trkpt lat="-8.038672" lon="-34.890213">
    <ele>9.1</ele>
    <time>2020-01-22T22:28:34.000Z</time>
   </trkpt>
   <trkpt lat="-8.038616" lon="-34.890197">
    <ele>9.6</ele>
    <time>2020-01-22T22:28:35.000Z</time>
   </trkpt>
   <trkpt lat="-8.038552" lon="-34.890173">
    <ele>10.4</ele>
    <time>2020-01-22T22:28:36.000Z</time>
   </trkpt>
   <trkpt lat="-8.038494" lon="-34.890144">
    <ele>11.2</ele>
    <time>2020-01-22T22:28:37.000Z</time>
   </trkpt>
   <trkpt lat="-8.038436" lon="-34.890116">
    <ele>11.5</ele>
    <time>2020-01-22T22:28:38.000Z</time>
   </trkpt>
   <trkpt lat="-8.038382" lon="-34.890091">
    <ele>11.7</ele>
    <time>2020-01-22T22:28:39.000Z</time>
   </trkpt>
   <trkpt lat="-8.038325" lon="-34.890071">
    <ele>11.7</ele>
    <time>2020-01-22T22:28:40.000Z</time>
   </trkpt>
   <trkpt lat="-8.038268" lon="-34.890057">
    <ele>11.7</ele>
    <time>2020-01-22T22:28:41.000Z</time>
   </trkpt>
   <trkpt lat="-8.038217" lon="-34.890027">
    <ele>11.9</ele>
    <time>2020-01-22T22:28:42.000Z</time>
   </trkpt>
   <trkpt lat="-8.038162" lon="-34.890001">
    <ele>12.2</ele>
    <time>2020-01-22T22:28:43.000Z</time>
   </trkpt>
   <trkpt lat="-8.038103" lon="-34.889974">
    <ele>12.5</ele>
    <time>2020-01-22T22:28:44.000Z</time>
   </trkpt>
   <trkpt lat="-8.03805" lon="-34.889944">
    <ele>12.6</ele>
    <time>2020-01-22T22:28:45.000Z</time>
   </trkpt>
   <trkpt lat="-8.037996" lon="-34.88992">
    <ele>12.6</ele>
    <time>2020-01-22T22:28:46.000Z</time>
   </trkpt>
   <trkpt lat="-8.037949" lon="-34.889903">
    <ele>12.5</ele>
    <time>2020-01-22T22:28:47.000Z</time>
   </trkpt>
   <trkpt lat="-8.037912" lon="-34.889901">
    <ele>12.4</ele>
    <time>2020-01-22T22:28:48.000Z</time>
   </trkpt>
   <trkpt lat="-8.037864" lon="-34.889885">
    <ele>12.2</ele>
    <time>2020-01-22T22:28:50.000Z</time>
   </trkpt>
   <trkpt lat="-8.037816" lon="-34.889876">
    <ele>12.1</ele>
    <time>2020-01-22T22:28:52.000Z</time>
   </trkpt>
   <trkpt lat="-8.037776" lon="-34.889872">
    <ele>12</ele>
    <time>2020-01-22T22:28:54.000Z</time>
   </trkpt>
   <trkpt lat="-8.037736" lon="-34.889924">
    <ele>11.8</ele>
    <time>2020-01-22T22:28:56.000Z</time>
   </trkpt>
   <trkpt lat="-8.037714" lon="-34.889967">
    <ele>11.7</ele>
    <time>2020-01-22T22:28:57.000Z</time>
   </trkpt>
   <trkpt lat="-8.037683" lon="-34.890006">
    <ele>11.6</ele>
    <time>2020-01-22T22:28:58.000Z</time>
   </trkpt>
   <trkpt lat="-8.037633" lon="-34.890029">
    <ele>11.4</ele>
    <time>2020-01-22T22:28:59.000Z</time>
   </trkpt>
   <trkpt lat="-8.037599" lon="-34.890065">
    <ele>11.3</ele>
    <time>2020-01-22T22:29:00.000Z</time>
   </trkpt>
   <trkpt lat="-8.03757" lon="-34.890103">
    <ele>11</ele>
    <time>2020-01-22T22:29:01.000Z</time>
   </trkpt>
   <trkpt lat="-8.037552" lon="-34.890144">
    <ele>11.1</ele>
    <time>2020-01-22T22:29:02.000Z</time>
   </trkpt>
   <trkpt lat="-8.037524" lon="-34.890183">
    <ele>11.3</ele>
    <time>2020-01-22T22:29:03.000Z</time>
   </trkpt>
   <trkpt lat="-8.037497" lon="-34.890225">
    <ele>11.4</ele>
    <time>2020-01-22T22:29:04.000Z</time>
   </trkpt>
   <trkpt lat="-8.037471" lon="-34.890265">
    <ele>11.5</ele>
    <time>2020-01-22T22:29:05.000Z</time>
   </trkpt>
   <trkpt lat="-8.037448" lon="-34.890303">
    <ele>11.6</ele>
    <time>2020-01-22T22:29:06.000Z</time>
   </trkpt>
   <trkpt lat="-8.037417" lon="-34.89034">
    <ele>11.7</ele>
    <time>2020-01-22T22:29:07.000Z</time>
   </trkpt>
   <trkpt lat="-8.037388" lon="-34.890378">
    <ele>11.8</ele>
    <time>2020-01-22T22:29:08.000Z</time>
   </trkpt>
   <trkpt lat="-8.037368" lon="-34.890415">
    <ele>11.9</ele>
    <time>2020-01-22T22:29:09.000Z</time>
   </trkpt>
   <trkpt lat="-8.037349" lon="-34.89045">
    <ele>12</ele>
    <time>2020-01-22T22:29:10.000Z</time>
   </trkpt>
   <trkpt lat="-8.037333" lon="-34.890486">
    <ele>12.1</ele>
    <time>2020-01-22T22:29:11.000Z</time>
   </trkpt>
   <trkpt lat="-8.037312" lon="-34.890513">
    <ele>12.2</ele>
    <time>2020-01-22T22:29:12.000Z</time>
   </trkpt>
   <trkpt lat="-8.037293" lon="-34.890535">
    <ele>11.9</ele>
    <time>2020-01-22T22:29:13.000Z</time>
   </trkpt>
   <trkpt lat="-8.037278" lon="-34.89056">
    <ele>11.7</ele>
    <time>2020-01-22T22:29:14.000Z</time>
   </trkpt>
   <trkpt lat="-8.037273" lon="-34.890592">
    <ele>11.5</ele>
    <time>2020-01-22T22:29:15.000Z</time>
   </trkpt>
   <trkpt lat="-8.037258" lon="-34.890622">
    <ele>11.3</ele>
    <time>2020-01-22T22:29:16.000Z</time>
   </trkpt>
   <trkpt lat="-8.037242" lon="-34.890646">
    <ele>11.2</ele>
    <time>2020-01-22T22:29:17.000Z</time>
   </trkpt>
   <trkpt lat="-8.037239" lon="-34.890697">
    <ele>10.9</ele>
    <time>2020-01-22T22:29:19.000Z</time>
   </trkpt>
   <trkpt lat="-8.037234" lon="-34.890744">
    <ele>10.6</ele>
    <time>2020-01-22T22:29:21.000Z</time>
   </trkpt>
   <trkpt lat="-8.037232" lon="-34.890773">
    <ele>10.4</ele>
    <time>2020-01-22T22:29:23.000Z</time>
   </trkpt>
   <trkpt lat="-8.037209" lon="-34.8908">
    <ele>10.2</ele>
    <time>2020-01-22T22:29:27.000Z</time>
   </trkpt>
   <trkpt lat="-8.03721" lon="-34.890839">
    <ele>9.8</ele>
    <time>2020-01-22T22:29:30.000Z</time>
   </trkpt>
   <trkpt lat="-8.03724" lon="-34.890857">
    <ele>9.6</ele>
    <time>2020-01-22T22:29:31.000Z</time>
   </trkpt>
   <trkpt lat="-8.037232" lon="-34.890916">
    <ele>7.9</ele>
    <time>2020-01-22T22:29:33.000Z</time>
   </trkpt>
   <trkpt lat="-8.037206" lon="-34.890943">
    <ele>7.8</ele>
    <time>2020-01-22T22:29:34.000Z</time>
   </trkpt>
   <trkpt lat="-8.037177" lon="-34.890969">
    <ele>7.6</ele>
    <time>2020-01-22T22:29:35.000Z</time>
   </trkpt>
   <trkpt lat="-8.037151" lon="-34.890991">
    <ele>7</ele>
    <time>2020-01-22T22:29:36.000Z</time>
   </trkpt>
   <trkpt lat="-8.037131" lon="-34.891015">
    <ele>7</ele>
    <time>2020-01-22T22:29:37.000Z</time>
   </trkpt>
   <trkpt lat="-8.037096" lon="-34.891047">
    <ele>6.9</ele>
    <time>2020-01-22T22:29:39.000Z</time>
   </trkpt>
   <trkpt lat="-8.037086" lon="-34.891106">
    <ele>6.5</ele>
    <time>2020-01-22T22:29:41.000Z</time>
   </trkpt>
   <trkpt lat="-8.037107" lon="-34.891139">
    <ele>6.8</ele>
    <time>2020-01-22T22:29:42.000Z</time>
   </trkpt>
   <trkpt lat="-8.037139" lon="-34.891154">
    <ele>7.1</ele>
    <time>2020-01-22T22:29:43.000Z</time>
   </trkpt>
   <trkpt lat="-8.037173" lon="-34.89117">
    <ele>7.5</ele>
    <time>2020-01-22T22:29:44.000Z</time>
   </trkpt>
   <trkpt lat="-8.037209" lon="-34.891199">
    <ele>8</ele>
    <time>2020-01-22T22:29:45.000Z</time>
   </trkpt>
   <trkpt lat="-8.037247" lon="-34.891228">
    <ele>8.5</ele>
    <time>2020-01-22T22:29:46.000Z</time>
   </trkpt>
   <trkpt lat="-8.037288" lon="-34.891257">
    <ele>9</ele>
    <time>2020-01-22T22:29:47.000Z</time>
   </trkpt>
   <trkpt lat="-8.037321" lon="-34.891282">
    <ele>9.4</ele>
    <time>2020-01-22T22:29:48.000Z</time>
   </trkpt>
   <trkpt lat="-8.037357" lon="-34.891311">
    <ele>9.7</ele>
    <time>2020-01-22T22:29:49.000Z</time>
   </trkpt>
   <trkpt lat="-8.037396" lon="-34.891338">
    <ele>10.1</ele>
    <time>2020-01-22T22:29:50.000Z</time>
   </trkpt>
   <trkpt lat="-8.037446" lon="-34.89136">
    <ele>10.4</ele>
    <time>2020-01-22T22:29:51.000Z</time>
   </trkpt>
   <trkpt lat="-8.037482" lon="-34.89138">
    <ele>10.6</ele>
    <time>2020-01-22T22:29:52.000Z</time>
   </trkpt>
   <trkpt lat="-8.037518" lon="-34.891405">
    <ele>10.9</ele>
    <time>2020-01-22T22:29:53.000Z</time>
   </trkpt>
   <trkpt lat="-8.03755" lon="-34.89143">
    <ele>11.1</ele>
    <time>2020-01-22T22:29:54.000Z</time>
   </trkpt>
   <trkpt lat="-8.037585" lon="-34.891455">
    <ele>11.3</ele>
    <time>2020-01-22T22:29:55.000Z</time>
   </trkpt>
   <trkpt lat="-8.037619" lon="-34.891475">
    <ele>11.4</ele>
    <time>2020-01-22T22:29:56.000Z</time>
   </trkpt>
   <trkpt lat="-8.037657" lon="-34.891494">
    <ele>11.6</ele>
    <time>2020-01-22T22:29:57.000Z</time>
   </trkpt>
   <trkpt lat="-8.037693" lon="-34.891515">
    <ele>11.7</ele>
    <time>2020-01-22T22:29:58.000Z</time>
   </trkpt>
   <trkpt lat="-8.037723" lon="-34.891531">
    <ele>11.8</ele>
    <time>2020-01-22T22:29:59.000Z</time>
   </trkpt>
   <trkpt lat="-8.03777" lon="-34.891554">
    <ele>12</ele>
    <time>2020-01-22T22:30:01.000Z</time>
   </trkpt>
   <trkpt lat="-8.037771" lon="-34.891587">
    <ele>12.1</ele>
    <time>2020-01-22T22:30:04.000Z</time>
   </trkpt>
   <trkpt lat="-8.03774" lon="-34.891618">
    <ele>11.5</ele>
    <time>2020-01-22T22:30:05.000Z</time>
   </trkpt>
   <trkpt lat="-8.037712" lon="-34.891647">
    <ele>11.3</ele>
    <time>2020-01-22T22:30:06.000Z</time>
   </trkpt>
   <trkpt lat="-8.037666" lon="-34.891672">
    <ele>11</ele>
    <time>2020-01-22T22:30:07.000Z</time>
   </trkpt>
   <trkpt lat="-8.037636" lon="-34.891713">
    <ele>10.7</ele>
    <time>2020-01-22T22:30:08.000Z</time>
   </trkpt>
   <trkpt lat="-8.037607" lon="-34.891747">
    <ele>10.6</ele>
    <time>2020-01-22T22:30:09.000Z</time>
   </trkpt>
   <trkpt lat="-8.037576" lon="-34.891777">
    <ele>10.4</ele>
    <time>2020-01-22T22:30:10.000Z</time>
   </trkpt>
   <trkpt lat="-8.037539" lon="-34.891816">
    <ele>10.2</ele>
    <time>2020-01-22T22:30:11.000Z</time>
   </trkpt>
   <trkpt lat="-8.037505" lon="-34.891859">
    <ele>10</ele>
    <time>2020-01-22T22:30:12.000Z</time>
   </trkpt>
   <trkpt lat="-8.037464" lon="-34.891892">
    <ele>9.7</ele>
    <time>2020-01-22T22:30:13.000Z</time>
   </trkpt>
   <trkpt lat="-8.037432" lon="-34.891935">
    <ele>9.4</ele>
    <time>2020-01-22T22:30:14.000Z</time>
   </trkpt>
   <trkpt lat="-8.037409" lon="-34.891991">
    <ele>9</ele>
    <time>2020-01-22T22:30:15.000Z</time>
   </trkpt>
   <trkpt lat="-8.037397" lon="-34.892046">
    <ele>8.5</ele>
    <time>2020-01-22T22:30:16.000Z</time>
   </trkpt>
   <trkpt lat="-8.0374" lon="-34.892103">
    <ele>8.6</ele>
    <time>2020-01-22T22:30:17.000Z</time>
   </trkpt>
   <trkpt lat="-8.0374" lon="-34.892163">
    <ele>8.7</ele>
    <time>2020-01-22T22:30:18.000Z</time>
   </trkpt>
   <trkpt lat="-8.037405" lon="-34.892228">
    <ele>8.8</ele>
    <time>2020-01-22T22:30:19.000Z</time>
   </trkpt>
   <trkpt lat="-8.037411" lon="-34.892284">
    <ele>8.9</ele>
    <time>2020-01-22T22:30:20.000Z</time>
   </trkpt>
   <trkpt lat="-8.037405" lon="-34.89234">
    <ele>9</ele>
    <time>2020-01-22T22:30:21.000Z</time>
   </trkpt>
   <trkpt lat="-8.037391" lon="-34.892383">
    <ele>9.1</ele>
    <time>2020-01-22T22:30:22.000Z</time>
   </trkpt>
   <trkpt lat="-8.037389" lon="-34.89243">
    <ele>9.1</ele>
    <time>2020-01-22T22:30:23.000Z</time>
   </trkpt>
   <trkpt lat="-8.037389" lon="-34.892476">
    <ele>9.2</ele>
    <time>2020-01-22T22:30:24.000Z</time>
   </trkpt>
   <trkpt lat="-8.037381" lon="-34.892513">
    <ele>9.3</ele>
    <time>2020-01-22T22:30:25.000Z</time>
   </trkpt>
   <trkpt lat="-8.037379" lon="-34.892547">
    <ele>9.4</ele>
    <time>2020-01-22T22:30:26.000Z</time>
   </trkpt>
   <trkpt lat="-8.037387" lon="-34.892584">
    <ele>9.4</ele>
    <time>2020-01-22T22:30:27.000Z</time>
   </trkpt>
   <trkpt lat="-8.037385" lon="-34.892635">
    <ele>9.5</ele>
    <time>2020-01-22T22:30:28.000Z</time>
   </trkpt>
   <trkpt lat="-8.037383" lon="-34.892689">
    <ele>9.6</ele>
    <time>2020-01-22T22:30:29.000Z</time>
   </trkpt>
   <trkpt lat="-8.037367" lon="-34.892736">
    <ele>9.7</ele>
    <time>2020-01-22T22:30:30.000Z</time>
   </trkpt>
   <trkpt lat="-8.03734" lon="-34.892768">
    <ele>9.7</ele>
    <time>2020-01-22T22:30:31.000Z</time>
   </trkpt>
   <trkpt lat="-8.037313" lon="-34.892777">
    <ele>9.8</ele>
    <time>2020-01-22T22:30:32.000Z</time>
   </trkpt>
   <trkpt lat="-8.037272" lon="-34.892808">
    <ele>9.5</ele>
    <time>2020-01-22T22:30:34.000Z</time>
   </trkpt>
   <trkpt lat="-8.037238" lon="-34.892807">
    <ele>9.3</ele>
    <time>2020-01-22T22:30:35.000Z</time>
   </trkpt>
   <trkpt lat="-8.037182" lon="-34.892796">
    <ele>9.2</ele>
    <time>2020-01-22T22:30:37.000Z</time>
   </trkpt>
   <trkpt lat="-8.037144" lon="-34.892787">
    <ele>9</ele>
    <time>2020-01-22T22:30:38.000Z</time>
   </trkpt>
   <trkpt lat="-8.0371" lon="-34.892778">
    <ele>8.9</ele>
    <time>2020-01-22T22:30:39.000Z</time>
   </trkpt>
   <trkpt lat="-8.03706" lon="-34.89277">
    <ele>8.7</ele>
    <time>2020-01-22T22:30:40.000Z</time>
   </trkpt>
   <trkpt lat="-8.037029" lon="-34.892754">
    <ele>8.6</ele>
    <time>2020-01-22T22:30:41.000Z</time>
   </trkpt>
   <trkpt lat="-8.036991" lon="-34.892746">
    <ele>8.5</ele>
    <time>2020-01-22T22:30:43.000Z</time>
   </trkpt>
   <trkpt lat="-8.036965" lon="-34.892737">
    <ele>8.4</ele>
    <time>2020-01-22T22:30:44.000Z</time>
   </trkpt>
   <trkpt lat="-8.036906" lon="-34.892737">
    <ele>8.2</ele>
    <time>2020-01-22T22:30:46.000Z</time>
   </trkpt>
   <trkpt lat="-8.036874" lon="-34.892758">
    <ele>8.1</ele>
    <time>2020-01-22T22:30:48.000Z</time>
   </trkpt>
   <trkpt lat="-8.036855" lon="-34.892792">
    <ele>8</ele>
    <time>2020-01-22T22:30:50.000Z</time>
   </trkpt>
   <trkpt lat="-8.036834" lon="-34.892832">
    <ele>7.9</ele>
    <time>2020-01-22T22:30:52.000Z</time>
   </trkpt>
   <trkpt lat="-8.036822" lon="-34.892859">
    <ele>7.8</ele>
    <time>2020-01-22T22:30:53.000Z</time>
   </trkpt>
   <trkpt lat="-8.036792" lon="-34.892911">
    <ele>7.7</ele>
    <time>2020-01-22T22:30:55.000Z</time>
   </trkpt>
  </trkseg>
 </trk>
</gpx>
