<?xml version="1.0" encoding="UTF-8"?>
<gpx creator="StravaGPX" version="1.1" xmlns="http://www.topografix.com/GPX/1/1">
 <metadata>
  <time>2020-01-31T12:27:08Z</time>
 </metadata>
 <trk>
  <name>Morning Ride</name>
  <type>1</type>
  <trkseg>
   <trkpt lat="-8.036775" lon="-34.892749">
    <ele>7.4</ele>
    <time>2020-01-31T12:27:08.000Z</time>
   </trkpt>
   <trkpt lat="-8.036739" lon="-34.892721">
    <ele>7.3</ele>
    <time>2020-01-31T12:27:10.000Z</time>
   </trkpt>
   <trkpt lat="-8.036709" lon="-34.892695">
    <ele>7.2</ele>
    <time>2020-01-31T12:27:12.000Z</time>
   </trkpt>
   <trkpt lat="-8.036672" lon="-34.892683">
    <ele>7.2</ele>
    <time>2020-01-31T12:27:14.000Z</time>
   </trkpt>
   <trkpt lat="-8.036602" lon="-34.892683">
    <ele>7.1</ele>
    <time>2020-01-31T12:27:16.000Z</time>
   </trkpt>
   <trkpt lat="-8.036572" lon="-34.892682">
    <ele>7.1</ele>
    <time>2020-01-31T12:27:17.000Z</time>
   </trkpt>
   <trkpt lat="-8.036549" lon="-34.892678">
    <ele>7.1</ele>
    <time>2020-01-31T12:27:18.000Z</time>
   </trkpt>
   <trkpt lat="-8.03649" lon="-34.892661">
    <ele>7.1</ele>
    <time>2020-01-31T12:27:20.000Z</time>
   </trkpt>
   <trkpt lat="-8.036445" lon="-34.892635">
    <ele>6.8</ele>
    <time>2020-01-31T12:27:22.000Z</time>
   </trkpt>
   <trkpt lat="-8.036393" lon="-34.892607">
    <ele>6.6</ele>
    <time>2020-01-31T12:27:24.000Z</time>
   </trkpt>
   <trkpt lat="-8.036381" lon="-34.892581">
    <ele>6.5</ele>
    <time>2020-01-31T12:27:25.000Z</time>
   </trkpt>
   <trkpt lat="-8.036363" lon="-34.892568">
    <ele>6.4</ele>
    <time>2020-01-31T12:27:26.000Z</time>
   </trkpt>
   <trkpt lat="-8.036324" lon="-34.892548">
    <ele>6.2</ele>
    <time>2020-01-31T12:27:28.000Z</time>
   </trkpt>
   <trkpt lat="-8.036292" lon="-34.892488">
    <ele>5.9</ele>
    <time>2020-01-31T12:27:30.000Z</time>
   </trkpt>
   <trkpt lat="-8.036275" lon="-34.892451">
    <ele>5.8</ele>
    <time>2020-01-31T12:27:32.000Z</time>
   </trkpt>
   <trkpt lat="-8.036259" lon="-34.892413">
    <ele>5.7</ele>
    <time>2020-01-31T12:27:33.000Z</time>
   </trkpt>
   <trkpt lat="-8.036273" lon="-34.892372">
    <ele>5.1</ele>
    <time>2020-01-31T12:27:34.000Z</time>
   </trkpt>
   <trkpt lat="-8.036291" lon="-34.892343">
    <ele>5.2</ele>
    <time>2020-01-31T12:27:35.000Z</time>
   </trkpt>
   <trkpt lat="-8.036315" lon="-34.892319">
    <ele>5.3</ele>
    <time>2020-01-31T12:27:36.000Z</time>
   </trkpt>
   <trkpt lat="-8.03633" lon="-34.892303">
    <ele>5.5</ele>
    <time>2020-01-31T12:27:37.000Z</time>
   </trkpt>
   <trkpt lat="-8.03637" lon="-34.89226">
    <ele>5.7</ele>
    <time>2020-01-31T12:27:39.000Z</time>
   </trkpt>
   <trkpt lat="-8.036383" lon="-34.892239">
    <ele>5.7</ele>
    <time>2020-01-31T12:27:40.000Z</time>
   </trkpt>
   <trkpt lat="-8.036426" lon="-34.892212">
    <ele>5.9</ele>
    <time>2020-01-31T12:27:42.000Z</time>
   </trkpt>
   <trkpt lat="-8.036435" lon="-34.892165">
    <ele>6</ele>
    <time>2020-01-31T12:27:44.000Z</time>
   </trkpt>
   <trkpt lat="-8.036475" lon="-34.892111">
    <ele>6.1</ele>
    <time>2020-01-31T12:27:46.000Z</time>
   </trkpt>
   <trkpt lat="-8.036494" lon="-34.892091">
    <ele>6.2</ele>
    <time>2020-01-31T12:27:47.000Z</time>
   </trkpt>
   <trkpt lat="-8.036512" lon="-34.892075">
    <ele>6.2</ele>
    <time>2020-01-31T12:27:48.000Z</time>
   </trkpt>
   <trkpt lat="-8.036541" lon="-34.892023">
    <ele>6.3</ele>
    <time>2020-01-31T12:27:50.000Z</time>
   </trkpt>
   <trkpt lat="-8.03654" lon="-34.892007">
    <ele>6.3</ele>
    <time>2020-01-31T12:27:51.000Z</time>
   </trkpt>
   <trkpt lat="-8.036544" lon="-34.891981">
    <ele>6.4</ele>
    <time>2020-01-31T12:27:53.000Z</time>
   </trkpt>
   <trkpt lat="-8.036569" lon="-34.891959">
    <ele>6.4</ele>
    <time>2020-01-31T12:27:56.000Z</time>
   </trkpt>
   <trkpt lat="-8.036551" lon="-34.89198">
    <ele>6.5</ele>
    <time>2020-01-31T12:27:59.000Z</time>
   </trkpt>
   <trkpt lat="-8.03655" lon="-34.892003">
    <ele>6.5</ele>
    <time>2020-01-31T12:28:03.000Z</time>
   </trkpt>
   <trkpt lat="-8.036552" lon="-34.892027">
    <ele>6.6</ele>
    <time>2020-01-31T12:28:07.000Z</time>
   </trkpt>
   <trkpt lat="-8.036546" lon="-34.892136">
    <ele>6.8</ele>
    <time>2020-01-31T12:29:02.000Z</time>
   </trkpt>
   <trkpt lat="-8.036556" lon="-34.892133">
    <ele>6.8</ele>
    <time>2020-01-31T12:29:08.000Z</time>
   </trkpt>
   <trkpt lat="-8.036584" lon="-34.892025">
    <ele>7.1</ele>
    <time>2020-01-31T12:29:20.000Z</time>
   </trkpt>
   <trkpt lat="-8.036632" lon="-34.891984">
    <ele>7.3</ele>
    <time>2020-01-31T12:29:22.000Z</time>
   </trkpt>
   <trkpt lat="-8.036656" lon="-34.891969">
    <ele>7.4</ele>
    <time>2020-01-31T12:29:23.000Z</time>
   </trkpt>
   <trkpt lat="-8.036674" lon="-34.891952">
    <ele>7.5</ele>
    <time>2020-01-31T12:29:24.000Z</time>
   </trkpt>
   <trkpt lat="-8.03672" lon="-34.891904">
    <ele>7.7</ele>
    <time>2020-01-31T12:29:26.000Z</time>
   </trkpt>
   <trkpt lat="-8.03674" lon="-34.891882">
    <ele>7.8</ele>
    <time>2020-01-31T12:29:27.000Z</time>
   </trkpt>
   <trkpt lat="-8.036762" lon="-34.891857">
    <ele>7.9</ele>
    <time>2020-01-31T12:29:28.000Z</time>
   </trkpt>
   <trkpt lat="-8.036791" lon="-34.891839">
    <ele>8</ele>
    <time>2020-01-31T12:29:29.000Z</time>
   </trkpt>
   <trkpt lat="-8.036813" lon="-34.891815">
    <ele>8.1</ele>
    <time>2020-01-31T12:29:30.000Z</time>
   </trkpt>
   <trkpt lat="-8.036836" lon="-34.891786">
    <ele>8.3</ele>
    <time>2020-01-31T12:29:31.000Z</time>
   </trkpt>
   <trkpt lat="-8.03686" lon="-34.891755">
    <ele>8.4</ele>
    <time>2020-01-31T12:29:32.000Z</time>
   </trkpt>
   <trkpt lat="-8.036884" lon="-34.891728">
    <ele>8.6</ele>
    <time>2020-01-31T12:29:33.000Z</time>
   </trkpt>
   <trkpt lat="-8.036907" lon="-34.891704">
    <ele>8.7</ele>
    <time>2020-01-31T12:29:34.000Z</time>
   </trkpt>
   <trkpt lat="-8.036932" lon="-34.891678">
    <ele>8.8</ele>
    <time>2020-01-31T12:29:35.000Z</time>
   </trkpt>
   <trkpt lat="-8.036969" lon="-34.89167">
    <ele>9</ele>
    <time>2020-01-31T12:29:36.000Z</time>
   </trkpt>
   <trkpt lat="-8.036993" lon="-34.891646">
    <ele>9.3</ele>
    <time>2020-01-31T12:29:37.000Z</time>
   </trkpt>
   <trkpt lat="-8.037014" lon="-34.891623">
    <ele>9.4</ele>
    <time>2020-01-31T12:29:38.000Z</time>
   </trkpt>
   <trkpt lat="-8.037035" lon="-34.891596">
    <ele>9.5</ele>
    <time>2020-01-31T12:29:39.000Z</time>
   </trkpt>
   <trkpt lat="-8.03706" lon="-34.891562">
    <ele>9.6</ele>
    <time>2020-01-31T12:29:40.000Z</time>
   </trkpt>
   <trkpt lat="-8.037083" lon="-34.89153">
    <ele>9.7</ele>
    <time>2020-01-31T12:29:41.000Z</time>
   </trkpt>
   <trkpt lat="-8.037105" lon="-34.891506">
    <ele>9.8</ele>
    <time>2020-01-31T12:29:42.000Z</time>
   </trkpt>
   <trkpt lat="-8.03713" lon="-34.891489">
    <ele>9.8</ele>
    <time>2020-01-31T12:29:43.000Z</time>
   </trkpt>
   <trkpt lat="-8.037151" lon="-34.891471">
    <ele>9.9</ele>
    <time>2020-01-31T12:29:44.000Z</time>
   </trkpt>
   <trkpt lat="-8.037178" lon="-34.891479">
    <ele>9.9</ele>
    <time>2020-01-31T12:29:45.000Z</time>
   </trkpt>
   <trkpt lat="-8.037205" lon="-34.89148">
    <ele>10</ele>
    <time>2020-01-31T12:29:46.000Z</time>
   </trkpt>
   <trkpt lat="-8.037268" lon="-34.891487">
    <ele>10</ele>
    <time>2020-01-31T12:29:48.000Z</time>
   </trkpt>
   <trkpt lat="-8.037295" lon="-34.891496">
    <ele>10</ele>
    <time>2020-01-31T12:29:49.000Z</time>
   </trkpt>
   <trkpt lat="-8.037325" lon="-34.89151">
    <ele>10</ele>
    <time>2020-01-31T12:29:50.000Z</time>
   </trkpt>
   <trkpt lat="-8.037362" lon="-34.891527">
    <ele>10.1</ele>
    <time>2020-01-31T12:29:51.000Z</time>
   </trkpt>
   <trkpt lat="-8.037397" lon="-34.891548">
    <ele>10.1</ele>
    <time>2020-01-31T12:29:52.000Z</time>
   </trkpt>
   <trkpt lat="-8.037434" lon="-34.891564">
    <ele>10.1</ele>
    <time>2020-01-31T12:29:53.000Z</time>
   </trkpt>
   <trkpt lat="-8.037469" lon="-34.89158">
    <ele>10.1</ele>
    <time>2020-01-31T12:29:54.000Z</time>
   </trkpt>
   <trkpt lat="-8.037492" lon="-34.891598">
    <ele>10.1</ele>
    <time>2020-01-31T12:29:55.000Z</time>
   </trkpt>
   <trkpt lat="-8.037517" lon="-34.891623">
    <ele>10</ele>
    <time>2020-01-31T12:29:56.000Z</time>
   </trkpt>
   <trkpt lat="-8.037535" lon="-34.891647">
    <ele>10</ele>
    <time>2020-01-31T12:29:57.000Z</time>
   </trkpt>
   <trkpt lat="-8.037551" lon="-34.891682">
    <ele>10</ele>
    <time>2020-01-31T12:29:58.000Z</time>
   </trkpt>
   <trkpt lat="-8.03755" lon="-34.891715">
    <ele>10</ele>
    <time>2020-01-31T12:29:59.000Z</time>
   </trkpt>
   <trkpt lat="-8.037549" lon="-34.891739">
    <ele>10.5</ele>
    <time>2020-01-31T12:30:00.000Z</time>
   </trkpt>
   <trkpt lat="-8.037552" lon="-34.89176">
    <ele>10.5</ele>
    <time>2020-01-31T12:30:02.000Z</time>
   </trkpt>
   <trkpt lat="-8.037588" lon="-34.891713">
    <ele>10.7</ele>
    <time>2020-01-31T12:30:05.000Z</time>
   </trkpt>
   <trkpt lat="-8.037607" lon="-34.891676">
    <ele>10.8</ele>
    <time>2020-01-31T12:30:06.000Z</time>
   </trkpt>
   <trkpt lat="-8.037617" lon="-34.891651">
    <ele>11</ele>
    <time>2020-01-31T12:30:07.000Z</time>
   </trkpt>
   <trkpt lat="-8.037626" lon="-34.891617">
    <ele>11.1</ele>
    <time>2020-01-31T12:30:09.000Z</time>
   </trkpt>
   <trkpt lat="-8.037647" lon="-34.891589">
    <ele>11.3</ele>
    <time>2020-01-31T12:30:11.000Z</time>
   </trkpt>
   <trkpt lat="-8.037659" lon="-34.891558">
    <ele>11.4</ele>
    <time>2020-01-31T12:30:13.000Z</time>
   </trkpt>
   <trkpt lat="-8.037696" lon="-34.891552">
    <ele>11.6</ele>
    <time>2020-01-31T12:30:15.000Z</time>
   </trkpt>
   <trkpt lat="-8.037745" lon="-34.89156">
    <ele>11.8</ele>
    <time>2020-01-31T12:30:16.000Z</time>
   </trkpt>
   <trkpt lat="-8.037786" lon="-34.891563">
    <ele>12.1</ele>
    <time>2020-01-31T12:30:17.000Z</time>
   </trkpt>
   <trkpt lat="-8.037818" lon="-34.891574">
    <ele>12.2</ele>
    <time>2020-01-31T12:30:18.000Z</time>
   </trkpt>
   <trkpt lat="-8.03785" lon="-34.891591">
    <ele>12.3</ele>
    <time>2020-01-31T12:30:19.000Z</time>
   </trkpt>
   <trkpt lat="-8.037874" lon="-34.891611">
    <ele>12.3</ele>
    <time>2020-01-31T12:30:20.000Z</time>
   </trkpt>
   <trkpt lat="-8.037908" lon="-34.891636">
    <ele>12.4</ele>
    <time>2020-01-31T12:30:21.000Z</time>
   </trkpt>
   <trkpt lat="-8.037938" lon="-34.891652">
    <ele>12.5</ele>
    <time>2020-01-31T12:30:22.000Z</time>
   </trkpt>
   <trkpt lat="-8.037969" lon="-34.891692">
    <ele>12.6</ele>
    <time>2020-01-31T12:30:23.000Z</time>
   </trkpt>
   <trkpt lat="-8.03799" lon="-34.891721">
    <ele>12.6</ele>
    <time>2020-01-31T12:30:24.000Z</time>
   </trkpt>
   <trkpt lat="-8.038009" lon="-34.891731">
    <ele>12.7</ele>
    <time>2020-01-31T12:30:25.000Z</time>
   </trkpt>
   <trkpt lat="-8.038036" lon="-34.891728">
    <ele>12.8</ele>
    <time>2020-01-31T12:30:27.000Z</time>
   </trkpt>
   <trkpt lat="-8.038067" lon="-34.891718">
    <ele>12.9</ele>
    <time>2020-01-31T12:30:30.000Z</time>
   </trkpt>
   <trkpt lat="-8.038122" lon="-34.891741">
    <ele>13</ele>
    <time>2020-01-31T12:30:32.000Z</time>
   </trkpt>
   <trkpt lat="-8.038153" lon="-34.891759">
    <ele>13.1</ele>
    <time>2020-01-31T12:30:33.000Z</time>
   </trkpt>
   <trkpt lat="-8.038177" lon="-34.891777">
    <ele>13.1</ele>
    <time>2020-01-31T12:30:34.000Z</time>
   </trkpt>
   <trkpt lat="-8.038208" lon="-34.891794">
    <ele>13.1</ele>
    <time>2020-01-31T12:30:35.000Z</time>
   </trkpt>
   <trkpt lat="-8.038245" lon="-34.891811">
    <ele>13</ele>
    <time>2020-01-31T12:30:36.000Z</time>
   </trkpt>
   <trkpt lat="-8.038286" lon="-34.891837">
    <ele>12.9</ele>
    <time>2020-01-31T12:30:37.000Z</time>
   </trkpt>
   <trkpt lat="-8.03833" lon="-34.891863">
    <ele>12.7</ele>
    <time>2020-01-31T12:30:38.000Z</time>
   </trkpt>
   <trkpt lat="-8.038372" lon="-34.891889">
    <ele>12.6</ele>
    <time>2020-01-31T12:30:39.000Z</time>
   </trkpt>
   <trkpt lat="-8.038415" lon="-34.891911">
    <ele>12.6</ele>
    <time>2020-01-31T12:30:40.000Z</time>
   </trkpt>
   <trkpt lat="-8.038452" lon="-34.891938">
    <ele>12.6</ele>
    <time>2020-01-31T12:30:41.000Z</time>
   </trkpt>
   <trkpt lat="-8.038496" lon="-34.891958">
    <ele>12.6</ele>
    <time>2020-01-31T12:30:42.000Z</time>
   </trkpt>
   <trkpt lat="-8.038543" lon="-34.891986">
    <ele>12.5</ele>
    <time>2020-01-31T12:30:43.000Z</time>
   </trkpt>
   <trkpt lat="-8.038593" lon="-34.89201">
    <ele>12.5</ele>
    <time>2020-01-31T12:30:44.000Z</time>
   </trkpt>
   <trkpt lat="-8.038649" lon="-34.892032">
    <ele>12.4</ele>
    <time>2020-01-31T12:30:45.000Z</time>
   </trkpt>
   <trkpt lat="-8.038703" lon="-34.892045">
    <ele>12.4</ele>
    <time>2020-01-31T12:30:46.000Z</time>
   </trkpt>
   <trkpt lat="-8.038745" lon="-34.892083">
    <ele>12.6</ele>
    <time>2020-01-31T12:30:47.000Z</time>
   </trkpt>
   <trkpt lat="-8.038791" lon="-34.892101">
    <ele>12.8</ele>
    <time>2020-01-31T12:30:48.000Z</time>
   </trkpt>
   <trkpt lat="-8.038843" lon="-34.892121">
    <ele>13.1</ele>
    <time>2020-01-31T12:30:49.000Z</time>
   </trkpt>
   <trkpt lat="-8.038895" lon="-34.892138">
    <ele>13.2</ele>
    <time>2020-01-31T12:30:50.000Z</time>
   </trkpt>
   <trkpt lat="-8.038946" lon="-34.892155">
    <ele>13.2</ele>
    <time>2020-01-31T12:30:51.000Z</time>
   </trkpt>
   <trkpt lat="-8.038999" lon="-34.892167">
    <ele>12.7</ele>
    <time>2020-01-31T12:30:52.000Z</time>
   </trkpt>
   <trkpt lat="-8.039055" lon="-34.892176">
    <ele>12.4</ele>
    <time>2020-01-31T12:30:53.000Z</time>
   </trkpt>
   <trkpt lat="-8.039106" lon="-34.89217">
    <ele>12</ele>
    <time>2020-01-31T12:30:54.000Z</time>
   </trkpt>
   <trkpt lat="-8.039154" lon="-34.892168">
    <ele>12</ele>
    <time>2020-01-31T12:30:55.000Z</time>
   </trkpt>
   <trkpt lat="-8.039203" lon="-34.892167">
    <ele>11.9</ele>
    <time>2020-01-31T12:30:56.000Z</time>
   </trkpt>
   <trkpt lat="-8.039256" lon="-34.892165">
    <ele>11.6</ele>
    <time>2020-01-31T12:30:57.000Z</time>
   </trkpt>
   <trkpt lat="-8.039307" lon="-34.892171">
    <ele>11.5</ele>
    <time>2020-01-31T12:30:58.000Z</time>
   </trkpt>
   <trkpt lat="-8.039358" lon="-34.892175">
    <ele>11.5</ele>
    <time>2020-01-31T12:30:59.000Z</time>
   </trkpt>
   <trkpt lat="-8.039409" lon="-34.892179">
    <ele>11.6</ele>
    <time>2020-01-31T12:31:00.000Z</time>
   </trkpt>
   <trkpt lat="-8.039459" lon="-34.8922">
    <ele>11.7</ele>
    <time>2020-01-31T12:31:01.000Z</time>
   </trkpt>
   <trkpt lat="-8.039514" lon="-34.892196">
    <ele>11.9</ele>
    <time>2020-01-31T12:31:02.000Z</time>
   </trkpt>
   <trkpt lat="-8.039573" lon="-34.892184">
    <ele>12.1</ele>
    <time>2020-01-31T12:31:03.000Z</time>
   </trkpt>
   <trkpt lat="-8.039628" lon="-34.892181">
    <ele>12.3</ele>
    <time>2020-01-31T12:31:04.000Z</time>
   </trkpt>
   <trkpt lat="-8.039678" lon="-34.892179">
    <ele>12.3</ele>
    <time>2020-01-31T12:31:05.000Z</time>
   </trkpt>
   <trkpt lat="-8.039732" lon="-34.89219">
    <ele>12.7</ele>
    <time>2020-01-31T12:31:06.000Z</time>
   </trkpt>
   <trkpt lat="-8.039783" lon="-34.892222">
    <ele>13</ele>
    <time>2020-01-31T12:31:07.000Z</time>
   </trkpt>
   <trkpt lat="-8.039827" lon="-34.892279">
    <ele>13.4</ele>
    <time>2020-01-31T12:31:08.000Z</time>
   </trkpt>
   <trkpt lat="-8.039872" lon="-34.892327">
    <ele>13.8</ele>
    <time>2020-01-31T12:31:09.000Z</time>
   </trkpt>
   <trkpt lat="-8.039918" lon="-34.892377">
    <ele>14</ele>
    <time>2020-01-31T12:31:10.000Z</time>
   </trkpt>
   <trkpt lat="-8.039957" lon="-34.892431">
    <ele>14.2</ele>
    <time>2020-01-31T12:31:11.000Z</time>
   </trkpt>
   <trkpt lat="-8.040002" lon="-34.892467">
    <ele>14.4</ele>
    <time>2020-01-31T12:31:12.000Z</time>
   </trkpt>
   <trkpt lat="-8.040047" lon="-34.892498">
    <ele>14.6</ele>
    <time>2020-01-31T12:31:13.000Z</time>
   </trkpt>
   <trkpt lat="-8.040087" lon="-34.892531">
    <ele>14.8</ele>
    <time>2020-01-31T12:31:14.000Z</time>
   </trkpt>
   <trkpt lat="-8.040135" lon="-34.892578">
    <ele>14.9</ele>
    <time>2020-01-31T12:31:15.000Z</time>
   </trkpt>
   <trkpt lat="-8.040175" lon="-34.892622">
    <ele>15</ele>
    <time>2020-01-31T12:31:16.000Z</time>
   </trkpt>
   <trkpt lat="-8.040226" lon="-34.892655">
    <ele>15.1</ele>
    <time>2020-01-31T12:31:17.000Z</time>
   </trkpt>
   <trkpt lat="-8.040278" lon="-34.892702">
    <ele>15.2</ele>
    <time>2020-01-31T12:31:18.000Z</time>
   </trkpt>
   <trkpt lat="-8.040327" lon="-34.892746">
    <ele>15.2</ele>
    <time>2020-01-31T12:31:19.000Z</time>
   </trkpt>
   <trkpt lat="-8.040372" lon="-34.892795">
    <ele>15.3</ele>
    <time>2020-01-31T12:31:20.000Z</time>
   </trkpt>
   <trkpt lat="-8.040411" lon="-34.892841">
    <ele>15.3</ele>
    <time>2020-01-31T12:31:21.000Z</time>
   </trkpt>
   <trkpt lat="-8.040455" lon="-34.892897">
    <ele>15.4</ele>
    <time>2020-01-31T12:31:22.000Z</time>
   </trkpt>
   <trkpt lat="-8.040492" lon="-34.892953">
    <ele>15.6</ele>
    <time>2020-01-31T12:31:23.000Z</time>
   </trkpt>
   <trkpt lat="-8.040527" lon="-34.892999">
    <ele>15.7</ele>
    <time>2020-01-31T12:31:24.000Z</time>
   </trkpt>
   <trkpt lat="-8.040559" lon="-34.893038">
    <ele>15.8</ele>
    <time>2020-01-31T12:31:25.000Z</time>
   </trkpt>
   <trkpt lat="-8.040588" lon="-34.893067">
    <ele>15.9</ele>
    <time>2020-01-31T12:31:26.000Z</time>
   </trkpt>
   <trkpt lat="-8.040604" lon="-34.89309">
    <ele>15.9</ele>
    <time>2020-01-31T12:31:27.000Z</time>
   </trkpt>
   <trkpt lat="-8.040631" lon="-34.893129">
    <ele>16</ele>
    <time>2020-01-31T12:31:28.000Z</time>
   </trkpt>
   <trkpt lat="-8.040671" lon="-34.893138">
    <ele>16.1</ele>
    <time>2020-01-31T12:31:29.000Z</time>
   </trkpt>
   <trkpt lat="-8.040696" lon="-34.893161">
    <ele>16.1</ele>
    <time>2020-01-31T12:31:30.000Z</time>
   </trkpt>
   <trkpt lat="-8.040724" lon="-34.893183">
    <ele>16.2</ele>
    <time>2020-01-31T12:31:31.000Z</time>
   </trkpt>
   <trkpt lat="-8.040765" lon="-34.893206">
    <ele>16.2</ele>
    <time>2020-01-31T12:31:32.000Z</time>
   </trkpt>
   <trkpt lat="-8.040813" lon="-34.893234">
    <ele>16.3</ele>
    <time>2020-01-31T12:31:33.000Z</time>
   </trkpt>
   <trkpt lat="-8.040855" lon="-34.893248">
    <ele>16.4</ele>
    <time>2020-01-31T12:31:34.000Z</time>
   </trkpt>
   <trkpt lat="-8.040889" lon="-34.893262">
    <ele>16.5</ele>
    <time>2020-01-31T12:31:35.000Z</time>
   </trkpt>
   <trkpt lat="-8.040913" lon="-34.893275">
    <ele>16.5</ele>
    <time>2020-01-31T12:31:36.000Z</time>
   </trkpt>
   <trkpt lat="-8.040941" lon="-34.89328">
    <ele>16.6</ele>
    <time>2020-01-31T12:31:37.000Z</time>
   </trkpt>
   <trkpt lat="-8.04095" lon="-34.893285">
    <ele>16.6</ele>
    <time>2020-01-31T12:31:38.000Z</time>
   </trkpt>
   <trkpt lat="-8.040955" lon="-34.893346">
    <ele>16.8</ele>
    <time>2020-01-31T12:31:40.000Z</time>
   </trkpt>
   <trkpt lat="-8.040968" lon="-34.893393">
    <ele>16.9</ele>
    <time>2020-01-31T12:31:41.000Z</time>
   </trkpt>
   <trkpt lat="-8.040987" lon="-34.893436">
    <ele>17</ele>
    <time>2020-01-31T12:31:42.000Z</time>
   </trkpt>
   <trkpt lat="-8.041043" lon="-34.893444">
    <ele>17.2</ele>
    <time>2020-01-31T12:31:43.000Z</time>
   </trkpt>
   <trkpt lat="-8.041091" lon="-34.893473">
    <ele>17.3</ele>
    <time>2020-01-31T12:31:44.000Z</time>
   </trkpt>
   <trkpt lat="-8.041144" lon="-34.89351">
    <ele>17.5</ele>
    <time>2020-01-31T12:31:45.000Z</time>
   </trkpt>
   <trkpt lat="-8.04119" lon="-34.893544">
    <ele>17.7</ele>
    <time>2020-01-31T12:31:46.000Z</time>
   </trkpt>
   <trkpt lat="-8.041233" lon="-34.893572">
    <ele>17.8</ele>
    <time>2020-01-31T12:31:47.000Z</time>
   </trkpt>
   <trkpt lat="-8.041267" lon="-34.893601">
    <ele>17.9</ele>
    <time>2020-01-31T12:31:48.000Z</time>
   </trkpt>
   <trkpt lat="-8.041299" lon="-34.893629">
    <ele>18</ele>
    <time>2020-01-31T12:31:49.000Z</time>
   </trkpt>
   <trkpt lat="-8.041321" lon="-34.893674">
    <ele>18.1</ele>
    <time>2020-01-31T12:31:50.000Z</time>
   </trkpt>
   <trkpt lat="-8.041349" lon="-34.8937">
    <ele>18.1</ele>
    <time>2020-01-31T12:31:51.000Z</time>
   </trkpt>
   <trkpt lat="-8.041377" lon="-34.893727">
    <ele>18.1</ele>
    <time>2020-01-31T12:31:52.000Z</time>
   </trkpt>
   <trkpt lat="-8.041414" lon="-34.893763">
    <ele>18.1</ele>
    <time>2020-01-31T12:31:53.000Z</time>
   </trkpt>
   <trkpt lat="-8.041427" lon="-34.893778">
    <ele>18.2</ele>
    <time>2020-01-31T12:31:54.000Z</time>
   </trkpt>
   <trkpt lat="-8.041472" lon="-34.893759">
    <ele>18</ele>
    <time>2020-01-31T12:31:56.000Z</time>
   </trkpt>
   <trkpt lat="-8.041512" lon="-34.893725">
    <ele>17.8</ele>
    <time>2020-01-31T12:31:57.000Z</time>
   </trkpt>
   <trkpt lat="-8.041541" lon="-34.893686">
    <ele>17.7</ele>
    <time>2020-01-31T12:31:58.000Z</time>
   </trkpt>
   <trkpt lat="-8.041578" lon="-34.893647">
    <ele>17.6</ele>
    <time>2020-01-31T12:31:59.000Z</time>
   </trkpt>
   <trkpt lat="-8.041618" lon="-34.89361">
    <ele>17.5</ele>
    <time>2020-01-31T12:32:00.000Z</time>
   </trkpt>
   <trkpt lat="-8.041655" lon="-34.893564">
    <ele>17.4</ele>
    <time>2020-01-31T12:32:01.000Z</time>
   </trkpt>
   <trkpt lat="-8.041693" lon="-34.893523">
    <ele>17.3</ele>
    <time>2020-01-31T12:32:02.000Z</time>
   </trkpt>
   <trkpt lat="-8.04172" lon="-34.893481">
    <ele>17.3</ele>
    <time>2020-01-31T12:32:03.000Z</time>
   </trkpt>
   <trkpt lat="-8.041703" lon="-34.893398">
    <ele>17.2</ele>
    <time>2020-01-31T12:32:04.000Z</time>
   </trkpt>
   <trkpt lat="-8.041715" lon="-34.893339">
    <ele>17.1</ele>
    <time>2020-01-31T12:32:05.000Z</time>
   </trkpt>
   <trkpt lat="-8.041742" lon="-34.893294">
    <ele>17.1</ele>
    <time>2020-01-31T12:32:06.000Z</time>
   </trkpt>
   <trkpt lat="-8.041776" lon="-34.89325">
    <ele>17.1</ele>
    <time>2020-01-31T12:32:07.000Z</time>
   </trkpt>
   <trkpt lat="-8.041808" lon="-34.893213">
    <ele>17.1</ele>
    <time>2020-01-31T12:32:08.000Z</time>
   </trkpt>
   <trkpt lat="-8.041853" lon="-34.893171">
    <ele>17.1</ele>
    <time>2020-01-31T12:32:09.000Z</time>
   </trkpt>
   <trkpt lat="-8.041883" lon="-34.893135">
    <ele>17.1</ele>
    <time>2020-01-31T12:32:10.000Z</time>
   </trkpt>
   <trkpt lat="-8.041919" lon="-34.893088">
    <ele>17.1</ele>
    <time>2020-01-31T12:32:11.000Z</time>
   </trkpt>
   <trkpt lat="-8.041955" lon="-34.893034">
    <ele>17.1</ele>
    <time>2020-01-31T12:32:12.000Z</time>
   </trkpt>
   <trkpt lat="-8.041991" lon="-34.892974">
    <ele>17</ele>
    <time>2020-01-31T12:32:13.000Z</time>
   </trkpt>
   <trkpt lat="-8.042032" lon="-34.892915">
    <ele>17</ele>
    <time>2020-01-31T12:32:14.000Z</time>
   </trkpt>
   <trkpt lat="-8.042065" lon="-34.892863">
    <ele>17</ele>
    <time>2020-01-31T12:32:15.000Z</time>
   </trkpt>
   <trkpt lat="-8.0421" lon="-34.892814">
    <ele>17</ele>
    <time>2020-01-31T12:32:16.000Z</time>
   </trkpt>
   <trkpt lat="-8.04214" lon="-34.892756">
    <ele>17</ele>
    <time>2020-01-31T12:32:17.000Z</time>
   </trkpt>
   <trkpt lat="-8.042189" lon="-34.892702">
    <ele>17</ele>
    <time>2020-01-31T12:32:18.000Z</time>
   </trkpt>
   <trkpt lat="-8.04223" lon="-34.89264">
    <ele>17</ele>
    <time>2020-01-31T12:32:19.000Z</time>
   </trkpt>
   <trkpt lat="-8.042266" lon="-34.892579">
    <ele>17</ele>
    <time>2020-01-31T12:32:20.000Z</time>
   </trkpt>
   <trkpt lat="-8.042297" lon="-34.892523">
    <ele>16.8</ele>
    <time>2020-01-31T12:32:21.000Z</time>
   </trkpt>
   <trkpt lat="-8.042325" lon="-34.892475">
    <ele>16.6</ele>
    <time>2020-01-31T12:32:22.000Z</time>
   </trkpt>
   <trkpt lat="-8.042363" lon="-34.892418">
    <ele>16.5</ele>
    <time>2020-01-31T12:32:23.000Z</time>
   </trkpt>
   <trkpt lat="-8.042404" lon="-34.892374">
    <ele>16.3</ele>
    <time>2020-01-31T12:32:24.000Z</time>
   </trkpt>
   <trkpt lat="-8.042449" lon="-34.89234">
    <ele>16.1</ele>
    <time>2020-01-31T12:32:25.000Z</time>
   </trkpt>
   <trkpt lat="-8.042505" lon="-34.892313">
    <ele>15.8</ele>
    <time>2020-01-31T12:32:26.000Z</time>
   </trkpt>
   <trkpt lat="-8.042542" lon="-34.892289">
    <ele>15.7</ele>
    <time>2020-01-31T12:32:27.000Z</time>
   </trkpt>
   <trkpt lat="-8.042572" lon="-34.892277">
    <ele>15.5</ele>
    <time>2020-01-31T12:32:28.000Z</time>
   </trkpt>
   <trkpt lat="-8.042593" lon="-34.89226">
    <ele>15.5</ele>
    <time>2020-01-31T12:32:29.000Z</time>
   </trkpt>
   <trkpt lat="-8.042611" lon="-34.892234">
    <ele>15.4</ele>
    <time>2020-01-31T12:32:31.000Z</time>
   </trkpt>
   <trkpt lat="-8.042644" lon="-34.892174">
    <ele>15.2</ele>
    <time>2020-01-31T12:32:33.000Z</time>
   </trkpt>
   <trkpt lat="-8.04265" lon="-34.892148">
    <ele>15.1</ele>
    <time>2020-01-31T12:32:34.000Z</time>
   </trkpt>
   <trkpt lat="-8.042661" lon="-34.892095">
    <ele>15</ele>
    <time>2020-01-31T12:32:36.000Z</time>
   </trkpt>
   <trkpt lat="-8.042688" lon="-34.892053">
    <ele>14.9</ele>
    <time>2020-01-31T12:32:38.000Z</time>
   </trkpt>
   <trkpt lat="-8.042699" lon="-34.892043">
    <ele>14.9</ele>
    <time>2020-01-31T12:32:40.000Z</time>
   </trkpt>
   <trkpt lat="-8.042718" lon="-34.891997">
    <ele>14.9</ele>
    <time>2020-01-31T12:32:42.000Z</time>
   </trkpt>
   <trkpt lat="-8.042732" lon="-34.891972">
    <ele>14.8</ele>
    <time>2020-01-31T12:32:44.000Z</time>
   </trkpt>
   <trkpt lat="-8.042735" lon="-34.891963">
    <ele>14.8</ele>
    <time>2020-01-31T12:32:49.000Z</time>
   </trkpt>
   <trkpt lat="-8.042809" lon="-34.89191">
    <ele>14.8</ele>
    <time>2020-01-31T12:32:56.000Z</time>
   </trkpt>
   <trkpt lat="-8.042844" lon="-34.891869">
    <ele>14.7</ele>
    <time>2020-01-31T12:32:58.000Z</time>
   </trkpt>
   <trkpt lat="-8.04291" lon="-34.891802">
    <ele>14.7</ele>
    <time>2020-01-31T12:33:00.000Z</time>
   </trkpt>
   <trkpt lat="-8.042932" lon="-34.891769">
    <ele>14.7</ele>
    <time>2020-01-31T12:33:01.000Z</time>
   </trkpt>
   <trkpt lat="-8.042992" lon="-34.891736">
    <ele>14.6</ele>
    <time>2020-01-31T12:33:02.000Z</time>
   </trkpt>
   <trkpt lat="-8.043046" lon="-34.891696">
    <ele>14.5</ele>
    <time>2020-01-31T12:33:03.000Z</time>
   </trkpt>
   <trkpt lat="-8.043098" lon="-34.891635">
    <ele>14.5</ele>
    <time>2020-01-31T12:33:04.000Z</time>
   </trkpt>
   <trkpt lat="-8.043147" lon="-34.891587">
    <ele>14.4</ele>
    <time>2020-01-31T12:33:05.000Z</time>
   </trkpt>
   <trkpt lat="-8.043188" lon="-34.891543">
    <ele>14.3</ele>
    <time>2020-01-31T12:33:06.000Z</time>
   </trkpt>
   <trkpt lat="-8.043225" lon="-34.891509">
    <ele>14.2</ele>
    <time>2020-01-31T12:33:07.000Z</time>
   </trkpt>
   <trkpt lat="-8.043253" lon="-34.891479">
    <ele>14.2</ele>
    <time>2020-01-31T12:33:08.000Z</time>
   </trkpt>
   <trkpt lat="-8.043287" lon="-34.891447">
    <ele>14.1</ele>
    <time>2020-01-31T12:33:09.000Z</time>
   </trkpt>
   <trkpt lat="-8.043315" lon="-34.891418">
    <ele>14</ele>
    <time>2020-01-31T12:33:10.000Z</time>
   </trkpt>
   <trkpt lat="-8.04336" lon="-34.891399">
    <ele>13.9</ele>
    <time>2020-01-31T12:33:11.000Z</time>
   </trkpt>
   <trkpt lat="-8.043416" lon="-34.891395">
    <ele>13.8</ele>
    <time>2020-01-31T12:33:12.000Z</time>
   </trkpt>
   <trkpt lat="-8.043452" lon="-34.891384">
    <ele>13.8</ele>
    <time>2020-01-31T12:33:13.000Z</time>
   </trkpt>
   <trkpt lat="-8.043485" lon="-34.891361">
    <ele>13.7</ele>
    <time>2020-01-31T12:33:14.000Z</time>
   </trkpt>
   <trkpt lat="-8.043518" lon="-34.891305">
    <ele>13.7</ele>
    <time>2020-01-31T12:33:15.000Z</time>
   </trkpt>
   <trkpt lat="-8.043565" lon="-34.891226">
    <ele>13.6</ele>
    <time>2020-01-31T12:33:16.000Z</time>
   </trkpt>
   <trkpt lat="-8.043611" lon="-34.891155">
    <ele>13.6</ele>
    <time>2020-01-31T12:33:17.000Z</time>
   </trkpt>
   <trkpt lat="-8.043654" lon="-34.891108">
    <ele>13.5</ele>
    <time>2020-01-31T12:33:18.000Z</time>
   </trkpt>
   <trkpt lat="-8.043679" lon="-34.891062">
    <ele>13.5</ele>
    <time>2020-01-31T12:33:19.000Z</time>
   </trkpt>
   <trkpt lat="-8.043696" lon="-34.891015">
    <ele>13.5</ele>
    <time>2020-01-31T12:33:20.000Z</time>
   </trkpt>
   <trkpt lat="-8.043728" lon="-34.890959">
    <ele>13.5</ele>
    <time>2020-01-31T12:33:21.000Z</time>
   </trkpt>
   <trkpt lat="-8.043761" lon="-34.890914">
    <ele>13.4</ele>
    <time>2020-01-31T12:33:22.000Z</time>
   </trkpt>
   <trkpt lat="-8.043791" lon="-34.890863">
    <ele>13.4</ele>
    <time>2020-01-31T12:33:23.000Z</time>
   </trkpt>
   <trkpt lat="-8.04383" lon="-34.89082">
    <ele>13.3</ele>
    <time>2020-01-31T12:33:24.000Z</time>
   </trkpt>
   <trkpt lat="-8.043874" lon="-34.890772">
    <ele>13</ele>
    <time>2020-01-31T12:33:25.000Z</time>
   </trkpt>
   <trkpt lat="-8.043917" lon="-34.890728">
    <ele>12.9</ele>
    <time>2020-01-31T12:33:26.000Z</time>
   </trkpt>
   <trkpt lat="-8.043962" lon="-34.890686">
    <ele>12.8</ele>
    <time>2020-01-31T12:33:27.000Z</time>
   </trkpt>
   <trkpt lat="-8.044006" lon="-34.890638">
    <ele>12.6</ele>
    <time>2020-01-31T12:33:28.000Z</time>
   </trkpt>
   <trkpt lat="-8.044056" lon="-34.890591">
    <ele>12.4</ele>
    <time>2020-01-31T12:33:29.000Z</time>
   </trkpt>
   <trkpt lat="-8.044116" lon="-34.89056">
    <ele>12.1</ele>
    <time>2020-01-31T12:33:30.000Z</time>
   </trkpt>
   <trkpt lat="-8.044187" lon="-34.89052">
    <ele>11.8</ele>
    <time>2020-01-31T12:33:31.000Z</time>
   </trkpt>
   <trkpt lat="-8.044254" lon="-34.890475">
    <ele>11.5</ele>
    <time>2020-01-31T12:33:32.000Z</time>
   </trkpt>
   <trkpt lat="-8.04431" lon="-34.890421">
    <ele>11</ele>
    <time>2020-01-31T12:33:33.000Z</time>
   </trkpt>
   <trkpt lat="-8.044371" lon="-34.890371">
    <ele>10.6</ele>
    <time>2020-01-31T12:33:34.000Z</time>
   </trkpt>
   <trkpt lat="-8.044419" lon="-34.890321">
    <ele>10.2</ele>
    <time>2020-01-31T12:33:35.000Z</time>
   </trkpt>
   <trkpt lat="-8.044462" lon="-34.890264">
    <ele>9.8</ele>
    <time>2020-01-31T12:33:36.000Z</time>
   </trkpt>
   <trkpt lat="-8.044504" lon="-34.890213">
    <ele>9.4</ele>
    <time>2020-01-31T12:33:37.000Z</time>
   </trkpt>
   <trkpt lat="-8.044554" lon="-34.890163">
    <ele>9</ele>
    <time>2020-01-31T12:33:38.000Z</time>
   </trkpt>
   <trkpt lat="-8.044601" lon="-34.890117">
    <ele>8.6</ele>
    <time>2020-01-31T12:33:39.000Z</time>
   </trkpt>
   <trkpt lat="-8.044656" lon="-34.89007">
    <ele>8.1</ele>
    <time>2020-01-31T12:33:40.000Z</time>
   </trkpt>
   <trkpt lat="-8.044713" lon="-34.890028">
    <ele>7.8</ele>
    <time>2020-01-31T12:33:41.000Z</time>
   </trkpt>
   <trkpt lat="-8.044762" lon="-34.890001">
    <ele>7.5</ele>
    <time>2020-01-31T12:33:42.000Z</time>
   </trkpt>
   <trkpt lat="-8.044805" lon="-34.889985">
    <ele>7.3</ele>
    <time>2020-01-31T12:33:43.000Z</time>
   </trkpt>
   <trkpt lat="-8.044863" lon="-34.889959">
    <ele>6.9</ele>
    <time>2020-01-31T12:33:44.000Z</time>
   </trkpt>
   <trkpt lat="-8.044927" lon="-34.889934">
    <ele>6.4</ele>
    <time>2020-01-31T12:33:45.000Z</time>
   </trkpt>
   <trkpt lat="-8.044995" lon="-34.88995">
    <ele>6.3</ele>
    <time>2020-01-31T12:33:46.000Z</time>
   </trkpt>
   <trkpt lat="-8.045071" lon="-34.889942">
    <ele>6.2</ele>
    <time>2020-01-31T12:33:47.000Z</time>
   </trkpt>
   <trkpt lat="-8.045142" lon="-34.889938">
    <ele>6.1</ele>
    <time>2020-01-31T12:33:48.000Z</time>
   </trkpt>
   <trkpt lat="-8.045187" lon="-34.889938">
    <ele>6.1</ele>
    <time>2020-01-31T12:33:49.000Z</time>
   </trkpt>
   <trkpt lat="-8.045256" lon="-34.889935">
    <ele>6.3</ele>
    <time>2020-01-31T12:33:50.000Z</time>
   </trkpt>
   <trkpt lat="-8.045332" lon="-34.889936">
    <ele>6.6</ele>
    <time>2020-01-31T12:33:51.000Z</time>
   </trkpt>
   <trkpt lat="-8.045405" lon="-34.889936">
    <ele>6.9</ele>
    <time>2020-01-31T12:33:52.000Z</time>
   </trkpt>
   <trkpt lat="-8.045472" lon="-34.889929">
    <ele>7.3</ele>
    <time>2020-01-31T12:33:53.000Z</time>
   </trkpt>
   <trkpt lat="-8.045544" lon="-34.889922">
    <ele>7.6</ele>
    <time>2020-01-31T12:33:54.000Z</time>
   </trkpt>
   <trkpt lat="-8.045593" lon="-34.889918">
    <ele>7.9</ele>
    <time>2020-01-31T12:33:55.000Z</time>
   </trkpt>
   <trkpt lat="-8.045651" lon="-34.889914">
    <ele>8.2</ele>
    <time>2020-01-31T12:33:56.000Z</time>
   </trkpt>
   <trkpt lat="-8.04571" lon="-34.889901">
    <ele>8.5</ele>
    <time>2020-01-31T12:33:57.000Z</time>
   </trkpt>
   <trkpt lat="-8.045776" lon="-34.889893">
    <ele>9</ele>
    <time>2020-01-31T12:33:58.000Z</time>
   </trkpt>
   <trkpt lat="-8.045839" lon="-34.889893">
    <ele>9.4</ele>
    <time>2020-01-31T12:33:59.000Z</time>
   </trkpt>
   <trkpt lat="-8.045911" lon="-34.889897">
    <ele>9.5</ele>
    <time>2020-01-31T12:34:00.000Z</time>
   </trkpt>
   <trkpt lat="-8.045989" lon="-34.889893">
    <ele>9.5</ele>
    <time>2020-01-31T12:34:01.000Z</time>
   </trkpt>
   <trkpt lat="-8.046068" lon="-34.889886">
    <ele>9.5</ele>
    <time>2020-01-31T12:34:02.000Z</time>
   </trkpt>
   <trkpt lat="-8.046143" lon="-34.889883">
    <ele>9.6</ele>
    <time>2020-01-31T12:34:03.000Z</time>
   </trkpt>
   <trkpt lat="-8.046223" lon="-34.889882">
    <ele>9.6</ele>
    <time>2020-01-31T12:34:04.000Z</time>
   </trkpt>
   <trkpt lat="-8.046293" lon="-34.889877">
    <ele>9.7</ele>
    <time>2020-01-31T12:34:05.000Z</time>
   </trkpt>
   <trkpt lat="-8.04637" lon="-34.889875">
    <ele>9.7</ele>
    <time>2020-01-31T12:34:06.000Z</time>
   </trkpt>
   <trkpt lat="-8.046443" lon="-34.88988">
    <ele>9.7</ele>
    <time>2020-01-31T12:34:07.000Z</time>
   </trkpt>
   <trkpt lat="-8.046527" lon="-34.889887">
    <ele>9.8</ele>
    <time>2020-01-31T12:34:08.000Z</time>
   </trkpt>
   <trkpt lat="-8.046598" lon="-34.889886">
    <ele>9.9</ele>
    <time>2020-01-31T12:34:09.000Z</time>
   </trkpt>
   <trkpt lat="-8.046664" lon="-34.88988">
    <ele>10</ele>
    <time>2020-01-31T12:34:10.000Z</time>
   </trkpt>
   <trkpt lat="-8.046732" lon="-34.889872">
    <ele>10.2</ele>
    <time>2020-01-31T12:34:12.000Z</time>
   </trkpt>
   <trkpt lat="-8.046808" lon="-34.889866">
    <ele>10.3</ele>
    <time>2020-01-31T12:34:13.000Z</time>
   </trkpt>
   <trkpt lat="-8.046882" lon="-34.889859">
    <ele>10.4</ele>
    <time>2020-01-31T12:34:14.000Z</time>
   </trkpt>
   <trkpt lat="-8.046957" lon="-34.889851">
    <ele>10.5</ele>
    <time>2020-01-31T12:34:15.000Z</time>
   </trkpt>
   <trkpt lat="-8.04702" lon="-34.889849">
    <ele>10.6</ele>
    <time>2020-01-31T12:34:16.000Z</time>
   </trkpt>
   <trkpt lat="-8.047097" lon="-34.889845">
    <ele>10.7</ele>
    <time>2020-01-31T12:34:17.000Z</time>
   </trkpt>
   <trkpt lat="-8.047169" lon="-34.889839">
    <ele>10.8</ele>
    <time>2020-01-31T12:34:18.000Z</time>
   </trkpt>
   <trkpt lat="-8.047233" lon="-34.889836">
    <ele>10.9</ele>
    <time>2020-01-31T12:34:19.000Z</time>
   </trkpt>
   <trkpt lat="-8.047301" lon="-34.889835">
    <ele>11</ele>
    <time>2020-01-31T12:34:20.000Z</time>
   </trkpt>
   <trkpt lat="-8.047366" lon="-34.889835">
    <ele>11</ele>
    <time>2020-01-31T12:34:21.000Z</time>
   </trkpt>
   <trkpt lat="-8.047431" lon="-34.889828">
    <ele>11</ele>
    <time>2020-01-31T12:34:22.000Z</time>
   </trkpt>
   <trkpt lat="-8.0475" lon="-34.889832">
    <ele>11.1</ele>
    <time>2020-01-31T12:34:23.000Z</time>
   </trkpt>
   <trkpt lat="-8.047562" lon="-34.889832">
    <ele>11.1</ele>
    <time>2020-01-31T12:34:24.000Z</time>
   </trkpt>
   <trkpt lat="-8.047623" lon="-34.889836">
    <ele>11.1</ele>
    <time>2020-01-31T12:34:25.000Z</time>
   </trkpt>
   <trkpt lat="-8.047695" lon="-34.889824">
    <ele>11.2</ele>
    <time>2020-01-31T12:34:26.000Z</time>
   </trkpt>
   <trkpt lat="-8.047751" lon="-34.889811">
    <ele>11.2</ele>
    <time>2020-01-31T12:34:27.000Z</time>
   </trkpt>
   <trkpt lat="-8.047808" lon="-34.889799">
    <ele>11.3</ele>
    <time>2020-01-31T12:34:28.000Z</time>
   </trkpt>
   <trkpt lat="-8.047869" lon="-34.8898">
    <ele>11</ele>
    <time>2020-01-31T12:34:29.000Z</time>
   </trkpt>
   <trkpt lat="-8.047911" lon="-34.889821">
    <ele>10.9</ele>
    <time>2020-01-31T12:34:30.000Z</time>
   </trkpt>
   <trkpt lat="-8.047967" lon="-34.889824">
    <ele>10.7</ele>
    <time>2020-01-31T12:34:31.000Z</time>
   </trkpt>
   <trkpt lat="-8.048033" lon="-34.88982">
    <ele>10.5</ele>
    <time>2020-01-31T12:34:32.000Z</time>
   </trkpt>
   <trkpt lat="-8.048095" lon="-34.889813">
    <ele>10.4</ele>
    <time>2020-01-31T12:34:33.000Z</time>
   </trkpt>
   <trkpt lat="-8.048161" lon="-34.889805">
    <ele>10</ele>
    <time>2020-01-31T12:34:34.000Z</time>
   </trkpt>
   <trkpt lat="-8.048212" lon="-34.889809">
    <ele>10.2</ele>
    <time>2020-01-31T12:34:35.000Z</time>
   </trkpt>
   <trkpt lat="-8.048269" lon="-34.889834">
    <ele>10.5</ele>
    <time>2020-01-31T12:34:36.000Z</time>
   </trkpt>
   <trkpt lat="-8.048318" lon="-34.889837">
    <ele>10.6</ele>
    <time>2020-01-31T12:34:37.000Z</time>
   </trkpt>
   <trkpt lat="-8.048382" lon="-34.889833">
    <ele>10.9</ele>
    <time>2020-01-31T12:34:38.000Z</time>
   </trkpt>
   <trkpt lat="-8.048443" lon="-34.889828">
    <ele>11.2</ele>
    <time>2020-01-31T12:34:39.000Z</time>
   </trkpt>
   <trkpt lat="-8.048513" lon="-34.88982">
    <ele>11.6</ele>
    <time>2020-01-31T12:34:40.000Z</time>
   </trkpt>
   <trkpt lat="-8.048594" lon="-34.889822">
    <ele>12.1</ele>
    <time>2020-01-31T12:34:41.000Z</time>
   </trkpt>
   <trkpt lat="-8.048665" lon="-34.88983">
    <ele>12.6</ele>
    <time>2020-01-31T12:34:42.000Z</time>
   </trkpt>
   <trkpt lat="-8.048734" lon="-34.889836">
    <ele>13.1</ele>
    <time>2020-01-31T12:34:43.000Z</time>
   </trkpt>
   <trkpt lat="-8.048791" lon="-34.889841">
    <ele>13.6</ele>
    <time>2020-01-31T12:34:44.000Z</time>
   </trkpt>
   <trkpt lat="-8.048844" lon="-34.889844">
    <ele>14.1</ele>
    <time>2020-01-31T12:34:45.000Z</time>
   </trkpt>
   <trkpt lat="-8.048883" lon="-34.889853">
    <ele>14.4</ele>
    <time>2020-01-31T12:34:46.000Z</time>
   </trkpt>
   <trkpt lat="-8.048932" lon="-34.88986">
    <ele>15</ele>
    <time>2020-01-31T12:34:47.000Z</time>
   </trkpt>
   <trkpt lat="-8.048989" lon="-34.889866">
    <ele>14.8</ele>
    <time>2020-01-31T12:34:48.000Z</time>
   </trkpt>
   <trkpt lat="-8.049043" lon="-34.88987">
    <ele>14.6</ele>
    <time>2020-01-31T12:34:49.000Z</time>
   </trkpt>
   <trkpt lat="-8.049096" lon="-34.889878">
    <ele>14.4</ele>
    <time>2020-01-31T12:34:50.000Z</time>
   </trkpt>
   <trkpt lat="-8.049151" lon="-34.889889">
    <ele>14.3</ele>
    <time>2020-01-31T12:34:51.000Z</time>
   </trkpt>
   <trkpt lat="-8.049192" lon="-34.889909">
    <ele>14.1</ele>
    <time>2020-01-31T12:34:52.000Z</time>
   </trkpt>
   <trkpt lat="-8.049258" lon="-34.889921">
    <ele>13.8</ele>
    <time>2020-01-31T12:34:53.000Z</time>
   </trkpt>
   <trkpt lat="-8.049324" lon="-34.889927">
    <ele>13.6</ele>
    <time>2020-01-31T12:34:54.000Z</time>
   </trkpt>
   <trkpt lat="-8.049387" lon="-34.889951">
    <ele>13.2</ele>
    <time>2020-01-31T12:34:55.000Z</time>
   </trkpt>
   <trkpt lat="-8.049445" lon="-34.889959">
    <ele>12.9</ele>
    <time>2020-01-31T12:34:56.000Z</time>
   </trkpt>
   <trkpt lat="-8.049495" lon="-34.889957">
    <ele>12.7</ele>
    <time>2020-01-31T12:34:57.000Z</time>
   </trkpt>
   <trkpt lat="-8.049558" lon="-34.889954">
    <ele>12.4</ele>
    <time>2020-01-31T12:34:58.000Z</time>
   </trkpt>
   <trkpt lat="-8.049627" lon="-34.889956">
    <ele>11.8</ele>
    <time>2020-01-31T12:34:59.000Z</time>
   </trkpt>
   <trkpt lat="-8.049697" lon="-34.889961">
    <ele>11.5</ele>
    <time>2020-01-31T12:35:00.000Z</time>
   </trkpt>
   <trkpt lat="-8.049752" lon="-34.889973">
    <ele>11.2</ele>
    <time>2020-01-31T12:35:01.000Z</time>
   </trkpt>
   <trkpt lat="-8.049796" lon="-34.889981">
    <ele>11.1</ele>
    <time>2020-01-31T12:35:02.000Z</time>
   </trkpt>
   <trkpt lat="-8.049856" lon="-34.88999">
    <ele>11</ele>
    <time>2020-01-31T12:35:03.000Z</time>
   </trkpt>
   <trkpt lat="-8.049909" lon="-34.889998">
    <ele>10.9</ele>
    <time>2020-01-31T12:35:04.000Z</time>
   </trkpt>
   <trkpt lat="-8.049959" lon="-34.890003">
    <ele>10.8</ele>
    <time>2020-01-31T12:35:05.000Z</time>
   </trkpt>
   <trkpt lat="-8.050015" lon="-34.890009">
    <ele>10.7</ele>
    <time>2020-01-31T12:35:06.000Z</time>
   </trkpt>
   <trkpt lat="-8.050058" lon="-34.890011">
    <ele>10.6</ele>
    <time>2020-01-31T12:35:07.000Z</time>
   </trkpt>
   <trkpt lat="-8.050081" lon="-34.890018">
    <ele>10.6</ele>
    <time>2020-01-31T12:35:08.000Z</time>
   </trkpt>
   <trkpt lat="-8.050099" lon="-34.890014">
    <ele>10.5</ele>
    <time>2020-01-31T12:35:10.000Z</time>
   </trkpt>
   <trkpt lat="-8.050152" lon="-34.89004">
    <ele>10.5</ele>
    <time>2020-01-31T12:35:12.000Z</time>
   </trkpt>
   <trkpt lat="-8.050154" lon="-34.890063">
    <ele>10.5</ele>
    <time>2020-01-31T12:35:13.000Z</time>
   </trkpt>
   <trkpt lat="-8.050154" lon="-34.890123">
    <ele>10.5</ele>
    <time>2020-01-31T12:35:15.000Z</time>
   </trkpt>
   <trkpt lat="-8.050156" lon="-34.890169">
    <ele>10.5</ele>
    <time>2020-01-31T12:35:16.000Z</time>
   </trkpt>
   <trkpt lat="-8.050169" lon="-34.890203">
    <ele>10.5</ele>
    <time>2020-01-31T12:35:17.000Z</time>
   </trkpt>
   <trkpt lat="-8.050164" lon="-34.890251">
    <ele>10.5</ele>
    <time>2020-01-31T12:35:18.000Z</time>
   </trkpt>
   <trkpt lat="-8.05017" lon="-34.890311">
    <ele>10.5</ele>
    <time>2020-01-31T12:35:19.000Z</time>
   </trkpt>
   <trkpt lat="-8.050172" lon="-34.89036">
    <ele>10.5</ele>
    <time>2020-01-31T12:35:20.000Z</time>
   </trkpt>
   <trkpt lat="-8.050172" lon="-34.890389">
    <ele>10.5</ele>
    <time>2020-01-31T12:35:21.000Z</time>
   </trkpt>
   <trkpt lat="-8.050177" lon="-34.890445">
    <ele>10.5</ele>
    <time>2020-01-31T12:35:22.000Z</time>
   </trkpt>
   <trkpt lat="-8.050184" lon="-34.89051">
    <ele>10.5</ele>
    <time>2020-01-31T12:35:23.000Z</time>
   </trkpt>
   <trkpt lat="-8.050174" lon="-34.890566">
    <ele>10.5</ele>
    <time>2020-01-31T12:35:24.000Z</time>
   </trkpt>
   <trkpt lat="-8.050167" lon="-34.890644">
    <ele>10.5</ele>
    <time>2020-01-31T12:35:25.000Z</time>
   </trkpt>
   <trkpt lat="-8.050154" lon="-34.890716">
    <ele>10.5</ele>
    <time>2020-01-31T12:35:26.000Z</time>
   </trkpt>
   <trkpt lat="-8.050144" lon="-34.890777">
    <ele>10.6</ele>
    <time>2020-01-31T12:35:27.000Z</time>
   </trkpt>
   <trkpt lat="-8.050136" lon="-34.890829">
    <ele>10.6</ele>
    <time>2020-01-31T12:35:28.000Z</time>
   </trkpt>
   <trkpt lat="-8.050127" lon="-34.890881">
    <ele>10.6</ele>
    <time>2020-01-31T12:35:29.000Z</time>
   </trkpt>
   <trkpt lat="-8.050117" lon="-34.890934">
    <ele>10.6</ele>
    <time>2020-01-31T12:35:30.000Z</time>
   </trkpt>
   <trkpt lat="-8.050113" lon="-34.890996">
    <ele>10.6</ele>
    <time>2020-01-31T12:35:31.000Z</time>
   </trkpt>
   <trkpt lat="-8.050119" lon="-34.891039">
    <ele>10.6</ele>
    <time>2020-01-31T12:35:32.000Z</time>
   </trkpt>
   <trkpt lat="-8.050119" lon="-34.891091">
    <ele>10.6</ele>
    <time>2020-01-31T12:35:33.000Z</time>
   </trkpt>
   <trkpt lat="-8.050116" lon="-34.89113">
    <ele>10.6</ele>
    <time>2020-01-31T12:35:34.000Z</time>
   </trkpt>
   <trkpt lat="-8.050111" lon="-34.891162">
    <ele>10.6</ele>
    <time>2020-01-31T12:35:35.000Z</time>
   </trkpt>
   <trkpt lat="-8.050094" lon="-34.891215">
    <ele>10.6</ele>
    <time>2020-01-31T12:35:36.000Z</time>
   </trkpt>
   <trkpt lat="-8.050079" lon="-34.891274">
    <ele>10.6</ele>
    <time>2020-01-31T12:35:37.000Z</time>
   </trkpt>
   <trkpt lat="-8.050068" lon="-34.891347">
    <ele>10.6</ele>
    <time>2020-01-31T12:35:38.000Z</time>
   </trkpt>
   <trkpt lat="-8.050053" lon="-34.891399">
    <ele>10.6</ele>
    <time>2020-01-31T12:35:39.000Z</time>
   </trkpt>
   <trkpt lat="-8.050042" lon="-34.891439">
    <ele>10.6</ele>
    <time>2020-01-31T12:35:40.000Z</time>
   </trkpt>
   <trkpt lat="-8.050029" lon="-34.891481">
    <ele>10.6</ele>
    <time>2020-01-31T12:35:41.000Z</time>
   </trkpt>
   <trkpt lat="-8.050018" lon="-34.891527">
    <ele>10.6</ele>
    <time>2020-01-31T12:35:42.000Z</time>
   </trkpt>
   <trkpt lat="-8.050004" lon="-34.891576">
    <ele>10.6</ele>
    <time>2020-01-31T12:35:43.000Z</time>
   </trkpt>
   <trkpt lat="-8.049994" lon="-34.89162">
    <ele>10.6</ele>
    <time>2020-01-31T12:35:44.000Z</time>
   </trkpt>
   <trkpt lat="-8.049994" lon="-34.891671">
    <ele>10.7</ele>
    <time>2020-01-31T12:35:45.000Z</time>
   </trkpt>
   <trkpt lat="-8.050015" lon="-34.891763">
    <ele>10.8</ele>
    <time>2020-01-31T12:35:46.000Z</time>
   </trkpt>
   <trkpt lat="-8.050023" lon="-34.891836">
    <ele>11.1</ele>
    <time>2020-01-31T12:35:47.000Z</time>
   </trkpt>
   <trkpt lat="-8.050017" lon="-34.891899">
    <ele>11.3</ele>
    <time>2020-01-31T12:35:48.000Z</time>
   </trkpt>
   <trkpt lat="-8.05" lon="-34.891967">
    <ele>11.7</ele>
    <time>2020-01-31T12:35:49.000Z</time>
   </trkpt>
   <trkpt lat="-8.049982" lon="-34.892029">
    <ele>12</ele>
    <time>2020-01-31T12:35:50.000Z</time>
   </trkpt>
   <trkpt lat="-8.049967" lon="-34.892071">
    <ele>12.2</ele>
    <time>2020-01-31T12:35:51.000Z</time>
   </trkpt>
   <trkpt lat="-8.049933" lon="-34.892131">
    <ele>12.4</ele>
    <time>2020-01-31T12:35:52.000Z</time>
   </trkpt>
   <trkpt lat="-8.049885" lon="-34.892177">
    <ele>12.6</ele>
    <time>2020-01-31T12:35:53.000Z</time>
   </trkpt>
   <trkpt lat="-8.049838" lon="-34.892226">
    <ele>12.6</ele>
    <time>2020-01-31T12:35:54.000Z</time>
   </trkpt>
   <trkpt lat="-8.049802" lon="-34.892277">
    <ele>12.7</ele>
    <time>2020-01-31T12:35:55.000Z</time>
   </trkpt>
   <trkpt lat="-8.04976" lon="-34.892317">
    <ele>12.7</ele>
    <time>2020-01-31T12:35:56.000Z</time>
   </trkpt>
   <trkpt lat="-8.049708" lon="-34.892351">
    <ele>12.7</ele>
    <time>2020-01-31T12:35:57.000Z</time>
   </trkpt>
   <trkpt lat="-8.04967" lon="-34.892393">
    <ele>12.7</ele>
    <time>2020-01-31T12:35:58.000Z</time>
   </trkpt>
   <trkpt lat="-8.049634" lon="-34.892427">
    <ele>12.7</ele>
    <time>2020-01-31T12:35:59.000Z</time>
   </trkpt>
   <trkpt lat="-8.049603" lon="-34.89247">
    <ele>12.7</ele>
    <time>2020-01-31T12:36:00.000Z</time>
   </trkpt>
   <trkpt lat="-8.049569" lon="-34.892518">
    <ele>12.7</ele>
    <time>2020-01-31T12:36:01.000Z</time>
   </trkpt>
   <trkpt lat="-8.049532" lon="-34.89256">
    <ele>12.7</ele>
    <time>2020-01-31T12:36:02.000Z</time>
   </trkpt>
   <trkpt lat="-8.049489" lon="-34.892607">
    <ele>12.7</ele>
    <time>2020-01-31T12:36:03.000Z</time>
   </trkpt>
   <trkpt lat="-8.049443" lon="-34.892658">
    <ele>12.7</ele>
    <time>2020-01-31T12:36:04.000Z</time>
   </trkpt>
   <trkpt lat="-8.0494" lon="-34.892701">
    <ele>12.7</ele>
    <time>2020-01-31T12:36:05.000Z</time>
   </trkpt>
   <trkpt lat="-8.049367" lon="-34.892731">
    <ele>12.7</ele>
    <time>2020-01-31T12:36:06.000Z</time>
   </trkpt>
   <trkpt lat="-8.04932" lon="-34.892788">
    <ele>12.4</ele>
    <time>2020-01-31T12:36:07.000Z</time>
   </trkpt>
   <trkpt lat="-8.049305" lon="-34.892814">
    <ele>12.1</ele>
    <time>2020-01-31T12:36:08.000Z</time>
   </trkpt>
   <trkpt lat="-8.049302" lon="-34.892833">
    <ele>11.9</ele>
    <time>2020-01-31T12:36:09.000Z</time>
   </trkpt>
   <trkpt lat="-8.049366" lon="-34.892844">
    <ele>11.3</ele>
    <time>2020-01-31T12:36:11.000Z</time>
   </trkpt>
   <trkpt lat="-8.049408" lon="-34.892863">
    <ele>10.9</ele>
    <time>2020-01-31T12:36:12.000Z</time>
   </trkpt>
   <trkpt lat="-8.049453" lon="-34.892902">
    <ele>11</ele>
    <time>2020-01-31T12:36:13.000Z</time>
   </trkpt>
   <trkpt lat="-8.049508" lon="-34.892919">
    <ele>11.1</ele>
    <time>2020-01-31T12:36:14.000Z</time>
   </trkpt>
   <trkpt lat="-8.049547" lon="-34.892933">
    <ele>11.3</ele>
    <time>2020-01-31T12:36:15.000Z</time>
   </trkpt>
   <trkpt lat="-8.0496" lon="-34.892948">
    <ele>11.5</ele>
    <time>2020-01-31T12:36:16.000Z</time>
   </trkpt>
   <trkpt lat="-8.049663" lon="-34.892963">
    <ele>11.8</ele>
    <time>2020-01-31T12:36:17.000Z</time>
   </trkpt>
   <trkpt lat="-8.049716" lon="-34.892988">
    <ele>12.1</ele>
    <time>2020-01-31T12:36:18.000Z</time>
   </trkpt>
   <trkpt lat="-8.049768" lon="-34.893024">
    <ele>12.3</ele>
    <time>2020-01-31T12:36:19.000Z</time>
   </trkpt>
   <trkpt lat="-8.049821" lon="-34.893077">
    <ele>12.5</ele>
    <time>2020-01-31T12:36:20.000Z</time>
   </trkpt>
   <trkpt lat="-8.049887" lon="-34.8931">
    <ele>12.2</ele>
    <time>2020-01-31T12:36:21.000Z</time>
   </trkpt>
   <trkpt lat="-8.049943" lon="-34.893125">
    <ele>11.5</ele>
    <time>2020-01-31T12:36:22.000Z</time>
   </trkpt>
   <trkpt lat="-8.049995" lon="-34.893143">
    <ele>10.8</ele>
    <time>2020-01-31T12:36:23.000Z</time>
   </trkpt>
   <trkpt lat="-8.050046" lon="-34.893162">
    <ele>10.2</ele>
    <time>2020-01-31T12:36:24.000Z</time>
   </trkpt>
   <trkpt lat="-8.050098" lon="-34.893179">
    <ele>9.5</ele>
    <time>2020-01-31T12:36:25.000Z</time>
   </trkpt>
   <trkpt lat="-8.05016" lon="-34.893192">
    <ele>9.2</ele>
    <time>2020-01-31T12:36:26.000Z</time>
   </trkpt>
   <trkpt lat="-8.050226" lon="-34.893197">
    <ele>9</ele>
    <time>2020-01-31T12:36:27.000Z</time>
   </trkpt>
   <trkpt lat="-8.050285" lon="-34.893213">
    <ele>8.8</ele>
    <time>2020-01-31T12:36:28.000Z</time>
   </trkpt>
   <trkpt lat="-8.050334" lon="-34.893229">
    <ele>8.6</ele>
    <time>2020-01-31T12:36:29.000Z</time>
   </trkpt>
   <trkpt lat="-8.050398" lon="-34.893255">
    <ele>8.3</ele>
    <time>2020-01-31T12:36:30.000Z</time>
   </trkpt>
   <trkpt lat="-8.050445" lon="-34.893291">
    <ele>8.1</ele>
    <time>2020-01-31T12:36:31.000Z</time>
   </trkpt>
   <trkpt lat="-8.050494" lon="-34.893323">
    <ele>7.9</ele>
    <time>2020-01-31T12:36:32.000Z</time>
   </trkpt>
   <trkpt lat="-8.050555" lon="-34.893357">
    <ele>7.7</ele>
    <time>2020-01-31T12:36:33.000Z</time>
   </trkpt>
   <trkpt lat="-8.050592" lon="-34.893375">
    <ele>7.6</ele>
    <time>2020-01-31T12:36:34.000Z</time>
   </trkpt>
   <trkpt lat="-8.050667" lon="-34.893415">
    <ele>7.5</ele>
    <time>2020-01-31T12:36:35.000Z</time>
   </trkpt>
   <trkpt lat="-8.050731" lon="-34.893448">
    <ele>7.5</ele>
    <time>2020-01-31T12:36:36.000Z</time>
   </trkpt>
   <trkpt lat="-8.050783" lon="-34.893468">
    <ele>7.5</ele>
    <time>2020-01-31T12:36:37.000Z</time>
   </trkpt>
   <trkpt lat="-8.050837" lon="-34.893489">
    <ele>7.5</ele>
    <time>2020-01-31T12:36:38.000Z</time>
   </trkpt>
   <trkpt lat="-8.050896" lon="-34.893516">
    <ele>7.5</ele>
    <time>2020-01-31T12:36:39.000Z</time>
   </trkpt>
   <trkpt lat="-8.050958" lon="-34.893528">
    <ele>7.5</ele>
    <time>2020-01-31T12:36:40.000Z</time>
   </trkpt>
   <trkpt lat="-8.051012" lon="-34.893551">
    <ele>7.5</ele>
    <time>2020-01-31T12:36:41.000Z</time>
   </trkpt>
   <trkpt lat="-8.051059" lon="-34.893574">
    <ele>7.6</ele>
    <time>2020-01-31T12:36:42.000Z</time>
   </trkpt>
   <trkpt lat="-8.051105" lon="-34.893592">
    <ele>7.6</ele>
    <time>2020-01-31T12:36:43.000Z</time>
   </trkpt>
   <trkpt lat="-8.05115" lon="-34.893627">
    <ele>7.6</ele>
    <time>2020-01-31T12:36:44.000Z</time>
   </trkpt>
   <trkpt lat="-8.051201" lon="-34.893642">
    <ele>7.6</ele>
    <time>2020-01-31T12:36:45.000Z</time>
   </trkpt>
   <trkpt lat="-8.051253" lon="-34.893663">
    <ele>7.6</ele>
    <time>2020-01-31T12:36:46.000Z</time>
   </trkpt>
   <trkpt lat="-8.051296" lon="-34.893691">
    <ele>7.6</ele>
    <time>2020-01-31T12:36:47.000Z</time>
   </trkpt>
   <trkpt lat="-8.051348" lon="-34.893719">
    <ele>7.6</ele>
    <time>2020-01-31T12:36:48.000Z</time>
   </trkpt>
   <trkpt lat="-8.051387" lon="-34.893738">
    <ele>7.7</ele>
    <time>2020-01-31T12:36:49.000Z</time>
   </trkpt>
   <trkpt lat="-8.051443" lon="-34.893768">
    <ele>7.7</ele>
    <time>2020-01-31T12:36:50.000Z</time>
   </trkpt>
   <trkpt lat="-8.051488" lon="-34.893787">
    <ele>7.7</ele>
    <time>2020-01-31T12:36:51.000Z</time>
   </trkpt>
   <trkpt lat="-8.051528" lon="-34.893803">
    <ele>7.7</ele>
    <time>2020-01-31T12:36:52.000Z</time>
   </trkpt>
   <trkpt lat="-8.051566" lon="-34.893822">
    <ele>7.7</ele>
    <time>2020-01-31T12:36:53.000Z</time>
   </trkpt>
   <trkpt lat="-8.051584" lon="-34.893842">
    <ele>8.3</ele>
    <time>2020-01-31T12:36:54.000Z</time>
   </trkpt>
   <trkpt lat="-8.051641" lon="-34.893871">
    <ele>9.2</ele>
    <time>2020-01-31T12:36:56.000Z</time>
   </trkpt>
   <trkpt lat="-8.051663" lon="-34.893891">
    <ele>9.6</ele>
    <time>2020-01-31T12:36:57.000Z</time>
   </trkpt>
   <trkpt lat="-8.051695" lon="-34.893897">
    <ele>10</ele>
    <time>2020-01-31T12:36:58.000Z</time>
   </trkpt>
   <trkpt lat="-8.051732" lon="-34.893901">
    <ele>10.5</ele>
    <time>2020-01-31T12:36:59.000Z</time>
   </trkpt>
   <trkpt lat="-8.051757" lon="-34.893895">
    <ele>10.9</ele>
    <time>2020-01-31T12:37:00.000Z</time>
   </trkpt>
   <trkpt lat="-8.051796" lon="-34.89388">
    <ele>11.4</ele>
    <time>2020-01-31T12:37:02.000Z</time>
   </trkpt>
   <trkpt lat="-8.051833" lon="-34.893845">
    <ele>12.1</ele>
    <time>2020-01-31T12:37:04.000Z</time>
   </trkpt>
   <trkpt lat="-8.051853" lon="-34.893807">
    <ele>12.7</ele>
    <time>2020-01-31T12:37:06.000Z</time>
   </trkpt>
   <trkpt lat="-8.051864" lon="-34.893762">
    <ele>12.7</ele>
    <time>2020-01-31T12:37:08.000Z</time>
   </trkpt>
   <trkpt lat="-8.051861" lon="-34.893708">
    <ele>12.7</ele>
    <time>2020-01-31T12:37:09.000Z</time>
   </trkpt>
   <trkpt lat="-8.051878" lon="-34.893668">
    <ele>12.7</ele>
    <time>2020-01-31T12:37:10.000Z</time>
   </trkpt>
   <trkpt lat="-8.051896" lon="-34.893629">
    <ele>12.7</ele>
    <time>2020-01-31T12:37:11.000Z</time>
   </trkpt>
   <trkpt lat="-8.051904" lon="-34.893591">
    <ele>12.6</ele>
    <time>2020-01-31T12:37:12.000Z</time>
   </trkpt>
   <trkpt lat="-8.051911" lon="-34.893557">
    <ele>12.6</ele>
    <time>2020-01-31T12:37:13.000Z</time>
   </trkpt>
   <trkpt lat="-8.051914" lon="-34.893539">
    <ele>12.6</ele>
    <time>2020-01-31T12:37:14.000Z</time>
   </trkpt>
   <trkpt lat="-8.051933" lon="-34.893486">
    <ele>12.6</ele>
    <time>2020-01-31T12:37:16.000Z</time>
   </trkpt>
   <trkpt lat="-8.051923" lon="-34.893489">
    <ele>12.6</ele>
    <time>2020-01-31T12:37:17.000Z</time>
   </trkpt>
   <trkpt lat="-8.051921" lon="-34.893456">
    <ele>12.6</ele>
    <time>2020-01-31T12:37:19.000Z</time>
   </trkpt>
   <trkpt lat="-8.051942" lon="-34.893384">
    <ele>12.6</ele>
    <time>2020-01-31T12:37:22.000Z</time>
   </trkpt>
   <trkpt lat="-8.051957" lon="-34.893352">
    <ele>12.4</ele>
    <time>2020-01-31T12:37:23.000Z</time>
   </trkpt>
   <trkpt lat="-8.05197" lon="-34.893331">
    <ele>12.2</ele>
    <time>2020-01-31T12:37:24.000Z</time>
   </trkpt>
   <trkpt lat="-8.052017" lon="-34.893276">
    <ele>11.8</ele>
    <time>2020-01-31T12:37:26.000Z</time>
   </trkpt>
   <trkpt lat="-8.052018" lon="-34.893238">
    <ele>11.5</ele>
    <time>2020-01-31T12:37:27.000Z</time>
   </trkpt>
   <trkpt lat="-8.052025" lon="-34.893215">
    <ele>11.4</ele>
    <time>2020-01-31T12:37:28.000Z</time>
   </trkpt>
   <trkpt lat="-8.052056" lon="-34.893169">
    <ele>11</ele>
    <time>2020-01-31T12:37:30.000Z</time>
   </trkpt>
   <trkpt lat="-8.05212" lon="-34.893059">
    <ele>10.4</ele>
    <time>2020-01-31T12:37:32.000Z</time>
   </trkpt>
   <trkpt lat="-8.052136" lon="-34.893">
    <ele>10.2</ele>
    <time>2020-01-31T12:37:33.000Z</time>
   </trkpt>
   <trkpt lat="-8.052143" lon="-34.892932">
    <ele>10</ele>
    <time>2020-01-31T12:37:34.000Z</time>
   </trkpt>
   <trkpt lat="-8.052157" lon="-34.892882">
    <ele>9.8</ele>
    <time>2020-01-31T12:37:35.000Z</time>
   </trkpt>
   <trkpt lat="-8.052184" lon="-34.89285">
    <ele>9.7</ele>
    <time>2020-01-31T12:37:36.000Z</time>
   </trkpt>
   <trkpt lat="-8.052199" lon="-34.89282">
    <ele>9.6</ele>
    <time>2020-01-31T12:37:37.000Z</time>
   </trkpt>
   <trkpt lat="-8.052216" lon="-34.892805">
    <ele>9.5</ele>
    <time>2020-01-31T12:37:38.000Z</time>
   </trkpt>
   <trkpt lat="-8.05224" lon="-34.892734">
    <ele>9.1</ele>
    <time>2020-01-31T12:37:40.000Z</time>
   </trkpt>
   <trkpt lat="-8.052265" lon="-34.892684">
    <ele>8.6</ele>
    <time>2020-01-31T12:37:41.000Z</time>
   </trkpt>
   <trkpt lat="-8.052285" lon="-34.89264">
    <ele>8.8</ele>
    <time>2020-01-31T12:37:42.000Z</time>
   </trkpt>
   <trkpt lat="-8.05231" lon="-34.892593">
    <ele>9.1</ele>
    <time>2020-01-31T12:37:43.000Z</time>
   </trkpt>
   <trkpt lat="-8.05234" lon="-34.892535">
    <ele>9.4</ele>
    <time>2020-01-31T12:37:44.000Z</time>
   </trkpt>
   <trkpt lat="-8.052363" lon="-34.892505">
    <ele>9.6</ele>
    <time>2020-01-31T12:37:45.000Z</time>
   </trkpt>
   <trkpt lat="-8.052396" lon="-34.892474">
    <ele>9.8</ele>
    <time>2020-01-31T12:37:46.000Z</time>
   </trkpt>
   <trkpt lat="-8.052435" lon="-34.892439">
    <ele>10.1</ele>
    <time>2020-01-31T12:37:47.000Z</time>
   </trkpt>
   <trkpt lat="-8.05247" lon="-34.892409">
    <ele>10.4</ele>
    <time>2020-01-31T12:37:48.000Z</time>
   </trkpt>
   <trkpt lat="-8.052504" lon="-34.892383">
    <ele>10.7</ele>
    <time>2020-01-31T12:37:49.000Z</time>
   </trkpt>
   <trkpt lat="-8.052548" lon="-34.892346">
    <ele>11.1</ele>
    <time>2020-01-31T12:37:50.000Z</time>
   </trkpt>
   <trkpt lat="-8.052593" lon="-34.892303">
    <ele>11.5</ele>
    <time>2020-01-31T12:37:51.000Z</time>
   </trkpt>
   <trkpt lat="-8.052626" lon="-34.892258">
    <ele>11.3</ele>
    <time>2020-01-31T12:37:52.000Z</time>
   </trkpt>
   <trkpt lat="-8.05265" lon="-34.892231">
    <ele>11.2</ele>
    <time>2020-01-31T12:37:53.000Z</time>
   </trkpt>
   <trkpt lat="-8.052685" lon="-34.8922">
    <ele>11</ele>
    <time>2020-01-31T12:37:54.000Z</time>
   </trkpt>
   <trkpt lat="-8.052722" lon="-34.892167">
    <ele>10.9</ele>
    <time>2020-01-31T12:37:55.000Z</time>
   </trkpt>
   <trkpt lat="-8.052761" lon="-34.89214">
    <ele>10.7</ele>
    <time>2020-01-31T12:37:56.000Z</time>
   </trkpt>
   <trkpt lat="-8.052795" lon="-34.892112">
    <ele>10.4</ele>
    <time>2020-01-31T12:37:57.000Z</time>
   </trkpt>
   <trkpt lat="-8.05282" lon="-34.892054">
    <ele>10.1</ele>
    <time>2020-01-31T12:37:58.000Z</time>
   </trkpt>
   <trkpt lat="-8.052865" lon="-34.892031">
    <ele>9.8</ele>
    <time>2020-01-31T12:37:59.000Z</time>
   </trkpt>
   <trkpt lat="-8.052909" lon="-34.891998">
    <ele>9.4</ele>
    <time>2020-01-31T12:38:00.000Z</time>
   </trkpt>
   <trkpt lat="-8.052942" lon="-34.891971">
    <ele>9.2</ele>
    <time>2020-01-31T12:38:01.000Z</time>
   </trkpt>
   <trkpt lat="-8.052985" lon="-34.89194">
    <ele>8.9</ele>
    <time>2020-01-31T12:38:02.000Z</time>
   </trkpt>
   <trkpt lat="-8.053028" lon="-34.891912">
    <ele>9</ele>
    <time>2020-01-31T12:38:03.000Z</time>
   </trkpt>
   <trkpt lat="-8.05307" lon="-34.891903">
    <ele>9</ele>
    <time>2020-01-31T12:38:04.000Z</time>
   </trkpt>
   <trkpt lat="-8.05311" lon="-34.891875">
    <ele>9</ele>
    <time>2020-01-31T12:38:05.000Z</time>
   </trkpt>
   <trkpt lat="-8.053152" lon="-34.891844">
    <ele>9</ele>
    <time>2020-01-31T12:38:06.000Z</time>
   </trkpt>
   <trkpt lat="-8.053193" lon="-34.891813">
    <ele>9.1</ele>
    <time>2020-01-31T12:38:07.000Z</time>
   </trkpt>
   <trkpt lat="-8.05324" lon="-34.891787">
    <ele>9.1</ele>
    <time>2020-01-31T12:38:08.000Z</time>
   </trkpt>
   <trkpt lat="-8.053293" lon="-34.891751">
    <ele>9.1</ele>
    <time>2020-01-31T12:38:09.000Z</time>
   </trkpt>
   <trkpt lat="-8.053363" lon="-34.891781">
    <ele>9.1</ele>
    <time>2020-01-31T12:38:10.000Z</time>
   </trkpt>
   <trkpt lat="-8.053409" lon="-34.891758">
    <ele>9.3</ele>
    <time>2020-01-31T12:38:11.000Z</time>
   </trkpt>
   <trkpt lat="-8.053448" lon="-34.891736">
    <ele>9.6</ele>
    <time>2020-01-31T12:38:12.000Z</time>
   </trkpt>
   <trkpt lat="-8.053484" lon="-34.891712">
    <ele>9.9</ele>
    <time>2020-01-31T12:38:13.000Z</time>
   </trkpt>
   <trkpt lat="-8.053545" lon="-34.891699">
    <ele>10.3</ele>
    <time>2020-01-31T12:38:14.000Z</time>
   </trkpt>
   <trkpt lat="-8.053597" lon="-34.891676">
    <ele>10.6</ele>
    <time>2020-01-31T12:38:15.000Z</time>
   </trkpt>
   <trkpt lat="-8.053671" lon="-34.891664">
    <ele>10.9</ele>
    <time>2020-01-31T12:38:16.000Z</time>
   </trkpt>
   <trkpt lat="-8.053725" lon="-34.891642">
    <ele>11.2</ele>
    <time>2020-01-31T12:38:17.000Z</time>
   </trkpt>
   <trkpt lat="-8.053779" lon="-34.891612">
    <ele>11.3</ele>
    <time>2020-01-31T12:38:18.000Z</time>
   </trkpt>
   <trkpt lat="-8.053849" lon="-34.891582">
    <ele>11.5</ele>
    <time>2020-01-31T12:38:19.000Z</time>
   </trkpt>
   <trkpt lat="-8.053893" lon="-34.891562">
    <ele>11.5</ele>
    <time>2020-01-31T12:38:20.000Z</time>
   </trkpt>
   <trkpt lat="-8.053944" lon="-34.891527">
    <ele>11.6</ele>
    <time>2020-01-31T12:38:21.000Z</time>
   </trkpt>
   <trkpt lat="-8.05399" lon="-34.891496">
    <ele>11.6</ele>
    <time>2020-01-31T12:38:22.000Z</time>
   </trkpt>
   <trkpt lat="-8.054042" lon="-34.891474">
    <ele>11.7</ele>
    <time>2020-01-31T12:38:23.000Z</time>
   </trkpt>
   <trkpt lat="-8.054099" lon="-34.891452">
    <ele>11.7</ele>
    <time>2020-01-31T12:38:24.000Z</time>
   </trkpt>
   <trkpt lat="-8.054154" lon="-34.891428">
    <ele>11.8</ele>
    <time>2020-01-31T12:38:25.000Z</time>
   </trkpt>
   <trkpt lat="-8.0542" lon="-34.891393">
    <ele>11.9</ele>
    <time>2020-01-31T12:38:26.000Z</time>
   </trkpt>
   <trkpt lat="-8.054239" lon="-34.891366">
    <ele>11.9</ele>
    <time>2020-01-31T12:38:27.000Z</time>
   </trkpt>
   <trkpt lat="-8.054275" lon="-34.891336">
    <ele>12</ele>
    <time>2020-01-31T12:38:28.000Z</time>
   </trkpt>
   <trkpt lat="-8.054312" lon="-34.891288">
    <ele>12</ele>
    <time>2020-01-31T12:38:29.000Z</time>
   </trkpt>
   <trkpt lat="-8.054365" lon="-34.891263">
    <ele>12.1</ele>
    <time>2020-01-31T12:38:30.000Z</time>
   </trkpt>
   <trkpt lat="-8.054406" lon="-34.891267">
    <ele>12.2</ele>
    <time>2020-01-31T12:38:31.000Z</time>
   </trkpt>
   <trkpt lat="-8.054445" lon="-34.891284">
    <ele>12.2</ele>
    <time>2020-01-31T12:38:32.000Z</time>
   </trkpt>
   <trkpt lat="-8.054494" lon="-34.891309">
    <ele>12.2</ele>
    <time>2020-01-31T12:38:33.000Z</time>
   </trkpt>
   <trkpt lat="-8.054542" lon="-34.891334">
    <ele>12.3</ele>
    <time>2020-01-31T12:38:34.000Z</time>
   </trkpt>
   <trkpt lat="-8.054599" lon="-34.891345">
    <ele>12.3</ele>
    <time>2020-01-31T12:38:35.000Z</time>
   </trkpt>
   <trkpt lat="-8.05465" lon="-34.891379">
    <ele>12.4</ele>
    <time>2020-01-31T12:38:36.000Z</time>
   </trkpt>
   <trkpt lat="-8.054694" lon="-34.891403">
    <ele>12.5</ele>
    <time>2020-01-31T12:38:37.000Z</time>
   </trkpt>
   <trkpt lat="-8.05474" lon="-34.891424">
    <ele>12.6</ele>
    <time>2020-01-31T12:38:38.000Z</time>
   </trkpt>
   <trkpt lat="-8.054773" lon="-34.891444">
    <ele>12.6</ele>
    <time>2020-01-31T12:38:39.000Z</time>
   </trkpt>
   <trkpt lat="-8.054795" lon="-34.891463">
    <ele>12.7</ele>
    <time>2020-01-31T12:38:40.000Z</time>
   </trkpt>
   <trkpt lat="-8.054833" lon="-34.891459">
    <ele>12.7</ele>
    <time>2020-01-31T12:38:41.000Z</time>
   </trkpt>
   <trkpt lat="-8.054886" lon="-34.891488">
    <ele>12.8</ele>
    <time>2020-01-31T12:38:42.000Z</time>
   </trkpt>
   <trkpt lat="-8.054938" lon="-34.891516">
    <ele>12.8</ele>
    <time>2020-01-31T12:38:43.000Z</time>
   </trkpt>
   <trkpt lat="-8.054989" lon="-34.891546">
    <ele>12.9</ele>
    <time>2020-01-31T12:38:44.000Z</time>
   </trkpt>
   <trkpt lat="-8.05504" lon="-34.89159">
    <ele>12.9</ele>
    <time>2020-01-31T12:38:45.000Z</time>
   </trkpt>
   <trkpt lat="-8.055084" lon="-34.891623">
    <ele>13</ele>
    <time>2020-01-31T12:38:46.000Z</time>
   </trkpt>
   <trkpt lat="-8.055128" lon="-34.891658">
    <ele>13</ele>
    <time>2020-01-31T12:38:47.000Z</time>
   </trkpt>
   <trkpt lat="-8.055178" lon="-34.891706">
    <ele>13.1</ele>
    <time>2020-01-31T12:38:48.000Z</time>
   </trkpt>
   <trkpt lat="-8.055238" lon="-34.891757">
    <ele>13.1</ele>
    <time>2020-01-31T12:38:49.000Z</time>
   </trkpt>
   <trkpt lat="-8.055285" lon="-34.8918">
    <ele>13.2</ele>
    <time>2020-01-31T12:38:50.000Z</time>
   </trkpt>
   <trkpt lat="-8.055329" lon="-34.891838">
    <ele>13.3</ele>
    <time>2020-01-31T12:38:51.000Z</time>
   </trkpt>
   <trkpt lat="-8.055381" lon="-34.891872">
    <ele>13.3</ele>
    <time>2020-01-31T12:38:52.000Z</time>
   </trkpt>
   <trkpt lat="-8.055425" lon="-34.891896">
    <ele>13.4</ele>
    <time>2020-01-31T12:38:53.000Z</time>
   </trkpt>
   <trkpt lat="-8.05547" lon="-34.891918">
    <ele>13.5</ele>
    <time>2020-01-31T12:38:54.000Z</time>
   </trkpt>
   <trkpt lat="-8.055502" lon="-34.891945">
    <ele>13.5</ele>
    <time>2020-01-31T12:38:55.000Z</time>
   </trkpt>
   <trkpt lat="-8.055535" lon="-34.891971">
    <ele>13.6</ele>
    <time>2020-01-31T12:38:56.000Z</time>
   </trkpt>
   <trkpt lat="-8.05556" lon="-34.891993">
    <ele>13.6</ele>
    <time>2020-01-31T12:38:57.000Z</time>
   </trkpt>
   <trkpt lat="-8.055579" lon="-34.892">
    <ele>13.7</ele>
    <time>2020-01-31T12:38:58.000Z</time>
   </trkpt>
   <trkpt lat="-8.055601" lon="-34.892019">
    <ele>13.7</ele>
    <time>2020-01-31T12:39:01.000Z</time>
   </trkpt>
   <trkpt lat="-8.055637" lon="-34.892046">
    <ele>13.8</ele>
    <time>2020-01-31T12:39:03.000Z</time>
   </trkpt>
   <trkpt lat="-8.055657" lon="-34.892061">
    <ele>13.8</ele>
    <time>2020-01-31T12:39:04.000Z</time>
   </trkpt>
   <trkpt lat="-8.055691" lon="-34.892085">
    <ele>13.8</ele>
    <time>2020-01-31T12:39:06.000Z</time>
   </trkpt>
   <trkpt lat="-8.055703" lon="-34.8921">
    <ele>13.8</ele>
    <time>2020-01-31T12:39:08.000Z</time>
   </trkpt>
   <trkpt lat="-8.055716" lon="-34.8921">
    <ele>13.8</ele>
    <time>2020-01-31T12:39:15.000Z</time>
   </trkpt>
   <trkpt lat="-8.055838" lon="-34.89217">
    <ele>13</ele>
    <time>2020-01-31T12:39:43.000Z</time>
   </trkpt>
   <trkpt lat="-8.055893" lon="-34.892219">
    <ele>12.5</ele>
    <time>2020-01-31T12:39:45.000Z</time>
   </trkpt>
   <trkpt lat="-8.055922" lon="-34.892239">
    <ele>12.3</ele>
    <time>2020-01-31T12:39:46.000Z</time>
   </trkpt>
   <trkpt lat="-8.055955" lon="-34.892249">
    <ele>12.2</ele>
    <time>2020-01-31T12:39:47.000Z</time>
   </trkpt>
   <trkpt lat="-8.055974" lon="-34.89226">
    <ele>12</ele>
    <time>2020-01-31T12:39:48.000Z</time>
   </trkpt>
   <trkpt lat="-8.056009" lon="-34.892283">
    <ele>11.8</ele>
    <time>2020-01-31T12:39:50.000Z</time>
   </trkpt>
   <trkpt lat="-8.056021" lon="-34.892298">
    <ele>11.7</ele>
    <time>2020-01-31T12:39:52.000Z</time>
   </trkpt>
   <trkpt lat="-8.056058" lon="-34.892325">
    <ele>11.5</ele>
    <time>2020-01-31T12:39:54.000Z</time>
   </trkpt>
   <trkpt lat="-8.056076" lon="-34.892339">
    <ele>11.4</ele>
    <time>2020-01-31T12:39:56.000Z</time>
   </trkpt>
   <trkpt lat="-8.05611" lon="-34.892358">
    <ele>11.2</ele>
    <time>2020-01-31T12:39:59.000Z</time>
   </trkpt>
   <trkpt lat="-8.056155" lon="-34.892382">
    <ele>11</ele>
    <time>2020-01-31T12:40:01.000Z</time>
   </trkpt>
   <trkpt lat="-8.056177" lon="-34.892398">
    <ele>10.8</ele>
    <time>2020-01-31T12:40:02.000Z</time>
   </trkpt>
   <trkpt lat="-8.056217" lon="-34.892431">
    <ele>10.6</ele>
    <time>2020-01-31T12:40:04.000Z</time>
   </trkpt>
   <trkpt lat="-8.056233" lon="-34.892449">
    <ele>10.5</ele>
    <time>2020-01-31T12:40:05.000Z</time>
   </trkpt>
   <trkpt lat="-8.056273" lon="-34.892459">
    <ele>10.3</ele>
    <time>2020-01-31T12:40:07.000Z</time>
   </trkpt>
   <trkpt lat="-8.056317" lon="-34.892481">
    <ele>10.1</ele>
    <time>2020-01-31T12:40:09.000Z</time>
   </trkpt>
   <trkpt lat="-8.056334" lon="-34.892488">
    <ele>10</ele>
    <time>2020-01-31T12:40:10.000Z</time>
   </trkpt>
   <trkpt lat="-8.05637" lon="-34.892513">
    <ele>9.8</ele>
    <time>2020-01-31T12:40:12.000Z</time>
   </trkpt>
   <trkpt lat="-8.056397" lon="-34.892523">
    <ele>9.7</ele>
    <time>2020-01-31T12:40:13.000Z</time>
   </trkpt>
   <trkpt lat="-8.056401" lon="-34.892546">
    <ele>9.6</ele>
    <time>2020-01-31T12:40:14.000Z</time>
   </trkpt>
   <trkpt lat="-8.056429" lon="-34.892556">
    <ele>9.5</ele>
    <time>2020-01-31T12:40:16.000Z</time>
   </trkpt>
   <trkpt lat="-8.056464" lon="-34.892581">
    <ele>9.4</ele>
    <time>2020-01-31T12:40:20.000Z</time>
   </trkpt>
   <trkpt lat="-8.056465" lon="-34.892593">
    <ele>9.4</ele>
    <time>2020-01-31T12:40:23.000Z</time>
   </trkpt>
   <trkpt lat="-8.05656" lon="-34.892619">
    <ele>9.1</ele>
    <time>2020-01-31T12:40:58.000Z</time>
   </trkpt>
   <trkpt lat="-8.056597" lon="-34.892624">
    <ele>9.1</ele>
    <time>2020-01-31T12:40:59.000Z</time>
   </trkpt>
   <trkpt lat="-8.056639" lon="-34.892627">
    <ele>9.1</ele>
    <time>2020-01-31T12:41:00.000Z</time>
   </trkpt>
   <trkpt lat="-8.056679" lon="-34.892631">
    <ele>8.6</ele>
    <time>2020-01-31T12:41:01.000Z</time>
   </trkpt>
   <trkpt lat="-8.05672" lon="-34.89266">
    <ele>8.6</ele>
    <time>2020-01-31T12:41:02.000Z</time>
   </trkpt>
   <trkpt lat="-8.056752" lon="-34.892669">
    <ele>8.5</ele>
    <time>2020-01-31T12:41:03.000Z</time>
   </trkpt>
   <trkpt lat="-8.056789" lon="-34.892681">
    <ele>8.5</ele>
    <time>2020-01-31T12:41:04.000Z</time>
   </trkpt>
   <trkpt lat="-8.056828" lon="-34.892692">
    <ele>8.4</ele>
    <time>2020-01-31T12:41:05.000Z</time>
   </trkpt>
   <trkpt lat="-8.056873" lon="-34.892702">
    <ele>8.3</ele>
    <time>2020-01-31T12:41:06.000Z</time>
   </trkpt>
   <trkpt lat="-8.056921" lon="-34.892716">
    <ele>8.2</ele>
    <time>2020-01-31T12:41:07.000Z</time>
   </trkpt>
   <trkpt lat="-8.056968" lon="-34.892744">
    <ele>8.1</ele>
    <time>2020-01-31T12:41:08.000Z</time>
   </trkpt>
   <trkpt lat="-8.057018" lon="-34.892759">
    <ele>8</ele>
    <time>2020-01-31T12:41:09.000Z</time>
   </trkpt>
   <trkpt lat="-8.057069" lon="-34.892773">
    <ele>7.9</ele>
    <time>2020-01-31T12:41:10.000Z</time>
   </trkpt>
   <trkpt lat="-8.05712" lon="-34.892781">
    <ele>7.8</ele>
    <time>2020-01-31T12:41:11.000Z</time>
   </trkpt>
   <trkpt lat="-8.057171" lon="-34.89279">
    <ele>7.8</ele>
    <time>2020-01-31T12:41:12.000Z</time>
   </trkpt>
   <trkpt lat="-8.057231" lon="-34.892792">
    <ele>7.7</ele>
    <time>2020-01-31T12:41:13.000Z</time>
   </trkpt>
   <trkpt lat="-8.057283" lon="-34.892803">
    <ele>7.7</ele>
    <time>2020-01-31T12:41:14.000Z</time>
   </trkpt>
   <trkpt lat="-8.057336" lon="-34.892814">
    <ele>7.7</ele>
    <time>2020-01-31T12:41:15.000Z</time>
   </trkpt>
   <trkpt lat="-8.057384" lon="-34.892826">
    <ele>7.7</ele>
    <time>2020-01-31T12:41:16.000Z</time>
   </trkpt>
   <trkpt lat="-8.057426" lon="-34.892835">
    <ele>7.7</ele>
    <time>2020-01-31T12:41:17.000Z</time>
   </trkpt>
   <trkpt lat="-8.057473" lon="-34.892842">
    <ele>7.7</ele>
    <time>2020-01-31T12:41:18.000Z</time>
   </trkpt>
   <trkpt lat="-8.057529" lon="-34.892843">
    <ele>7.7</ele>
    <time>2020-01-31T12:41:19.000Z</time>
   </trkpt>
   <trkpt lat="-8.057584" lon="-34.892841">
    <ele>7.7</ele>
    <time>2020-01-31T12:41:20.000Z</time>
   </trkpt>
   <trkpt lat="-8.057636" lon="-34.892847">
    <ele>7.7</ele>
    <time>2020-01-31T12:41:21.000Z</time>
   </trkpt>
   <trkpt lat="-8.057682" lon="-34.892848">
    <ele>7.7</ele>
    <time>2020-01-31T12:41:22.000Z</time>
   </trkpt>
   <trkpt lat="-8.057729" lon="-34.892849">
    <ele>7.7</ele>
    <time>2020-01-31T12:41:23.000Z</time>
   </trkpt>
   <trkpt lat="-8.057777" lon="-34.892855">
    <ele>7.7</ele>
    <time>2020-01-31T12:41:24.000Z</time>
   </trkpt>
   <trkpt lat="-8.057824" lon="-34.892862">
    <ele>7.7</ele>
    <time>2020-01-31T12:41:25.000Z</time>
   </trkpt>
   <trkpt lat="-8.057872" lon="-34.892871">
    <ele>7.7</ele>
    <time>2020-01-31T12:41:26.000Z</time>
   </trkpt>
   <trkpt lat="-8.057919" lon="-34.892881">
    <ele>7.7</ele>
    <time>2020-01-31T12:41:27.000Z</time>
   </trkpt>
   <trkpt lat="-8.057966" lon="-34.89289">
    <ele>7.7</ele>
    <time>2020-01-31T12:41:28.000Z</time>
   </trkpt>
   <trkpt lat="-8.05802" lon="-34.892898">
    <ele>7.7</ele>
    <time>2020-01-31T12:41:29.000Z</time>
   </trkpt>
   <trkpt lat="-8.058074" lon="-34.892905">
    <ele>7.7</ele>
    <time>2020-01-31T12:41:30.000Z</time>
   </trkpt>
   <trkpt lat="-8.058111" lon="-34.892917">
    <ele>7.7</ele>
    <time>2020-01-31T12:41:31.000Z</time>
   </trkpt>
   <trkpt lat="-8.058151" lon="-34.892921">
    <ele>7.7</ele>
    <time>2020-01-31T12:41:32.000Z</time>
   </trkpt>
   <trkpt lat="-8.058186" lon="-34.892929">
    <ele>7.9</ele>
    <time>2020-01-31T12:41:33.000Z</time>
   </trkpt>
   <trkpt lat="-8.058215" lon="-34.892929">
    <ele>7.9</ele>
    <time>2020-01-31T12:41:34.000Z</time>
   </trkpt>
   <trkpt lat="-8.058247" lon="-34.892932">
    <ele>8</ele>
    <time>2020-01-31T12:41:35.000Z</time>
   </trkpt>
   <trkpt lat="-8.058286" lon="-34.892934">
    <ele>8.1</ele>
    <time>2020-01-31T12:41:36.000Z</time>
   </trkpt>
   <trkpt lat="-8.058336" lon="-34.892931">
    <ele>8.3</ele>
    <time>2020-01-31T12:41:37.000Z</time>
   </trkpt>
   <trkpt lat="-8.058376" lon="-34.892936">
    <ele>8.4</ele>
    <time>2020-01-31T12:41:38.000Z</time>
   </trkpt>
   <trkpt lat="-8.058424" lon="-34.89294">
    <ele>8.5</ele>
    <time>2020-01-31T12:41:39.000Z</time>
   </trkpt>
   <trkpt lat="-8.058459" lon="-34.892934">
    <ele>8.6</ele>
    <time>2020-01-31T12:41:40.000Z</time>
   </trkpt>
   <trkpt lat="-8.058499" lon="-34.892928">
    <ele>8.6</ele>
    <time>2020-01-31T12:41:41.000Z</time>
   </trkpt>
   <trkpt lat="-8.058529" lon="-34.892925">
    <ele>8.6</ele>
    <time>2020-01-31T12:41:42.000Z</time>
   </trkpt>
   <trkpt lat="-8.058562" lon="-34.892931">
    <ele>8.7</ele>
    <time>2020-01-31T12:41:43.000Z</time>
   </trkpt>
   <trkpt lat="-8.05859" lon="-34.892926">
    <ele>8.7</ele>
    <time>2020-01-31T12:41:44.000Z</time>
   </trkpt>
   <trkpt lat="-8.058622" lon="-34.892915">
    <ele>8.7</ele>
    <time>2020-01-31T12:41:45.000Z</time>
   </trkpt>
   <trkpt lat="-8.058651" lon="-34.892903">
    <ele>8.7</ele>
    <time>2020-01-31T12:41:46.000Z</time>
   </trkpt>
   <trkpt lat="-8.058685" lon="-34.892888">
    <ele>8.8</ele>
    <time>2020-01-31T12:41:47.000Z</time>
   </trkpt>
   <trkpt lat="-8.058722" lon="-34.892872">
    <ele>8.8</ele>
    <time>2020-01-31T12:41:48.000Z</time>
   </trkpt>
   <trkpt lat="-8.058748" lon="-34.892867">
    <ele>8.8</ele>
    <time>2020-01-31T12:41:49.000Z</time>
   </trkpt>
   <trkpt lat="-8.058785" lon="-34.892866">
    <ele>8.8</ele>
    <time>2020-01-31T12:41:51.000Z</time>
   </trkpt>
   <trkpt lat="-8.05882" lon="-34.892882">
    <ele>8.9</ele>
    <time>2020-01-31T12:41:53.000Z</time>
   </trkpt>
   <trkpt lat="-8.058862" lon="-34.892924">
    <ele>8.9</ele>
    <time>2020-01-31T12:41:55.000Z</time>
   </trkpt>
   <trkpt lat="-8.058892" lon="-34.892948">
    <ele>8.9</ele>
    <time>2020-01-31T12:41:56.000Z</time>
   </trkpt>
   <trkpt lat="-8.058918" lon="-34.892986">
    <ele>8.9</ele>
    <time>2020-01-31T12:41:57.000Z</time>
   </trkpt>
   <trkpt lat="-8.05896" lon="-34.893015">
    <ele>9</ele>
    <time>2020-01-31T12:41:58.000Z</time>
   </trkpt>
   <trkpt lat="-8.058995" lon="-34.893058">
    <ele>9.1</ele>
    <time>2020-01-31T12:41:59.000Z</time>
   </trkpt>
   <trkpt lat="-8.059021" lon="-34.893104">
    <ele>9.2</ele>
    <time>2020-01-31T12:42:00.000Z</time>
   </trkpt>
   <trkpt lat="-8.059045" lon="-34.893127">
    <ele>9.3</ele>
    <time>2020-01-31T12:42:01.000Z</time>
   </trkpt>
   <trkpt lat="-8.059058" lon="-34.893138">
    <ele>9.4</ele>
    <time>2020-01-31T12:42:02.000Z</time>
   </trkpt>
   <trkpt lat="-8.059052" lon="-34.89319">
    <ele>9.5</ele>
    <time>2020-01-31T12:42:04.000Z</time>
   </trkpt>
   <trkpt lat="-8.059067" lon="-34.89322">
    <ele>9.6</ele>
    <time>2020-01-31T12:42:05.000Z</time>
   </trkpt>
   <trkpt lat="-8.059082" lon="-34.893244">
    <ele>9.6</ele>
    <time>2020-01-31T12:42:06.000Z</time>
   </trkpt>
   <trkpt lat="-8.059092" lon="-34.893278">
    <ele>9.7</ele>
    <time>2020-01-31T12:42:07.000Z</time>
   </trkpt>
   <trkpt lat="-8.059096" lon="-34.89332">
    <ele>9.7</ele>
    <time>2020-01-31T12:42:08.000Z</time>
   </trkpt>
   <trkpt lat="-8.059108" lon="-34.893378">
    <ele>9.8</ele>
    <time>2020-01-31T12:42:09.000Z</time>
   </trkpt>
   <trkpt lat="-8.059116" lon="-34.893426">
    <ele>9.9</ele>
    <time>2020-01-31T12:42:10.000Z</time>
   </trkpt>
   <trkpt lat="-8.059128" lon="-34.893466">
    <ele>10</ele>
    <time>2020-01-31T12:42:11.000Z</time>
   </trkpt>
   <trkpt lat="-8.059145" lon="-34.893504">
    <ele>10</ele>
    <time>2020-01-31T12:42:12.000Z</time>
   </trkpt>
   <trkpt lat="-8.059166" lon="-34.893546">
    <ele>10</ele>
    <time>2020-01-31T12:42:13.000Z</time>
   </trkpt>
   <trkpt lat="-8.059204" lon="-34.893608">
    <ele>10</ele>
    <time>2020-01-31T12:42:14.000Z</time>
   </trkpt>
   <trkpt lat="-8.059225" lon="-34.893669">
    <ele>10</ele>
    <time>2020-01-31T12:42:15.000Z</time>
   </trkpt>
   <trkpt lat="-8.059207" lon="-34.893743">
    <ele>10</ele>
    <time>2020-01-31T12:42:16.000Z</time>
   </trkpt>
   <trkpt lat="-8.059228" lon="-34.893793">
    <ele>9.9</ele>
    <time>2020-01-31T12:42:17.000Z</time>
   </trkpt>
   <trkpt lat="-8.059267" lon="-34.893836">
    <ele>9.9</ele>
    <time>2020-01-31T12:42:18.000Z</time>
   </trkpt>
   <trkpt lat="-8.059319" lon="-34.893877">
    <ele>9.8</ele>
    <time>2020-01-31T12:42:19.000Z</time>
   </trkpt>
   <trkpt lat="-8.059369" lon="-34.893929">
    <ele>9.6</ele>
    <time>2020-01-31T12:42:20.000Z</time>
   </trkpt>
   <trkpt lat="-8.059417" lon="-34.89398">
    <ele>9.4</ele>
    <time>2020-01-31T12:42:21.000Z</time>
   </trkpt>
   <trkpt lat="-8.059452" lon="-34.894048">
    <ele>9.2</ele>
    <time>2020-01-31T12:42:22.000Z</time>
   </trkpt>
   <trkpt lat="-8.059504" lon="-34.894102">
    <ele>9.3</ele>
    <time>2020-01-31T12:42:23.000Z</time>
   </trkpt>
   <trkpt lat="-8.059553" lon="-34.894152">
    <ele>9.3</ele>
    <time>2020-01-31T12:42:24.000Z</time>
   </trkpt>
   <trkpt lat="-8.059597" lon="-34.894197">
    <ele>9.4</ele>
    <time>2020-01-31T12:42:25.000Z</time>
   </trkpt>
   <trkpt lat="-8.059641" lon="-34.894238">
    <ele>9.4</ele>
    <time>2020-01-31T12:42:26.000Z</time>
   </trkpt>
   <trkpt lat="-8.059692" lon="-34.89428">
    <ele>9.5</ele>
    <time>2020-01-31T12:42:27.000Z</time>
   </trkpt>
   <trkpt lat="-8.059724" lon="-34.894354">
    <ele>9.6</ele>
    <time>2020-01-31T12:42:28.000Z</time>
   </trkpt>
   <trkpt lat="-8.05978" lon="-34.894397">
    <ele>9.7</ele>
    <time>2020-01-31T12:42:29.000Z</time>
   </trkpt>
   <trkpt lat="-8.059843" lon="-34.894435">
    <ele>9.8</ele>
    <time>2020-01-31T12:42:30.000Z</time>
   </trkpt>
   <trkpt lat="-8.0599" lon="-34.894433">
    <ele>9.8</ele>
    <time>2020-01-31T12:42:31.000Z</time>
   </trkpt>
   <trkpt lat="-8.059953" lon="-34.894461">
    <ele>9.5</ele>
    <time>2020-01-31T12:42:32.000Z</time>
   </trkpt>
   <trkpt lat="-8.060005" lon="-34.894488">
    <ele>9.2</ele>
    <time>2020-01-31T12:42:33.000Z</time>
   </trkpt>
   <trkpt lat="-8.060058" lon="-34.894517">
    <ele>8.9</ele>
    <time>2020-01-31T12:42:34.000Z</time>
   </trkpt>
   <trkpt lat="-8.060115" lon="-34.894551">
    <ele>8.6</ele>
    <time>2020-01-31T12:42:35.000Z</time>
   </trkpt>
   <trkpt lat="-8.060168" lon="-34.894579">
    <ele>8.4</ele>
    <time>2020-01-31T12:42:36.000Z</time>
   </trkpt>
   <trkpt lat="-8.060213" lon="-34.894605">
    <ele>8.1</ele>
    <time>2020-01-31T12:42:37.000Z</time>
   </trkpt>
   <trkpt lat="-8.060254" lon="-34.89463">
    <ele>7.9</ele>
    <time>2020-01-31T12:42:38.000Z</time>
   </trkpt>
   <trkpt lat="-8.060296" lon="-34.894658">
    <ele>7.7</ele>
    <time>2020-01-31T12:42:39.000Z</time>
   </trkpt>
   <trkpt lat="-8.06034" lon="-34.894684">
    <ele>7.5</ele>
    <time>2020-01-31T12:42:40.000Z</time>
   </trkpt>
   <trkpt lat="-8.060391" lon="-34.894711">
    <ele>7.3</ele>
    <time>2020-01-31T12:42:41.000Z</time>
   </trkpt>
   <trkpt lat="-8.060451" lon="-34.894741">
    <ele>7</ele>
    <time>2020-01-31T12:42:42.000Z</time>
   </trkpt>
   <trkpt lat="-8.060499" lon="-34.894753">
    <ele>6.7</ele>
    <time>2020-01-31T12:42:43.000Z</time>
   </trkpt>
   <trkpt lat="-8.060555" lon="-34.894762">
    <ele>6.4</ele>
    <time>2020-01-31T12:42:44.000Z</time>
   </trkpt>
   <trkpt lat="-8.060604" lon="-34.894769">
    <ele>6.2</ele>
    <time>2020-01-31T12:42:45.000Z</time>
   </trkpt>
   <trkpt lat="-8.06066" lon="-34.894778">
    <ele>6.2</ele>
    <time>2020-01-31T12:42:46.000Z</time>
   </trkpt>
   <trkpt lat="-8.060718" lon="-34.894794">
    <ele>6.4</ele>
    <time>2020-01-31T12:42:47.000Z</time>
   </trkpt>
   <trkpt lat="-8.060777" lon="-34.894828">
    <ele>6.6</ele>
    <time>2020-01-31T12:42:48.000Z</time>
   </trkpt>
   <trkpt lat="-8.06083" lon="-34.894844">
    <ele>6.8</ele>
    <time>2020-01-31T12:42:49.000Z</time>
   </trkpt>
   <trkpt lat="-8.060888" lon="-34.894862">
    <ele>7</ele>
    <time>2020-01-31T12:42:50.000Z</time>
   </trkpt>
   <trkpt lat="-8.060942" lon="-34.894874">
    <ele>7.2</ele>
    <time>2020-01-31T12:42:51.000Z</time>
   </trkpt>
   <trkpt lat="-8.061" lon="-34.894887">
    <ele>7.8</ele>
    <time>2020-01-31T12:42:52.000Z</time>
   </trkpt>
   <trkpt lat="-8.06106" lon="-34.894901">
    <ele>8</ele>
    <time>2020-01-31T12:42:53.000Z</time>
   </trkpt>
   <trkpt lat="-8.061122" lon="-34.894923">
    <ele>8</ele>
    <time>2020-01-31T12:42:54.000Z</time>
   </trkpt>
   <trkpt lat="-8.061185" lon="-34.894928">
    <ele>8</ele>
    <time>2020-01-31T12:42:55.000Z</time>
   </trkpt>
   <trkpt lat="-8.061247" lon="-34.894941">
    <ele>7.9</ele>
    <time>2020-01-31T12:42:56.000Z</time>
   </trkpt>
   <trkpt lat="-8.061303" lon="-34.894956">
    <ele>7.7</ele>
    <time>2020-01-31T12:42:57.000Z</time>
   </trkpt>
   <trkpt lat="-8.061364" lon="-34.894967">
    <ele>7.4</ele>
    <time>2020-01-31T12:42:58.000Z</time>
   </trkpt>
   <trkpt lat="-8.061408" lon="-34.894983">
    <ele>7.2</ele>
    <time>2020-01-31T12:42:59.000Z</time>
   </trkpt>
   <trkpt lat="-8.061466" lon="-34.895015">
    <ele>6.7</ele>
    <time>2020-01-31T12:43:00.000Z</time>
   </trkpt>
   <trkpt lat="-8.06152" lon="-34.895023">
    <ele>6.4</ele>
    <time>2020-01-31T12:43:01.000Z</time>
   </trkpt>
   <trkpt lat="-8.06157" lon="-34.895036">
    <ele>6.3</ele>
    <time>2020-01-31T12:43:02.000Z</time>
   </trkpt>
   <trkpt lat="-8.061616" lon="-34.895047">
    <ele>6.6</ele>
    <time>2020-01-31T12:43:03.000Z</time>
   </trkpt>
   <trkpt lat="-8.06166" lon="-34.895054">
    <ele>6.9</ele>
    <time>2020-01-31T12:43:04.000Z</time>
   </trkpt>
   <trkpt lat="-8.061707" lon="-34.895061">
    <ele>7</ele>
    <time>2020-01-31T12:43:05.000Z</time>
   </trkpt>
   <trkpt lat="-8.06176" lon="-34.895079">
    <ele>7.1</ele>
    <time>2020-01-31T12:43:06.000Z</time>
   </trkpt>
   <trkpt lat="-8.061811" lon="-34.895091">
    <ele>7.1</ele>
    <time>2020-01-31T12:43:07.000Z</time>
   </trkpt>
   <trkpt lat="-8.061861" lon="-34.895101">
    <ele>7.1</ele>
    <time>2020-01-31T12:43:08.000Z</time>
   </trkpt>
   <trkpt lat="-8.061917" lon="-34.895103">
    <ele>7.1</ele>
    <time>2020-01-31T12:43:09.000Z</time>
   </trkpt>
   <trkpt lat="-8.061974" lon="-34.895111">
    <ele>7.1</ele>
    <time>2020-01-31T12:43:10.000Z</time>
   </trkpt>
   <trkpt lat="-8.062026" lon="-34.895116">
    <ele>7.1</ele>
    <time>2020-01-31T12:43:11.000Z</time>
   </trkpt>
   <trkpt lat="-8.062073" lon="-34.895144">
    <ele>7.1</ele>
    <time>2020-01-31T12:43:12.000Z</time>
   </trkpt>
   <trkpt lat="-8.062108" lon="-34.895147">
    <ele>7.1</ele>
    <time>2020-01-31T12:43:13.000Z</time>
   </trkpt>
   <trkpt lat="-8.062142" lon="-34.895147">
    <ele>7.1</ele>
    <time>2020-01-31T12:43:14.000Z</time>
   </trkpt>
   <trkpt lat="-8.062153" lon="-34.895152">
    <ele>7.1</ele>
    <time>2020-01-31T12:43:15.000Z</time>
   </trkpt>
   <trkpt lat="-8.062197" lon="-34.895173">
    <ele>7.1</ele>
    <time>2020-01-31T12:43:17.000Z</time>
   </trkpt>
   <trkpt lat="-8.062252" lon="-34.895189">
    <ele>7.1</ele>
    <time>2020-01-31T12:43:19.000Z</time>
   </trkpt>
   <trkpt lat="-8.062289" lon="-34.895189">
    <ele>7</ele>
    <time>2020-01-31T12:43:20.000Z</time>
   </trkpt>
   <trkpt lat="-8.062324" lon="-34.895194">
    <ele>7</ele>
    <time>2020-01-31T12:43:21.000Z</time>
   </trkpt>
   <trkpt lat="-8.062352" lon="-34.895201">
    <ele>6.9</ele>
    <time>2020-01-31T12:43:22.000Z</time>
   </trkpt>
   <trkpt lat="-8.062378" lon="-34.895206">
    <ele>6.9</ele>
    <time>2020-01-31T12:43:23.000Z</time>
   </trkpt>
   <trkpt lat="-8.062421" lon="-34.895208">
    <ele>6.8</ele>
    <time>2020-01-31T12:43:25.000Z</time>
   </trkpt>
   <trkpt lat="-8.06245" lon="-34.895215">
    <ele>6.7</ele>
    <time>2020-01-31T12:43:27.000Z</time>
   </trkpt>
   <trkpt lat="-8.062525" lon="-34.895201">
    <ele>6.6</ele>
    <time>2020-01-31T12:43:29.000Z</time>
   </trkpt>
   <trkpt lat="-8.062566" lon="-34.895199">
    <ele>6.5</ele>
    <time>2020-01-31T12:43:30.000Z</time>
   </trkpt>
   <trkpt lat="-8.062605" lon="-34.895197">
    <ele>6.5</ele>
    <time>2020-01-31T12:43:31.000Z</time>
   </trkpt>
   <trkpt lat="-8.062646" lon="-34.895201">
    <ele>6.4</ele>
    <time>2020-01-31T12:43:32.000Z</time>
   </trkpt>
   <trkpt lat="-8.062682" lon="-34.895214">
    <ele>6.4</ele>
    <time>2020-01-31T12:43:33.000Z</time>
   </trkpt>
   <trkpt lat="-8.06271" lon="-34.895231">
    <ele>6.4</ele>
    <time>2020-01-31T12:43:34.000Z</time>
   </trkpt>
   <trkpt lat="-8.062724" lon="-34.89526">
    <ele>6.3</ele>
    <time>2020-01-31T12:43:35.000Z</time>
   </trkpt>
   <trkpt lat="-8.062723" lon="-34.895291">
    <ele>6.4</ele>
    <time>2020-01-31T12:43:36.000Z</time>
   </trkpt>
   <trkpt lat="-8.06272" lon="-34.895314">
    <ele>6.5</ele>
    <time>2020-01-31T12:43:37.000Z</time>
   </trkpt>
   <trkpt lat="-8.062712" lon="-34.895377">
    <ele>6.6</ele>
    <time>2020-01-31T12:43:39.000Z</time>
   </trkpt>
   <trkpt lat="-8.062714" lon="-34.895409">
    <ele>6.6</ele>
    <time>2020-01-31T12:43:40.000Z</time>
   </trkpt>
   <trkpt lat="-8.062715" lon="-34.895455">
    <ele>6.7</ele>
    <time>2020-01-31T12:43:41.000Z</time>
   </trkpt>
   <trkpt lat="-8.062716" lon="-34.895492">
    <ele>6.7</ele>
    <time>2020-01-31T12:43:42.000Z</time>
   </trkpt>
   <trkpt lat="-8.0627" lon="-34.895548">
    <ele>6.8</ele>
    <time>2020-01-31T12:43:43.000Z</time>
   </trkpt>
   <trkpt lat="-8.062694" lon="-34.895576">
    <ele>6.8</ele>
    <time>2020-01-31T12:43:44.000Z</time>
   </trkpt>
   <trkpt lat="-8.062695" lon="-34.895599">
    <ele>6.9</ele>
    <time>2020-01-31T12:43:45.000Z</time>
   </trkpt>
   <trkpt lat="-8.062707" lon="-34.895648">
    <ele>7.3</ele>
    <time>2020-01-31T12:43:47.000Z</time>
   </trkpt>
   <trkpt lat="-8.06271" lon="-34.895705">
    <ele>7.7</ele>
    <time>2020-01-31T12:43:49.000Z</time>
   </trkpt>
   <trkpt lat="-8.062717" lon="-34.895742">
    <ele>8</ele>
    <time>2020-01-31T12:43:50.000Z</time>
   </trkpt>
   <trkpt lat="-8.06272" lon="-34.895786">
    <ele>8.3</ele>
    <time>2020-01-31T12:43:51.000Z</time>
   </trkpt>
   <trkpt lat="-8.062712" lon="-34.895825">
    <ele>8.4</ele>
    <time>2020-01-31T12:43:52.000Z</time>
   </trkpt>
   <trkpt lat="-8.062706" lon="-34.895866">
    <ele>8.5</ele>
    <time>2020-01-31T12:43:53.000Z</time>
   </trkpt>
   <trkpt lat="-8.062698" lon="-34.895901">
    <ele>8.5</ele>
    <time>2020-01-31T12:43:54.000Z</time>
   </trkpt>
   <trkpt lat="-8.062695" lon="-34.895931">
    <ele>8.5</ele>
    <time>2020-01-31T12:43:55.000Z</time>
   </trkpt>
   <trkpt lat="-8.062695" lon="-34.89597">
    <ele>8.5</ele>
    <time>2020-01-31T12:43:56.000Z</time>
   </trkpt>
   <trkpt lat="-8.062701" lon="-34.895996">
    <ele>8.5</ele>
    <time>2020-01-31T12:43:57.000Z</time>
   </trkpt>
   <trkpt lat="-8.062705" lon="-34.896057">
    <ele>8.3</ele>
    <time>2020-01-31T12:43:59.000Z</time>
   </trkpt>
   <trkpt lat="-8.062691" lon="-34.896131">
    <ele>7.9</ele>
    <time>2020-01-31T12:44:01.000Z</time>
   </trkpt>
   <trkpt lat="-8.062675" lon="-34.896169">
    <ele>7.7</ele>
    <time>2020-01-31T12:44:02.000Z</time>
   </trkpt>
   <trkpt lat="-8.062649" lon="-34.896231">
    <ele>7.5</ele>
    <time>2020-01-31T12:44:03.000Z</time>
   </trkpt>
   <trkpt lat="-8.062628" lon="-34.896289">
    <ele>7.4</ele>
    <time>2020-01-31T12:44:04.000Z</time>
   </trkpt>
   <trkpt lat="-8.06261" lon="-34.896332">
    <ele>7.3</ele>
    <time>2020-01-31T12:44:05.000Z</time>
   </trkpt>
   <trkpt lat="-8.062606" lon="-34.896368">
    <ele>7.3</ele>
    <time>2020-01-31T12:44:06.000Z</time>
   </trkpt>
   <trkpt lat="-8.062608" lon="-34.896366">
    <ele>7.3</ele>
    <time>2020-01-31T12:44:07.000Z</time>
   </trkpt>
   <trkpt lat="-8.062611" lon="-34.896367">
    <ele>7.3</ele>
    <time>2020-01-31T12:44:11.000Z</time>
   </trkpt>
   <trkpt lat="-8.062653" lon="-34.896321">
    <ele>7.2</ele>
    <time>2020-01-31T12:44:13.000Z</time>
   </trkpt>
   <trkpt lat="-8.06268" lon="-34.896313">
    <ele>7.1</ele>
    <time>2020-01-31T12:44:14.000Z</time>
   </trkpt>
   <trkpt lat="-8.06272" lon="-34.896357">
    <ele>6.4</ele>
    <time>2020-01-31T12:44:15.000Z</time>
   </trkpt>
   <trkpt lat="-8.06276" lon="-34.896344">
    <ele>6.5</ele>
    <time>2020-01-31T12:44:16.000Z</time>
   </trkpt>
   <trkpt lat="-8.062804" lon="-34.896335">
    <ele>6.5</ele>
    <time>2020-01-31T12:44:17.000Z</time>
   </trkpt>
   <trkpt lat="-8.062853" lon="-34.896324">
    <ele>6.6</ele>
    <time>2020-01-31T12:44:18.000Z</time>
   </trkpt>
   <trkpt lat="-8.062905" lon="-34.896308">
    <ele>6.6</ele>
    <time>2020-01-31T12:44:19.000Z</time>
   </trkpt>
   <trkpt lat="-8.062955" lon="-34.896289">
    <ele>6.7</ele>
    <time>2020-01-31T12:44:20.000Z</time>
   </trkpt>
   <trkpt lat="-8.063017" lon="-34.896302">
    <ele>6.7</ele>
    <time>2020-01-31T12:44:21.000Z</time>
   </trkpt>
   <trkpt lat="-8.063072" lon="-34.896288">
    <ele>6.8</ele>
    <time>2020-01-31T12:44:22.000Z</time>
   </trkpt>
   <trkpt lat="-8.063128" lon="-34.896275">
    <ele>6.8</ele>
    <time>2020-01-31T12:44:23.000Z</time>
   </trkpt>
   <trkpt lat="-8.063191" lon="-34.896237">
    <ele>6.9</ele>
    <time>2020-01-31T12:44:24.000Z</time>
   </trkpt>
   <trkpt lat="-8.063243" lon="-34.896203">
    <ele>7</ele>
    <time>2020-01-31T12:44:25.000Z</time>
   </trkpt>
   <trkpt lat="-8.063297" lon="-34.896172">
    <ele>7</ele>
    <time>2020-01-31T12:44:26.000Z</time>
   </trkpt>
   <trkpt lat="-8.06334" lon="-34.896159">
    <ele>7.1</ele>
    <time>2020-01-31T12:44:27.000Z</time>
   </trkpt>
   <trkpt lat="-8.063376" lon="-34.896159">
    <ele>7.1</ele>
    <time>2020-01-31T12:44:28.000Z</time>
   </trkpt>
   <trkpt lat="-8.063422" lon="-34.896151">
    <ele>7.1</ele>
    <time>2020-01-31T12:44:29.000Z</time>
   </trkpt>
   <trkpt lat="-8.063468" lon="-34.896139">
    <ele>7.2</ele>
    <time>2020-01-31T12:44:30.000Z</time>
   </trkpt>
   <trkpt lat="-8.063517" lon="-34.896127">
    <ele>7.2</ele>
    <time>2020-01-31T12:44:31.000Z</time>
   </trkpt>
   <trkpt lat="-8.063571" lon="-34.896115">
    <ele>7.3</ele>
    <time>2020-01-31T12:44:32.000Z</time>
   </trkpt>
   <trkpt lat="-8.063659" lon="-34.896127">
    <ele>7.2</ele>
    <time>2020-01-31T12:44:33.000Z</time>
   </trkpt>
   <trkpt lat="-8.063712" lon="-34.896111">
    <ele>7.1</ele>
    <time>2020-01-31T12:44:34.000Z</time>
   </trkpt>
   <trkpt lat="-8.063771" lon="-34.896103">
    <ele>7</ele>
    <time>2020-01-31T12:44:35.000Z</time>
   </trkpt>
   <trkpt lat="-8.063829" lon="-34.896102">
    <ele>6.9</ele>
    <time>2020-01-31T12:44:36.000Z</time>
   </trkpt>
   <trkpt lat="-8.063894" lon="-34.896096">
    <ele>6.8</ele>
    <time>2020-01-31T12:44:37.000Z</time>
   </trkpt>
   <trkpt lat="-8.063951" lon="-34.896081">
    <ele>6.7</ele>
    <time>2020-01-31T12:44:38.000Z</time>
   </trkpt>
   <trkpt lat="-8.064018" lon="-34.896073">
    <ele>6.6</ele>
    <time>2020-01-31T12:44:39.000Z</time>
   </trkpt>
   <trkpt lat="-8.064075" lon="-34.89606">
    <ele>6.4</ele>
    <time>2020-01-31T12:44:40.000Z</time>
   </trkpt>
   <trkpt lat="-8.064123" lon="-34.89605">
    <ele>6.2</ele>
    <time>2020-01-31T12:44:41.000Z</time>
   </trkpt>
   <trkpt lat="-8.06418" lon="-34.896029">
    <ele>6</ele>
    <time>2020-01-31T12:44:42.000Z</time>
   </trkpt>
   <trkpt lat="-8.064229" lon="-34.896016">
    <ele>5.8</ele>
    <time>2020-01-31T12:44:43.000Z</time>
   </trkpt>
   <trkpt lat="-8.064291" lon="-34.896">
    <ele>5.4</ele>
    <time>2020-01-31T12:44:44.000Z</time>
   </trkpt>
   <trkpt lat="-8.064358" lon="-34.895996">
    <ele>5</ele>
    <time>2020-01-31T12:44:45.000Z</time>
   </trkpt>
   <trkpt lat="-8.064415" lon="-34.89598">
    <ele>4.7</ele>
    <time>2020-01-31T12:44:46.000Z</time>
   </trkpt>
   <trkpt lat="-8.064467" lon="-34.895964">
    <ele>4.4</ele>
    <time>2020-01-31T12:44:47.000Z</time>
   </trkpt>
   <trkpt lat="-8.064513" lon="-34.895951">
    <ele>4.1</ele>
    <time>2020-01-31T12:44:48.000Z</time>
   </trkpt>
   <trkpt lat="-8.064557" lon="-34.89594">
    <ele>3.8</ele>
    <time>2020-01-31T12:44:49.000Z</time>
   </trkpt>
   <trkpt lat="-8.0646" lon="-34.895928">
    <ele>3.6</ele>
    <time>2020-01-31T12:44:50.000Z</time>
   </trkpt>
   <trkpt lat="-8.064647" lon="-34.895925">
    <ele>3.4</ele>
    <time>2020-01-31T12:44:51.000Z</time>
   </trkpt>
   <trkpt lat="-8.064693" lon="-34.895903">
    <ele>3.1</ele>
    <time>2020-01-31T12:44:52.000Z</time>
   </trkpt>
   <trkpt lat="-8.064731" lon="-34.895892">
    <ele>2.9</ele>
    <time>2020-01-31T12:44:53.000Z</time>
   </trkpt>
   <trkpt lat="-8.064761" lon="-34.895883">
    <ele>2.8</ele>
    <time>2020-01-31T12:44:54.000Z</time>
   </trkpt>
   <trkpt lat="-8.06479" lon="-34.895871">
    <ele>2.6</ele>
    <time>2020-01-31T12:44:55.000Z</time>
   </trkpt>
   <trkpt lat="-8.064821" lon="-34.895858">
    <ele>2.5</ele>
    <time>2020-01-31T12:44:56.000Z</time>
   </trkpt>
   <trkpt lat="-8.064882" lon="-34.895893">
    <ele>2.2</ele>
    <time>2020-01-31T12:44:57.000Z</time>
   </trkpt>
   <trkpt lat="-8.064917" lon="-34.895887">
    <ele>2.1</ele>
    <time>2020-01-31T12:44:58.000Z</time>
   </trkpt>
   <trkpt lat="-8.064946" lon="-34.895881">
    <ele>2</ele>
    <time>2020-01-31T12:44:59.000Z</time>
   </trkpt>
   <trkpt lat="-8.064969" lon="-34.895876">
    <ele>1.9</ele>
    <time>2020-01-31T12:45:00.000Z</time>
   </trkpt>
   <trkpt lat="-8.065048" lon="-34.895814">
    <ele>1.5</ele>
    <time>2020-01-31T12:45:02.000Z</time>
   </trkpt>
   <trkpt lat="-8.065079" lon="-34.895762">
    <ele>1.3</ele>
    <time>2020-01-31T12:45:03.000Z</time>
   </trkpt>
   <trkpt lat="-8.065098" lon="-34.895745">
    <ele>1.2</ele>
    <time>2020-01-31T12:45:04.000Z</time>
   </trkpt>
   <trkpt lat="-8.065129" lon="-34.895703">
    <ele>0.7</ele>
    <time>2020-01-31T12:45:06.000Z</time>
   </trkpt>
   <trkpt lat="-8.065145" lon="-34.895675">
    <ele>0.8</ele>
    <time>2020-01-31T12:45:07.000Z</time>
   </trkpt>
   <trkpt lat="-8.065143" lon="-34.895677">
    <ele>0.8</ele>
    <time>2020-01-31T12:45:08.000Z</time>
   </trkpt>
   <trkpt lat="-8.065147" lon="-34.89573">
    <ele>0.9</ele>
    <time>2020-01-31T12:45:11.000Z</time>
   </trkpt>
   <trkpt lat="-8.06517" lon="-34.895781">
    <ele>1.1</ele>
    <time>2020-01-31T12:45:13.000Z</time>
   </trkpt>
   <trkpt lat="-8.065182" lon="-34.895809">
    <ele>1.1</ele>
    <time>2020-01-31T12:45:14.000Z</time>
   </trkpt>
   <trkpt lat="-8.065205" lon="-34.895839">
    <ele>1.2</ele>
    <time>2020-01-31T12:45:15.000Z</time>
   </trkpt>
   <trkpt lat="-8.06521" lon="-34.895863">
    <ele>1.2</ele>
    <time>2020-01-31T12:45:16.000Z</time>
   </trkpt>
   <trkpt lat="-8.065228" lon="-34.895845">
    <ele>1.3</ele>
    <time>2020-01-31T12:45:18.000Z</time>
   </trkpt>
   <trkpt lat="-8.065233" lon="-34.895823">
    <ele>1.3</ele>
    <time>2020-01-31T12:45:20.000Z</time>
   </trkpt>
   <trkpt lat="-8.06522" lon="-34.895829">
    <ele>1.4</ele>
    <time>2020-01-31T12:45:25.000Z</time>
   </trkpt>
   <trkpt lat="-8.065197" lon="-34.895915">
    <ele>1.5</ele>
    <time>2020-01-31T12:45:41.000Z</time>
   </trkpt>
  </trkseg>
 </trk>
</gpx>
