<?xml version="1.0" encoding="UTF-8"?>
<gpx creator="StravaGPX" version="1.1" xmlns="http://www.topografix.com/GPX/1/1">
 <metadata>
  <time>2020-01-23T12:54:53Z</time>
 </metadata>
 <trk>
  <name>Morning Ride</name>
  <type>1</type>
  <trkseg>
   <trkpt lat="-8.036889" lon="-34.892745">
    <ele>7.8</ele>
    <time>2020-01-23T12:54:53.000Z</time>
   </trkpt>
   <trkpt lat="-8.036924" lon="-34.892736">
    <ele>7.9</ele>
    <time>2020-01-23T12:54:55.000Z</time>
   </trkpt>
   <trkpt lat="-8.036965" lon="-34.892733">
    <ele>8.1</ele>
    <time>2020-01-23T12:54:57.000Z</time>
   </trkpt>
   <trkpt lat="-8.03702" lon="-34.892733">
    <ele>8.3</ele>
    <time>2020-01-23T12:54:59.000Z</time>
   </trkpt>
   <trkpt lat="-8.037048" lon="-34.892733">
    <ele>8.4</ele>
    <time>2020-01-23T12:55:00.000Z</time>
   </trkpt>
   <trkpt lat="-8.037078" lon="-34.892731">
    <ele>8.5</ele>
    <time>2020-01-23T12:55:01.000Z</time>
   </trkpt>
   <trkpt lat="-8.037117" lon="-34.892746">
    <ele>8.6</ele>
    <time>2020-01-23T12:55:02.000Z</time>
   </trkpt>
   <trkpt lat="-8.037154" lon="-34.892757">
    <ele>8.8</ele>
    <time>2020-01-23T12:55:03.000Z</time>
   </trkpt>
   <trkpt lat="-8.037178" lon="-34.89276">
    <ele>8.9</ele>
    <time>2020-01-23T12:55:04.000Z</time>
   </trkpt>
   <trkpt lat="-8.037228" lon="-34.892751">
    <ele>9.1</ele>
    <time>2020-01-23T12:55:06.000Z</time>
   </trkpt>
   <trkpt lat="-8.037265" lon="-34.892732">
    <ele>9.3</ele>
    <time>2020-01-23T12:55:08.000Z</time>
   </trkpt>
   <trkpt lat="-8.037288" lon="-34.892702">
    <ele>9.7</ele>
    <time>2020-01-23T12:55:10.000Z</time>
   </trkpt>
   <trkpt lat="-8.0373" lon="-34.892665">
    <ele>9.6</ele>
    <time>2020-01-23T12:55:12.000Z</time>
   </trkpt>
   <trkpt lat="-8.0373" lon="-34.892617">
    <ele>9.5</ele>
    <time>2020-01-23T12:55:14.000Z</time>
   </trkpt>
   <trkpt lat="-8.037315" lon="-34.892572">
    <ele>9.4</ele>
    <time>2020-01-23T12:55:16.000Z</time>
   </trkpt>
   <trkpt lat="-8.037333" lon="-34.89252">
    <ele>9.3</ele>
    <time>2020-01-23T12:55:18.000Z</time>
   </trkpt>
   <trkpt lat="-8.037339" lon="-34.892501">
    <ele>9.3</ele>
    <time>2020-01-23T12:55:19.000Z</time>
   </trkpt>
   <trkpt lat="-8.037345" lon="-34.892443">
    <ele>9.2</ele>
    <time>2020-01-23T12:55:21.000Z</time>
   </trkpt>
   <trkpt lat="-8.037348" lon="-34.892409">
    <ele>9.1</ele>
    <time>2020-01-23T12:55:22.000Z</time>
   </trkpt>
   <trkpt lat="-8.037349" lon="-34.892379">
    <ele>9.1</ele>
    <time>2020-01-23T12:55:23.000Z</time>
   </trkpt>
   <trkpt lat="-8.03735" lon="-34.892351">
    <ele>9</ele>
    <time>2020-01-23T12:55:24.000Z</time>
   </trkpt>
   <trkpt lat="-8.037353" lon="-34.892326">
    <ele>9</ele>
    <time>2020-01-23T12:55:25.000Z</time>
   </trkpt>
   <trkpt lat="-8.037361" lon="-34.892237">
    <ele>8.8</ele>
    <time>2020-01-23T12:55:27.000Z</time>
   </trkpt>
   <trkpt lat="-8.037376" lon="-34.892181">
    <ele>8.7</ele>
    <time>2020-01-23T12:55:28.000Z</time>
   </trkpt>
   <trkpt lat="-8.037359" lon="-34.892115">
    <ele>8.6</ele>
    <time>2020-01-23T12:55:29.000Z</time>
   </trkpt>
   <trkpt lat="-8.037373" lon="-34.892066">
    <ele>8.5</ele>
    <time>2020-01-23T12:55:30.000Z</time>
   </trkpt>
   <trkpt lat="-8.037393" lon="-34.89202">
    <ele>8.8</ele>
    <time>2020-01-23T12:55:31.000Z</time>
   </trkpt>
   <trkpt lat="-8.037418" lon="-34.891972">
    <ele>9.2</ele>
    <time>2020-01-23T12:55:32.000Z</time>
   </trkpt>
   <trkpt lat="-8.037436" lon="-34.891929">
    <ele>9.4</ele>
    <time>2020-01-23T12:55:33.000Z</time>
   </trkpt>
   <trkpt lat="-8.037453" lon="-34.89189">
    <ele>9.7</ele>
    <time>2020-01-23T12:55:34.000Z</time>
   </trkpt>
   <trkpt lat="-8.037474" lon="-34.89185">
    <ele>10</ele>
    <time>2020-01-23T12:55:35.000Z</time>
   </trkpt>
   <trkpt lat="-8.037495" lon="-34.891813">
    <ele>10.1</ele>
    <time>2020-01-23T12:55:36.000Z</time>
   </trkpt>
   <trkpt lat="-8.037516" lon="-34.891773">
    <ele>10.3</ele>
    <time>2020-01-23T12:55:37.000Z</time>
   </trkpt>
   <trkpt lat="-8.037539" lon="-34.891727">
    <ele>10.5</ele>
    <time>2020-01-23T12:55:38.000Z</time>
   </trkpt>
   <trkpt lat="-8.037565" lon="-34.891682">
    <ele>10.7</ele>
    <time>2020-01-23T12:55:39.000Z</time>
   </trkpt>
   <trkpt lat="-8.037587" lon="-34.891639">
    <ele>10.9</ele>
    <time>2020-01-23T12:55:40.000Z</time>
   </trkpt>
   <trkpt lat="-8.037608" lon="-34.891598">
    <ele>11.2</ele>
    <time>2020-01-23T12:55:41.000Z</time>
   </trkpt>
   <trkpt lat="-8.037638" lon="-34.891561">
    <ele>11.5</ele>
    <time>2020-01-23T12:55:42.000Z</time>
   </trkpt>
   <trkpt lat="-8.037661" lon="-34.891533">
    <ele>11.7</ele>
    <time>2020-01-23T12:55:43.000Z</time>
   </trkpt>
   <trkpt lat="-8.037687" lon="-34.891511">
    <ele>11.8</ele>
    <time>2020-01-23T12:55:44.000Z</time>
   </trkpt>
   <trkpt lat="-8.037722" lon="-34.891489">
    <ele>12.1</ele>
    <time>2020-01-23T12:55:45.000Z</time>
   </trkpt>
   <trkpt lat="-8.037756" lon="-34.891487">
    <ele>12.2</ele>
    <time>2020-01-23T12:55:46.000Z</time>
   </trkpt>
   <trkpt lat="-8.037791" lon="-34.891505">
    <ele>12.2</ele>
    <time>2020-01-23T12:55:47.000Z</time>
   </trkpt>
   <trkpt lat="-8.037831" lon="-34.89154">
    <ele>12.3</ele>
    <time>2020-01-23T12:55:48.000Z</time>
   </trkpt>
   <trkpt lat="-8.037884" lon="-34.891574">
    <ele>12.4</ele>
    <time>2020-01-23T12:55:49.000Z</time>
   </trkpt>
   <trkpt lat="-8.037932" lon="-34.891607">
    <ele>12.4</ele>
    <time>2020-01-23T12:55:50.000Z</time>
   </trkpt>
   <trkpt lat="-8.037972" lon="-34.891636">
    <ele>12.5</ele>
    <time>2020-01-23T12:55:51.000Z</time>
   </trkpt>
   <trkpt lat="-8.038013" lon="-34.89166">
    <ele>12.6</ele>
    <time>2020-01-23T12:55:52.000Z</time>
   </trkpt>
   <trkpt lat="-8.038054" lon="-34.891681">
    <ele>12.6</ele>
    <time>2020-01-23T12:55:53.000Z</time>
   </trkpt>
   <trkpt lat="-8.038091" lon="-34.891704">
    <ele>12.9</ele>
    <time>2020-01-23T12:55:54.000Z</time>
   </trkpt>
   <trkpt lat="-8.038133" lon="-34.891727">
    <ele>13</ele>
    <time>2020-01-23T12:55:55.000Z</time>
   </trkpt>
   <trkpt lat="-8.038172" lon="-34.891757">
    <ele>13.1</ele>
    <time>2020-01-23T12:55:56.000Z</time>
   </trkpt>
   <trkpt lat="-8.038217" lon="-34.891786">
    <ele>13.1</ele>
    <time>2020-01-23T12:55:57.000Z</time>
   </trkpt>
   <trkpt lat="-8.038262" lon="-34.891811">
    <ele>13</ele>
    <time>2020-01-23T12:55:58.000Z</time>
   </trkpt>
   <trkpt lat="-8.038298" lon="-34.891844">
    <ele>12.9</ele>
    <time>2020-01-23T12:55:59.000Z</time>
   </trkpt>
   <trkpt lat="-8.038339" lon="-34.891867">
    <ele>12.7</ele>
    <time>2020-01-23T12:56:00.000Z</time>
   </trkpt>
   <trkpt lat="-8.038398" lon="-34.891882">
    <ele>12.6</ele>
    <time>2020-01-23T12:56:01.000Z</time>
   </trkpt>
   <trkpt lat="-8.038441" lon="-34.891898">
    <ele>12.6</ele>
    <time>2020-01-23T12:56:02.000Z</time>
   </trkpt>
   <trkpt lat="-8.038484" lon="-34.891919">
    <ele>12.6</ele>
    <time>2020-01-23T12:56:03.000Z</time>
   </trkpt>
   <trkpt lat="-8.03851" lon="-34.891944">
    <ele>12.6</ele>
    <time>2020-01-23T12:56:04.000Z</time>
   </trkpt>
   <trkpt lat="-8.038543" lon="-34.89195">
    <ele>12.6</ele>
    <time>2020-01-23T12:56:05.000Z</time>
   </trkpt>
   <trkpt lat="-8.038581" lon="-34.891971">
    <ele>12.5</ele>
    <time>2020-01-23T12:56:06.000Z</time>
   </trkpt>
   <trkpt lat="-8.038616" lon="-34.891988">
    <ele>12.5</ele>
    <time>2020-01-23T12:56:07.000Z</time>
   </trkpt>
   <trkpt lat="-8.038653" lon="-34.892007">
    <ele>12.4</ele>
    <time>2020-01-23T12:56:08.000Z</time>
   </trkpt>
   <trkpt lat="-8.038692" lon="-34.892043">
    <ele>12.3</ele>
    <time>2020-01-23T12:56:09.000Z</time>
   </trkpt>
   <trkpt lat="-8.038744" lon="-34.892071">
    <ele>12.6</ele>
    <time>2020-01-23T12:56:10.000Z</time>
   </trkpt>
   <trkpt lat="-8.038787" lon="-34.892087">
    <ele>12.8</ele>
    <time>2020-01-23T12:56:11.000Z</time>
   </trkpt>
   <trkpt lat="-8.038825" lon="-34.892117">
    <ele>13</ele>
    <time>2020-01-23T12:56:12.000Z</time>
   </trkpt>
   <trkpt lat="-8.038865" lon="-34.892133">
    <ele>13.2</ele>
    <time>2020-01-23T12:56:13.000Z</time>
   </trkpt>
   <trkpt lat="-8.038906" lon="-34.892139">
    <ele>13.3</ele>
    <time>2020-01-23T12:56:14.000Z</time>
   </trkpt>
   <trkpt lat="-8.038951" lon="-34.892143">
    <ele>13.1</ele>
    <time>2020-01-23T12:56:15.000Z</time>
   </trkpt>
   <trkpt lat="-8.038995" lon="-34.892147">
    <ele>12.7</ele>
    <time>2020-01-23T12:56:16.000Z</time>
   </trkpt>
   <trkpt lat="-8.03904" lon="-34.892148">
    <ele>12.4</ele>
    <time>2020-01-23T12:56:17.000Z</time>
   </trkpt>
   <trkpt lat="-8.039086" lon="-34.892148">
    <ele>12.1</ele>
    <time>2020-01-23T12:56:18.000Z</time>
   </trkpt>
   <trkpt lat="-8.039135" lon="-34.892154">
    <ele>12</ele>
    <time>2020-01-23T12:56:19.000Z</time>
   </trkpt>
   <trkpt lat="-8.039183" lon="-34.892161">
    <ele>11.9</ele>
    <time>2020-01-23T12:56:20.000Z</time>
   </trkpt>
   <trkpt lat="-8.039235" lon="-34.892168">
    <ele>11.6</ele>
    <time>2020-01-23T12:56:21.000Z</time>
   </trkpt>
   <trkpt lat="-8.039281" lon="-34.892176">
    <ele>11.5</ele>
    <time>2020-01-23T12:56:22.000Z</time>
   </trkpt>
   <trkpt lat="-8.039329" lon="-34.892184">
    <ele>11.5</ele>
    <time>2020-01-23T12:56:23.000Z</time>
   </trkpt>
   <trkpt lat="-8.039378" lon="-34.892189">
    <ele>11.5</ele>
    <time>2020-01-23T12:56:24.000Z</time>
   </trkpt>
   <trkpt lat="-8.039428" lon="-34.892186">
    <ele>11.6</ele>
    <time>2020-01-23T12:56:25.000Z</time>
   </trkpt>
   <trkpt lat="-8.039483" lon="-34.892187">
    <ele>11.8</ele>
    <time>2020-01-23T12:56:26.000Z</time>
   </trkpt>
   <trkpt lat="-8.039532" lon="-34.892187">
    <ele>12.1</ele>
    <time>2020-01-23T12:56:27.000Z</time>
   </trkpt>
   <trkpt lat="-8.039586" lon="-34.892186">
    <ele>12.3</ele>
    <time>2020-01-23T12:56:28.000Z</time>
   </trkpt>
   <trkpt lat="-8.039643" lon="-34.892202">
    <ele>12.3</ele>
    <time>2020-01-23T12:56:29.000Z</time>
   </trkpt>
   <trkpt lat="-8.039712" lon="-34.892228">
    <ele>12.6</ele>
    <time>2020-01-23T12:56:30.000Z</time>
   </trkpt>
   <trkpt lat="-8.039764" lon="-34.892257">
    <ele>13</ele>
    <time>2020-01-23T12:56:31.000Z</time>
   </trkpt>
   <trkpt lat="-8.039811" lon="-34.892293">
    <ele>13.4</ele>
    <time>2020-01-23T12:56:32.000Z</time>
   </trkpt>
   <trkpt lat="-8.039863" lon="-34.892339">
    <ele>13.8</ele>
    <time>2020-01-23T12:56:33.000Z</time>
   </trkpt>
   <trkpt lat="-8.039912" lon="-34.892377">
    <ele>14</ele>
    <time>2020-01-23T12:56:34.000Z</time>
   </trkpt>
   <trkpt lat="-8.039961" lon="-34.892425">
    <ele>14.2</ele>
    <time>2020-01-23T12:56:35.000Z</time>
   </trkpt>
   <trkpt lat="-8.040006" lon="-34.892456">
    <ele>14.4</ele>
    <time>2020-01-23T12:56:36.000Z</time>
   </trkpt>
   <trkpt lat="-8.04005" lon="-34.892496">
    <ele>14.6</ele>
    <time>2020-01-23T12:56:37.000Z</time>
   </trkpt>
   <trkpt lat="-8.040099" lon="-34.892542">
    <ele>14.8</ele>
    <time>2020-01-23T12:56:38.000Z</time>
   </trkpt>
   <trkpt lat="-8.040155" lon="-34.892583">
    <ele>15</ele>
    <time>2020-01-23T12:56:39.000Z</time>
   </trkpt>
   <trkpt lat="-8.040207" lon="-34.892625">
    <ele>15.1</ele>
    <time>2020-01-23T12:56:40.000Z</time>
   </trkpt>
   <trkpt lat="-8.040244" lon="-34.892672">
    <ele>15.1</ele>
    <time>2020-01-23T12:56:41.000Z</time>
   </trkpt>
   <trkpt lat="-8.040285" lon="-34.892707">
    <ele>15.2</ele>
    <time>2020-01-23T12:56:42.000Z</time>
   </trkpt>
   <trkpt lat="-8.040337" lon="-34.89275">
    <ele>15.2</ele>
    <time>2020-01-23T12:56:43.000Z</time>
   </trkpt>
   <trkpt lat="-8.04039" lon="-34.892795">
    <ele>15.3</ele>
    <time>2020-01-23T12:56:44.000Z</time>
   </trkpt>
   <trkpt lat="-8.040436" lon="-34.892834">
    <ele>15.4</ele>
    <time>2020-01-23T12:56:45.000Z</time>
   </trkpt>
   <trkpt lat="-8.040481" lon="-34.892866">
    <ele>15.5</ele>
    <time>2020-01-23T12:56:46.000Z</time>
   </trkpt>
   <trkpt lat="-8.04052" lon="-34.89291">
    <ele>15.6</ele>
    <time>2020-01-23T12:56:47.000Z</time>
   </trkpt>
   <trkpt lat="-8.040563" lon="-34.892948">
    <ele>15.7</ele>
    <time>2020-01-23T12:56:48.000Z</time>
   </trkpt>
   <trkpt lat="-8.040616" lon="-34.892989">
    <ele>15.9</ele>
    <time>2020-01-23T12:56:49.000Z</time>
   </trkpt>
   <trkpt lat="-8.040658" lon="-34.893024">
    <ele>16</ele>
    <time>2020-01-23T12:56:50.000Z</time>
   </trkpt>
   <trkpt lat="-8.040694" lon="-34.893055">
    <ele>16</ele>
    <time>2020-01-23T12:56:51.000Z</time>
   </trkpt>
   <trkpt lat="-8.04073" lon="-34.893088">
    <ele>16.1</ele>
    <time>2020-01-23T12:56:52.000Z</time>
   </trkpt>
   <trkpt lat="-8.040773" lon="-34.893117">
    <ele>16.2</ele>
    <time>2020-01-23T12:56:53.000Z</time>
   </trkpt>
   <trkpt lat="-8.040817" lon="-34.893154">
    <ele>16.3</ele>
    <time>2020-01-23T12:56:54.000Z</time>
   </trkpt>
   <trkpt lat="-8.040858" lon="-34.893185">
    <ele>16.3</ele>
    <time>2020-01-23T12:56:55.000Z</time>
   </trkpt>
   <trkpt lat="-8.040902" lon="-34.893222">
    <ele>16.5</ele>
    <time>2020-01-23T12:56:56.000Z</time>
   </trkpt>
   <trkpt lat="-8.040943" lon="-34.89326">
    <ele>16.6</ele>
    <time>2020-01-23T12:56:57.000Z</time>
   </trkpt>
   <trkpt lat="-8.040978" lon="-34.893295">
    <ele>16.7</ele>
    <time>2020-01-23T12:56:58.000Z</time>
   </trkpt>
   <trkpt lat="-8.041001" lon="-34.893319">
    <ele>16.8</ele>
    <time>2020-01-23T12:56:59.000Z</time>
   </trkpt>
   <trkpt lat="-8.041004" lon="-34.893351">
    <ele>16.9</ele>
    <time>2020-01-23T12:57:00.000Z</time>
   </trkpt>
   <trkpt lat="-8.041014" lon="-34.893383">
    <ele>17</ele>
    <time>2020-01-23T12:57:01.000Z</time>
   </trkpt>
   <trkpt lat="-8.041038" lon="-34.893405">
    <ele>17</ele>
    <time>2020-01-23T12:57:02.000Z</time>
   </trkpt>
   <trkpt lat="-8.041063" lon="-34.893443">
    <ele>17.2</ele>
    <time>2020-01-23T12:57:03.000Z</time>
   </trkpt>
   <trkpt lat="-8.041103" lon="-34.893462">
    <ele>17.3</ele>
    <time>2020-01-23T12:57:04.000Z</time>
   </trkpt>
   <trkpt lat="-8.041138" lon="-34.893485">
    <ele>17.4</ele>
    <time>2020-01-23T12:57:05.000Z</time>
   </trkpt>
   <trkpt lat="-8.041173" lon="-34.893516">
    <ele>17.6</ele>
    <time>2020-01-23T12:57:06.000Z</time>
   </trkpt>
   <trkpt lat="-8.041214" lon="-34.893554">
    <ele>17.7</ele>
    <time>2020-01-23T12:57:07.000Z</time>
   </trkpt>
   <trkpt lat="-8.041256" lon="-34.893597">
    <ele>17.9</ele>
    <time>2020-01-23T12:57:08.000Z</time>
   </trkpt>
   <trkpt lat="-8.041301" lon="-34.893632">
    <ele>18</ele>
    <time>2020-01-23T12:57:09.000Z</time>
   </trkpt>
   <trkpt lat="-8.04134" lon="-34.893659">
    <ele>18.1</ele>
    <time>2020-01-23T12:57:10.000Z</time>
   </trkpt>
   <trkpt lat="-8.041373" lon="-34.893685">
    <ele>18.1</ele>
    <time>2020-01-23T12:57:11.000Z</time>
   </trkpt>
   <trkpt lat="-8.041397" lon="-34.893703">
    <ele>18.1</ele>
    <time>2020-01-23T12:57:12.000Z</time>
   </trkpt>
   <trkpt lat="-8.041408" lon="-34.893707">
    <ele>18.1</ele>
    <time>2020-01-23T12:57:13.000Z</time>
   </trkpt>
   <trkpt lat="-8.041466" lon="-34.893716">
    <ele>17.9</ele>
    <time>2020-01-23T12:57:15.000Z</time>
   </trkpt>
   <trkpt lat="-8.041521" lon="-34.893656">
    <ele>17.7</ele>
    <time>2020-01-23T12:57:17.000Z</time>
   </trkpt>
   <trkpt lat="-8.041559" lon="-34.893614">
    <ele>17.6</ele>
    <time>2020-01-23T12:57:18.000Z</time>
   </trkpt>
   <trkpt lat="-8.041592" lon="-34.893574">
    <ele>17.5</ele>
    <time>2020-01-23T12:57:19.000Z</time>
   </trkpt>
   <trkpt lat="-8.041622" lon="-34.893531">
    <ele>17.4</ele>
    <time>2020-01-23T12:57:20.000Z</time>
   </trkpt>
   <trkpt lat="-8.041652" lon="-34.89349">
    <ele>17.3</ele>
    <time>2020-01-23T12:57:21.000Z</time>
   </trkpt>
   <trkpt lat="-8.041684" lon="-34.893456">
    <ele>17.3</ele>
    <time>2020-01-23T12:57:22.000Z</time>
   </trkpt>
   <trkpt lat="-8.041669" lon="-34.893402">
    <ele>17.2</ele>
    <time>2020-01-23T12:57:23.000Z</time>
   </trkpt>
   <trkpt lat="-8.041682" lon="-34.893376">
    <ele>17.2</ele>
    <time>2020-01-23T12:57:24.000Z</time>
   </trkpt>
   <trkpt lat="-8.041701" lon="-34.893344">
    <ele>17.2</ele>
    <time>2020-01-23T12:57:25.000Z</time>
   </trkpt>
   <trkpt lat="-8.041725" lon="-34.893313">
    <ele>17.1</ele>
    <time>2020-01-23T12:57:26.000Z</time>
   </trkpt>
   <trkpt lat="-8.041751" lon="-34.893277">
    <ele>17.1</ele>
    <time>2020-01-23T12:57:27.000Z</time>
   </trkpt>
   <trkpt lat="-8.041778" lon="-34.893241">
    <ele>17.1</ele>
    <time>2020-01-23T12:57:28.000Z</time>
   </trkpt>
   <trkpt lat="-8.041815" lon="-34.893209">
    <ele>17.1</ele>
    <time>2020-01-23T12:57:29.000Z</time>
   </trkpt>
   <trkpt lat="-8.041844" lon="-34.893181">
    <ele>17.1</ele>
    <time>2020-01-23T12:57:30.000Z</time>
   </trkpt>
   <trkpt lat="-8.041876" lon="-34.893152">
    <ele>17.1</ele>
    <time>2020-01-23T12:57:31.000Z</time>
   </trkpt>
   <trkpt lat="-8.041907" lon="-34.893116">
    <ele>17.1</ele>
    <time>2020-01-23T12:57:32.000Z</time>
   </trkpt>
   <trkpt lat="-8.041928" lon="-34.893081">
    <ele>17.1</ele>
    <time>2020-01-23T12:57:33.000Z</time>
   </trkpt>
   <trkpt lat="-8.04195" lon="-34.893044">
    <ele>17.1</ele>
    <time>2020-01-23T12:57:34.000Z</time>
   </trkpt>
   <trkpt lat="-8.041973" lon="-34.893011">
    <ele>17.1</ele>
    <time>2020-01-23T12:57:35.000Z</time>
   </trkpt>
   <trkpt lat="-8.042" lon="-34.892975">
    <ele>17</ele>
    <time>2020-01-23T12:57:36.000Z</time>
   </trkpt>
   <trkpt lat="-8.042024" lon="-34.892934">
    <ele>17</ele>
    <time>2020-01-23T12:57:37.000Z</time>
   </trkpt>
   <trkpt lat="-8.042042" lon="-34.892893">
    <ele>17</ele>
    <time>2020-01-23T12:57:38.000Z</time>
   </trkpt>
   <trkpt lat="-8.04206" lon="-34.892852">
    <ele>17</ele>
    <time>2020-01-23T12:57:39.000Z</time>
   </trkpt>
   <trkpt lat="-8.042076" lon="-34.892812">
    <ele>17</ele>
    <time>2020-01-23T12:57:40.000Z</time>
   </trkpt>
   <trkpt lat="-8.042094" lon="-34.892772">
    <ele>17</ele>
    <time>2020-01-23T12:57:41.000Z</time>
   </trkpt>
   <trkpt lat="-8.042121" lon="-34.892729">
    <ele>17</ele>
    <time>2020-01-23T12:57:42.000Z</time>
   </trkpt>
   <trkpt lat="-8.042163" lon="-34.892691">
    <ele>17</ele>
    <time>2020-01-23T12:57:43.000Z</time>
   </trkpt>
   <trkpt lat="-8.042193" lon="-34.892646">
    <ele>17</ele>
    <time>2020-01-23T12:57:44.000Z</time>
   </trkpt>
   <trkpt lat="-8.042222" lon="-34.892599">
    <ele>17</ele>
    <time>2020-01-23T12:57:45.000Z</time>
   </trkpt>
   <trkpt lat="-8.042252" lon="-34.892558">
    <ele>17</ele>
    <time>2020-01-23T12:57:46.000Z</time>
   </trkpt>
   <trkpt lat="-8.042285" lon="-34.892508">
    <ele>17</ele>
    <time>2020-01-23T12:57:47.000Z</time>
   </trkpt>
   <trkpt lat="-8.042318" lon="-34.892459">
    <ele>16.8</ele>
    <time>2020-01-23T12:57:48.000Z</time>
   </trkpt>
   <trkpt lat="-8.042359" lon="-34.892411">
    <ele>16.6</ele>
    <time>2020-01-23T12:57:49.000Z</time>
   </trkpt>
   <trkpt lat="-8.042403" lon="-34.892384">
    <ele>16.4</ele>
    <time>2020-01-23T12:57:50.000Z</time>
   </trkpt>
   <trkpt lat="-8.042446" lon="-34.892352">
    <ele>16.3</ele>
    <time>2020-01-23T12:57:51.000Z</time>
   </trkpt>
   <trkpt lat="-8.042496" lon="-34.892321">
    <ele>16</ele>
    <time>2020-01-23T12:57:52.000Z</time>
   </trkpt>
   <trkpt lat="-8.042546" lon="-34.892294">
    <ele>15.8</ele>
    <time>2020-01-23T12:57:53.000Z</time>
   </trkpt>
   <trkpt lat="-8.042585" lon="-34.892268">
    <ele>15.6</ele>
    <time>2020-01-23T12:57:54.000Z</time>
   </trkpt>
   <trkpt lat="-8.04262" lon="-34.892233">
    <ele>15.4</ele>
    <time>2020-01-23T12:57:55.000Z</time>
   </trkpt>
   <trkpt lat="-8.042645" lon="-34.892191">
    <ele>15.3</ele>
    <time>2020-01-23T12:57:56.000Z</time>
   </trkpt>
   <trkpt lat="-8.042671" lon="-34.892143">
    <ele>15.1</ele>
    <time>2020-01-23T12:57:57.000Z</time>
   </trkpt>
   <trkpt lat="-8.042698" lon="-34.892102">
    <ele>15</ele>
    <time>2020-01-23T12:57:58.000Z</time>
   </trkpt>
   <trkpt lat="-8.042723" lon="-34.892069">
    <ele>14.9</ele>
    <time>2020-01-23T12:57:59.000Z</time>
   </trkpt>
   <trkpt lat="-8.042749" lon="-34.892023">
    <ele>14.9</ele>
    <time>2020-01-23T12:58:00.000Z</time>
   </trkpt>
   <trkpt lat="-8.042783" lon="-34.89198">
    <ele>14.8</ele>
    <time>2020-01-23T12:58:01.000Z</time>
   </trkpt>
   <trkpt lat="-8.042815" lon="-34.891941">
    <ele>14.8</ele>
    <time>2020-01-23T12:58:02.000Z</time>
   </trkpt>
   <trkpt lat="-8.042848" lon="-34.891902">
    <ele>14.7</ele>
    <time>2020-01-23T12:58:03.000Z</time>
   </trkpt>
   <trkpt lat="-8.042883" lon="-34.891872">
    <ele>14.7</ele>
    <time>2020-01-23T12:58:04.000Z</time>
   </trkpt>
   <trkpt lat="-8.042899" lon="-34.891845">
    <ele>14.7</ele>
    <time>2020-01-23T12:58:05.000Z</time>
   </trkpt>
   <trkpt lat="-8.042929" lon="-34.891803">
    <ele>14.7</ele>
    <time>2020-01-23T12:58:06.000Z</time>
   </trkpt>
   <trkpt lat="-8.042955" lon="-34.891764">
    <ele>14.6</ele>
    <time>2020-01-23T12:58:07.000Z</time>
   </trkpt>
   <trkpt lat="-8.043004" lon="-34.891735">
    <ele>14.6</ele>
    <time>2020-01-23T12:58:08.000Z</time>
   </trkpt>
   <trkpt lat="-8.043051" lon="-34.891702">
    <ele>14.5</ele>
    <time>2020-01-23T12:58:09.000Z</time>
   </trkpt>
   <trkpt lat="-8.043093" lon="-34.891664">
    <ele>14.5</ele>
    <time>2020-01-23T12:58:10.000Z</time>
   </trkpt>
   <trkpt lat="-8.043136" lon="-34.891625">
    <ele>14.4</ele>
    <time>2020-01-23T12:58:11.000Z</time>
   </trkpt>
   <trkpt lat="-8.043172" lon="-34.891587">
    <ele>14.3</ele>
    <time>2020-01-23T12:58:12.000Z</time>
   </trkpt>
   <trkpt lat="-8.043206" lon="-34.891544">
    <ele>14.3</ele>
    <time>2020-01-23T12:58:13.000Z</time>
   </trkpt>
   <trkpt lat="-8.043257" lon="-34.89151">
    <ele>14.2</ele>
    <time>2020-01-23T12:58:14.000Z</time>
   </trkpt>
   <trkpt lat="-8.043304" lon="-34.891479">
    <ele>14</ele>
    <time>2020-01-23T12:58:15.000Z</time>
   </trkpt>
   <trkpt lat="-8.043347" lon="-34.891436">
    <ele>13.9</ele>
    <time>2020-01-23T12:58:16.000Z</time>
   </trkpt>
   <trkpt lat="-8.043385" lon="-34.891416">
    <ele>13.8</ele>
    <time>2020-01-23T12:58:17.000Z</time>
   </trkpt>
   <trkpt lat="-8.043425" lon="-34.891383">
    <ele>13.8</ele>
    <time>2020-01-23T12:58:18.000Z</time>
   </trkpt>
   <trkpt lat="-8.043473" lon="-34.891337">
    <ele>13.7</ele>
    <time>2020-01-23T12:58:19.000Z</time>
   </trkpt>
   <trkpt lat="-8.043517" lon="-34.891278">
    <ele>13.7</ele>
    <time>2020-01-23T12:58:20.000Z</time>
   </trkpt>
   <trkpt lat="-8.043564" lon="-34.891214">
    <ele>13.6</ele>
    <time>2020-01-23T12:58:21.000Z</time>
   </trkpt>
   <trkpt lat="-8.043607" lon="-34.891161">
    <ele>13.6</ele>
    <time>2020-01-23T12:58:22.000Z</time>
   </trkpt>
   <trkpt lat="-8.043637" lon="-34.89111">
    <ele>13.5</ele>
    <time>2020-01-23T12:58:23.000Z</time>
   </trkpt>
   <trkpt lat="-8.043686" lon="-34.891069">
    <ele>13.5</ele>
    <time>2020-01-23T12:58:24.000Z</time>
   </trkpt>
   <trkpt lat="-8.043735" lon="-34.891021">
    <ele>13.5</ele>
    <time>2020-01-23T12:58:25.000Z</time>
   </trkpt>
   <trkpt lat="-8.043778" lon="-34.890967">
    <ele>13.4</ele>
    <time>2020-01-23T12:58:26.000Z</time>
   </trkpt>
   <trkpt lat="-8.043821" lon="-34.890921">
    <ele>13.4</ele>
    <time>2020-01-23T12:58:27.000Z</time>
   </trkpt>
   <trkpt lat="-8.043863" lon="-34.890877">
    <ele>13.3</ele>
    <time>2020-01-23T12:58:28.000Z</time>
   </trkpt>
   <trkpt lat="-8.043906" lon="-34.890834">
    <ele>13.1</ele>
    <time>2020-01-23T12:58:29.000Z</time>
   </trkpt>
   <trkpt lat="-8.043954" lon="-34.890786">
    <ele>12.9</ele>
    <time>2020-01-23T12:58:30.000Z</time>
   </trkpt>
   <trkpt lat="-8.043997" lon="-34.890738">
    <ele>12.8</ele>
    <time>2020-01-23T12:58:31.000Z</time>
   </trkpt>
   <trkpt lat="-8.044039" lon="-34.890699">
    <ele>12.6</ele>
    <time>2020-01-23T12:58:32.000Z</time>
   </trkpt>
   <trkpt lat="-8.044078" lon="-34.890664">
    <ele>12.5</ele>
    <time>2020-01-23T12:58:33.000Z</time>
   </trkpt>
   <trkpt lat="-8.044124" lon="-34.890619">
    <ele>12.2</ele>
    <time>2020-01-23T12:58:34.000Z</time>
   </trkpt>
   <trkpt lat="-8.044177" lon="-34.890569">
    <ele>11.9</ele>
    <time>2020-01-23T12:58:35.000Z</time>
   </trkpt>
   <trkpt lat="-8.044222" lon="-34.890519">
    <ele>11.7</ele>
    <time>2020-01-23T12:58:36.000Z</time>
   </trkpt>
   <trkpt lat="-8.044272" lon="-34.890455">
    <ele>11.3</ele>
    <time>2020-01-23T12:58:37.000Z</time>
   </trkpt>
   <trkpt lat="-8.044318" lon="-34.890397">
    <ele>10.8</ele>
    <time>2020-01-23T12:58:38.000Z</time>
   </trkpt>
   <trkpt lat="-8.044367" lon="-34.890343">
    <ele>10.4</ele>
    <time>2020-01-23T12:58:39.000Z</time>
   </trkpt>
   <trkpt lat="-8.044409" lon="-34.890293">
    <ele>9.9</ele>
    <time>2020-01-23T12:58:40.000Z</time>
   </trkpt>
   <trkpt lat="-8.044455" lon="-34.890243">
    <ele>9.5</ele>
    <time>2020-01-23T12:58:41.000Z</time>
   </trkpt>
   <trkpt lat="-8.044499" lon="-34.890193">
    <ele>8.6</ele>
    <time>2020-01-23T12:58:42.000Z</time>
   </trkpt>
   <trkpt lat="-8.044548" lon="-34.890147">
    <ele>8.4</ele>
    <time>2020-01-23T12:58:43.000Z</time>
   </trkpt>
   <trkpt lat="-8.044601" lon="-34.890104">
    <ele>8.2</ele>
    <time>2020-01-23T12:58:44.000Z</time>
   </trkpt>
   <trkpt lat="-8.044657" lon="-34.890074">
    <ele>8.1</ele>
    <time>2020-01-23T12:58:45.000Z</time>
   </trkpt>
   <trkpt lat="-8.044712" lon="-34.890049">
    <ele>7.9</ele>
    <time>2020-01-23T12:58:46.000Z</time>
   </trkpt>
   <trkpt lat="-8.044766" lon="-34.890042">
    <ele>7.6</ele>
    <time>2020-01-23T12:58:47.000Z</time>
   </trkpt>
   <trkpt lat="-8.044816" lon="-34.890049">
    <ele>7.3</ele>
    <time>2020-01-23T12:58:48.000Z</time>
   </trkpt>
   <trkpt lat="-8.044873" lon="-34.890047">
    <ele>7</ele>
    <time>2020-01-23T12:58:49.000Z</time>
   </trkpt>
   <trkpt lat="-8.044934" lon="-34.890037">
    <ele>6.4</ele>
    <time>2020-01-23T12:58:50.000Z</time>
   </trkpt>
   <trkpt lat="-8.044996" lon="-34.890023">
    <ele>6.3</ele>
    <time>2020-01-23T12:58:51.000Z</time>
   </trkpt>
   <trkpt lat="-8.045057" lon="-34.890014">
    <ele>6.3</ele>
    <time>2020-01-23T12:58:52.000Z</time>
   </trkpt>
   <trkpt lat="-8.045115" lon="-34.890006">
    <ele>6.2</ele>
    <time>2020-01-23T12:58:53.000Z</time>
   </trkpt>
   <trkpt lat="-8.045176" lon="-34.890001">
    <ele>6</ele>
    <time>2020-01-23T12:58:54.000Z</time>
   </trkpt>
   <trkpt lat="-8.04523" lon="-34.889992">
    <ele>6.3</ele>
    <time>2020-01-23T12:58:55.000Z</time>
   </trkpt>
   <trkpt lat="-8.045286" lon="-34.889985">
    <ele>6.5</ele>
    <time>2020-01-23T12:58:56.000Z</time>
   </trkpt>
   <trkpt lat="-8.045335" lon="-34.88998">
    <ele>6.7</ele>
    <time>2020-01-23T12:58:57.000Z</time>
   </trkpt>
   <trkpt lat="-8.04539" lon="-34.889979">
    <ele>6.9</ele>
    <time>2020-01-23T12:58:58.000Z</time>
   </trkpt>
   <trkpt lat="-8.045448" lon="-34.889978">
    <ele>7.2</ele>
    <time>2020-01-23T12:58:59.000Z</time>
   </trkpt>
   <trkpt lat="-8.045503" lon="-34.889971">
    <ele>7.4</ele>
    <time>2020-01-23T12:59:00.000Z</time>
   </trkpt>
   <trkpt lat="-8.045568" lon="-34.889967">
    <ele>7.7</ele>
    <time>2020-01-23T12:59:01.000Z</time>
   </trkpt>
   <trkpt lat="-8.045629" lon="-34.889956">
    <ele>8</ele>
    <time>2020-01-23T12:59:02.000Z</time>
   </trkpt>
   <trkpt lat="-8.045694" lon="-34.88994">
    <ele>8.4</ele>
    <time>2020-01-23T12:59:03.000Z</time>
   </trkpt>
   <trkpt lat="-8.045756" lon="-34.889929">
    <ele>8.7</ele>
    <time>2020-01-23T12:59:04.000Z</time>
   </trkpt>
   <trkpt lat="-8.04581" lon="-34.889927">
    <ele>9.1</ele>
    <time>2020-01-23T12:59:05.000Z</time>
   </trkpt>
   <trkpt lat="-8.045858" lon="-34.889924">
    <ele>9.4</ele>
    <time>2020-01-23T12:59:06.000Z</time>
   </trkpt>
   <trkpt lat="-8.045907" lon="-34.889928">
    <ele>9.5</ele>
    <time>2020-01-23T12:59:07.000Z</time>
   </trkpt>
   <trkpt lat="-8.045945" lon="-34.889919">
    <ele>9.5</ele>
    <time>2020-01-23T12:59:08.000Z</time>
   </trkpt>
   <trkpt lat="-8.045983" lon="-34.889913">
    <ele>9.5</ele>
    <time>2020-01-23T12:59:09.000Z</time>
   </trkpt>
   <trkpt lat="-8.046014" lon="-34.889917">
    <ele>9.5</ele>
    <time>2020-01-23T12:59:10.000Z</time>
   </trkpt>
   <trkpt lat="-8.046056" lon="-34.889912">
    <ele>9.5</ele>
    <time>2020-01-23T12:59:11.000Z</time>
   </trkpt>
   <trkpt lat="-8.04609" lon="-34.88991">
    <ele>9.5</ele>
    <time>2020-01-23T12:59:12.000Z</time>
   </trkpt>
   <trkpt lat="-8.046129" lon="-34.889899">
    <ele>9.6</ele>
    <time>2020-01-23T12:59:13.000Z</time>
   </trkpt>
   <trkpt lat="-8.046178" lon="-34.889897">
    <ele>9.6</ele>
    <time>2020-01-23T12:59:14.000Z</time>
   </trkpt>
   <trkpt lat="-8.046225" lon="-34.889886">
    <ele>9.6</ele>
    <time>2020-01-23T12:59:15.000Z</time>
   </trkpt>
   <trkpt lat="-8.046275" lon="-34.889871">
    <ele>9.6</ele>
    <time>2020-01-23T12:59:16.000Z</time>
   </trkpt>
   <trkpt lat="-8.046322" lon="-34.889857">
    <ele>9.7</ele>
    <time>2020-01-23T12:59:17.000Z</time>
   </trkpt>
   <trkpt lat="-8.046364" lon="-34.88984">
    <ele>9.7</ele>
    <time>2020-01-23T12:59:18.000Z</time>
   </trkpt>
   <trkpt lat="-8.04641" lon="-34.889831">
    <ele>9.7</ele>
    <time>2020-01-23T12:59:19.000Z</time>
   </trkpt>
   <trkpt lat="-8.046461" lon="-34.889827">
    <ele>9.8</ele>
    <time>2020-01-23T12:59:20.000Z</time>
   </trkpt>
   <trkpt lat="-8.046532" lon="-34.889826">
    <ele>9.8</ele>
    <time>2020-01-23T12:59:21.000Z</time>
   </trkpt>
   <trkpt lat="-8.046612" lon="-34.889832">
    <ele>9.9</ele>
    <time>2020-01-23T12:59:22.000Z</time>
   </trkpt>
   <trkpt lat="-8.04668" lon="-34.889831">
    <ele>10.1</ele>
    <time>2020-01-23T12:59:23.000Z</time>
   </trkpt>
   <trkpt lat="-8.046751" lon="-34.889837">
    <ele>10.2</ele>
    <time>2020-01-23T12:59:24.000Z</time>
   </trkpt>
   <trkpt lat="-8.046819" lon="-34.889839">
    <ele>10.3</ele>
    <time>2020-01-23T12:59:25.000Z</time>
   </trkpt>
   <trkpt lat="-8.046887" lon="-34.889835">
    <ele>10.4</ele>
    <time>2020-01-23T12:59:26.000Z</time>
   </trkpt>
   <trkpt lat="-8.046957" lon="-34.889831">
    <ele>10.5</ele>
    <time>2020-01-23T12:59:27.000Z</time>
   </trkpt>
   <trkpt lat="-8.047026" lon="-34.889831">
    <ele>10.6</ele>
    <time>2020-01-23T12:59:28.000Z</time>
   </trkpt>
   <trkpt lat="-8.047093" lon="-34.889821">
    <ele>10.7</ele>
    <time>2020-01-23T12:59:29.000Z</time>
   </trkpt>
   <trkpt lat="-8.04716" lon="-34.889813">
    <ele>10.8</ele>
    <time>2020-01-23T12:59:30.000Z</time>
   </trkpt>
   <trkpt lat="-8.047218" lon="-34.889809">
    <ele>10.9</ele>
    <time>2020-01-23T12:59:31.000Z</time>
   </trkpt>
   <trkpt lat="-8.047273" lon="-34.889806">
    <ele>10.9</ele>
    <time>2020-01-23T12:59:32.000Z</time>
   </trkpt>
   <trkpt lat="-8.047327" lon="-34.889808">
    <ele>11</ele>
    <time>2020-01-23T12:59:33.000Z</time>
   </trkpt>
   <trkpt lat="-8.047392" lon="-34.889799">
    <ele>11</ele>
    <time>2020-01-23T12:59:34.000Z</time>
   </trkpt>
   <trkpt lat="-8.047476" lon="-34.889791">
    <ele>11.1</ele>
    <time>2020-01-23T12:59:35.000Z</time>
   </trkpt>
   <trkpt lat="-8.047546" lon="-34.889779">
    <ele>11.1</ele>
    <time>2020-01-23T12:59:36.000Z</time>
   </trkpt>
   <trkpt lat="-8.04761" lon="-34.889767">
    <ele>11.1</ele>
    <time>2020-01-23T12:59:37.000Z</time>
   </trkpt>
   <trkpt lat="-8.047672" lon="-34.889755">
    <ele>11.2</ele>
    <time>2020-01-23T12:59:38.000Z</time>
   </trkpt>
   <trkpt lat="-8.047731" lon="-34.889741">
    <ele>11.2</ele>
    <time>2020-01-23T12:59:39.000Z</time>
   </trkpt>
   <trkpt lat="-8.047783" lon="-34.889729">
    <ele>11.2</ele>
    <time>2020-01-23T12:59:40.000Z</time>
   </trkpt>
   <trkpt lat="-8.047837" lon="-34.889726">
    <ele>11.1</ele>
    <time>2020-01-23T12:59:41.000Z</time>
   </trkpt>
   <trkpt lat="-8.047882" lon="-34.889721">
    <ele>11</ele>
    <time>2020-01-23T12:59:42.000Z</time>
   </trkpt>
   <trkpt lat="-8.047935" lon="-34.889711">
    <ele>10.8</ele>
    <time>2020-01-23T12:59:43.000Z</time>
   </trkpt>
   <trkpt lat="-8.047991" lon="-34.889705">
    <ele>10.7</ele>
    <time>2020-01-23T12:59:44.000Z</time>
   </trkpt>
   <trkpt lat="-8.048053" lon="-34.889698">
    <ele>10.5</ele>
    <time>2020-01-23T12:59:45.000Z</time>
   </trkpt>
   <trkpt lat="-8.048111" lon="-34.889698">
    <ele>10.3</ele>
    <time>2020-01-23T12:59:46.000Z</time>
   </trkpt>
   <trkpt lat="-8.048166" lon="-34.889704">
    <ele>10.1</ele>
    <time>2020-01-23T12:59:47.000Z</time>
   </trkpt>
   <trkpt lat="-8.048224" lon="-34.889719">
    <ele>10.1</ele>
    <time>2020-01-23T12:59:48.000Z</time>
   </trkpt>
   <trkpt lat="-8.048278" lon="-34.889728">
    <ele>10.4</ele>
    <time>2020-01-23T12:59:49.000Z</time>
   </trkpt>
   <trkpt lat="-8.04833" lon="-34.88973">
    <ele>10.8</ele>
    <time>2020-01-23T12:59:50.000Z</time>
   </trkpt>
   <trkpt lat="-8.048383" lon="-34.889736">
    <ele>11</ele>
    <time>2020-01-23T12:59:51.000Z</time>
   </trkpt>
   <trkpt lat="-8.048433" lon="-34.889744">
    <ele>11.3</ele>
    <time>2020-01-23T12:59:52.000Z</time>
   </trkpt>
   <trkpt lat="-8.048482" lon="-34.88975">
    <ele>11.5</ele>
    <time>2020-01-23T12:59:53.000Z</time>
   </trkpt>
   <trkpt lat="-8.04853" lon="-34.88976">
    <ele>11.8</ele>
    <time>2020-01-23T12:59:54.000Z</time>
   </trkpt>
   <trkpt lat="-8.048573" lon="-34.88977">
    <ele>12</ele>
    <time>2020-01-23T12:59:55.000Z</time>
   </trkpt>
   <trkpt lat="-8.048613" lon="-34.889763">
    <ele>12.2</ele>
    <time>2020-01-23T12:59:56.000Z</time>
   </trkpt>
   <trkpt lat="-8.048645" lon="-34.889758">
    <ele>12.4</ele>
    <time>2020-01-23T12:59:57.000Z</time>
   </trkpt>
   <trkpt lat="-8.04867" lon="-34.889758">
    <ele>12.6</ele>
    <time>2020-01-23T12:59:58.000Z</time>
   </trkpt>
   <trkpt lat="-8.048719" lon="-34.889752">
    <ele>13</ele>
    <time>2020-01-23T13:00:00.000Z</time>
   </trkpt>
   <trkpt lat="-8.048795" lon="-34.889796">
    <ele>13.6</ele>
    <time>2020-01-23T13:00:02.000Z</time>
   </trkpt>
   <trkpt lat="-8.048845" lon="-34.889816">
    <ele>14.1</ele>
    <time>2020-01-23T13:00:03.000Z</time>
   </trkpt>
   <trkpt lat="-8.048891" lon="-34.889839">
    <ele>14.5</ele>
    <time>2020-01-23T13:00:04.000Z</time>
   </trkpt>
   <trkpt lat="-8.048936" lon="-34.889862">
    <ele>14.9</ele>
    <time>2020-01-23T13:00:05.000Z</time>
   </trkpt>
   <trkpt lat="-8.048987" lon="-34.889878">
    <ele>14.8</ele>
    <time>2020-01-23T13:00:06.000Z</time>
   </trkpt>
   <trkpt lat="-8.049035" lon="-34.889891">
    <ele>14.7</ele>
    <time>2020-01-23T13:00:07.000Z</time>
   </trkpt>
   <trkpt lat="-8.049072" lon="-34.889901">
    <ele>14.5</ele>
    <time>2020-01-23T13:00:08.000Z</time>
   </trkpt>
   <trkpt lat="-8.049111" lon="-34.889907">
    <ele>14.4</ele>
    <time>2020-01-23T13:00:09.000Z</time>
   </trkpt>
   <trkpt lat="-8.049159" lon="-34.889912">
    <ele>14.2</ele>
    <time>2020-01-23T13:00:10.000Z</time>
   </trkpt>
   <trkpt lat="-8.049207" lon="-34.88992">
    <ele>14.1</ele>
    <time>2020-01-23T13:00:11.000Z</time>
   </trkpt>
   <trkpt lat="-8.049261" lon="-34.889923">
    <ele>13.8</ele>
    <time>2020-01-23T13:00:12.000Z</time>
   </trkpt>
   <trkpt lat="-8.04931" lon="-34.88993">
    <ele>13.7</ele>
    <time>2020-01-23T13:00:13.000Z</time>
   </trkpt>
   <trkpt lat="-8.049361" lon="-34.889938">
    <ele>13.4</ele>
    <time>2020-01-23T13:00:14.000Z</time>
   </trkpt>
   <trkpt lat="-8.049412" lon="-34.889944">
    <ele>13.1</ele>
    <time>2020-01-23T13:00:15.000Z</time>
   </trkpt>
   <trkpt lat="-8.049478" lon="-34.889944">
    <ele>12.8</ele>
    <time>2020-01-23T13:00:16.000Z</time>
   </trkpt>
   <trkpt lat="-8.049548" lon="-34.889952">
    <ele>12.5</ele>
    <time>2020-01-23T13:00:17.000Z</time>
   </trkpt>
   <trkpt lat="-8.049601" lon="-34.889958">
    <ele>12.2</ele>
    <time>2020-01-23T13:00:18.000Z</time>
   </trkpt>
   <trkpt lat="-8.049667" lon="-34.889968">
    <ele>11.8</ele>
    <time>2020-01-23T13:00:19.000Z</time>
   </trkpt>
   <trkpt lat="-8.049743" lon="-34.889986">
    <ele>11.2</ele>
    <time>2020-01-23T13:00:20.000Z</time>
   </trkpt>
   <trkpt lat="-8.049809" lon="-34.890006">
    <ele>11.1</ele>
    <time>2020-01-23T13:00:21.000Z</time>
   </trkpt>
   <trkpt lat="-8.049873" lon="-34.890016">
    <ele>10.9</ele>
    <time>2020-01-23T13:00:22.000Z</time>
   </trkpt>
   <trkpt lat="-8.049942" lon="-34.890022">
    <ele>10.8</ele>
    <time>2020-01-23T13:00:23.000Z</time>
   </trkpt>
   <trkpt lat="-8.049992" lon="-34.890026">
    <ele>10.7</ele>
    <time>2020-01-23T13:00:24.000Z</time>
   </trkpt>
   <trkpt lat="-8.050049" lon="-34.89002">
    <ele>10.6</ele>
    <time>2020-01-23T13:00:25.000Z</time>
   </trkpt>
   <trkpt lat="-8.050101" lon="-34.890028">
    <ele>10.6</ele>
    <time>2020-01-23T13:00:26.000Z</time>
   </trkpt>
   <trkpt lat="-8.050136" lon="-34.890033">
    <ele>10.5</ele>
    <time>2020-01-23T13:00:27.000Z</time>
   </trkpt>
   <trkpt lat="-8.050164" lon="-34.890053">
    <ele>10.5</ele>
    <time>2020-01-23T13:00:28.000Z</time>
   </trkpt>
   <trkpt lat="-8.050176" lon="-34.890093">
    <ele>10.5</ele>
    <time>2020-01-23T13:00:29.000Z</time>
   </trkpt>
   <trkpt lat="-8.050174" lon="-34.890137">
    <ele>10.5</ele>
    <time>2020-01-23T13:00:30.000Z</time>
   </trkpt>
   <trkpt lat="-8.05016" lon="-34.89018">
    <ele>10.5</ele>
    <time>2020-01-23T13:00:31.000Z</time>
   </trkpt>
   <trkpt lat="-8.05015" lon="-34.890214">
    <ele>10.5</ele>
    <time>2020-01-23T13:00:32.000Z</time>
   </trkpt>
   <trkpt lat="-8.050151" lon="-34.89026">
    <ele>10.5</ele>
    <time>2020-01-23T13:00:33.000Z</time>
   </trkpt>
   <trkpt lat="-8.050137" lon="-34.890309">
    <ele>10.5</ele>
    <time>2020-01-23T13:00:34.000Z</time>
   </trkpt>
   <trkpt lat="-8.050126" lon="-34.890361">
    <ele>10.5</ele>
    <time>2020-01-23T13:00:35.000Z</time>
   </trkpt>
   <trkpt lat="-8.050119" lon="-34.890413">
    <ele>10.5</ele>
    <time>2020-01-23T13:00:36.000Z</time>
   </trkpt>
   <trkpt lat="-8.050119" lon="-34.890472">
    <ele>10.5</ele>
    <time>2020-01-23T13:00:37.000Z</time>
   </trkpt>
   <trkpt lat="-8.050107" lon="-34.89052">
    <ele>10.5</ele>
    <time>2020-01-23T13:00:38.000Z</time>
   </trkpt>
   <trkpt lat="-8.050093" lon="-34.89057">
    <ele>10.5</ele>
    <time>2020-01-23T13:00:39.000Z</time>
   </trkpt>
   <trkpt lat="-8.050085" lon="-34.890628">
    <ele>10.5</ele>
    <time>2020-01-23T13:00:40.000Z</time>
   </trkpt>
   <trkpt lat="-8.050074" lon="-34.890694">
    <ele>10.5</ele>
    <time>2020-01-23T13:00:41.000Z</time>
   </trkpt>
   <trkpt lat="-8.050062" lon="-34.890755">
    <ele>10.6</ele>
    <time>2020-01-23T13:00:42.000Z</time>
   </trkpt>
   <trkpt lat="-8.050065" lon="-34.890827">
    <ele>10.6</ele>
    <time>2020-01-23T13:00:43.000Z</time>
   </trkpt>
   <trkpt lat="-8.050061" lon="-34.890896">
    <ele>10.6</ele>
    <time>2020-01-23T13:00:44.000Z</time>
   </trkpt>
   <trkpt lat="-8.050053" lon="-34.890966">
    <ele>10.6</ele>
    <time>2020-01-23T13:00:45.000Z</time>
   </trkpt>
   <trkpt lat="-8.050054" lon="-34.891036">
    <ele>10.6</ele>
    <time>2020-01-23T13:00:46.000Z</time>
   </trkpt>
   <trkpt lat="-8.050053" lon="-34.89109">
    <ele>10.6</ele>
    <time>2020-01-23T13:00:47.000Z</time>
   </trkpt>
   <trkpt lat="-8.050045" lon="-34.891143">
    <ele>10.6</ele>
    <time>2020-01-23T13:00:48.000Z</time>
   </trkpt>
   <trkpt lat="-8.050032" lon="-34.891203">
    <ele>10.6</ele>
    <time>2020-01-23T13:00:49.000Z</time>
   </trkpt>
   <trkpt lat="-8.050021" lon="-34.891263">
    <ele>10.6</ele>
    <time>2020-01-23T13:00:50.000Z</time>
   </trkpt>
   <trkpt lat="-8.050006" lon="-34.891329">
    <ele>10.6</ele>
    <time>2020-01-23T13:00:51.000Z</time>
   </trkpt>
   <trkpt lat="-8.049998" lon="-34.891398">
    <ele>10.6</ele>
    <time>2020-01-23T13:00:52.000Z</time>
   </trkpt>
   <trkpt lat="-8.04998" lon="-34.891472">
    <ele>10.6</ele>
    <time>2020-01-23T13:00:54.000Z</time>
   </trkpt>
   <trkpt lat="-8.049971" lon="-34.89154">
    <ele>10.6</ele>
    <time>2020-01-23T13:00:55.000Z</time>
   </trkpt>
   <trkpt lat="-8.049964" lon="-34.891606">
    <ele>10.6</ele>
    <time>2020-01-23T13:00:56.000Z</time>
   </trkpt>
   <trkpt lat="-8.049962" lon="-34.891683">
    <ele>10.7</ele>
    <time>2020-01-23T13:00:57.000Z</time>
   </trkpt>
   <trkpt lat="-8.049964" lon="-34.891748">
    <ele>10.8</ele>
    <time>2020-01-23T13:00:58.000Z</time>
   </trkpt>
   <trkpt lat="-8.049963" lon="-34.891848">
    <ele>11.1</ele>
    <time>2020-01-23T13:00:59.000Z</time>
   </trkpt>
   <trkpt lat="-8.049957" lon="-34.891931">
    <ele>11.5</ele>
    <time>2020-01-23T13:01:00.000Z</time>
   </trkpt>
   <trkpt lat="-8.049951" lon="-34.89201">
    <ele>11.9</ele>
    <time>2020-01-23T13:01:01.000Z</time>
   </trkpt>
   <trkpt lat="-8.049939" lon="-34.892063">
    <ele>12.2</ele>
    <time>2020-01-23T13:01:02.000Z</time>
   </trkpt>
   <trkpt lat="-8.049916" lon="-34.892117">
    <ele>12.4</ele>
    <time>2020-01-23T13:01:03.000Z</time>
   </trkpt>
   <trkpt lat="-8.049892" lon="-34.892167">
    <ele>12.5</ele>
    <time>2020-01-23T13:01:04.000Z</time>
   </trkpt>
   <trkpt lat="-8.049857" lon="-34.892214">
    <ele>12.6</ele>
    <time>2020-01-23T13:01:05.000Z</time>
   </trkpt>
   <trkpt lat="-8.049822" lon="-34.89226">
    <ele>12.6</ele>
    <time>2020-01-23T13:01:06.000Z</time>
   </trkpt>
   <trkpt lat="-8.049793" lon="-34.892309">
    <ele>12.7</ele>
    <time>2020-01-23T13:01:07.000Z</time>
   </trkpt>
   <trkpt lat="-8.049757" lon="-34.892354">
    <ele>12.7</ele>
    <time>2020-01-23T13:01:08.000Z</time>
   </trkpt>
   <trkpt lat="-8.049716" lon="-34.8924">
    <ele>12.7</ele>
    <time>2020-01-23T13:01:09.000Z</time>
   </trkpt>
   <trkpt lat="-8.049679" lon="-34.892446">
    <ele>12.7</ele>
    <time>2020-01-23T13:01:10.000Z</time>
   </trkpt>
   <trkpt lat="-8.049642" lon="-34.892496">
    <ele>12.7</ele>
    <time>2020-01-23T13:01:11.000Z</time>
   </trkpt>
   <trkpt lat="-8.049601" lon="-34.892552">
    <ele>12.7</ele>
    <time>2020-01-23T13:01:12.000Z</time>
   </trkpt>
   <trkpt lat="-8.049565" lon="-34.892589">
    <ele>12.7</ele>
    <time>2020-01-23T13:01:13.000Z</time>
   </trkpt>
   <trkpt lat="-8.049534" lon="-34.892622">
    <ele>12.7</ele>
    <time>2020-01-23T13:01:14.000Z</time>
   </trkpt>
   <trkpt lat="-8.049492" lon="-34.892655">
    <ele>12.7</ele>
    <time>2020-01-23T13:01:15.000Z</time>
   </trkpt>
   <trkpt lat="-8.049457" lon="-34.892691">
    <ele>12.7</ele>
    <time>2020-01-23T13:01:16.000Z</time>
   </trkpt>
   <trkpt lat="-8.049416" lon="-34.892732">
    <ele>12.7</ele>
    <time>2020-01-23T13:01:17.000Z</time>
   </trkpt>
   <trkpt lat="-8.04938" lon="-34.892782">
    <ele>12.2</ele>
    <time>2020-01-23T13:01:18.000Z</time>
   </trkpt>
   <trkpt lat="-8.049354" lon="-34.892824">
    <ele>11.8</ele>
    <time>2020-01-23T13:01:19.000Z</time>
   </trkpt>
   <trkpt lat="-8.049334" lon="-34.89284">
    <ele>11.5</ele>
    <time>2020-01-23T13:01:20.000Z</time>
   </trkpt>
   <trkpt lat="-8.049353" lon="-34.892853">
    <ele>11.3</ele>
    <time>2020-01-23T13:01:22.000Z</time>
   </trkpt>
   <trkpt lat="-8.049419" lon="-34.892893">
    <ele>10.9</ele>
    <time>2020-01-23T13:01:24.000Z</time>
   </trkpt>
   <trkpt lat="-8.049461" lon="-34.892914">
    <ele>11</ele>
    <time>2020-01-23T13:01:25.000Z</time>
   </trkpt>
   <trkpt lat="-8.049516" lon="-34.892944">
    <ele>11.2</ele>
    <time>2020-01-23T13:01:26.000Z</time>
   </trkpt>
   <trkpt lat="-8.04957" lon="-34.892961">
    <ele>11.4</ele>
    <time>2020-01-23T13:01:27.000Z</time>
   </trkpt>
   <trkpt lat="-8.049617" lon="-34.892989">
    <ele>11.7</ele>
    <time>2020-01-23T13:01:28.000Z</time>
   </trkpt>
   <trkpt lat="-8.049662" lon="-34.893012">
    <ele>11.9</ele>
    <time>2020-01-23T13:01:29.000Z</time>
   </trkpt>
   <trkpt lat="-8.049728" lon="-34.893068">
    <ele>12.2</ele>
    <time>2020-01-23T13:01:30.000Z</time>
   </trkpt>
   <trkpt lat="-8.04978" lon="-34.893083">
    <ele>12.4</ele>
    <time>2020-01-23T13:01:31.000Z</time>
   </trkpt>
   <trkpt lat="-8.049825" lon="-34.893105">
    <ele>12.6</ele>
    <time>2020-01-23T13:01:32.000Z</time>
   </trkpt>
   <trkpt lat="-8.04987" lon="-34.893121">
    <ele>12.3</ele>
    <time>2020-01-23T13:01:33.000Z</time>
   </trkpt>
   <trkpt lat="-8.049917" lon="-34.893131">
    <ele>11.7</ele>
    <time>2020-01-23T13:01:34.000Z</time>
   </trkpt>
   <trkpt lat="-8.049961" lon="-34.893132">
    <ele>11.2</ele>
    <time>2020-01-23T13:01:35.000Z</time>
   </trkpt>
   <trkpt lat="-8.050005" lon="-34.893137">
    <ele>10.7</ele>
    <time>2020-01-23T13:01:36.000Z</time>
   </trkpt>
   <trkpt lat="-8.050054" lon="-34.893146">
    <ele>10.2</ele>
    <time>2020-01-23T13:01:37.000Z</time>
   </trkpt>
   <trkpt lat="-8.050117" lon="-34.893155">
    <ele>9.3</ele>
    <time>2020-01-23T13:01:38.000Z</time>
   </trkpt>
   <trkpt lat="-8.050173" lon="-34.893161">
    <ele>9.1</ele>
    <time>2020-01-23T13:01:39.000Z</time>
   </trkpt>
   <trkpt lat="-8.050217" lon="-34.893183">
    <ele>9</ele>
    <time>2020-01-23T13:01:40.000Z</time>
   </trkpt>
   <trkpt lat="-8.050259" lon="-34.893217">
    <ele>8.8</ele>
    <time>2020-01-23T13:01:41.000Z</time>
   </trkpt>
   <trkpt lat="-8.05031" lon="-34.893249">
    <ele>8.6</ele>
    <time>2020-01-23T13:01:42.000Z</time>
   </trkpt>
   <trkpt lat="-8.050362" lon="-34.893266">
    <ele>8.4</ele>
    <time>2020-01-23T13:01:43.000Z</time>
   </trkpt>
   <trkpt lat="-8.050455" lon="-34.893296">
    <ele>8</ele>
    <time>2020-01-23T13:01:44.000Z</time>
   </trkpt>
   <trkpt lat="-8.050535" lon="-34.89333">
    <ele>7.7</ele>
    <time>2020-01-23T13:01:45.000Z</time>
   </trkpt>
   <trkpt lat="-8.050611" lon="-34.893364">
    <ele>7.6</ele>
    <time>2020-01-23T13:01:46.000Z</time>
   </trkpt>
   <trkpt lat="-8.050687" lon="-34.893446">
    <ele>7.5</ele>
    <time>2020-01-23T13:01:47.000Z</time>
   </trkpt>
   <trkpt lat="-8.050748" lon="-34.893471">
    <ele>7.5</ele>
    <time>2020-01-23T13:01:48.000Z</time>
   </trkpt>
   <trkpt lat="-8.050805" lon="-34.893495">
    <ele>7.5</ele>
    <time>2020-01-23T13:01:49.000Z</time>
   </trkpt>
   <trkpt lat="-8.050874" lon="-34.89352">
    <ele>7.5</ele>
    <time>2020-01-23T13:01:50.000Z</time>
   </trkpt>
   <trkpt lat="-8.050923" lon="-34.893542">
    <ele>7.5</ele>
    <time>2020-01-23T13:01:51.000Z</time>
   </trkpt>
   <trkpt lat="-8.050993" lon="-34.893569">
    <ele>7.5</ele>
    <time>2020-01-23T13:01:52.000Z</time>
   </trkpt>
   <trkpt lat="-8.051044" lon="-34.893604">
    <ele>7.6</ele>
    <time>2020-01-23T13:01:53.000Z</time>
   </trkpt>
   <trkpt lat="-8.051104" lon="-34.893632">
    <ele>7.6</ele>
    <time>2020-01-23T13:01:54.000Z</time>
   </trkpt>
   <trkpt lat="-8.051168" lon="-34.893661">
    <ele>7.6</ele>
    <time>2020-01-23T13:01:55.000Z</time>
   </trkpt>
   <trkpt lat="-8.051234" lon="-34.893673">
    <ele>7.6</ele>
    <time>2020-01-23T13:01:56.000Z</time>
   </trkpt>
   <trkpt lat="-8.0513" lon="-34.893691">
    <ele>7.6</ele>
    <time>2020-01-23T13:01:57.000Z</time>
   </trkpt>
   <trkpt lat="-8.051361" lon="-34.893718">
    <ele>7.7</ele>
    <time>2020-01-23T13:01:58.000Z</time>
   </trkpt>
   <trkpt lat="-8.051416" lon="-34.893761">
    <ele>7.7</ele>
    <time>2020-01-23T13:01:59.000Z</time>
   </trkpt>
   <trkpt lat="-8.05147" lon="-34.893789">
    <ele>7.7</ele>
    <time>2020-01-23T13:02:00.000Z</time>
   </trkpt>
   <trkpt lat="-8.051518" lon="-34.893813">
    <ele>7.7</ele>
    <time>2020-01-23T13:02:01.000Z</time>
   </trkpt>
   <trkpt lat="-8.05157" lon="-34.893842">
    <ele>8.2</ele>
    <time>2020-01-23T13:02:02.000Z</time>
   </trkpt>
   <trkpt lat="-8.051618" lon="-34.893866">
    <ele>8.9</ele>
    <time>2020-01-23T13:02:03.000Z</time>
   </trkpt>
   <trkpt lat="-8.051661" lon="-34.893868">
    <ele>9.5</ele>
    <time>2020-01-23T13:02:04.000Z</time>
   </trkpt>
   <trkpt lat="-8.051694" lon="-34.893869">
    <ele>9.9</ele>
    <time>2020-01-23T13:02:05.000Z</time>
   </trkpt>
   <trkpt lat="-8.051705" lon="-34.893859">
    <ele>10.1</ele>
    <time>2020-01-23T13:02:06.000Z</time>
   </trkpt>
   <trkpt lat="-8.05173" lon="-34.893808">
    <ele>10.9</ele>
    <time>2020-01-23T13:02:08.000Z</time>
   </trkpt>
   <trkpt lat="-8.051755" lon="-34.893746">
    <ele>12.7</ele>
    <time>2020-01-23T13:02:10.000Z</time>
   </trkpt>
   <trkpt lat="-8.051773" lon="-34.89369">
    <ele>12.7</ele>
    <time>2020-01-23T13:02:11.000Z</time>
   </trkpt>
   <trkpt lat="-8.05179" lon="-34.893648">
    <ele>12.7</ele>
    <time>2020-01-23T13:02:12.000Z</time>
   </trkpt>
   <trkpt lat="-8.051807" lon="-34.893603">
    <ele>12.7</ele>
    <time>2020-01-23T13:02:13.000Z</time>
   </trkpt>
   <trkpt lat="-8.05182" lon="-34.893557">
    <ele>12.6</ele>
    <time>2020-01-23T13:02:14.000Z</time>
   </trkpt>
   <trkpt lat="-8.051834" lon="-34.893505">
    <ele>12.6</ele>
    <time>2020-01-23T13:02:15.000Z</time>
   </trkpt>
   <trkpt lat="-8.051854" lon="-34.893472">
    <ele>12.6</ele>
    <time>2020-01-23T13:02:16.000Z</time>
   </trkpt>
   <trkpt lat="-8.051877" lon="-34.893453">
    <ele>12.6</ele>
    <time>2020-01-23T13:02:17.000Z</time>
   </trkpt>
   <trkpt lat="-8.051888" lon="-34.89343">
    <ele>12.6</ele>
    <time>2020-01-23T13:02:18.000Z</time>
   </trkpt>
   <trkpt lat="-8.0519" lon="-34.89336">
    <ele>12.5</ele>
    <time>2020-01-23T13:02:20.000Z</time>
   </trkpt>
   <trkpt lat="-8.051915" lon="-34.893307">
    <ele>12.2</ele>
    <time>2020-01-23T13:02:21.000Z</time>
   </trkpt>
   <trkpt lat="-8.051937" lon="-34.89328">
    <ele>12</ele>
    <time>2020-01-23T13:02:22.000Z</time>
   </trkpt>
   <trkpt lat="-8.051956" lon="-34.893259">
    <ele>11.8</ele>
    <time>2020-01-23T13:02:23.000Z</time>
   </trkpt>
   <trkpt lat="-8.051962" lon="-34.893247">
    <ele>11.8</ele>
    <time>2020-01-23T13:02:24.000Z</time>
   </trkpt>
   <trkpt lat="-8.051997" lon="-34.893177">
    <ele>11.2</ele>
    <time>2020-01-23T13:02:26.000Z</time>
   </trkpt>
   <trkpt lat="-8.052016" lon="-34.893148">
    <ele>11</ele>
    <time>2020-01-23T13:02:27.000Z</time>
   </trkpt>
   <trkpt lat="-8.052034" lon="-34.893106">
    <ele>10.8</ele>
    <time>2020-01-23T13:02:28.000Z</time>
   </trkpt>
   <trkpt lat="-8.052064" lon="-34.893057">
    <ele>10.5</ele>
    <time>2020-01-23T13:02:29.000Z</time>
   </trkpt>
   <trkpt lat="-8.052086" lon="-34.892988">
    <ele>10.2</ele>
    <time>2020-01-23T13:02:30.000Z</time>
   </trkpt>
   <trkpt lat="-8.052106" lon="-34.892929">
    <ele>10.1</ele>
    <time>2020-01-23T13:02:31.000Z</time>
   </trkpt>
   <trkpt lat="-8.052119" lon="-34.892878">
    <ele>9.9</ele>
    <time>2020-01-23T13:02:32.000Z</time>
   </trkpt>
   <trkpt lat="-8.052131" lon="-34.892836">
    <ele>9.8</ele>
    <time>2020-01-23T13:02:33.000Z</time>
   </trkpt>
   <trkpt lat="-8.052154" lon="-34.892812">
    <ele>9.7</ele>
    <time>2020-01-23T13:02:34.000Z</time>
   </trkpt>
   <trkpt lat="-8.052178" lon="-34.892799">
    <ele>9.6</ele>
    <time>2020-01-23T13:02:35.000Z</time>
   </trkpt>
   <trkpt lat="-8.052188" lon="-34.892782">
    <ele>9.5</ele>
    <time>2020-01-23T13:02:36.000Z</time>
   </trkpt>
   <trkpt lat="-8.052226" lon="-34.892663">
    <ele>8.9</ele>
    <time>2020-01-23T13:02:38.000Z</time>
   </trkpt>
   <trkpt lat="-8.052241" lon="-34.892617">
    <ele>8.6</ele>
    <time>2020-01-23T13:02:39.000Z</time>
   </trkpt>
   <trkpt lat="-8.052255" lon="-34.892578">
    <ele>8.8</ele>
    <time>2020-01-23T13:02:40.000Z</time>
   </trkpt>
   <trkpt lat="-8.052269" lon="-34.892548">
    <ele>9</ele>
    <time>2020-01-23T13:02:41.000Z</time>
   </trkpt>
   <trkpt lat="-8.052297" lon="-34.892507">
    <ele>9.2</ele>
    <time>2020-01-23T13:02:42.000Z</time>
   </trkpt>
   <trkpt lat="-8.052317" lon="-34.89246">
    <ele>9.5</ele>
    <time>2020-01-23T13:02:43.000Z</time>
   </trkpt>
   <trkpt lat="-8.052338" lon="-34.892419">
    <ele>9.7</ele>
    <time>2020-01-23T13:02:44.000Z</time>
   </trkpt>
   <trkpt lat="-8.05237" lon="-34.892378">
    <ele>10</ele>
    <time>2020-01-23T13:02:45.000Z</time>
   </trkpt>
   <trkpt lat="-8.052408" lon="-34.892346">
    <ele>10.3</ele>
    <time>2020-01-23T13:02:46.000Z</time>
   </trkpt>
   <trkpt lat="-8.052442" lon="-34.892314">
    <ele>10.6</ele>
    <time>2020-01-23T13:02:47.000Z</time>
   </trkpt>
   <trkpt lat="-8.052477" lon="-34.892283">
    <ele>10.8</ele>
    <time>2020-01-23T13:02:48.000Z</time>
   </trkpt>
   <trkpt lat="-8.05251" lon="-34.892253">
    <ele>11.2</ele>
    <time>2020-01-23T13:02:49.000Z</time>
   </trkpt>
   <trkpt lat="-8.05254" lon="-34.892224">
    <ele>11.5</ele>
    <time>2020-01-23T13:02:50.000Z</time>
   </trkpt>
   <trkpt lat="-8.052582" lon="-34.892197">
    <ele>11.4</ele>
    <time>2020-01-23T13:02:51.000Z</time>
   </trkpt>
   <trkpt lat="-8.052617" lon="-34.892173">
    <ele>11.3</ele>
    <time>2020-01-23T13:02:52.000Z</time>
   </trkpt>
   <trkpt lat="-8.052649" lon="-34.892132">
    <ele>11.1</ele>
    <time>2020-01-23T13:02:53.000Z</time>
   </trkpt>
   <trkpt lat="-8.052678" lon="-34.892104">
    <ele>10.9</ele>
    <time>2020-01-23T13:02:54.000Z</time>
   </trkpt>
   <trkpt lat="-8.052704" lon="-34.892078">
    <ele>10.8</ele>
    <time>2020-01-23T13:02:55.000Z</time>
   </trkpt>
   <trkpt lat="-8.052736" lon="-34.892044">
    <ele>10.6</ele>
    <time>2020-01-23T13:02:56.000Z</time>
   </trkpt>
   <trkpt lat="-8.052775" lon="-34.892013">
    <ele>10.3</ele>
    <time>2020-01-23T13:02:57.000Z</time>
   </trkpt>
   <trkpt lat="-8.052809" lon="-34.891984">
    <ele>10</ele>
    <time>2020-01-23T13:02:58.000Z</time>
   </trkpt>
   <trkpt lat="-8.052869" lon="-34.891997">
    <ele>9.7</ele>
    <time>2020-01-23T13:02:59.000Z</time>
   </trkpt>
   <trkpt lat="-8.052916" lon="-34.891986">
    <ele>9.4</ele>
    <time>2020-01-23T13:03:00.000Z</time>
   </trkpt>
   <trkpt lat="-8.052957" lon="-34.891957">
    <ele>8.9</ele>
    <time>2020-01-23T13:03:01.000Z</time>
   </trkpt>
   <trkpt lat="-8.052992" lon="-34.891926">
    <ele>8.9</ele>
    <time>2020-01-23T13:03:02.000Z</time>
   </trkpt>
   <trkpt lat="-8.053034" lon="-34.891902">
    <ele>9</ele>
    <time>2020-01-23T13:03:03.000Z</time>
   </trkpt>
   <trkpt lat="-8.053083" lon="-34.891881">
    <ele>9</ele>
    <time>2020-01-23T13:03:04.000Z</time>
   </trkpt>
   <trkpt lat="-8.053137" lon="-34.891858">
    <ele>9</ele>
    <time>2020-01-23T13:03:05.000Z</time>
   </trkpt>
   <trkpt lat="-8.053198" lon="-34.891839">
    <ele>9.1</ele>
    <time>2020-01-23T13:03:06.000Z</time>
   </trkpt>
   <trkpt lat="-8.053253" lon="-34.891817">
    <ele>9.1</ele>
    <time>2020-01-23T13:03:07.000Z</time>
   </trkpt>
   <trkpt lat="-8.053305" lon="-34.891798">
    <ele>9.1</ele>
    <time>2020-01-23T13:03:08.000Z</time>
   </trkpt>
   <trkpt lat="-8.053356" lon="-34.891779">
    <ele>9.1</ele>
    <time>2020-01-23T13:03:09.000Z</time>
   </trkpt>
   <trkpt lat="-8.053406" lon="-34.891763">
    <ele>9.3</ele>
    <time>2020-01-23T13:03:10.000Z</time>
   </trkpt>
   <trkpt lat="-8.053452" lon="-34.891747">
    <ele>9.6</ele>
    <time>2020-01-23T13:03:11.000Z</time>
   </trkpt>
   <trkpt lat="-8.053518" lon="-34.891736">
    <ele>10</ele>
    <time>2020-01-23T13:03:12.000Z</time>
   </trkpt>
   <trkpt lat="-8.053574" lon="-34.891697">
    <ele>10.4</ele>
    <time>2020-01-23T13:03:13.000Z</time>
   </trkpt>
   <trkpt lat="-8.053606" lon="-34.891668">
    <ele>10.6</ele>
    <time>2020-01-23T13:03:14.000Z</time>
   </trkpt>
   <trkpt lat="-8.053648" lon="-34.891633">
    <ele>10.8</ele>
    <time>2020-01-23T13:03:15.000Z</time>
   </trkpt>
   <trkpt lat="-8.05368" lon="-34.891609">
    <ele>11</ele>
    <time>2020-01-23T13:03:16.000Z</time>
   </trkpt>
   <trkpt lat="-8.05373" lon="-34.891588">
    <ele>11.2</ele>
    <time>2020-01-23T13:03:17.000Z</time>
   </trkpt>
   <trkpt lat="-8.053792" lon="-34.891588">
    <ele>11.4</ele>
    <time>2020-01-23T13:03:18.000Z</time>
   </trkpt>
   <trkpt lat="-8.053827" lon="-34.891575">
    <ele>11.4</ele>
    <time>2020-01-23T13:03:19.000Z</time>
   </trkpt>
   <trkpt lat="-8.053875" lon="-34.891552">
    <ele>11.5</ele>
    <time>2020-01-23T13:03:20.000Z</time>
   </trkpt>
   <trkpt lat="-8.053911" lon="-34.891525">
    <ele>11.5</ele>
    <time>2020-01-23T13:03:21.000Z</time>
   </trkpt>
   <trkpt lat="-8.053948" lon="-34.891499">
    <ele>11.6</ele>
    <time>2020-01-23T13:03:22.000Z</time>
   </trkpt>
   <trkpt lat="-8.05399" lon="-34.891461">
    <ele>11.6</ele>
    <time>2020-01-23T13:03:23.000Z</time>
   </trkpt>
   <trkpt lat="-8.054024" lon="-34.891435">
    <ele>11.7</ele>
    <time>2020-01-23T13:03:24.000Z</time>
   </trkpt>
   <trkpt lat="-8.054061" lon="-34.891403">
    <ele>11.7</ele>
    <time>2020-01-23T13:03:25.000Z</time>
   </trkpt>
   <trkpt lat="-8.054099" lon="-34.891373">
    <ele>11.8</ele>
    <time>2020-01-23T13:03:26.000Z</time>
   </trkpt>
   <trkpt lat="-8.054148" lon="-34.89134">
    <ele>11.9</ele>
    <time>2020-01-23T13:03:27.000Z</time>
   </trkpt>
   <trkpt lat="-8.054184" lon="-34.89132">
    <ele>11.9</ele>
    <time>2020-01-23T13:03:28.000Z</time>
   </trkpt>
   <trkpt lat="-8.054227" lon="-34.891294">
    <ele>12</ele>
    <time>2020-01-23T13:03:29.000Z</time>
   </trkpt>
   <trkpt lat="-8.054268" lon="-34.891276">
    <ele>12</ele>
    <time>2020-01-23T13:03:30.000Z</time>
   </trkpt>
   <trkpt lat="-8.05431" lon="-34.891247">
    <ele>12.1</ele>
    <time>2020-01-23T13:03:31.000Z</time>
   </trkpt>
   <trkpt lat="-8.05435" lon="-34.891256">
    <ele>12.1</ele>
    <time>2020-01-23T13:03:32.000Z</time>
   </trkpt>
   <trkpt lat="-8.054381" lon="-34.891256">
    <ele>12.1</ele>
    <time>2020-01-23T13:03:33.000Z</time>
   </trkpt>
   <trkpt lat="-8.054433" lon="-34.891253">
    <ele>12.2</ele>
    <time>2020-01-23T13:03:34.000Z</time>
   </trkpt>
   <trkpt lat="-8.05444" lon="-34.891254">
    <ele>12.2</ele>
    <time>2020-01-23T13:03:35.000Z</time>
   </trkpt>
   <trkpt lat="-8.05449" lon="-34.891261">
    <ele>12.2</ele>
    <time>2020-01-23T13:03:37.000Z</time>
   </trkpt>
   <trkpt lat="-8.054493" lon="-34.891218">
    <ele>12.2</ele>
    <time>2020-01-23T13:03:39.000Z</time>
   </trkpt>
   <trkpt lat="-8.054536" lon="-34.891232">
    <ele>12.3</ele>
    <time>2020-01-23T13:03:41.000Z</time>
   </trkpt>
   <trkpt lat="-8.05456" lon="-34.891242">
    <ele>12.3</ele>
    <time>2020-01-23T13:03:42.000Z</time>
   </trkpt>
   <trkpt lat="-8.054565" lon="-34.891267">
    <ele>12.3</ele>
    <time>2020-01-23T13:03:44.000Z</time>
   </trkpt>
   <trkpt lat="-8.054576" lon="-34.891307">
    <ele>12.4</ele>
    <time>2020-01-23T13:03:46.000Z</time>
   </trkpt>
   <trkpt lat="-8.054618" lon="-34.89134">
    <ele>12.5</ele>
    <time>2020-01-23T13:03:48.000Z</time>
   </trkpt>
   <trkpt lat="-8.054666" lon="-34.891364">
    <ele>12.5</ele>
    <time>2020-01-23T13:03:50.000Z</time>
   </trkpt>
   <trkpt lat="-8.054726" lon="-34.89144">
    <ele>12.7</ele>
    <time>2020-01-23T13:03:56.000Z</time>
   </trkpt>
   <trkpt lat="-8.054783" lon="-34.891461">
    <ele>12.7</ele>
    <time>2020-01-23T13:03:58.000Z</time>
   </trkpt>
   <trkpt lat="-8.054822" lon="-34.891477">
    <ele>12.8</ele>
    <time>2020-01-23T13:03:59.000Z</time>
   </trkpt>
   <trkpt lat="-8.054854" lon="-34.891494">
    <ele>12.8</ele>
    <time>2020-01-23T13:04:00.000Z</time>
   </trkpt>
   <trkpt lat="-8.054893" lon="-34.891515">
    <ele>12.9</ele>
    <time>2020-01-23T13:04:01.000Z</time>
   </trkpt>
   <trkpt lat="-8.054936" lon="-34.891541">
    <ele>12.9</ele>
    <time>2020-01-23T13:04:02.000Z</time>
   </trkpt>
   <trkpt lat="-8.054972" lon="-34.891562">
    <ele>12.9</ele>
    <time>2020-01-23T13:04:03.000Z</time>
   </trkpt>
   <trkpt lat="-8.055002" lon="-34.891584">
    <ele>12.9</ele>
    <time>2020-01-23T13:04:04.000Z</time>
   </trkpt>
   <trkpt lat="-8.055026" lon="-34.891612">
    <ele>13</ele>
    <time>2020-01-23T13:04:05.000Z</time>
   </trkpt>
   <trkpt lat="-8.055055" lon="-34.891646">
    <ele>13</ele>
    <time>2020-01-23T13:04:06.000Z</time>
   </trkpt>
   <trkpt lat="-8.055084" lon="-34.891678">
    <ele>13</ele>
    <time>2020-01-23T13:04:07.000Z</time>
   </trkpt>
   <trkpt lat="-8.055105" lon="-34.891684">
    <ele>13.1</ele>
    <time>2020-01-23T13:04:08.000Z</time>
   </trkpt>
   <trkpt lat="-8.055154" lon="-34.891721">
    <ele>13.1</ele>
    <time>2020-01-23T13:04:10.000Z</time>
   </trkpt>
   <trkpt lat="-8.055193" lon="-34.891746">
    <ele>13.1</ele>
    <time>2020-01-23T13:04:11.000Z</time>
   </trkpt>
   <trkpt lat="-8.05523" lon="-34.891765">
    <ele>13.2</ele>
    <time>2020-01-23T13:04:12.000Z</time>
   </trkpt>
   <trkpt lat="-8.055261" lon="-34.891787">
    <ele>13.2</ele>
    <time>2020-01-23T13:04:13.000Z</time>
   </trkpt>
   <trkpt lat="-8.055308" lon="-34.891814">
    <ele>13.3</ele>
    <time>2020-01-23T13:04:14.000Z</time>
   </trkpt>
   <trkpt lat="-8.055352" lon="-34.891838">
    <ele>13.3</ele>
    <time>2020-01-23T13:04:15.000Z</time>
   </trkpt>
   <trkpt lat="-8.055378" lon="-34.891859">
    <ele>13.3</ele>
    <time>2020-01-23T13:04:16.000Z</time>
   </trkpt>
   <trkpt lat="-8.0554" lon="-34.891875">
    <ele>13.4</ele>
    <time>2020-01-23T13:04:17.000Z</time>
   </trkpt>
   <trkpt lat="-8.055423" lon="-34.891891">
    <ele>13.4</ele>
    <time>2020-01-23T13:04:19.000Z</time>
   </trkpt>
   <trkpt lat="-8.055437" lon="-34.8919">
    <ele>13.4</ele>
    <time>2020-01-23T13:04:22.000Z</time>
   </trkpt>
   <trkpt lat="-8.055483" lon="-34.891946">
    <ele>13.5</ele>
    <time>2020-01-23T13:04:25.000Z</time>
   </trkpt>
   <trkpt lat="-8.055502" lon="-34.891957">
    <ele>13.5</ele>
    <time>2020-01-23T13:04:26.000Z</time>
   </trkpt>
   <trkpt lat="-8.055551" lon="-34.891986">
    <ele>13.6</ele>
    <time>2020-01-23T13:04:28.000Z</time>
   </trkpt>
   <trkpt lat="-8.055578" lon="-34.892016">
    <ele>13.7</ele>
    <time>2020-01-23T13:04:30.000Z</time>
   </trkpt>
   <trkpt lat="-8.055595" lon="-34.892019">
    <ele>13.7</ele>
    <time>2020-01-23T13:04:33.000Z</time>
   </trkpt>
   <trkpt lat="-8.055654" lon="-34.89204">
    <ele>13.8</ele>
    <time>2020-01-23T13:04:35.000Z</time>
   </trkpt>
   <trkpt lat="-8.05568" lon="-34.892055">
    <ele>13.8</ele>
    <time>2020-01-23T13:04:36.000Z</time>
   </trkpt>
   <trkpt lat="-8.055704" lon="-34.892066">
    <ele>13.8</ele>
    <time>2020-01-23T13:04:37.000Z</time>
   </trkpt>
   <trkpt lat="-8.055739" lon="-34.892073">
    <ele>13.9</ele>
    <time>2020-01-23T13:04:39.000Z</time>
   </trkpt>
   <trkpt lat="-8.055769" lon="-34.892094">
    <ele>13.6</ele>
    <time>2020-01-23T13:04:41.000Z</time>
   </trkpt>
   <trkpt lat="-8.05582" lon="-34.892145">
    <ele>13.1</ele>
    <time>2020-01-23T13:04:43.000Z</time>
   </trkpt>
   <trkpt lat="-8.055843" lon="-34.892169">
    <ele>12.9</ele>
    <time>2020-01-23T13:04:46.000Z</time>
   </trkpt>
   <trkpt lat="-8.055867" lon="-34.892194">
    <ele>12.7</ele>
    <time>2020-01-23T13:04:48.000Z</time>
   </trkpt>
   <trkpt lat="-8.055891" lon="-34.892219">
    <ele>12.5</ele>
    <time>2020-01-23T13:04:52.000Z</time>
   </trkpt>
   <trkpt lat="-8.055915" lon="-34.892244">
    <ele>12.3</ele>
    <time>2020-01-23T13:04:56.000Z</time>
   </trkpt>
   <trkpt lat="-8.055938" lon="-34.892268">
    <ele>12.2</ele>
    <time>2020-01-23T13:05:19.000Z</time>
   </trkpt>
   <trkpt lat="-8.055962" lon="-34.892293">
    <ele>12</ele>
    <time>2020-01-23T13:05:20.000Z</time>
   </trkpt>
   <trkpt lat="-8.056005" lon="-34.89232">
    <ele>11.8</ele>
    <time>2020-01-23T13:05:21.000Z</time>
   </trkpt>
   <trkpt lat="-8.056036" lon="-34.892339">
    <ele>11.6</ele>
    <time>2020-01-23T13:05:22.000Z</time>
   </trkpt>
   <trkpt lat="-8.056073" lon="-34.892353">
    <ele>11.4</ele>
    <time>2020-01-23T13:05:23.000Z</time>
   </trkpt>
   <trkpt lat="-8.056092" lon="-34.892357">
    <ele>11.3</ele>
    <time>2020-01-23T13:05:24.000Z</time>
   </trkpt>
   <trkpt lat="-8.056151" lon="-34.892392">
    <ele>11</ele>
    <time>2020-01-23T13:05:26.000Z</time>
   </trkpt>
   <trkpt lat="-8.05617" lon="-34.892397">
    <ele>10.9</ele>
    <time>2020-01-23T13:05:27.000Z</time>
   </trkpt>
   <trkpt lat="-8.056217" lon="-34.89242">
    <ele>10.7</ele>
    <time>2020-01-23T13:05:29.000Z</time>
   </trkpt>
   <trkpt lat="-8.056294" lon="-34.892452">
    <ele>10.3</ele>
    <time>2020-01-23T13:05:31.000Z</time>
   </trkpt>
   <trkpt lat="-8.056309" lon="-34.89246">
    <ele>10.3</ele>
    <time>2020-01-23T13:05:32.000Z</time>
   </trkpt>
   <trkpt lat="-8.05636" lon="-34.892488">
    <ele>10</ele>
    <time>2020-01-23T13:05:34.000Z</time>
   </trkpt>
   <trkpt lat="-8.056399" lon="-34.892511">
    <ele>9.8</ele>
    <time>2020-01-23T13:05:35.000Z</time>
   </trkpt>
   <trkpt lat="-8.056423" lon="-34.892538">
    <ele>9.7</ele>
    <time>2020-01-23T13:05:36.000Z</time>
   </trkpt>
   <trkpt lat="-8.056433" lon="-34.892558">
    <ele>9.7</ele>
    <time>2020-01-23T13:05:37.000Z</time>
   </trkpt>
   <trkpt lat="-8.056447" lon="-34.89256">
    <ele>9.6</ele>
    <time>2020-01-23T13:05:39.000Z</time>
   </trkpt>
   <trkpt lat="-8.056432" lon="-34.892553">
    <ele>9.6</ele>
    <time>2020-01-23T13:05:44.000Z</time>
   </trkpt>
   <trkpt lat="-8.056436" lon="-34.892545">
    <ele>9.5</ele>
    <time>2020-01-23T13:05:49.000Z</time>
   </trkpt>
   <trkpt lat="-8.056471" lon="-34.892571">
    <ele>9.4</ele>
    <time>2020-01-23T13:05:51.000Z</time>
   </trkpt>
   <trkpt lat="-8.056469" lon="-34.892577">
    <ele>9.4</ele>
    <time>2020-01-23T13:05:53.000Z</time>
   </trkpt>
   <trkpt lat="-8.056575" lon="-34.892654">
    <ele>9.1</ele>
    <time>2020-01-23T13:06:39.000Z</time>
   </trkpt>
   <trkpt lat="-8.05662" lon="-34.892648">
    <ele>9.1</ele>
    <time>2020-01-23T13:06:40.000Z</time>
   </trkpt>
   <trkpt lat="-8.056658" lon="-34.892645">
    <ele>8.6</ele>
    <time>2020-01-23T13:06:41.000Z</time>
   </trkpt>
   <trkpt lat="-8.056692" lon="-34.892652">
    <ele>8.6</ele>
    <time>2020-01-23T13:06:42.000Z</time>
   </trkpt>
   <trkpt lat="-8.056733" lon="-34.892665">
    <ele>8.6</ele>
    <time>2020-01-23T13:06:43.000Z</time>
   </trkpt>
   <trkpt lat="-8.05677" lon="-34.892678">
    <ele>8.5</ele>
    <time>2020-01-23T13:06:44.000Z</time>
   </trkpt>
   <trkpt lat="-8.056809" lon="-34.892693">
    <ele>8.4</ele>
    <time>2020-01-23T13:06:45.000Z</time>
   </trkpt>
   <trkpt lat="-8.056848" lon="-34.892701">
    <ele>8.4</ele>
    <time>2020-01-23T13:06:46.000Z</time>
   </trkpt>
   <trkpt lat="-8.056897" lon="-34.892707">
    <ele>8.3</ele>
    <time>2020-01-23T13:06:47.000Z</time>
   </trkpt>
   <trkpt lat="-8.056944" lon="-34.892715">
    <ele>8.2</ele>
    <time>2020-01-23T13:06:48.000Z</time>
   </trkpt>
   <trkpt lat="-8.056998" lon="-34.892732">
    <ele>8.1</ele>
    <time>2020-01-23T13:06:49.000Z</time>
   </trkpt>
   <trkpt lat="-8.057057" lon="-34.892742">
    <ele>7.9</ele>
    <time>2020-01-23T13:06:50.000Z</time>
   </trkpt>
   <trkpt lat="-8.057112" lon="-34.892757">
    <ele>7.8</ele>
    <time>2020-01-23T13:06:51.000Z</time>
   </trkpt>
   <trkpt lat="-8.057162" lon="-34.892761">
    <ele>7.8</ele>
    <time>2020-01-23T13:06:52.000Z</time>
   </trkpt>
   <trkpt lat="-8.057214" lon="-34.892756">
    <ele>7.7</ele>
    <time>2020-01-23T13:06:53.000Z</time>
   </trkpt>
   <trkpt lat="-8.057263" lon="-34.892748">
    <ele>7.7</ele>
    <time>2020-01-23T13:06:54.000Z</time>
   </trkpt>
   <trkpt lat="-8.057302" lon="-34.892754">
    <ele>7.7</ele>
    <time>2020-01-23T13:06:55.000Z</time>
   </trkpt>
   <trkpt lat="-8.057345" lon="-34.892762">
    <ele>7.7</ele>
    <time>2020-01-23T13:06:56.000Z</time>
   </trkpt>
   <trkpt lat="-8.057386" lon="-34.892774">
    <ele>7.7</ele>
    <time>2020-01-23T13:06:57.000Z</time>
   </trkpt>
   <trkpt lat="-8.057421" lon="-34.89278">
    <ele>7.7</ele>
    <time>2020-01-23T13:06:58.000Z</time>
   </trkpt>
   <trkpt lat="-8.057457" lon="-34.892787">
    <ele>7.7</ele>
    <time>2020-01-23T13:06:59.000Z</time>
   </trkpt>
   <trkpt lat="-8.057508" lon="-34.892782">
    <ele>7.7</ele>
    <time>2020-01-23T13:07:00.000Z</time>
   </trkpt>
   <trkpt lat="-8.057558" lon="-34.892786">
    <ele>7.7</ele>
    <time>2020-01-23T13:07:01.000Z</time>
   </trkpt>
   <trkpt lat="-8.057609" lon="-34.892803">
    <ele>7.7</ele>
    <time>2020-01-23T13:07:02.000Z</time>
   </trkpt>
   <trkpt lat="-8.057655" lon="-34.892814">
    <ele>7.7</ele>
    <time>2020-01-23T13:07:03.000Z</time>
   </trkpt>
   <trkpt lat="-8.057709" lon="-34.892821">
    <ele>7.7</ele>
    <time>2020-01-23T13:07:04.000Z</time>
   </trkpt>
   <trkpt lat="-8.057761" lon="-34.892821">
    <ele>7.7</ele>
    <time>2020-01-23T13:07:05.000Z</time>
   </trkpt>
   <trkpt lat="-8.057818" lon="-34.892826">
    <ele>7.7</ele>
    <time>2020-01-23T13:07:06.000Z</time>
   </trkpt>
   <trkpt lat="-8.057875" lon="-34.892838">
    <ele>7.7</ele>
    <time>2020-01-23T13:07:07.000Z</time>
   </trkpt>
   <trkpt lat="-8.057935" lon="-34.892849">
    <ele>7.7</ele>
    <time>2020-01-23T13:07:08.000Z</time>
   </trkpt>
   <trkpt lat="-8.057997" lon="-34.892856">
    <ele>7.7</ele>
    <time>2020-01-23T13:07:09.000Z</time>
   </trkpt>
   <trkpt lat="-8.058045" lon="-34.892862">
    <ele>7.7</ele>
    <time>2020-01-23T13:07:10.000Z</time>
   </trkpt>
   <trkpt lat="-8.058096" lon="-34.892884">
    <ele>7.7</ele>
    <time>2020-01-23T13:07:11.000Z</time>
   </trkpt>
   <trkpt lat="-8.058148" lon="-34.892895">
    <ele>7.7</ele>
    <time>2020-01-23T13:07:12.000Z</time>
   </trkpt>
   <trkpt lat="-8.058195" lon="-34.892907">
    <ele>7.9</ele>
    <time>2020-01-23T13:07:13.000Z</time>
   </trkpt>
   <trkpt lat="-8.058246" lon="-34.892917">
    <ele>8</ele>
    <time>2020-01-23T13:07:14.000Z</time>
   </trkpt>
   <trkpt lat="-8.058295" lon="-34.892928">
    <ele>8.2</ele>
    <time>2020-01-23T13:07:15.000Z</time>
   </trkpt>
   <trkpt lat="-8.058353" lon="-34.89292">
    <ele>8.3</ele>
    <time>2020-01-23T13:07:16.000Z</time>
   </trkpt>
   <trkpt lat="-8.058407" lon="-34.892921">
    <ele>8.5</ele>
    <time>2020-01-23T13:07:17.000Z</time>
   </trkpt>
   <trkpt lat="-8.058466" lon="-34.892922">
    <ele>8.6</ele>
    <time>2020-01-23T13:07:18.000Z</time>
   </trkpt>
   <trkpt lat="-8.058523" lon="-34.892917">
    <ele>8.6</ele>
    <time>2020-01-23T13:07:19.000Z</time>
   </trkpt>
   <trkpt lat="-8.058574" lon="-34.892921">
    <ele>8.7</ele>
    <time>2020-01-23T13:07:20.000Z</time>
   </trkpt>
   <trkpt lat="-8.058628" lon="-34.892928">
    <ele>8.7</ele>
    <time>2020-01-23T13:07:21.000Z</time>
   </trkpt>
   <trkpt lat="-8.058662" lon="-34.892927">
    <ele>8.7</ele>
    <time>2020-01-23T13:07:22.000Z</time>
   </trkpt>
   <trkpt lat="-8.058701" lon="-34.892927">
    <ele>8.8</ele>
    <time>2020-01-23T13:07:23.000Z</time>
   </trkpt>
   <trkpt lat="-8.058745" lon="-34.892919">
    <ele>8.8</ele>
    <time>2020-01-23T13:07:24.000Z</time>
   </trkpt>
   <trkpt lat="-8.058786" lon="-34.89293">
    <ele>8.8</ele>
    <time>2020-01-23T13:07:25.000Z</time>
   </trkpt>
   <trkpt lat="-8.058818" lon="-34.892944">
    <ele>8.9</ele>
    <time>2020-01-23T13:07:26.000Z</time>
   </trkpt>
   <trkpt lat="-8.058858" lon="-34.892964">
    <ele>8.9</ele>
    <time>2020-01-23T13:07:27.000Z</time>
   </trkpt>
   <trkpt lat="-8.058896" lon="-34.893004">
    <ele>8.9</ele>
    <time>2020-01-23T13:07:28.000Z</time>
   </trkpt>
   <trkpt lat="-8.05893" lon="-34.893057">
    <ele>9</ele>
    <time>2020-01-23T13:07:29.000Z</time>
   </trkpt>
   <trkpt lat="-8.058961" lon="-34.893108">
    <ele>9.2</ele>
    <time>2020-01-23T13:07:30.000Z</time>
   </trkpt>
   <trkpt lat="-8.058996" lon="-34.893172">
    <ele>9.4</ele>
    <time>2020-01-23T13:07:31.000Z</time>
   </trkpt>
   <trkpt lat="-8.059026" lon="-34.893246">
    <ele>9.6</ele>
    <time>2020-01-23T13:07:32.000Z</time>
   </trkpt>
   <trkpt lat="-8.059047" lon="-34.893321">
    <ele>9.7</ele>
    <time>2020-01-23T13:07:33.000Z</time>
   </trkpt>
   <trkpt lat="-8.059073" lon="-34.893379">
    <ele>9.8</ele>
    <time>2020-01-23T13:07:34.000Z</time>
   </trkpt>
   <trkpt lat="-8.059096" lon="-34.893425">
    <ele>9.9</ele>
    <time>2020-01-23T13:07:35.000Z</time>
   </trkpt>
   <trkpt lat="-8.059115" lon="-34.893476">
    <ele>10</ele>
    <time>2020-01-23T13:07:36.000Z</time>
   </trkpt>
   <trkpt lat="-8.05914" lon="-34.893542">
    <ele>10</ele>
    <time>2020-01-23T13:07:37.000Z</time>
   </trkpt>
   <trkpt lat="-8.059165" lon="-34.893597">
    <ele>10</ele>
    <time>2020-01-23T13:07:38.000Z</time>
   </trkpt>
   <trkpt lat="-8.059193" lon="-34.893647">
    <ele>10</ele>
    <time>2020-01-23T13:07:39.000Z</time>
   </trkpt>
   <trkpt lat="-8.059223" lon="-34.893688">
    <ele>10</ele>
    <time>2020-01-23T13:07:40.000Z</time>
   </trkpt>
   <trkpt lat="-8.059258" lon="-34.893744">
    <ele>9.9</ele>
    <time>2020-01-23T13:07:41.000Z</time>
   </trkpt>
   <trkpt lat="-8.059292" lon="-34.893798">
    <ele>9.9</ele>
    <time>2020-01-23T13:07:42.000Z</time>
   </trkpt>
   <trkpt lat="-8.059314" lon="-34.893833">
    <ele>9.8</ele>
    <time>2020-01-23T13:07:43.000Z</time>
   </trkpt>
   <trkpt lat="-8.059339" lon="-34.893869">
    <ele>9.7</ele>
    <time>2020-01-23T13:07:44.000Z</time>
   </trkpt>
   <trkpt lat="-8.059369" lon="-34.893908">
    <ele>9.6</ele>
    <time>2020-01-23T13:07:45.000Z</time>
   </trkpt>
   <trkpt lat="-8.059385" lon="-34.893957">
    <ele>9.5</ele>
    <time>2020-01-23T13:07:46.000Z</time>
   </trkpt>
   <trkpt lat="-8.05941" lon="-34.893997">
    <ele>9.4</ele>
    <time>2020-01-23T13:07:47.000Z</time>
   </trkpt>
   <trkpt lat="-8.059441" lon="-34.894029">
    <ele>9.3</ele>
    <time>2020-01-23T13:07:48.000Z</time>
   </trkpt>
   <trkpt lat="-8.059483" lon="-34.894075">
    <ele>9.3</ele>
    <time>2020-01-23T13:07:49.000Z</time>
   </trkpt>
   <trkpt lat="-8.059524" lon="-34.89411">
    <ele>9.3</ele>
    <time>2020-01-23T13:07:50.000Z</time>
   </trkpt>
   <trkpt lat="-8.059565" lon="-34.894149">
    <ele>9.4</ele>
    <time>2020-01-23T13:07:51.000Z</time>
   </trkpt>
   <trkpt lat="-8.059608" lon="-34.894189">
    <ele>9.4</ele>
    <time>2020-01-23T13:07:52.000Z</time>
   </trkpt>
   <trkpt lat="-8.059657" lon="-34.894228">
    <ele>9.5</ele>
    <time>2020-01-23T13:07:53.000Z</time>
   </trkpt>
   <trkpt lat="-8.059707" lon="-34.894266">
    <ele>9.5</ele>
    <time>2020-01-23T13:07:54.000Z</time>
   </trkpt>
   <trkpt lat="-8.059751" lon="-34.894295">
    <ele>9.6</ele>
    <time>2020-01-23T13:07:55.000Z</time>
   </trkpt>
   <trkpt lat="-8.059797" lon="-34.894326">
    <ele>9.7</ele>
    <time>2020-01-23T13:07:56.000Z</time>
   </trkpt>
   <trkpt lat="-8.059842" lon="-34.894367">
    <ele>9.7</ele>
    <time>2020-01-23T13:07:57.000Z</time>
   </trkpt>
   <trkpt lat="-8.059889" lon="-34.894428">
    <ele>9.8</ele>
    <time>2020-01-23T13:07:58.000Z</time>
   </trkpt>
   <trkpt lat="-8.059943" lon="-34.894456">
    <ele>9.6</ele>
    <time>2020-01-23T13:07:59.000Z</time>
   </trkpt>
   <trkpt lat="-8.059992" lon="-34.894474">
    <ele>9.3</ele>
    <time>2020-01-23T13:08:00.000Z</time>
   </trkpt>
   <trkpt lat="-8.060033" lon="-34.894502">
    <ele>9.1</ele>
    <time>2020-01-23T13:08:01.000Z</time>
   </trkpt>
   <trkpt lat="-8.060077" lon="-34.894533">
    <ele>8.8</ele>
    <time>2020-01-23T13:08:02.000Z</time>
   </trkpt>
   <trkpt lat="-8.060123" lon="-34.89456">
    <ele>8.6</ele>
    <time>2020-01-23T13:08:03.000Z</time>
   </trkpt>
   <trkpt lat="-8.060173" lon="-34.894599">
    <ele>8.3</ele>
    <time>2020-01-23T13:08:04.000Z</time>
   </trkpt>
   <trkpt lat="-8.060222" lon="-34.89463">
    <ele>8</ele>
    <time>2020-01-23T13:08:05.000Z</time>
   </trkpt>
   <trkpt lat="-8.060269" lon="-34.894657">
    <ele>7.8</ele>
    <time>2020-01-23T13:08:06.000Z</time>
   </trkpt>
   <trkpt lat="-8.06031" lon="-34.894686">
    <ele>7.6</ele>
    <time>2020-01-23T13:08:07.000Z</time>
   </trkpt>
   <trkpt lat="-8.060354" lon="-34.894714">
    <ele>7.4</ele>
    <time>2020-01-23T13:08:08.000Z</time>
   </trkpt>
   <trkpt lat="-8.060393" lon="-34.894737">
    <ele>7.2</ele>
    <time>2020-01-23T13:08:09.000Z</time>
   </trkpt>
   <trkpt lat="-8.060441" lon="-34.894763">
    <ele>6.9</ele>
    <time>2020-01-23T13:08:10.000Z</time>
   </trkpt>
   <trkpt lat="-8.060492" lon="-34.89478">
    <ele>6.6</ele>
    <time>2020-01-23T13:08:11.000Z</time>
   </trkpt>
   <trkpt lat="-8.060546" lon="-34.894793">
    <ele>6.4</ele>
    <time>2020-01-23T13:08:12.000Z</time>
   </trkpt>
   <trkpt lat="-8.060599" lon="-34.894796">
    <ele>6</ele>
    <time>2020-01-23T13:08:13.000Z</time>
   </trkpt>
   <trkpt lat="-8.060658" lon="-34.894796">
    <ele>6.3</ele>
    <time>2020-01-23T13:08:14.000Z</time>
   </trkpt>
   <trkpt lat="-8.06071" lon="-34.894801">
    <ele>6.4</ele>
    <time>2020-01-23T13:08:15.000Z</time>
   </trkpt>
   <trkpt lat="-8.060765" lon="-34.89482">
    <ele>6.7</ele>
    <time>2020-01-23T13:08:16.000Z</time>
   </trkpt>
   <trkpt lat="-8.060811" lon="-34.894816">
    <ele>6.8</ele>
    <time>2020-01-23T13:08:17.000Z</time>
   </trkpt>
   <trkpt lat="-8.060858" lon="-34.894818">
    <ele>7</ele>
    <time>2020-01-23T13:08:18.000Z</time>
   </trkpt>
   <trkpt lat="-8.060921" lon="-34.894829">
    <ele>7.3</ele>
    <time>2020-01-23T13:08:19.000Z</time>
   </trkpt>
   <trkpt lat="-8.060978" lon="-34.894848">
    <ele>7.7</ele>
    <time>2020-01-23T13:08:20.000Z</time>
   </trkpt>
   <trkpt lat="-8.061034" lon="-34.894858">
    <ele>7.9</ele>
    <time>2020-01-23T13:08:21.000Z</time>
   </trkpt>
   <trkpt lat="-8.061086" lon="-34.894884">
    <ele>8</ele>
    <time>2020-01-23T13:08:22.000Z</time>
   </trkpt>
   <trkpt lat="-8.061146" lon="-34.894889">
    <ele>8</ele>
    <time>2020-01-23T13:08:23.000Z</time>
   </trkpt>
   <trkpt lat="-8.061204" lon="-34.894904">
    <ele>8</ele>
    <time>2020-01-23T13:08:24.000Z</time>
   </trkpt>
   <trkpt lat="-8.061252" lon="-34.894912">
    <ele>7.9</ele>
    <time>2020-01-23T13:08:25.000Z</time>
   </trkpt>
   <trkpt lat="-8.06129" lon="-34.894923">
    <ele>7.7</ele>
    <time>2020-01-23T13:08:26.000Z</time>
   </trkpt>
   <trkpt lat="-8.061332" lon="-34.894934">
    <ele>7.6</ele>
    <time>2020-01-23T13:08:27.000Z</time>
   </trkpt>
   <trkpt lat="-8.061379" lon="-34.894951">
    <ele>7.3</ele>
    <time>2020-01-23T13:08:28.000Z</time>
   </trkpt>
   <trkpt lat="-8.061427" lon="-34.894958">
    <ele>7</ele>
    <time>2020-01-23T13:08:29.000Z</time>
   </trkpt>
   <trkpt lat="-8.061478" lon="-34.894964">
    <ele>6.6</ele>
    <time>2020-01-23T13:08:30.000Z</time>
   </trkpt>
   <trkpt lat="-8.061523" lon="-34.894963">
    <ele>6.4</ele>
    <time>2020-01-23T13:08:31.000Z</time>
   </trkpt>
   <trkpt lat="-8.061573" lon="-34.894962">
    <ele>6.4</ele>
    <time>2020-01-23T13:08:32.000Z</time>
   </trkpt>
   <trkpt lat="-8.061628" lon="-34.894964">
    <ele>6.6</ele>
    <time>2020-01-23T13:08:33.000Z</time>
   </trkpt>
   <trkpt lat="-8.061685" lon="-34.895004">
    <ele>6.9</ele>
    <time>2020-01-23T13:08:34.000Z</time>
   </trkpt>
   <trkpt lat="-8.061746" lon="-34.895016">
    <ele>7.1</ele>
    <time>2020-01-23T13:08:35.000Z</time>
   </trkpt>
   <trkpt lat="-8.061808" lon="-34.895036">
    <ele>7.1</ele>
    <time>2020-01-23T13:08:36.000Z</time>
   </trkpt>
   <trkpt lat="-8.061864" lon="-34.895059">
    <ele>7.1</ele>
    <time>2020-01-23T13:08:37.000Z</time>
   </trkpt>
   <trkpt lat="-8.061925" lon="-34.895069">
    <ele>7.1</ele>
    <time>2020-01-23T13:08:38.000Z</time>
   </trkpt>
   <trkpt lat="-8.061972" lon="-34.895071">
    <ele>7.1</ele>
    <time>2020-01-23T13:08:39.000Z</time>
   </trkpt>
   <trkpt lat="-8.062024" lon="-34.895112">
    <ele>7.1</ele>
    <time>2020-01-23T13:08:40.000Z</time>
   </trkpt>
   <trkpt lat="-8.06207" lon="-34.895112">
    <ele>7.1</ele>
    <time>2020-01-23T13:08:41.000Z</time>
   </trkpt>
   <trkpt lat="-8.062115" lon="-34.895115">
    <ele>7.1</ele>
    <time>2020-01-23T13:08:42.000Z</time>
   </trkpt>
   <trkpt lat="-8.062156" lon="-34.895112">
    <ele>7.1</ele>
    <time>2020-01-23T13:08:43.000Z</time>
   </trkpt>
   <trkpt lat="-8.062197" lon="-34.895122">
    <ele>7.1</ele>
    <time>2020-01-23T13:08:44.000Z</time>
   </trkpt>
   <trkpt lat="-8.062241" lon="-34.895128">
    <ele>7.1</ele>
    <time>2020-01-23T13:08:45.000Z</time>
   </trkpt>
   <trkpt lat="-8.062292" lon="-34.895135">
    <ele>7</ele>
    <time>2020-01-23T13:08:46.000Z</time>
   </trkpt>
   <trkpt lat="-8.062328" lon="-34.89514">
    <ele>7</ele>
    <time>2020-01-23T13:08:47.000Z</time>
   </trkpt>
   <trkpt lat="-8.062373" lon="-34.895136">
    <ele>6.9</ele>
    <time>2020-01-23T13:08:48.000Z</time>
   </trkpt>
   <trkpt lat="-8.06241" lon="-34.895145">
    <ele>6.8</ele>
    <time>2020-01-23T13:08:49.000Z</time>
   </trkpt>
   <trkpt lat="-8.062442" lon="-34.895149">
    <ele>6.8</ele>
    <time>2020-01-23T13:08:50.000Z</time>
   </trkpt>
   <trkpt lat="-8.062462" lon="-34.895152">
    <ele>6.7</ele>
    <time>2020-01-23T13:08:51.000Z</time>
   </trkpt>
   <trkpt lat="-8.062494" lon="-34.895173">
    <ele>6.7</ele>
    <time>2020-01-23T13:08:53.000Z</time>
   </trkpt>
   <trkpt lat="-8.062539" lon="-34.895172">
    <ele>6.6</ele>
    <time>2020-01-23T13:08:57.000Z</time>
   </trkpt>
   <trkpt lat="-8.062576" lon="-34.89517">
    <ele>6.5</ele>
    <time>2020-01-23T13:08:59.000Z</time>
   </trkpt>
   <trkpt lat="-8.062609" lon="-34.895175">
    <ele>6.5</ele>
    <time>2020-01-23T13:09:01.000Z</time>
   </trkpt>
   <trkpt lat="-8.062644" lon="-34.895229">
    <ele>6.4</ele>
    <time>2020-01-23T13:09:03.000Z</time>
   </trkpt>
   <trkpt lat="-8.062658" lon="-34.895273">
    <ele>6.4</ele>
    <time>2020-01-23T13:09:04.000Z</time>
   </trkpt>
   <trkpt lat="-8.062663" lon="-34.895315">
    <ele>6.5</ele>
    <time>2020-01-23T13:09:05.000Z</time>
   </trkpt>
   <trkpt lat="-8.062672" lon="-34.895354">
    <ele>6.6</ele>
    <time>2020-01-23T13:09:06.000Z</time>
   </trkpt>
   <trkpt lat="-8.062677" lon="-34.895382">
    <ele>6.6</ele>
    <time>2020-01-23T13:09:07.000Z</time>
   </trkpt>
   <trkpt lat="-8.062684" lon="-34.895404">
    <ele>6.6</ele>
    <time>2020-01-23T13:09:08.000Z</time>
   </trkpt>
   <trkpt lat="-8.062705" lon="-34.895468">
    <ele>6.7</ele>
    <time>2020-01-23T13:09:10.000Z</time>
   </trkpt>
   <trkpt lat="-8.06271" lon="-34.895519">
    <ele>6.8</ele>
    <time>2020-01-23T13:09:11.000Z</time>
   </trkpt>
   <trkpt lat="-8.062722" lon="-34.89557">
    <ele>7.1</ele>
    <time>2020-01-23T13:09:12.000Z</time>
   </trkpt>
   <trkpt lat="-8.062733" lon="-34.895617">
    <ele>7.5</ele>
    <time>2020-01-23T13:09:13.000Z</time>
   </trkpt>
   <trkpt lat="-8.06274" lon="-34.895666">
    <ele>7.9</ele>
    <time>2020-01-23T13:09:14.000Z</time>
   </trkpt>
   <trkpt lat="-8.06274" lon="-34.895705">
    <ele>8.3</ele>
    <time>2020-01-23T13:09:15.000Z</time>
   </trkpt>
   <trkpt lat="-8.062742" lon="-34.895749">
    <ele>8.4</ele>
    <time>2020-01-23T13:09:16.000Z</time>
   </trkpt>
   <trkpt lat="-8.062745" lon="-34.895794">
    <ele>8.5</ele>
    <time>2020-01-23T13:09:17.000Z</time>
   </trkpt>
   <trkpt lat="-8.062742" lon="-34.895839">
    <ele>8.5</ele>
    <time>2020-01-23T13:09:18.000Z</time>
   </trkpt>
   <trkpt lat="-8.062739" lon="-34.89588">
    <ele>8.5</ele>
    <time>2020-01-23T13:09:19.000Z</time>
   </trkpt>
   <trkpt lat="-8.062731" lon="-34.895921">
    <ele>8.4</ele>
    <time>2020-01-23T13:09:20.000Z</time>
   </trkpt>
   <trkpt lat="-8.062731" lon="-34.895967">
    <ele>8.2</ele>
    <time>2020-01-23T13:09:21.000Z</time>
   </trkpt>
   <trkpt lat="-8.062729" lon="-34.896025">
    <ele>7.9</ele>
    <time>2020-01-23T13:09:22.000Z</time>
   </trkpt>
   <trkpt lat="-8.062724" lon="-34.896051">
    <ele>7.7</ele>
    <time>2020-01-23T13:09:23.000Z</time>
   </trkpt>
   <trkpt lat="-8.062702" lon="-34.89612">
    <ele>7.4</ele>
    <time>2020-01-23T13:09:25.000Z</time>
   </trkpt>
   <trkpt lat="-8.062697" lon="-34.896168">
    <ele>7.4</ele>
    <time>2020-01-23T13:09:26.000Z</time>
   </trkpt>
   <trkpt lat="-8.062692" lon="-34.896229">
    <ele>7.3</ele>
    <time>2020-01-23T13:09:27.000Z</time>
   </trkpt>
   <trkpt lat="-8.062694" lon="-34.896271">
    <ele>7.3</ele>
    <time>2020-01-23T13:09:28.000Z</time>
   </trkpt>
   <trkpt lat="-8.062691" lon="-34.896304">
    <ele>7.1</ele>
    <time>2020-01-23T13:09:29.000Z</time>
   </trkpt>
   <trkpt lat="-8.062689" lon="-34.896343">
    <ele>6.4</ele>
    <time>2020-01-23T13:09:30.000Z</time>
   </trkpt>
   <trkpt lat="-8.062691" lon="-34.896355">
    <ele>6.4</ele>
    <time>2020-01-23T13:09:31.000Z</time>
   </trkpt>
   <trkpt lat="-8.062745" lon="-34.896361">
    <ele>6.5</ele>
    <time>2020-01-23T13:09:34.000Z</time>
   </trkpt>
   <trkpt lat="-8.062776" lon="-34.896342">
    <ele>6.5</ele>
    <time>2020-01-23T13:09:35.000Z</time>
   </trkpt>
   <trkpt lat="-8.062803" lon="-34.896325">
    <ele>6.5</ele>
    <time>2020-01-23T13:09:36.000Z</time>
   </trkpt>
   <trkpt lat="-8.062819" lon="-34.896318">
    <ele>6.5</ele>
    <time>2020-01-23T13:09:37.000Z</time>
   </trkpt>
   <trkpt lat="-8.062852" lon="-34.896311">
    <ele>6.6</ele>
    <time>2020-01-23T13:09:39.000Z</time>
   </trkpt>
   <trkpt lat="-8.062965" lon="-34.896375">
    <ele>6.7</ele>
    <time>2020-01-23T13:09:41.000Z</time>
   </trkpt>
   <trkpt lat="-8.062997" lon="-34.896364">
    <ele>6.7</ele>
    <time>2020-01-23T13:09:42.000Z</time>
   </trkpt>
   <trkpt lat="-8.063026" lon="-34.896353">
    <ele>6.7</ele>
    <time>2020-01-23T13:09:43.000Z</time>
   </trkpt>
   <trkpt lat="-8.063056" lon="-34.896342">
    <ele>6.8</ele>
    <time>2020-01-23T13:09:44.000Z</time>
   </trkpt>
   <trkpt lat="-8.06309" lon="-34.896328">
    <ele>6.8</ele>
    <time>2020-01-23T13:09:45.000Z</time>
   </trkpt>
   <trkpt lat="-8.063138" lon="-34.896324">
    <ele>6.8</ele>
    <time>2020-01-23T13:09:46.000Z</time>
   </trkpt>
   <trkpt lat="-8.0632" lon="-34.896258">
    <ele>6.9</ele>
    <time>2020-01-23T13:09:47.000Z</time>
   </trkpt>
   <trkpt lat="-8.063238" lon="-34.896214">
    <ele>7</ele>
    <time>2020-01-23T13:09:48.000Z</time>
   </trkpt>
   <trkpt lat="-8.06327" lon="-34.896181">
    <ele>7</ele>
    <time>2020-01-23T13:09:49.000Z</time>
   </trkpt>
   <trkpt lat="-8.063301" lon="-34.896164">
    <ele>7</ele>
    <time>2020-01-23T13:09:50.000Z</time>
   </trkpt>
   <trkpt lat="-8.063338" lon="-34.896148">
    <ele>7.1</ele>
    <time>2020-01-23T13:09:51.000Z</time>
   </trkpt>
   <trkpt lat="-8.063366" lon="-34.896146">
    <ele>7.1</ele>
    <time>2020-01-23T13:09:52.000Z</time>
   </trkpt>
   <trkpt lat="-8.063384" lon="-34.896138">
    <ele>7.1</ele>
    <time>2020-01-23T13:09:53.000Z</time>
   </trkpt>
   <trkpt lat="-8.063426" lon="-34.896112">
    <ele>7.2</ele>
    <time>2020-01-23T13:09:55.000Z</time>
   </trkpt>
   <trkpt lat="-8.063466" lon="-34.896094">
    <ele>7.2</ele>
    <time>2020-01-23T13:09:57.000Z</time>
   </trkpt>
   <trkpt lat="-8.063495" lon="-34.896091">
    <ele>7.2</ele>
    <time>2020-01-23T13:09:59.000Z</time>
   </trkpt>
   <trkpt lat="-8.063512" lon="-34.896101">
    <ele>7.2</ele>
    <time>2020-01-23T13:10:02.000Z</time>
   </trkpt>
   <trkpt lat="-8.063534" lon="-34.896114">
    <ele>7.2</ele>
    <time>2020-01-23T13:10:05.000Z</time>
   </trkpt>
   <trkpt lat="-8.063605" lon="-34.896089">
    <ele>7.3</ele>
    <time>2020-01-23T13:10:12.000Z</time>
   </trkpt>
   <trkpt lat="-8.063661" lon="-34.896064">
    <ele>7.2</ele>
    <time>2020-01-23T13:10:14.000Z</time>
   </trkpt>
   <trkpt lat="-8.063701" lon="-34.89605">
    <ele>7.1</ele>
    <time>2020-01-23T13:10:15.000Z</time>
   </trkpt>
   <trkpt lat="-8.063742" lon="-34.896056">
    <ele>7</ele>
    <time>2020-01-23T13:10:16.000Z</time>
   </trkpt>
   <trkpt lat="-8.063776" lon="-34.896054">
    <ele>7</ele>
    <time>2020-01-23T13:10:17.000Z</time>
   </trkpt>
   <trkpt lat="-8.063816" lon="-34.89605">
    <ele>6.9</ele>
    <time>2020-01-23T13:10:18.000Z</time>
   </trkpt>
   <trkpt lat="-8.063847" lon="-34.896045">
    <ele>6.9</ele>
    <time>2020-01-23T13:10:19.000Z</time>
   </trkpt>
   <trkpt lat="-8.06387" lon="-34.896045">
    <ele>6.8</ele>
    <time>2020-01-23T13:10:20.000Z</time>
   </trkpt>
   <trkpt lat="-8.063908" lon="-34.896062">
    <ele>6.8</ele>
    <time>2020-01-23T13:10:22.000Z</time>
   </trkpt>
   <trkpt lat="-8.063963" lon="-34.896069">
    <ele>6.7</ele>
    <time>2020-01-23T13:10:25.000Z</time>
   </trkpt>
   <trkpt lat="-8.063992" lon="-34.896064">
    <ele>6.6</ele>
    <time>2020-01-23T13:10:26.000Z</time>
   </trkpt>
   <trkpt lat="-8.064027" lon="-34.89605">
    <ele>6.5</ele>
    <time>2020-01-23T13:10:27.000Z</time>
   </trkpt>
   <trkpt lat="-8.064063" lon="-34.896034">
    <ele>6.4</ele>
    <time>2020-01-23T13:10:28.000Z</time>
   </trkpt>
   <trkpt lat="-8.064095" lon="-34.896019">
    <ele>6.3</ele>
    <time>2020-01-23T13:10:29.000Z</time>
   </trkpt>
   <trkpt lat="-8.064128" lon="-34.896008">
    <ele>6.2</ele>
    <time>2020-01-23T13:10:30.000Z</time>
   </trkpt>
   <trkpt lat="-8.064156" lon="-34.896">
    <ele>6.1</ele>
    <time>2020-01-23T13:10:31.000Z</time>
   </trkpt>
   <trkpt lat="-8.064185" lon="-34.895988">
    <ele>5.9</ele>
    <time>2020-01-23T13:10:32.000Z</time>
   </trkpt>
   <trkpt lat="-8.064196" lon="-34.895984">
    <ele>5.9</ele>
    <time>2020-01-23T13:10:33.000Z</time>
   </trkpt>
   <trkpt lat="-8.064226" lon="-34.895977">
    <ele>5.7</ele>
    <time>2020-01-23T13:10:35.000Z</time>
   </trkpt>
   <trkpt lat="-8.0643" lon="-34.895934">
    <ele>5.1</ele>
    <time>2020-01-23T13:10:39.000Z</time>
   </trkpt>
   <trkpt lat="-8.064333" lon="-34.895924">
    <ele>4.9</ele>
    <time>2020-01-23T13:10:40.000Z</time>
   </trkpt>
   <trkpt lat="-8.064372" lon="-34.895893">
    <ele>4.7</ele>
    <time>2020-01-23T13:10:41.000Z</time>
   </trkpt>
   <trkpt lat="-8.064403" lon="-34.89587">
    <ele>4.5</ele>
    <time>2020-01-23T13:10:42.000Z</time>
   </trkpt>
   <trkpt lat="-8.064434" lon="-34.895851">
    <ele>4.3</ele>
    <time>2020-01-23T13:10:43.000Z</time>
   </trkpt>
   <trkpt lat="-8.064469" lon="-34.89583">
    <ele>4</ele>
    <time>2020-01-23T13:10:44.000Z</time>
   </trkpt>
   <trkpt lat="-8.064499" lon="-34.895814">
    <ele>3.9</ele>
    <time>2020-01-23T13:10:45.000Z</time>
   </trkpt>
   <trkpt lat="-8.064554" lon="-34.895828">
    <ele>3.6</ele>
    <time>2020-01-23T13:10:46.000Z</time>
   </trkpt>
   <trkpt lat="-8.064566" lon="-34.895815">
    <ele>3.5</ele>
    <time>2020-01-23T13:10:47.000Z</time>
   </trkpt>
   <trkpt lat="-8.064585" lon="-34.895799">
    <ele>3.4</ele>
    <time>2020-01-23T13:10:49.000Z</time>
   </trkpt>
   <trkpt lat="-8.064633" lon="-34.895807">
    <ele>3.1</ele>
    <time>2020-01-23T13:10:53.000Z</time>
   </trkpt>
   <trkpt lat="-8.064656" lon="-34.895793">
    <ele>3</ele>
    <time>2020-01-23T13:10:58.000Z</time>
   </trkpt>
  </trkseg>
 </trk>
</gpx>
