<?xml version="1.0" encoding="UTF-8"?>
<gpx creator="StravaGPX" version="1.1" xmlns="http://www.topografix.com/GPX/1/1">
 <metadata>
  <time>2024-07-31T19:02:14Z</time>
 </metadata>
 <trk>
  <name>Night Ride</name>
  <type>1</type>
  <trkseg>
   <trkpt lat="52.503834" lon="13.408602">
    <ele>40.2</ele>
    <time>2024-07-31T19:02:14.000Z</time>
   </trkpt>
   <trkpt lat="52.503778" lon="13.408526">
    <ele>39.4</ele>
    <time>2024-07-31T19:02:20.000Z</time>
   </trkpt>
   <trkpt lat="52.50373" lon="13.408474">
    <ele>39.6</ele>
    <time>2024-07-31T19:02:22.000Z</time>
   </trkpt>
   <trkpt lat="52.503618" lon="13.408417">
    <ele>39.8</ele>
    <time>2024-07-31T19:02:24.000Z</time>
   </trkpt>
   <trkpt lat="52.503575" lon="13.408376">
    <ele>39.8</ele>
    <time>2024-07-31T19:02:26.000Z</time>
   </trkpt>
   <trkpt lat="52.503528" lon="13.408316">
    <ele>39.8</ele>
    <time>2024-07-31T19:02:29.000Z</time>
   </trkpt>
   <trkpt lat="52.503497" lon="13.408293">
    <ele>39.8</ele>
    <time>2024-07-31T19:02:31.000Z</time>
   </trkpt>
   <trkpt lat="52.503491" lon="13.408284">
    <ele>40</ele>
    <time>2024-07-31T19:02:33.000Z</time>
   </trkpt>
   <trkpt lat="52.50351" lon="13.408257">
    <ele>40</ele>
    <time>2024-07-31T19:02:36.000Z</time>
   </trkpt>
   <trkpt lat="52.503527" lon="13.408259">
    <ele>40</ele>
    <time>2024-07-31T19:02:37.000Z</time>
   </trkpt>
   <trkpt lat="52.503536" lon="13.408227">
    <ele>40</ele>
    <time>2024-07-31T19:02:39.000Z</time>
   </trkpt>
   <trkpt lat="52.503498" lon="13.408191">
    <ele>40</ele>
    <time>2024-07-31T19:02:40.000Z</time>
   </trkpt>
   <trkpt lat="52.503516" lon="13.407218">
    <ele>39.8</ele>
    <time>2024-07-31T19:02:58.000Z</time>
   </trkpt>
   <trkpt lat="52.503658" lon="13.407374">
    <ele>39.8</ele>
    <time>2024-07-31T19:03:02.000Z</time>
   </trkpt>
   <trkpt lat="52.503719" lon="13.407421">
    <ele>39.6</ele>
    <time>2024-07-31T19:03:04.000Z</time>
   </trkpt>
   <trkpt lat="52.503857" lon="13.407501">
    <ele>39.6</ele>
    <time>2024-07-31T19:03:08.000Z</time>
   </trkpt>
   <trkpt lat="52.504135" lon="13.407876">
    <ele>39.6</ele>
    <time>2024-07-31T19:03:16.000Z</time>
   </trkpt>
   <trkpt lat="52.504251" lon="13.408023">
    <ele>39.4</ele>
    <time>2024-07-31T19:03:20.000Z</time>
   </trkpt>
   <trkpt lat="52.504265" lon="13.408076">
    <ele>39.4</ele>
    <time>2024-07-31T19:03:22.000Z</time>
   </trkpt>
   <trkpt lat="52.504259" lon="13.408181">
    <ele>39.4</ele>
    <time>2024-07-31T19:03:24.000Z</time>
   </trkpt>
   <trkpt lat="52.504226" lon="13.408291">
    <ele>39.6</ele>
    <time>2024-07-31T19:03:26.000Z</time>
   </trkpt>
   <trkpt lat="52.504126" lon="13.40865">
    <ele>39.6</ele>
    <time>2024-07-31T19:03:32.000Z</time>
   </trkpt>
   <trkpt lat="52.504112" lon="13.408711">
    <ele>39.6</ele>
    <time>2024-07-31T19:03:33.000Z</time>
   </trkpt>
   <trkpt lat="52.504085" lon="13.408832">
    <ele>39.6</ele>
    <time>2024-07-31T19:03:35.000Z</time>
   </trkpt>
   <trkpt lat="52.504045" lon="13.409085">
    <ele>39.4</ele>
    <time>2024-07-31T19:03:39.000Z</time>
   </trkpt>
   <trkpt lat="52.503999" lon="13.40926">
    <ele>39.4</ele>
    <time>2024-07-31T19:03:44.000Z</time>
   </trkpt>
   <trkpt lat="52.503998" lon="13.409275">
    <ele>39.2</ele>
    <time>2024-07-31T19:03:45.000Z</time>
   </trkpt>
   <trkpt lat="52.503994" lon="13.40935">
    <ele>39.4</ele>
    <time>2024-07-31T19:03:51.000Z</time>
   </trkpt>
   <trkpt lat="52.503987" lon="13.409479">
    <ele>39.2</ele>
    <time>2024-07-31T19:03:54.000Z</time>
   </trkpt>
   <trkpt lat="52.503955" lon="13.409695">
    <ele>39.2</ele>
    <time>2024-07-31T19:03:58.000Z</time>
   </trkpt>
   <trkpt lat="52.50394" lon="13.409744">
    <ele>39.2</ele>
    <time>2024-07-31T19:03:59.000Z</time>
   </trkpt>
   <trkpt lat="52.503923" lon="13.409885">
    <ele>39.2</ele>
    <time>2024-07-31T19:04:01.000Z</time>
   </trkpt>
   <trkpt lat="52.503854" lon="13.410185">
    <ele>39.2</ele>
    <time>2024-07-31T19:04:05.000Z</time>
   </trkpt>
   <trkpt lat="52.503733" lon="13.410288">
    <ele>39.2</ele>
    <time>2024-07-31T19:04:08.000Z</time>
   </trkpt>
   <trkpt lat="52.50355" lon="13.410406">
    <ele>39.2</ele>
    <time>2024-07-31T19:04:12.000Z</time>
   </trkpt>
   <trkpt lat="52.503436" lon="13.410433">
    <ele>39.2</ele>
    <time>2024-07-31T19:04:14.000Z</time>
   </trkpt>
   <trkpt lat="52.50337" lon="13.410538">
    <ele>39</ele>
    <time>2024-07-31T19:04:16.000Z</time>
   </trkpt>
   <trkpt lat="52.503374" lon="13.410612">
    <ele>39</ele>
    <time>2024-07-31T19:04:17.000Z</time>
   </trkpt>
   <trkpt lat="52.503386" lon="13.410689">
    <ele>39</ele>
    <time>2024-07-31T19:04:18.000Z</time>
   </trkpt>
   <trkpt lat="52.503436" lon="13.410925">
    <ele>39</ele>
    <time>2024-07-31T19:04:21.000Z</time>
   </trkpt>
   <trkpt lat="52.503444" lon="13.411009">
    <ele>39</ele>
    <time>2024-07-31T19:04:22.000Z</time>
   </trkpt>
   <trkpt lat="52.503445" lon="13.411101">
    <ele>39</ele>
    <time>2024-07-31T19:04:23.000Z</time>
   </trkpt>
   <trkpt lat="52.503422" lon="13.411262">
    <ele>39</ele>
    <time>2024-07-31T19:04:25.000Z</time>
   </trkpt>
   <trkpt lat="52.503404" lon="13.411329">
    <ele>39</ele>
    <time>2024-07-31T19:04:26.000Z</time>
   </trkpt>
   <trkpt lat="52.503371" lon="13.411489">
    <ele>39</ele>
    <time>2024-07-31T19:04:30.000Z</time>
   </trkpt>
   <trkpt lat="52.50337" lon="13.411509">
    <ele>39</ele>
    <time>2024-07-31T19:04:31.000Z</time>
   </trkpt>
   <trkpt lat="52.503369" lon="13.411515">
    <ele>39</ele>
    <time>2024-07-31T19:04:32.000Z</time>
   </trkpt>
   <trkpt lat="52.503369" lon="13.411515">
    <ele>39</ele>
    <time>2024-07-31T19:04:33.000Z</time>
   </trkpt>
   <trkpt lat="52.503368" lon="13.411524">
    <ele>39</ele>
    <time>2024-07-31T19:04:36.000Z</time>
   </trkpt>
   <trkpt lat="52.503367" lon="13.411547">
    <ele>39</ele>
    <time>2024-07-31T19:04:37.000Z</time>
   </trkpt>
   <trkpt lat="52.503338" lon="13.411708">
    <ele>39</ele>
    <time>2024-07-31T19:04:42.000Z</time>
   </trkpt>
   <trkpt lat="52.503315" lon="13.411847">
    <ele>39</ele>
    <time>2024-07-31T19:04:45.000Z</time>
   </trkpt>
   <trkpt lat="52.503294" lon="13.411979">
    <ele>39</ele>
    <time>2024-07-31T19:04:47.000Z</time>
   </trkpt>
   <trkpt lat="52.503224" lon="13.412223">
    <ele>39</ele>
    <time>2024-07-31T19:04:50.000Z</time>
   </trkpt>
   <trkpt lat="52.503194" lon="13.412292">
    <ele>39</ele>
    <time>2024-07-31T19:04:51.000Z</time>
   </trkpt>
   <trkpt lat="52.503163" lon="13.412369">
    <ele>39</ele>
    <time>2024-07-31T19:04:52.000Z</time>
   </trkpt>
   <trkpt lat="52.503092" lon="13.412662">
    <ele>39</ele>
    <time>2024-07-31T19:04:55.000Z</time>
   </trkpt>
   <trkpt lat="52.502995" lon="13.413217">
    <ele>39</ele>
    <time>2024-07-31T19:05:01.000Z</time>
   </trkpt>
   <trkpt lat="52.502968" lon="13.413293">
    <ele>38.8</ele>
    <time>2024-07-31T19:05:02.000Z</time>
   </trkpt>
   <trkpt lat="52.502885" lon="13.413549">
    <ele>38.8</ele>
    <time>2024-07-31T19:05:05.000Z</time>
   </trkpt>
   <trkpt lat="52.502727" lon="13.414117">
    <ele>39</ele>
    <time>2024-07-31T19:05:12.000Z</time>
   </trkpt>
   <trkpt lat="52.50262" lon="13.414488">
    <ele>39</ele>
    <time>2024-07-31T19:05:17.000Z</time>
   </trkpt>
   <trkpt lat="52.502535" lon="13.414696">
    <ele>39.2</ele>
    <time>2024-07-31T19:05:21.000Z</time>
   </trkpt>
   <trkpt lat="52.502533" lon="13.414759">
    <ele>39.2</ele>
    <time>2024-07-31T19:05:22.000Z</time>
   </trkpt>
   <trkpt lat="52.502479" lon="13.414845">
    <ele>39.2</ele>
    <time>2024-07-31T19:05:24.000Z</time>
   </trkpt>
   <trkpt lat="52.502344" lon="13.415068">
    <ele>39</ele>
    <time>2024-07-31T19:05:28.000Z</time>
   </trkpt>
   <trkpt lat="52.502314" lon="13.415136">
    <ele>39</ele>
    <time>2024-07-31T19:05:29.000Z</time>
   </trkpt>
   <trkpt lat="52.502159" lon="13.415593">
    <ele>39</ele>
    <time>2024-07-31T19:05:35.000Z</time>
   </trkpt>
   <trkpt lat="52.502018" lon="13.416224">
    <ele>38.8</ele>
    <time>2024-07-31T19:05:42.000Z</time>
   </trkpt>
   <trkpt lat="52.501974" lon="13.416616">
    <ele>39</ele>
    <time>2024-07-31T19:05:46.000Z</time>
   </trkpt>
   <trkpt lat="52.501935" lon="13.416796">
    <ele>38.8</ele>
    <time>2024-07-31T19:05:48.000Z</time>
   </trkpt>
   <trkpt lat="52.501757" lon="13.417418">
    <ele>39</ele>
    <time>2024-07-31T19:05:55.000Z</time>
   </trkpt>
   <trkpt lat="52.501734" lon="13.417511">
    <ele>39</ele>
    <time>2024-07-31T19:05:56.000Z</time>
   </trkpt>
   <trkpt lat="52.501537" lon="13.418289">
    <ele>38.8</ele>
    <time>2024-07-31T19:06:04.000Z</time>
   </trkpt>
   <trkpt lat="52.501451" lon="13.418635">
    <ele>38.6</ele>
    <time>2024-07-31T19:06:08.000Z</time>
   </trkpt>
   <trkpt lat="52.50142" lon="13.418724">
    <ele>38.6</ele>
    <time>2024-07-31T19:06:09.000Z</time>
   </trkpt>
   <trkpt lat="52.501342" lon="13.419033">
    <ele>38.6</ele>
    <time>2024-07-31T19:06:14.000Z</time>
   </trkpt>
   <trkpt lat="52.501309" lon="13.419125">
    <ele>38.6</ele>
    <time>2024-07-31T19:06:18.000Z</time>
   </trkpt>
   <trkpt lat="52.50129" lon="13.419176">
    <ele>38.6</ele>
    <time>2024-07-31T19:06:23.000Z</time>
   </trkpt>
   <trkpt lat="52.50125" lon="13.419286">
    <ele>38.6</ele>
    <time>2024-07-31T19:06:26.000Z</time>
   </trkpt>
   <trkpt lat="52.501219" lon="13.41941">
    <ele>38.6</ele>
    <time>2024-07-31T19:06:28.000Z</time>
   </trkpt>
   <trkpt lat="52.501206" lon="13.419475">
    <ele>38.6</ele>
    <time>2024-07-31T19:06:29.000Z</time>
   </trkpt>
   <trkpt lat="52.501112" lon="13.419895">
    <ele>38.4</ele>
    <time>2024-07-31T19:06:34.000Z</time>
   </trkpt>
   <trkpt lat="52.501089" lon="13.41998">
    <ele>38.4</ele>
    <time>2024-07-31T19:06:35.000Z</time>
   </trkpt>
   <trkpt lat="52.500908" lon="13.420672">
    <ele>38.4</ele>
    <time>2024-07-31T19:06:43.000Z</time>
   </trkpt>
   <trkpt lat="52.500836" lon="13.420951">
    <ele>38.4</ele>
    <time>2024-07-31T19:06:46.000Z</time>
   </trkpt>
   <trkpt lat="52.500773" lon="13.421237">
    <ele>38.6</ele>
    <time>2024-07-31T19:06:49.000Z</time>
   </trkpt>
   <trkpt lat="52.50063" lon="13.421864">
    <ele>38.8</ele>
    <time>2024-07-31T19:06:56.000Z</time>
   </trkpt>
   <trkpt lat="52.500549" lon="13.422214">
    <ele>38.8</ele>
    <time>2024-07-31T19:07:01.000Z</time>
   </trkpt>
   <trkpt lat="52.500427" lon="13.422664">
    <ele>38.8</ele>
    <time>2024-07-31T19:07:07.000Z</time>
   </trkpt>
   <trkpt lat="52.500382" lon="13.422722">
    <ele>38.6</ele>
    <time>2024-07-31T19:07:08.000Z</time>
   </trkpt>
   <trkpt lat="52.500311" lon="13.422853">
    <ele>38.8</ele>
    <time>2024-07-31T19:07:10.000Z</time>
   </trkpt>
   <trkpt lat="52.500282" lon="13.422927">
    <ele>38.4</ele>
    <time>2024-07-31T19:07:11.000Z</time>
   </trkpt>
   <trkpt lat="52.500205" lon="13.423136">
    <ele>38.6</ele>
    <time>2024-07-31T19:07:14.000Z</time>
   </trkpt>
   <trkpt lat="52.500142" lon="13.423366">
    <ele>38.4</ele>
    <time>2024-07-31T19:07:17.000Z</time>
   </trkpt>
   <trkpt lat="52.500044" lon="13.423787">
    <ele>38.4</ele>
    <time>2024-07-31T19:07:22.000Z</time>
   </trkpt>
   <trkpt lat="52.5" lon="13.423941">
    <ele>38.4</ele>
    <time>2024-07-31T19:07:24.000Z</time>
   </trkpt>
   <trkpt lat="52.499892" lon="13.424341">
    <ele>38.6</ele>
    <time>2024-07-31T19:07:29.000Z</time>
   </trkpt>
   <trkpt lat="52.499815" lon="13.424568">
    <ele>38.6</ele>
    <time>2024-07-31T19:07:32.000Z</time>
   </trkpt>
   <trkpt lat="52.499752" lon="13.424814">
    <ele>38.6</ele>
    <time>2024-07-31T19:07:35.000Z</time>
   </trkpt>
   <trkpt lat="52.499705" lon="13.42496">
    <ele>38.6</ele>
    <time>2024-07-31T19:07:37.000Z</time>
   </trkpt>
   <trkpt lat="52.49965" lon="13.425114">
    <ele>38.6</ele>
    <time>2024-07-31T19:07:39.000Z</time>
   </trkpt>
   <trkpt lat="52.499616" lon="13.425239">
    <ele>38.6</ele>
    <time>2024-07-31T19:07:41.000Z</time>
   </trkpt>
   <trkpt lat="52.499593" lon="13.425357">
    <ele>38.6</ele>
    <time>2024-07-31T19:07:43.000Z</time>
   </trkpt>
   <trkpt lat="52.499533" lon="13.4256">
    <ele>38.6</ele>
    <time>2024-07-31T19:07:47.000Z</time>
   </trkpt>
   <trkpt lat="52.499514" lon="13.425673">
    <ele>38.6</ele>
    <time>2024-07-31T19:07:48.000Z</time>
   </trkpt>
   <trkpt lat="52.499421" lon="13.42594">
    <ele>38.6</ele>
    <time>2024-07-31T19:07:53.000Z</time>
   </trkpt>
   <trkpt lat="52.499405" lon="13.425996">
    <ele>38.6</ele>
    <time>2024-07-31T19:07:54.000Z</time>
   </trkpt>
   <trkpt lat="52.499257" lon="13.426369">
    <ele>38.8</ele>
    <time>2024-07-31T19:08:00.000Z</time>
   </trkpt>
   <trkpt lat="52.499221" lon="13.426477">
    <ele>38.8</ele>
    <time>2024-07-31T19:08:02.000Z</time>
   </trkpt>
   <trkpt lat="52.4992" lon="13.426557">
    <ele>38.8</ele>
    <time>2024-07-31T19:08:04.000Z</time>
   </trkpt>
   <trkpt lat="52.499171" lon="13.426659">
    <ele>39</ele>
    <time>2024-07-31T19:08:06.000Z</time>
   </trkpt>
   <trkpt lat="52.49914" lon="13.426718">
    <ele>39</ele>
    <time>2024-07-31T19:08:07.000Z</time>
   </trkpt>
   <trkpt lat="52.499056" lon="13.426933">
    <ele>39</ele>
    <time>2024-07-31T19:08:10.000Z</time>
   </trkpt>
   <trkpt lat="52.498978" lon="13.42717">
    <ele>38.8</ele>
    <time>2024-07-31T19:08:13.000Z</time>
   </trkpt>
   <trkpt lat="52.498958" lon="13.427227">
    <ele>38.8</ele>
    <time>2024-07-31T19:08:14.000Z</time>
   </trkpt>
   <trkpt lat="52.498919" lon="13.427312">
    <ele>38.8</ele>
    <time>2024-07-31T19:08:16.000Z</time>
   </trkpt>
   <trkpt lat="52.49882" lon="13.427672">
    <ele>39</ele>
    <time>2024-07-31T19:08:21.000Z</time>
   </trkpt>
   <trkpt lat="52.498786" lon="13.42784">
    <ele>39.2</ele>
    <time>2024-07-31T19:08:23.000Z</time>
   </trkpt>
   <trkpt lat="52.498707" lon="13.428188">
    <ele>39.4</ele>
    <time>2024-07-31T19:08:27.000Z</time>
   </trkpt>
   <trkpt lat="52.498671" lon="13.428274">
    <ele>39.4</ele>
    <time>2024-07-31T19:08:28.000Z</time>
   </trkpt>
   <trkpt lat="52.498564" lon="13.42875">
    <ele>39.4</ele>
    <time>2024-07-31T19:08:33.000Z</time>
   </trkpt>
   <trkpt lat="52.498326" lon="13.429349">
    <ele>39.2</ele>
    <time>2024-07-31T19:08:40.000Z</time>
   </trkpt>
   <trkpt lat="52.498142" lon="13.42973">
    <ele>38.8</ele>
    <time>2024-07-31T19:08:45.000Z</time>
   </trkpt>
   <trkpt lat="52.498108" lon="13.429825">
    <ele>38.8</ele>
    <time>2024-07-31T19:08:46.000Z</time>
   </trkpt>
   <trkpt lat="52.497943" lon="13.430282">
    <ele>38.8</ele>
    <time>2024-07-31T19:08:52.000Z</time>
   </trkpt>
   <trkpt lat="52.497883" lon="13.430467">
    <ele>38.8</ele>
    <time>2024-07-31T19:08:54.000Z</time>
   </trkpt>
   <trkpt lat="52.497832" lon="13.430618">
    <ele>38.8</ele>
    <time>2024-07-31T19:08:56.000Z</time>
   </trkpt>
   <trkpt lat="52.497773" lon="13.430773">
    <ele>38.6</ele>
    <time>2024-07-31T19:08:58.000Z</time>
   </trkpt>
   <trkpt lat="52.497618" lon="13.431192">
    <ele>38.6</ele>
    <time>2024-07-31T19:09:03.000Z</time>
   </trkpt>
   <trkpt lat="52.497593" lon="13.431273">
    <ele>39</ele>
    <time>2024-07-31T19:09:04.000Z</time>
   </trkpt>
   <trkpt lat="52.497507" lon="13.431512">
    <ele>38.8</ele>
    <time>2024-07-31T19:09:07.000Z</time>
   </trkpt>
   <trkpt lat="52.49748" lon="13.431583">
    <ele>38.8</ele>
    <time>2024-07-31T19:09:08.000Z</time>
   </trkpt>
   <trkpt lat="52.49737" lon="13.431864">
    <ele>39</ele>
    <time>2024-07-31T19:09:12.000Z</time>
   </trkpt>
   <trkpt lat="52.497335" lon="13.43194">
    <ele>39</ele>
    <time>2024-07-31T19:09:13.000Z</time>
   </trkpt>
   <trkpt lat="52.497243" lon="13.432283">
    <ele>39</ele>
    <time>2024-07-31T19:09:17.000Z</time>
   </trkpt>
   <trkpt lat="52.497215" lon="13.432375">
    <ele>39</ele>
    <time>2024-07-31T19:09:18.000Z</time>
   </trkpt>
   <trkpt lat="52.497108" lon="13.432722">
    <ele>39</ele>
    <time>2024-07-31T19:09:22.000Z</time>
   </trkpt>
   <trkpt lat="52.496936" lon="13.433242">
    <ele>38.8</ele>
    <time>2024-07-31T19:09:28.000Z</time>
   </trkpt>
   <trkpt lat="52.496824" lon="13.4336">
    <ele>38.6</ele>
    <time>2024-07-31T19:09:32.000Z</time>
   </trkpt>
   <trkpt lat="52.496731" lon="13.433827">
    <ele>38.6</ele>
    <time>2024-07-31T19:09:35.000Z</time>
   </trkpt>
   <trkpt lat="52.496555" lon="13.434385">
    <ele>38.6</ele>
    <time>2024-07-31T19:09:41.000Z</time>
   </trkpt>
   <trkpt lat="52.496511" lon="13.434468">
    <ele>38.6</ele>
    <time>2024-07-31T19:09:42.000Z</time>
   </trkpt>
   <trkpt lat="52.496318" lon="13.435127">
    <ele>38.6</ele>
    <time>2024-07-31T19:09:49.000Z</time>
   </trkpt>
   <trkpt lat="52.496174" lon="13.435573">
    <ele>38.6</ele>
    <time>2024-07-31T19:09:54.000Z</time>
   </trkpt>
   <trkpt lat="52.496135" lon="13.435667">
    <ele>38.8</ele>
    <time>2024-07-31T19:09:55.000Z</time>
   </trkpt>
   <trkpt lat="52.495926" lon="13.436397">
    <ele>39</ele>
    <time>2024-07-31T19:10:03.000Z</time>
   </trkpt>
   <trkpt lat="52.49579" lon="13.436745">
    <ele>38.8</ele>
    <time>2024-07-31T19:10:07.000Z</time>
   </trkpt>
   <trkpt lat="52.495748" lon="13.436811">
    <ele>38.8</ele>
    <time>2024-07-31T19:10:08.000Z</time>
   </trkpt>
   <trkpt lat="52.495727" lon="13.436874">
    <ele>38.8</ele>
    <time>2024-07-31T19:10:09.000Z</time>
   </trkpt>
   <trkpt lat="52.49563" lon="13.437179">
    <ele>38.8</ele>
    <time>2024-07-31T19:10:13.000Z</time>
   </trkpt>
   <trkpt lat="52.495595" lon="13.437301">
    <ele>38.8</ele>
    <time>2024-07-31T19:10:15.000Z</time>
   </trkpt>
   <trkpt lat="52.495553" lon="13.437446">
    <ele>38.8</ele>
    <time>2024-07-31T19:10:17.000Z</time>
   </trkpt>
   <trkpt lat="52.495535" lon="13.437493">
    <ele>38.8</ele>
    <time>2024-07-31T19:10:18.000Z</time>
   </trkpt>
   <trkpt lat="52.49551" lon="13.43757">
    <ele>38.8</ele>
    <time>2024-07-31T19:10:19.000Z</time>
   </trkpt>
   <trkpt lat="52.495459" lon="13.437752">
    <ele>39</ele>
    <time>2024-07-31T19:10:22.000Z</time>
   </trkpt>
   <trkpt lat="52.495339" lon="13.438086">
    <ele>39</ele>
    <time>2024-07-31T19:10:28.000Z</time>
   </trkpt>
   <trkpt lat="52.495311" lon="13.438147">
    <ele>39</ele>
    <time>2024-07-31T19:10:29.000Z</time>
   </trkpt>
   <trkpt lat="52.495256" lon="13.438284">
    <ele>39</ele>
    <time>2024-07-31T19:10:31.000Z</time>
   </trkpt>
   <trkpt lat="52.495145" lon="13.438547">
    <ele>39</ele>
    <time>2024-07-31T19:10:35.000Z</time>
   </trkpt>
   <trkpt lat="52.495119" lon="13.438615">
    <ele>39</ele>
    <time>2024-07-31T19:10:36.000Z</time>
   </trkpt>
   <trkpt lat="52.495047" lon="13.438826">
    <ele>39</ele>
    <time>2024-07-31T19:10:39.000Z</time>
   </trkpt>
   <trkpt lat="52.494887" lon="13.439281">
    <ele>39.2</ele>
    <time>2024-07-31T19:10:45.000Z</time>
   </trkpt>
   <trkpt lat="52.494754" lon="13.439674">
    <ele>39.2</ele>
    <time>2024-07-31T19:10:50.000Z</time>
   </trkpt>
   <trkpt lat="52.494548" lon="13.440294">
    <ele>39</ele>
    <time>2024-07-31T19:10:57.000Z</time>
   </trkpt>
   <trkpt lat="52.494524" lon="13.440383">
    <ele>39</ele>
    <time>2024-07-31T19:10:58.000Z</time>
   </trkpt>
   <trkpt lat="52.494425" lon="13.440636">
    <ele>38.8</ele>
    <time>2024-07-31T19:11:01.000Z</time>
   </trkpt>
   <trkpt lat="52.494401" lon="13.440706">
    <ele>38.8</ele>
    <time>2024-07-31T19:11:02.000Z</time>
   </trkpt>
   <trkpt lat="52.494142" lon="13.441423">
    <ele>38.8</ele>
    <time>2024-07-31T19:11:10.000Z</time>
   </trkpt>
   <trkpt lat="52.493939" lon="13.442085">
    <ele>38.8</ele>
    <time>2024-07-31T19:11:17.000Z</time>
   </trkpt>
   <trkpt lat="52.493757" lon="13.44265">
    <ele>38.4</ele>
    <time>2024-07-31T19:11:23.000Z</time>
   </trkpt>
   <trkpt lat="52.493736" lon="13.442842">
    <ele>38.4</ele>
    <time>2024-07-31T19:11:25.000Z</time>
   </trkpt>
   <trkpt lat="52.493769" lon="13.443078">
    <ele>38.4</ele>
    <time>2024-07-31T19:11:27.000Z</time>
   </trkpt>
   <trkpt lat="52.4938" lon="13.443172">
    <ele>38.4</ele>
    <time>2024-07-31T19:11:28.000Z</time>
   </trkpt>
   <trkpt lat="52.493838" lon="13.44326">
    <ele>38.4</ele>
    <time>2024-07-31T19:11:29.000Z</time>
   </trkpt>
   <trkpt lat="52.493991" lon="13.443494">
    <ele>38.2</ele>
    <time>2024-07-31T19:11:32.000Z</time>
   </trkpt>
   <trkpt lat="52.494256" lon="13.443855">
    <ele>37.8</ele>
    <time>2024-07-31T19:11:37.000Z</time>
   </trkpt>
   <trkpt lat="52.494337" lon="13.444027">
    <ele>37.8</ele>
    <time>2024-07-31T19:11:39.000Z</time>
   </trkpt>
   <trkpt lat="52.494394" lon="13.444104">
    <ele>37.6</ele>
    <time>2024-07-31T19:11:40.000Z</time>
   </trkpt>
   <trkpt lat="52.494508" lon="13.444252">
    <ele>37.2</ele>
    <time>2024-07-31T19:11:42.000Z</time>
   </trkpt>
   <trkpt lat="52.494799" lon="13.444633">
    <ele>36.8</ele>
    <time>2024-07-31T19:11:48.000Z</time>
   </trkpt>
   <trkpt lat="52.495063" lon="13.444965">
    <ele>37.2</ele>
    <time>2024-07-31T19:11:54.000Z</time>
   </trkpt>
   <trkpt lat="52.495295" lon="13.445267">
    <ele>37.4</ele>
    <time>2024-07-31T19:12:00.000Z</time>
   </trkpt>
   <trkpt lat="52.495329" lon="13.445311">
    <ele>37.6</ele>
    <time>2024-07-31T19:12:01.000Z</time>
   </trkpt>
   <trkpt lat="52.49556" lon="13.445615">
    <ele>37.6</ele>
    <time>2024-07-31T19:12:07.000Z</time>
   </trkpt>
   <trkpt lat="52.495662" lon="13.445759">
    <ele>37.6</ele>
    <time>2024-07-31T19:12:10.000Z</time>
   </trkpt>
   <trkpt lat="52.495762" lon="13.445974">
    <ele>37.6</ele>
    <time>2024-07-31T19:12:14.000Z</time>
   </trkpt>
   <trkpt lat="52.495852" lon="13.44619">
    <ele>37.6</ele>
    <time>2024-07-31T19:12:18.000Z</time>
   </trkpt>
   <trkpt lat="52.495934" lon="13.446323">
    <ele>37.8</ele>
    <time>2024-07-31T19:12:21.000Z</time>
   </trkpt>
   <trkpt lat="52.496008" lon="13.446412">
    <ele>37.8</ele>
    <time>2024-07-31T19:12:23.000Z</time>
   </trkpt>
   <trkpt lat="52.496086" lon="13.446506">
    <ele>38</ele>
    <time>2024-07-31T19:12:25.000Z</time>
   </trkpt>
   <trkpt lat="52.496166" lon="13.44661">
    <ele>38</ele>
    <time>2024-07-31T19:12:27.000Z</time>
   </trkpt>
   <trkpt lat="52.496249" lon="13.446712">
    <ele>38.2</ele>
    <time>2024-07-31T19:12:29.000Z</time>
   </trkpt>
   <trkpt lat="52.496288" lon="13.446765">
    <ele>38.2</ele>
    <time>2024-07-31T19:12:30.000Z</time>
   </trkpt>
   <trkpt lat="52.496419" lon="13.446932">
    <ele>38.2</ele>
    <time>2024-07-31T19:12:33.000Z</time>
   </trkpt>
   <trkpt lat="52.496509" lon="13.447044">
    <ele>38.4</ele>
    <time>2024-07-31T19:12:35.000Z</time>
   </trkpt>
   <trkpt lat="52.496554" lon="13.447104">
    <ele>38.4</ele>
    <time>2024-07-31T19:12:36.000Z</time>
   </trkpt>
   <trkpt lat="52.496634" lon="13.447208">
    <ele>38.6</ele>
    <time>2024-07-31T19:12:38.000Z</time>
   </trkpt>
   <trkpt lat="52.496673" lon="13.447271">
    <ele>38.6</ele>
    <time>2024-07-31T19:12:39.000Z</time>
   </trkpt>
   <trkpt lat="52.496841" lon="13.447492">
    <ele>38.8</ele>
    <time>2024-07-31T19:12:43.000Z</time>
   </trkpt>
   <trkpt lat="52.496927" lon="13.447602">
    <ele>38.8</ele>
    <time>2024-07-31T19:12:45.000Z</time>
   </trkpt>
   <trkpt lat="52.497189" lon="13.447953">
    <ele>38.8</ele>
    <time>2024-07-31T19:12:51.000Z</time>
   </trkpt>
   <trkpt lat="52.497244" lon="13.448004">
    <ele>38.8</ele>
    <time>2024-07-31T19:12:52.000Z</time>
   </trkpt>
   <trkpt lat="52.497276" lon="13.448063">
    <ele>38.8</ele>
    <time>2024-07-31T19:12:53.000Z</time>
   </trkpt>
   <trkpt lat="52.497395" lon="13.448174">
    <ele>38.8</ele>
    <time>2024-07-31T19:12:56.000Z</time>
   </trkpt>
   <trkpt lat="52.497484" lon="13.448351">
    <ele>39</ele>
    <time>2024-07-31T19:13:01.000Z</time>
   </trkpt>
   <trkpt lat="52.49748" lon="13.448397">
    <ele>39.2</ele>
    <time>2024-07-31T19:13:02.000Z</time>
   </trkpt>
   <trkpt lat="52.497441" lon="13.448481">
    <ele>39.2</ele>
    <time>2024-07-31T19:13:04.000Z</time>
   </trkpt>
   <trkpt lat="52.497413" lon="13.448528">
    <ele>39.4</ele>
    <time>2024-07-31T19:13:05.000Z</time>
   </trkpt>
   <trkpt lat="52.497316" lon="13.448711">
    <ele>39.6</ele>
    <time>2024-07-31T19:13:09.000Z</time>
   </trkpt>
   <trkpt lat="52.497132" lon="13.449041">
    <ele>39.4</ele>
    <time>2024-07-31T19:13:14.000Z</time>
   </trkpt>
   <trkpt lat="52.496763" lon="13.449657">
    <ele>38.6</ele>
    <time>2024-07-31T19:13:22.000Z</time>
   </trkpt>
   <trkpt lat="52.496471" lon="13.450125">
    <ele>38.6</ele>
    <time>2024-07-31T19:13:29.000Z</time>
   </trkpt>
   <trkpt lat="52.49607" lon="13.450792">
    <ele>39</ele>
    <time>2024-07-31T19:13:38.000Z</time>
   </trkpt>
   <trkpt lat="52.496025" lon="13.450867">
    <ele>38.8</ele>
    <time>2024-07-31T19:13:39.000Z</time>
   </trkpt>
   <trkpt lat="52.495616" lon="13.451518">
    <ele>38.2</ele>
    <time>2024-07-31T19:13:48.000Z</time>
   </trkpt>
   <trkpt lat="52.495256" lon="13.452126">
    <ele>38.2</ele>
    <time>2024-07-31T19:13:57.000Z</time>
   </trkpt>
   <trkpt lat="52.495172" lon="13.452218">
    <ele>38.2</ele>
    <time>2024-07-31T19:13:59.000Z</time>
   </trkpt>
   <trkpt lat="52.495097" lon="13.452323">
    <ele>38</ele>
    <time>2024-07-31T19:14:01.000Z</time>
   </trkpt>
   <trkpt lat="52.495019" lon="13.452416">
    <ele>38</ele>
    <time>2024-07-31T19:14:03.000Z</time>
   </trkpt>
   <trkpt lat="52.494904" lon="13.452592">
    <ele>38.2</ele>
    <time>2024-07-31T19:14:06.000Z</time>
   </trkpt>
   <trkpt lat="52.494785" lon="13.452801">
    <ele>38</ele>
    <time>2024-07-31T19:14:09.000Z</time>
   </trkpt>
   <trkpt lat="52.494664" lon="13.452971">
    <ele>38.2</ele>
    <time>2024-07-31T19:14:12.000Z</time>
   </trkpt>
   <trkpt lat="52.494541" lon="13.453153">
    <ele>38.2</ele>
    <time>2024-07-31T19:14:15.000Z</time>
   </trkpt>
   <trkpt lat="52.494399" lon="13.453383">
    <ele>37.8</ele>
    <time>2024-07-31T19:14:19.000Z</time>
   </trkpt>
   <trkpt lat="52.494269" lon="13.453608">
    <ele>37.8</ele>
    <time>2024-07-31T19:14:22.000Z</time>
   </trkpt>
   <trkpt lat="52.49416" lon="13.453743">
    <ele>37.8</ele>
    <time>2024-07-31T19:14:25.000Z</time>
   </trkpt>
   <trkpt lat="52.494091" lon="13.453913">
    <ele>37.8</ele>
    <time>2024-07-31T19:14:28.000Z</time>
   </trkpt>
   <trkpt lat="52.494039" lon="13.453988">
    <ele>37.8</ele>
    <time>2024-07-31T19:14:29.000Z</time>
   </trkpt>
   <trkpt lat="52.494022" lon="13.454018">
    <ele>37.8</ele>
    <time>2024-07-31T19:14:30.000Z</time>
   </trkpt>
   <trkpt lat="52.493873" lon="13.454295">
    <ele>37.8</ele>
    <time>2024-07-31T19:14:33.000Z</time>
   </trkpt>
   <trkpt lat="52.493842" lon="13.454351">
    <ele>37.8</ele>
    <time>2024-07-31T19:14:34.000Z</time>
   </trkpt>
   <trkpt lat="52.493635" lon="13.454689">
    <ele>37.8</ele>
    <time>2024-07-31T19:14:40.000Z</time>
   </trkpt>
   <trkpt lat="52.493598" lon="13.454749">
    <ele>37.8</ele>
    <time>2024-07-31T19:14:41.000Z</time>
   </trkpt>
   <trkpt lat="52.493469" lon="13.45497">
    <ele>37.8</ele>
    <time>2024-07-31T19:14:45.000Z</time>
   </trkpt>
   <trkpt lat="52.493291" lon="13.45521">
    <ele>37.8</ele>
    <time>2024-07-31T19:14:50.000Z</time>
   </trkpt>
   <trkpt lat="52.493182" lon="13.455346">
    <ele>37.8</ele>
    <time>2024-07-31T19:14:52.000Z</time>
   </trkpt>
   <trkpt lat="52.492991" lon="13.455609">
    <ele>37.8</ele>
    <time>2024-07-31T19:14:55.000Z</time>
   </trkpt>
   <trkpt lat="52.492934" lon="13.455709">
    <ele>37.8</ele>
    <time>2024-07-31T19:14:56.000Z</time>
   </trkpt>
   <trkpt lat="52.492747" lon="13.456031">
    <ele>38</ele>
    <time>2024-07-31T19:15:00.000Z</time>
   </trkpt>
   <trkpt lat="52.492612" lon="13.456273">
    <ele>38</ele>
    <time>2024-07-31T19:15:03.000Z</time>
   </trkpt>
   <trkpt lat="52.492489" lon="13.456455">
    <ele>38</ele>
    <time>2024-07-31T19:15:05.000Z</time>
   </trkpt>
   <trkpt lat="52.492418" lon="13.456535">
    <ele>38</ele>
    <time>2024-07-31T19:15:06.000Z</time>
   </trkpt>
   <trkpt lat="52.492269" lon="13.456827">
    <ele>37.8</ele>
    <time>2024-07-31T19:15:11.000Z</time>
   </trkpt>
   <trkpt lat="52.492246" lon="13.456886">
    <ele>38</ele>
    <time>2024-07-31T19:15:12.000Z</time>
   </trkpt>
   <trkpt lat="52.492254" lon="13.456975">
    <ele>38</ele>
    <time>2024-07-31T19:15:14.000Z</time>
   </trkpt>
   <trkpt lat="52.492256" lon="13.45699">
    <ele>38</ele>
    <time>2024-07-31T19:15:15.000Z</time>
   </trkpt>
   <trkpt lat="52.492224" lon="13.457073">
    <ele>38</ele>
    <time>2024-07-31T19:15:18.000Z</time>
   </trkpt>
   <trkpt lat="52.492079" lon="13.457284">
    <ele>38</ele>
    <time>2024-07-31T19:15:24.000Z</time>
   </trkpt>
   <trkpt lat="52.49199" lon="13.457501">
    <ele>37.8</ele>
    <time>2024-07-31T19:15:30.000Z</time>
   </trkpt>
   <trkpt lat="52.491795" lon="13.457562">
    <ele>37.8</ele>
    <time>2024-07-31T19:15:35.000Z</time>
   </trkpt>
   <trkpt lat="52.491741" lon="13.457564">
    <ele>37.8</ele>
    <time>2024-07-31T19:15:37.000Z</time>
   </trkpt>
   <trkpt lat="52.491689" lon="13.457515">
    <ele>37.8</ele>
    <time>2024-07-31T19:15:39.000Z</time>
   </trkpt>
   <trkpt lat="52.491662" lon="13.457494">
    <ele>37.8</ele>
    <time>2024-07-31T19:15:40.000Z</time>
   </trkpt>
   <trkpt lat="52.491612" lon="13.457526">
    <ele>37.8</ele>
    <time>2024-07-31T19:15:42.000Z</time>
   </trkpt>
   <trkpt lat="52.491535" lon="13.457752">
    <ele>37.8</ele>
    <time>2024-07-31T19:15:47.000Z</time>
   </trkpt>
   <trkpt lat="52.491509" lon="13.45779">
    <ele>37.8</ele>
    <time>2024-07-31T19:15:48.000Z</time>
   </trkpt>
   <trkpt lat="52.491475" lon="13.457841">
    <ele>37.8</ele>
    <time>2024-07-31T19:15:49.000Z</time>
   </trkpt>
   <trkpt lat="52.491366" lon="13.458013">
    <ele>37.8</ele>
    <time>2024-07-31T19:15:53.000Z</time>
   </trkpt>
   <trkpt lat="52.491351" lon="13.458042">
    <ele>37.8</ele>
    <time>2024-07-31T19:15:54.000Z</time>
   </trkpt>
   <trkpt lat="52.491289" lon="13.458134">
    <ele>37.8</ele>
    <time>2024-07-31T19:15:56.000Z</time>
   </trkpt>
   <trkpt lat="52.491263" lon="13.458193">
    <ele>37.8</ele>
    <time>2024-07-31T19:15:57.000Z</time>
   </trkpt>
   <trkpt lat="52.491213" lon="13.458288">
    <ele>37.8</ele>
    <time>2024-07-31T19:15:59.000Z</time>
   </trkpt>
   <trkpt lat="52.491108" lon="13.458459">
    <ele>37.8</ele>
    <time>2024-07-31T19:16:02.000Z</time>
   </trkpt>
   <trkpt lat="52.490965" lon="13.458657">
    <ele>37.6</ele>
    <time>2024-07-31T19:16:06.000Z</time>
   </trkpt>
   <trkpt lat="52.490755" lon="13.459002">
    <ele>37.4</ele>
    <time>2024-07-31T19:16:12.000Z</time>
   </trkpt>
   <trkpt lat="52.490719" lon="13.459088">
    <ele>37.4</ele>
    <time>2024-07-31T19:16:13.000Z</time>
   </trkpt>
   <trkpt lat="52.490652" lon="13.459204">
    <ele>37.4</ele>
    <time>2024-07-31T19:16:15.000Z</time>
   </trkpt>
   <trkpt lat="52.490506" lon="13.459407">
    <ele>37</ele>
    <time>2024-07-31T19:16:18.000Z</time>
   </trkpt>
   <trkpt lat="52.490404" lon="13.459556">
    <ele>36.8</ele>
    <time>2024-07-31T19:16:20.000Z</time>
   </trkpt>
   <trkpt lat="52.490264" lon="13.45979">
    <ele>36.6</ele>
    <time>2024-07-31T19:16:23.000Z</time>
   </trkpt>
   <trkpt lat="52.490158" lon="13.460013">
    <ele>36.6</ele>
    <time>2024-07-31T19:16:26.000Z</time>
   </trkpt>
   <trkpt lat="52.490057" lon="13.460169">
    <ele>36.6</ele>
    <time>2024-07-31T19:16:28.000Z</time>
   </trkpt>
   <trkpt lat="52.489682" lon="13.460704">
    <ele>36.6</ele>
    <time>2024-07-31T19:16:35.000Z</time>
   </trkpt>
   <trkpt lat="52.489273" lon="13.461315">
    <ele>36.6</ele>
    <time>2024-07-31T19:16:43.000Z</time>
   </trkpt>
   <trkpt lat="52.489072" lon="13.461632">
    <ele>36.6</ele>
    <time>2024-07-31T19:16:47.000Z</time>
   </trkpt>
   <trkpt lat="52.488638" lon="13.462264">
    <ele>36.8</ele>
    <time>2024-07-31T19:16:55.000Z</time>
   </trkpt>
   <trkpt lat="52.488488" lon="13.462496">
    <ele>36.8</ele>
    <time>2024-07-31T19:16:58.000Z</time>
   </trkpt>
   <trkpt lat="52.488085" lon="13.463101">
    <ele>36.8</ele>
    <time>2024-07-31T19:17:06.000Z</time>
   </trkpt>
   <trkpt lat="52.487584" lon="13.463771">
    <ele>36.8</ele>
    <time>2024-07-31T19:17:14.000Z</time>
   </trkpt>
   <trkpt lat="52.487471" lon="13.463932">
    <ele>36.8</ele>
    <time>2024-07-31T19:17:16.000Z</time>
   </trkpt>
   <trkpt lat="52.487131" lon="13.464458">
    <ele>36.8</ele>
    <time>2024-07-31T19:17:22.000Z</time>
   </trkpt>
   <trkpt lat="52.486731" lon="13.465054">
    <ele>36.8</ele>
    <time>2024-07-31T19:17:29.000Z</time>
   </trkpt>
   <trkpt lat="52.486328" lon="13.465635">
    <ele>36.6</ele>
    <time>2024-07-31T19:17:36.000Z</time>
   </trkpt>
   <trkpt lat="52.485896" lon="13.466331">
    <ele>36.4</ele>
    <time>2024-07-31T19:17:44.000Z</time>
   </trkpt>
   <trkpt lat="52.485855" lon="13.466398">
    <ele>36.4</ele>
    <time>2024-07-31T19:17:45.000Z</time>
   </trkpt>
   <trkpt lat="52.485624" lon="13.466748">
    <ele>36.4</ele>
    <time>2024-07-31T19:17:49.000Z</time>
   </trkpt>
   <trkpt lat="52.485572" lon="13.466835">
    <ele>36.4</ele>
    <time>2024-07-31T19:17:50.000Z</time>
   </trkpt>
   <trkpt lat="52.485218" lon="13.46733">
    <ele>36.2</ele>
    <time>2024-07-31T19:17:56.000Z</time>
   </trkpt>
   <trkpt lat="52.484831" lon="13.467907">
    <ele>36.4</ele>
    <time>2024-07-31T19:18:03.000Z</time>
   </trkpt>
   <trkpt lat="52.484429" lon="13.468569">
    <ele>36.4</ele>
    <time>2024-07-31T19:18:11.000Z</time>
   </trkpt>
   <trkpt lat="52.484112" lon="13.469009">
    <ele>36.6</ele>
    <time>2024-07-31T19:18:17.000Z</time>
   </trkpt>
   <trkpt lat="52.483746" lon="13.469595">
    <ele>36.8</ele>
    <time>2024-07-31T19:18:25.000Z</time>
   </trkpt>
   <trkpt lat="52.483359" lon="13.470109">
    <ele>36.8</ele>
    <time>2024-07-31T19:18:32.000Z</time>
   </trkpt>
   <trkpt lat="52.483309" lon="13.470185">
    <ele>36.8</ele>
    <time>2024-07-31T19:18:33.000Z</time>
   </trkpt>
   <trkpt lat="52.483169" lon="13.470405">
    <ele>36.8</ele>
    <time>2024-07-31T19:18:36.000Z</time>
   </trkpt>
   <trkpt lat="52.482852" lon="13.470844">
    <ele>37</ele>
    <time>2024-07-31T19:18:42.000Z</time>
   </trkpt>
   <trkpt lat="52.482526" lon="13.471382">
    <ele>37</ele>
    <time>2024-07-31T19:18:49.000Z</time>
   </trkpt>
   <trkpt lat="52.482473" lon="13.471455">
    <ele>37</ele>
    <time>2024-07-31T19:18:50.000Z</time>
   </trkpt>
   <trkpt lat="52.482022" lon="13.472074">
    <ele>37.2</ele>
    <time>2024-07-31T19:18:58.000Z</time>
   </trkpt>
   <trkpt lat="52.481967" lon="13.47215">
    <ele>37.2</ele>
    <time>2024-07-31T19:18:59.000Z</time>
   </trkpt>
   <trkpt lat="52.481613" lon="13.4726">
    <ele>37.2</ele>
    <time>2024-07-31T19:19:05.000Z</time>
   </trkpt>
   <trkpt lat="52.481152" lon="13.473277">
    <ele>36.8</ele>
    <time>2024-07-31T19:19:13.000Z</time>
   </trkpt>
   <trkpt lat="52.481098" lon="13.473361">
    <ele>36.8</ele>
    <time>2024-07-31T19:19:14.000Z</time>
   </trkpt>
   <trkpt lat="52.480694" lon="13.473957">
    <ele>37.2</ele>
    <time>2024-07-31T19:19:21.000Z</time>
   </trkpt>
   <trkpt lat="52.480276" lon="13.474553">
    <ele>37.2</ele>
    <time>2024-07-31T19:19:28.000Z</time>
   </trkpt>
   <trkpt lat="52.480168" lon="13.474709">
    <ele>37</ele>
    <time>2024-07-31T19:19:30.000Z</time>
   </trkpt>
   <trkpt lat="52.479822" lon="13.475233">
    <ele>37</ele>
    <time>2024-07-31T19:19:37.000Z</time>
   </trkpt>
   <trkpt lat="52.479385" lon="13.475887">
    <ele>36.8</ele>
    <time>2024-07-31T19:19:45.000Z</time>
   </trkpt>
   <trkpt lat="52.478983" lon="13.476506">
    <ele>37</ele>
    <time>2024-07-31T19:19:52.000Z</time>
   </trkpt>
   <trkpt lat="52.478546" lon="13.477182">
    <ele>37</ele>
    <time>2024-07-31T19:20:00.000Z</time>
   </trkpt>
   <trkpt lat="52.478286" lon="13.47757">
    <ele>37</ele>
    <time>2024-07-31T19:20:05.000Z</time>
   </trkpt>
   <trkpt lat="52.478076" lon="13.477882">
    <ele>37.2</ele>
    <time>2024-07-31T19:20:10.000Z</time>
   </trkpt>
   <trkpt lat="52.478033" lon="13.477953">
    <ele>37.2</ele>
    <time>2024-07-31T19:20:11.000Z</time>
   </trkpt>
   <trkpt lat="52.477931" lon="13.478108">
    <ele>37.2</ele>
    <time>2024-07-31T19:20:14.000Z</time>
   </trkpt>
   <trkpt lat="52.477899" lon="13.478154">
    <ele>37.2</ele>
    <time>2024-07-31T19:20:15.000Z</time>
   </trkpt>
   <trkpt lat="52.477754" lon="13.478378">
    <ele>37.2</ele>
    <time>2024-07-31T19:20:19.000Z</time>
   </trkpt>
   <trkpt lat="52.477715" lon="13.478422">
    <ele>37.2</ele>
    <time>2024-07-31T19:20:20.000Z</time>
   </trkpt>
   <trkpt lat="52.47768" lon="13.478442">
    <ele>37.4</ele>
    <time>2024-07-31T19:20:21.000Z</time>
   </trkpt>
   <trkpt lat="52.477571" lon="13.478418">
    <ele>37.2</ele>
    <time>2024-07-31T19:20:23.000Z</time>
   </trkpt>
   <trkpt lat="52.477461" lon="13.478278">
    <ele>37.2</ele>
    <time>2024-07-31T19:20:25.000Z</time>
   </trkpt>
   <trkpt lat="52.477423" lon="13.478213">
    <ele>37.2</ele>
    <time>2024-07-31T19:20:26.000Z</time>
   </trkpt>
   <trkpt lat="52.477103" lon="13.477636">
    <ele>37.2</ele>
    <time>2024-07-31T19:20:32.000Z</time>
   </trkpt>
   <trkpt lat="52.476872" lon="13.477247">
    <ele>36.6</ele>
    <time>2024-07-31T19:20:36.000Z</time>
   </trkpt>
   <trkpt lat="52.476553" lon="13.476659">
    <ele>36.2</ele>
    <time>2024-07-31T19:20:42.000Z</time>
   </trkpt>
   <trkpt lat="52.476407" lon="13.476389">
    <ele>36</ele>
    <time>2024-07-31T19:20:45.000Z</time>
   </trkpt>
   <trkpt lat="52.476303" lon="13.476252">
    <ele>36.2</ele>
    <time>2024-07-31T19:20:47.000Z</time>
   </trkpt>
   <trkpt lat="52.476208" lon="13.476118">
    <ele>36</ele>
    <time>2024-07-31T19:20:49.000Z</time>
   </trkpt>
   <trkpt lat="52.476172" lon="13.476043">
    <ele>36</ele>
    <time>2024-07-31T19:20:50.000Z</time>
   </trkpt>
   <trkpt lat="52.476059" lon="13.475845">
    <ele>36.2</ele>
    <time>2024-07-31T19:20:53.000Z</time>
   </trkpt>
   <trkpt lat="52.476008" lon="13.475804">
    <ele>36.2</ele>
    <time>2024-07-31T19:20:54.000Z</time>
   </trkpt>
   <trkpt lat="52.475958" lon="13.475793">
    <ele>36.2</ele>
    <time>2024-07-31T19:20:55.000Z</time>
   </trkpt>
   <trkpt lat="52.475871" lon="13.475829">
    <ele>36.2</ele>
    <time>2024-07-31T19:20:57.000Z</time>
   </trkpt>
   <trkpt lat="52.475789" lon="13.475918">
    <ele>36.2</ele>
    <time>2024-07-31T19:20:59.000Z</time>
   </trkpt>
   <trkpt lat="52.475743" lon="13.476">
    <ele>36.2</ele>
    <time>2024-07-31T19:21:01.000Z</time>
   </trkpt>
   <trkpt lat="52.475719" lon="13.476053">
    <ele>36.2</ele>
    <time>2024-07-31T19:21:02.000Z</time>
   </trkpt>
   <trkpt lat="52.475612" lon="13.476246">
    <ele>36.2</ele>
    <time>2024-07-31T19:21:06.000Z</time>
   </trkpt>
   <trkpt lat="52.475516" lon="13.476415">
    <ele>36.4</ele>
    <time>2024-07-31T19:21:11.000Z</time>
   </trkpt>
  </trkseg>
 </trk>
</gpx>
