<?xml version="1.0" encoding="UTF-8"?>
<gpx creator="StravaGPX" version="1.1" xmlns="http://www.topografix.com/GPX/1/1">
 <metadata>
  <time>2019-10-14T13:20:02Z</time>
 </metadata>
 <trk>
  <name>Morning Ride</name>
  <type>1</type>
  <trkseg>
   <trkpt lat="-8.036736" lon="-34.892723">
    <ele>7.3</ele>
    <time>2019-10-14T13:20:02.000Z</time>
   </trkpt>
   <trkpt lat="-8.036883" lon="-34.892762">
    <ele>7.7</ele>
    <time>2019-10-14T13:21:08.000Z</time>
   </trkpt>
   <trkpt lat="-8.036858" lon="-34.892773">
    <ele>7.8</ele>
    <time>2019-10-14T13:21:10.000Z</time>
   </trkpt>
   <trkpt lat="-8.0369" lon="-34.892783">
    <ele>8</ele>
    <time>2019-10-14T13:21:15.000Z</time>
   </trkpt>
   <trkpt lat="-8.03695" lon="-34.892802">
    <ele>8.2</ele>
    <time>2019-10-14T13:21:17.000Z</time>
   </trkpt>
   <trkpt lat="-8.037004" lon="-34.892811">
    <ele>8.4</ele>
    <time>2019-10-14T13:21:19.000Z</time>
   </trkpt>
   <trkpt lat="-8.037034" lon="-34.892821">
    <ele>8.5</ele>
    <time>2019-10-14T13:21:20.000Z</time>
   </trkpt>
   <trkpt lat="-8.037065" lon="-34.892832">
    <ele>8.6</ele>
    <time>2019-10-14T13:21:21.000Z</time>
   </trkpt>
   <trkpt lat="-8.037093" lon="-34.89284">
    <ele>8.8</ele>
    <time>2019-10-14T13:21:22.000Z</time>
   </trkpt>
   <trkpt lat="-8.037125" lon="-34.892848">
    <ele>8.9</ele>
    <time>2019-10-14T13:21:23.000Z</time>
   </trkpt>
   <trkpt lat="-8.037162" lon="-34.892852">
    <ele>9.1</ele>
    <time>2019-10-14T13:21:24.000Z</time>
   </trkpt>
   <trkpt lat="-8.037187" lon="-34.892866">
    <ele>9.2</ele>
    <time>2019-10-14T13:21:25.000Z</time>
   </trkpt>
   <trkpt lat="-8.037214" lon="-34.892882">
    <ele>9.3</ele>
    <time>2019-10-14T13:21:26.000Z</time>
   </trkpt>
   <trkpt lat="-8.03724" lon="-34.892899">
    <ele>9.5</ele>
    <time>2019-10-14T13:21:27.000Z</time>
   </trkpt>
   <trkpt lat="-8.037266" lon="-34.892909">
    <ele>10</ele>
    <time>2019-10-14T13:21:28.000Z</time>
   </trkpt>
   <trkpt lat="-8.037308" lon="-34.892927">
    <ele>10</ele>
    <time>2019-10-14T13:21:30.000Z</time>
   </trkpt>
   <trkpt lat="-8.037295" lon="-34.892978">
    <ele>10</ele>
    <time>2019-10-14T13:21:32.000Z</time>
   </trkpt>
   <trkpt lat="-8.037282" lon="-34.893008">
    <ele>10</ele>
    <time>2019-10-14T13:21:33.000Z</time>
   </trkpt>
   <trkpt lat="-8.03727" lon="-34.893041">
    <ele>10</ele>
    <time>2019-10-14T13:21:34.000Z</time>
   </trkpt>
   <trkpt lat="-8.037254" lon="-34.893064">
    <ele>10</ele>
    <time>2019-10-14T13:21:35.000Z</time>
   </trkpt>
   <trkpt lat="-8.037228" lon="-34.893087">
    <ele>10</ele>
    <time>2019-10-14T13:21:36.000Z</time>
   </trkpt>
   <trkpt lat="-8.037216" lon="-34.893116">
    <ele>10</ele>
    <time>2019-10-14T13:21:37.000Z</time>
   </trkpt>
   <trkpt lat="-8.037201" lon="-34.893154">
    <ele>10</ele>
    <time>2019-10-14T13:21:38.000Z</time>
   </trkpt>
   <trkpt lat="-8.03719" lon="-34.893182">
    <ele>10</ele>
    <time>2019-10-14T13:21:39.000Z</time>
   </trkpt>
   <trkpt lat="-8.037177" lon="-34.893215">
    <ele>10</ele>
    <time>2019-10-14T13:21:40.000Z</time>
   </trkpt>
   <trkpt lat="-8.037163" lon="-34.893249">
    <ele>9.9</ele>
    <time>2019-10-14T13:21:41.000Z</time>
   </trkpt>
   <trkpt lat="-8.037151" lon="-34.893289">
    <ele>9.8</ele>
    <time>2019-10-14T13:21:42.000Z</time>
   </trkpt>
   <trkpt lat="-8.037145" lon="-34.893327">
    <ele>9.7</ele>
    <time>2019-10-14T13:21:43.000Z</time>
   </trkpt>
   <trkpt lat="-8.037135" lon="-34.893362">
    <ele>9.5</ele>
    <time>2019-10-14T13:21:44.000Z</time>
   </trkpt>
   <trkpt lat="-8.037124" lon="-34.893396">
    <ele>9.3</ele>
    <time>2019-10-14T13:21:45.000Z</time>
   </trkpt>
   <trkpt lat="-8.037117" lon="-34.893429">
    <ele>9</ele>
    <time>2019-10-14T13:21:46.000Z</time>
   </trkpt>
   <trkpt lat="-8.0371" lon="-34.89346">
    <ele>8.7</ele>
    <time>2019-10-14T13:21:47.000Z</time>
   </trkpt>
   <trkpt lat="-8.037087" lon="-34.893503">
    <ele>8.5</ele>
    <time>2019-10-14T13:21:48.000Z</time>
   </trkpt>
   <trkpt lat="-8.037081" lon="-34.893546">
    <ele>8.4</ele>
    <time>2019-10-14T13:21:49.000Z</time>
   </trkpt>
   <trkpt lat="-8.037072" lon="-34.893593">
    <ele>8.3</ele>
    <time>2019-10-14T13:21:50.000Z</time>
   </trkpt>
   <trkpt lat="-8.037062" lon="-34.893638">
    <ele>8.1</ele>
    <time>2019-10-14T13:21:51.000Z</time>
   </trkpt>
   <trkpt lat="-8.037052" lon="-34.893683">
    <ele>8.3</ele>
    <time>2019-10-14T13:21:52.000Z</time>
   </trkpt>
   <trkpt lat="-8.037041" lon="-34.893722">
    <ele>8.6</ele>
    <time>2019-10-14T13:21:53.000Z</time>
   </trkpt>
   <trkpt lat="-8.037034" lon="-34.893769">
    <ele>8.9</ele>
    <time>2019-10-14T13:21:54.000Z</time>
   </trkpt>
   <trkpt lat="-8.037024" lon="-34.893803">
    <ele>9.2</ele>
    <time>2019-10-14T13:21:55.000Z</time>
   </trkpt>
   <trkpt lat="-8.037015" lon="-34.893837">
    <ele>9.4</ele>
    <time>2019-10-14T13:21:56.000Z</time>
   </trkpt>
   <trkpt lat="-8.036986" lon="-34.893864">
    <ele>9.5</ele>
    <time>2019-10-14T13:21:57.000Z</time>
   </trkpt>
   <trkpt lat="-8.036963" lon="-34.893894">
    <ele>9.5</ele>
    <time>2019-10-14T13:21:58.000Z</time>
   </trkpt>
   <trkpt lat="-8.036952" lon="-34.893936">
    <ele>9.6</ele>
    <time>2019-10-14T13:21:59.000Z</time>
   </trkpt>
   <trkpt lat="-8.036938" lon="-34.893975">
    <ele>9.7</ele>
    <time>2019-10-14T13:22:00.000Z</time>
   </trkpt>
   <trkpt lat="-8.036928" lon="-34.89401">
    <ele>9.8</ele>
    <time>2019-10-14T13:22:01.000Z</time>
   </trkpt>
   <trkpt lat="-8.036911" lon="-34.894037">
    <ele>9.8</ele>
    <time>2019-10-14T13:22:02.000Z</time>
   </trkpt>
   <trkpt lat="-8.036892" lon="-34.894083">
    <ele>9.5</ele>
    <time>2019-10-14T13:22:04.000Z</time>
   </trkpt>
   <trkpt lat="-8.036878" lon="-34.89412">
    <ele>9.4</ele>
    <time>2019-10-14T13:22:06.000Z</time>
   </trkpt>
   <trkpt lat="-8.036879" lon="-34.894151">
    <ele>9.2</ele>
    <time>2019-10-14T13:22:08.000Z</time>
   </trkpt>
   <trkpt lat="-8.036898" lon="-34.894172">
    <ele>9.1</ele>
    <time>2019-10-14T13:22:10.000Z</time>
   </trkpt>
   <trkpt lat="-8.036921" lon="-34.894191">
    <ele>9</ele>
    <time>2019-10-14T13:22:12.000Z</time>
   </trkpt>
   <trkpt lat="-8.036973" lon="-34.89424">
    <ele>8.7</ele>
    <time>2019-10-14T13:23:04.000Z</time>
   </trkpt>
   <trkpt lat="-8.03705" lon="-34.894264">
    <ele>8</ele>
    <time>2019-10-14T13:23:06.000Z</time>
   </trkpt>
   <trkpt lat="-8.037084" lon="-34.894264">
    <ele>8</ele>
    <time>2019-10-14T13:23:07.000Z</time>
   </trkpt>
   <trkpt lat="-8.037132" lon="-34.894256">
    <ele>7.4</ele>
    <time>2019-10-14T13:23:08.000Z</time>
   </trkpt>
   <trkpt lat="-8.037174" lon="-34.894242">
    <ele>7.3</ele>
    <time>2019-10-14T13:23:09.000Z</time>
   </trkpt>
   <trkpt lat="-8.037211" lon="-34.894236">
    <ele>7.2</ele>
    <time>2019-10-14T13:23:10.000Z</time>
   </trkpt>
   <trkpt lat="-8.03725" lon="-34.894217">
    <ele>7.1</ele>
    <time>2019-10-14T13:23:11.000Z</time>
   </trkpt>
   <trkpt lat="-8.037284" lon="-34.894195">
    <ele>7</ele>
    <time>2019-10-14T13:23:12.000Z</time>
   </trkpt>
   <trkpt lat="-8.037305" lon="-34.894172">
    <ele>6.9</ele>
    <time>2019-10-14T13:23:13.000Z</time>
   </trkpt>
   <trkpt lat="-8.037336" lon="-34.894143">
    <ele>6.8</ele>
    <time>2019-10-14T13:23:14.000Z</time>
   </trkpt>
   <trkpt lat="-8.037363" lon="-34.894118">
    <ele>6.7</ele>
    <time>2019-10-14T13:23:15.000Z</time>
   </trkpt>
   <trkpt lat="-8.037397" lon="-34.894091">
    <ele>6.6</ele>
    <time>2019-10-14T13:23:16.000Z</time>
   </trkpt>
   <trkpt lat="-8.037431" lon="-34.894067">
    <ele>6.2</ele>
    <time>2019-10-14T13:23:17.000Z</time>
   </trkpt>
   <trkpt lat="-8.037461" lon="-34.894051">
    <ele>6.1</ele>
    <time>2019-10-14T13:23:18.000Z</time>
   </trkpt>
   <trkpt lat="-8.037506" lon="-34.894066">
    <ele>5.9</ele>
    <time>2019-10-14T13:23:20.000Z</time>
   </trkpt>
   <trkpt lat="-8.037534" lon="-34.89407">
    <ele>5.8</ele>
    <time>2019-10-14T13:23:21.000Z</time>
   </trkpt>
   <trkpt lat="-8.037563" lon="-34.894077">
    <ele>5.7</ele>
    <time>2019-10-14T13:23:22.000Z</time>
   </trkpt>
   <trkpt lat="-8.037592" lon="-34.894091">
    <ele>5.6</ele>
    <time>2019-10-14T13:23:23.000Z</time>
   </trkpt>
   <trkpt lat="-8.037622" lon="-34.894109">
    <ele>5.5</ele>
    <time>2019-10-14T13:23:24.000Z</time>
   </trkpt>
   <trkpt lat="-8.037658" lon="-34.894129">
    <ele>5.3</ele>
    <time>2019-10-14T13:23:25.000Z</time>
   </trkpt>
   <trkpt lat="-8.037694" lon="-34.894146">
    <ele>5.2</ele>
    <time>2019-10-14T13:23:26.000Z</time>
   </trkpt>
   <trkpt lat="-8.037735" lon="-34.89415">
    <ele>5.4</ele>
    <time>2019-10-14T13:23:27.000Z</time>
   </trkpt>
   <trkpt lat="-8.037777" lon="-34.894158">
    <ele>5.7</ele>
    <time>2019-10-14T13:23:28.000Z</time>
   </trkpt>
   <trkpt lat="-8.037821" lon="-34.894172">
    <ele>5.9</ele>
    <time>2019-10-14T13:23:29.000Z</time>
   </trkpt>
   <trkpt lat="-8.037865" lon="-34.894179">
    <ele>6.2</ele>
    <time>2019-10-14T13:23:30.000Z</time>
   </trkpt>
   <trkpt lat="-8.037915" lon="-34.8942">
    <ele>6.5</ele>
    <time>2019-10-14T13:23:31.000Z</time>
   </trkpt>
   <trkpt lat="-8.037964" lon="-34.894212">
    <ele>6.8</ele>
    <time>2019-10-14T13:23:32.000Z</time>
   </trkpt>
   <trkpt lat="-8.038014" lon="-34.894221">
    <ele>7.1</ele>
    <time>2019-10-14T13:23:33.000Z</time>
   </trkpt>
   <trkpt lat="-8.038063" lon="-34.894228">
    <ele>7.3</ele>
    <time>2019-10-14T13:23:34.000Z</time>
   </trkpt>
   <trkpt lat="-8.038108" lon="-34.894239">
    <ele>7.5</ele>
    <time>2019-10-14T13:23:35.000Z</time>
   </trkpt>
   <trkpt lat="-8.038145" lon="-34.894251">
    <ele>7.7</ele>
    <time>2019-10-14T13:23:36.000Z</time>
   </trkpt>
   <trkpt lat="-8.038179" lon="-34.89426">
    <ele>8</ele>
    <time>2019-10-14T13:23:37.000Z</time>
   </trkpt>
   <trkpt lat="-8.038218" lon="-34.894269">
    <ele>8.3</ele>
    <time>2019-10-14T13:23:38.000Z</time>
   </trkpt>
   <trkpt lat="-8.038265" lon="-34.894276">
    <ele>8.8</ele>
    <time>2019-10-14T13:23:39.000Z</time>
   </trkpt>
   <trkpt lat="-8.038304" lon="-34.894287">
    <ele>8.7</ele>
    <time>2019-10-14T13:23:40.000Z</time>
   </trkpt>
   <trkpt lat="-8.038341" lon="-34.894308">
    <ele>8.7</ele>
    <time>2019-10-14T13:23:41.000Z</time>
   </trkpt>
   <trkpt lat="-8.038378" lon="-34.894325">
    <ele>8.7</ele>
    <time>2019-10-14T13:23:42.000Z</time>
   </trkpt>
   <trkpt lat="-8.038421" lon="-34.894349">
    <ele>8.7</ele>
    <time>2019-10-14T13:23:43.000Z</time>
   </trkpt>
   <trkpt lat="-8.038473" lon="-34.894365">
    <ele>8.7</ele>
    <time>2019-10-14T13:23:44.000Z</time>
   </trkpt>
   <trkpt lat="-8.038522" lon="-34.894382">
    <ele>8.7</ele>
    <time>2019-10-14T13:23:45.000Z</time>
   </trkpt>
   <trkpt lat="-8.038571" lon="-34.8944">
    <ele>8.6</ele>
    <time>2019-10-14T13:23:46.000Z</time>
   </trkpt>
   <trkpt lat="-8.038616" lon="-34.894417">
    <ele>8.6</ele>
    <time>2019-10-14T13:23:47.000Z</time>
   </trkpt>
   <trkpt lat="-8.038657" lon="-34.894446">
    <ele>8.6</ele>
    <time>2019-10-14T13:23:48.000Z</time>
   </trkpt>
   <trkpt lat="-8.038706" lon="-34.894451">
    <ele>8.6</ele>
    <time>2019-10-14T13:23:49.000Z</time>
   </trkpt>
   <trkpt lat="-8.038756" lon="-34.89446">
    <ele>8.6</ele>
    <time>2019-10-14T13:23:50.000Z</time>
   </trkpt>
   <trkpt lat="-8.038803" lon="-34.894468">
    <ele>8.7</ele>
    <time>2019-10-14T13:23:51.000Z</time>
   </trkpt>
   <trkpt lat="-8.038848" lon="-34.894487">
    <ele>8.7</ele>
    <time>2019-10-14T13:23:52.000Z</time>
   </trkpt>
   <trkpt lat="-8.038887" lon="-34.894501">
    <ele>8.8</ele>
    <time>2019-10-14T13:23:53.000Z</time>
   </trkpt>
   <trkpt lat="-8.038934" lon="-34.894516">
    <ele>8.8</ele>
    <time>2019-10-14T13:23:54.000Z</time>
   </trkpt>
   <trkpt lat="-8.038969" lon="-34.894532">
    <ele>8.9</ele>
    <time>2019-10-14T13:23:55.000Z</time>
   </trkpt>
   <trkpt lat="-8.039014" lon="-34.894551">
    <ele>9</ele>
    <time>2019-10-14T13:23:56.000Z</time>
   </trkpt>
   <trkpt lat="-8.039064" lon="-34.894565">
    <ele>9.1</ele>
    <time>2019-10-14T13:23:57.000Z</time>
   </trkpt>
   <trkpt lat="-8.039108" lon="-34.894576">
    <ele>9.1</ele>
    <time>2019-10-14T13:23:58.000Z</time>
   </trkpt>
   <trkpt lat="-8.039146" lon="-34.894591">
    <ele>9.2</ele>
    <time>2019-10-14T13:23:59.000Z</time>
   </trkpt>
   <trkpt lat="-8.039174" lon="-34.894606">
    <ele>9.2</ele>
    <time>2019-10-14T13:24:00.000Z</time>
   </trkpt>
   <trkpt lat="-8.039213" lon="-34.894617">
    <ele>9.3</ele>
    <time>2019-10-14T13:24:01.000Z</time>
   </trkpt>
   <trkpt lat="-8.039261" lon="-34.894631">
    <ele>9.3</ele>
    <time>2019-10-14T13:24:02.000Z</time>
   </trkpt>
   <trkpt lat="-8.039305" lon="-34.894644">
    <ele>10</ele>
    <time>2019-10-14T13:24:03.000Z</time>
   </trkpt>
   <trkpt lat="-8.039337" lon="-34.894657">
    <ele>10.5</ele>
    <time>2019-10-14T13:24:04.000Z</time>
   </trkpt>
   <trkpt lat="-8.039375" lon="-34.894668">
    <ele>11</ele>
    <time>2019-10-14T13:24:05.000Z</time>
   </trkpt>
   <trkpt lat="-8.039423" lon="-34.89469">
    <ele>11.7</ele>
    <time>2019-10-14T13:24:06.000Z</time>
   </trkpt>
   <trkpt lat="-8.03947" lon="-34.894714">
    <ele>12.3</ele>
    <time>2019-10-14T13:24:07.000Z</time>
   </trkpt>
   <trkpt lat="-8.039515" lon="-34.894724">
    <ele>12.8</ele>
    <time>2019-10-14T13:24:08.000Z</time>
   </trkpt>
   <trkpt lat="-8.039566" lon="-34.894739">
    <ele>13.4</ele>
    <time>2019-10-14T13:24:09.000Z</time>
   </trkpt>
   <trkpt lat="-8.039617" lon="-34.894754">
    <ele>14</ele>
    <time>2019-10-14T13:24:10.000Z</time>
   </trkpt>
   <trkpt lat="-8.039667" lon="-34.894775">
    <ele>14.5</ele>
    <time>2019-10-14T13:24:11.000Z</time>
   </trkpt>
   <trkpt lat="-8.03972" lon="-34.894793">
    <ele>15.1</ele>
    <time>2019-10-14T13:24:12.000Z</time>
   </trkpt>
   <trkpt lat="-8.039771" lon="-34.894808">
    <ele>15.6</ele>
    <time>2019-10-14T13:24:13.000Z</time>
   </trkpt>
   <trkpt lat="-8.039826" lon="-34.894803">
    <ele>16.1</ele>
    <time>2019-10-14T13:24:14.000Z</time>
   </trkpt>
   <trkpt lat="-8.039881" lon="-34.894815">
    <ele>16.8</ele>
    <time>2019-10-14T13:24:15.000Z</time>
   </trkpt>
   <trkpt lat="-8.039927" lon="-34.894818">
    <ele>17.2</ele>
    <time>2019-10-14T13:24:16.000Z</time>
   </trkpt>
   <trkpt lat="-8.039969" lon="-34.894824">
    <ele>17.7</ele>
    <time>2019-10-14T13:24:17.000Z</time>
   </trkpt>
   <trkpt lat="-8.04001" lon="-34.894837">
    <ele>18.4</ele>
    <time>2019-10-14T13:24:18.000Z</time>
   </trkpt>
   <trkpt lat="-8.040047" lon="-34.89484">
    <ele>18.5</ele>
    <time>2019-10-14T13:24:19.000Z</time>
   </trkpt>
   <trkpt lat="-8.040097" lon="-34.894835">
    <ele>18.7</ele>
    <time>2019-10-14T13:24:20.000Z</time>
   </trkpt>
   <trkpt lat="-8.040141" lon="-34.894821">
    <ele>18.8</ele>
    <time>2019-10-14T13:24:21.000Z</time>
   </trkpt>
   <trkpt lat="-8.040181" lon="-34.894813">
    <ele>18.9</ele>
    <time>2019-10-14T13:24:22.000Z</time>
   </trkpt>
   <trkpt lat="-8.040221" lon="-34.894803">
    <ele>19.1</ele>
    <time>2019-10-14T13:24:23.000Z</time>
   </trkpt>
   <trkpt lat="-8.040255" lon="-34.894806">
    <ele>19.2</ele>
    <time>2019-10-14T13:24:24.000Z</time>
   </trkpt>
   <trkpt lat="-8.0403" lon="-34.894797">
    <ele>19.3</ele>
    <time>2019-10-14T13:24:25.000Z</time>
   </trkpt>
   <trkpt lat="-8.040349" lon="-34.894794">
    <ele>19.4</ele>
    <time>2019-10-14T13:24:26.000Z</time>
   </trkpt>
   <trkpt lat="-8.040403" lon="-34.894796">
    <ele>19.2</ele>
    <time>2019-10-14T13:24:27.000Z</time>
   </trkpt>
   <trkpt lat="-8.040451" lon="-34.89478">
    <ele>19</ele>
    <time>2019-10-14T13:24:28.000Z</time>
   </trkpt>
   <trkpt lat="-8.040491" lon="-34.894783">
    <ele>18.9</ele>
    <time>2019-10-14T13:24:29.000Z</time>
   </trkpt>
   <trkpt lat="-8.04053" lon="-34.894786">
    <ele>18.8</ele>
    <time>2019-10-14T13:24:30.000Z</time>
   </trkpt>
   <trkpt lat="-8.040559" lon="-34.894777">
    <ele>18.8</ele>
    <time>2019-10-14T13:24:31.000Z</time>
   </trkpt>
   <trkpt lat="-8.040585" lon="-34.894752">
    <ele>18.7</ele>
    <time>2019-10-14T13:24:32.000Z</time>
   </trkpt>
   <trkpt lat="-8.040608" lon="-34.89473">
    <ele>18.6</ele>
    <time>2019-10-14T13:24:33.000Z</time>
   </trkpt>
   <trkpt lat="-8.040633" lon="-34.894713">
    <ele>18.5</ele>
    <time>2019-10-14T13:24:34.000Z</time>
   </trkpt>
   <trkpt lat="-8.040664" lon="-34.894688">
    <ele>18.5</ele>
    <time>2019-10-14T13:24:35.000Z</time>
   </trkpt>
   <trkpt lat="-8.040699" lon="-34.894681">
    <ele>18.4</ele>
    <time>2019-10-14T13:24:36.000Z</time>
   </trkpt>
   <trkpt lat="-8.040728" lon="-34.894661">
    <ele>18.3</ele>
    <time>2019-10-14T13:24:37.000Z</time>
   </trkpt>
   <trkpt lat="-8.040751" lon="-34.894645">
    <ele>18.3</ele>
    <time>2019-10-14T13:24:38.000Z</time>
   </trkpt>
   <trkpt lat="-8.040788" lon="-34.89462">
    <ele>18.1</ele>
    <time>2019-10-14T13:24:39.000Z</time>
   </trkpt>
   <trkpt lat="-8.040825" lon="-34.894604">
    <ele>18</ele>
    <time>2019-10-14T13:24:40.000Z</time>
   </trkpt>
   <trkpt lat="-8.04087" lon="-34.894581">
    <ele>17.9</ele>
    <time>2019-10-14T13:24:41.000Z</time>
   </trkpt>
   <trkpt lat="-8.040918" lon="-34.894553">
    <ele>17.8</ele>
    <time>2019-10-14T13:24:42.000Z</time>
   </trkpt>
   <trkpt lat="-8.040965" lon="-34.894519">
    <ele>17.6</ele>
    <time>2019-10-14T13:24:43.000Z</time>
   </trkpt>
   <trkpt lat="-8.041014" lon="-34.894483">
    <ele>17.5</ele>
    <time>2019-10-14T13:24:44.000Z</time>
   </trkpt>
   <trkpt lat="-8.041054" lon="-34.894446">
    <ele>17.4</ele>
    <time>2019-10-14T13:24:45.000Z</time>
   </trkpt>
   <trkpt lat="-8.041088" lon="-34.894407">
    <ele>17.4</ele>
    <time>2019-10-14T13:24:46.000Z</time>
   </trkpt>
   <trkpt lat="-8.041117" lon="-34.894365">
    <ele>17.4</ele>
    <time>2019-10-14T13:24:47.000Z</time>
   </trkpt>
   <trkpt lat="-8.041147" lon="-34.894325">
    <ele>17.3</ele>
    <time>2019-10-14T13:24:48.000Z</time>
   </trkpt>
   <trkpt lat="-8.041172" lon="-34.894287">
    <ele>17.3</ele>
    <time>2019-10-14T13:24:49.000Z</time>
   </trkpt>
   <trkpt lat="-8.041202" lon="-34.89425">
    <ele>17.3</ele>
    <time>2019-10-14T13:24:50.000Z</time>
   </trkpt>
   <trkpt lat="-8.041239" lon="-34.894215">
    <ele>17.3</ele>
    <time>2019-10-14T13:24:51.000Z</time>
   </trkpt>
   <trkpt lat="-8.041268" lon="-34.894176">
    <ele>17.3</ele>
    <time>2019-10-14T13:24:52.000Z</time>
   </trkpt>
   <trkpt lat="-8.0413" lon="-34.894131">
    <ele>17.3</ele>
    <time>2019-10-14T13:24:53.000Z</time>
   </trkpt>
   <trkpt lat="-8.041323" lon="-34.894085">
    <ele>17.3</ele>
    <time>2019-10-14T13:24:54.000Z</time>
   </trkpt>
   <trkpt lat="-8.04134" lon="-34.894042">
    <ele>17.3</ele>
    <time>2019-10-14T13:24:55.000Z</time>
   </trkpt>
   <trkpt lat="-8.041369" lon="-34.894001">
    <ele>17.4</ele>
    <time>2019-10-14T13:24:56.000Z</time>
   </trkpt>
   <trkpt lat="-8.041403" lon="-34.89398">
    <ele>17.5</ele>
    <time>2019-10-14T13:24:57.000Z</time>
   </trkpt>
   <trkpt lat="-8.041423" lon="-34.893961">
    <ele>17.6</ele>
    <time>2019-10-14T13:24:58.000Z</time>
   </trkpt>
   <trkpt lat="-8.041412" lon="-34.893933">
    <ele>17.7</ele>
    <time>2019-10-14T13:25:03.000Z</time>
   </trkpt>
   <trkpt lat="-8.041471" lon="-34.893911">
    <ele>17.9</ele>
    <time>2019-10-14T13:25:13.000Z</time>
   </trkpt>
   <trkpt lat="-8.041508" lon="-34.893912">
    <ele>17.6</ele>
    <time>2019-10-14T13:25:14.000Z</time>
   </trkpt>
   <trkpt lat="-8.041552" lon="-34.893911">
    <ele>17.4</ele>
    <time>2019-10-14T13:25:15.000Z</time>
   </trkpt>
   <trkpt lat="-8.041596" lon="-34.893918">
    <ele>17.1</ele>
    <time>2019-10-14T13:25:16.000Z</time>
   </trkpt>
   <trkpt lat="-8.041634" lon="-34.893929">
    <ele>17</ele>
    <time>2019-10-14T13:25:17.000Z</time>
   </trkpt>
   <trkpt lat="-8.041675" lon="-34.893953">
    <ele>16.7</ele>
    <time>2019-10-14T13:25:18.000Z</time>
   </trkpt>
   <trkpt lat="-8.04171" lon="-34.893981">
    <ele>16.5</ele>
    <time>2019-10-14T13:25:19.000Z</time>
   </trkpt>
   <trkpt lat="-8.04174" lon="-34.894006">
    <ele>16.4</ele>
    <time>2019-10-14T13:25:20.000Z</time>
   </trkpt>
   <trkpt lat="-8.041769" lon="-34.894027">
    <ele>16.2</ele>
    <time>2019-10-14T13:25:21.000Z</time>
   </trkpt>
   <trkpt lat="-8.041796" lon="-34.89405">
    <ele>16.1</ele>
    <time>2019-10-14T13:25:22.000Z</time>
   </trkpt>
   <trkpt lat="-8.041826" lon="-34.894074">
    <ele>15.9</ele>
    <time>2019-10-14T13:25:23.000Z</time>
   </trkpt>
   <trkpt lat="-8.041855" lon="-34.894079">
    <ele>15.8</ele>
    <time>2019-10-14T13:25:24.000Z</time>
   </trkpt>
   <trkpt lat="-8.041882" lon="-34.894118">
    <ele>15.6</ele>
    <time>2019-10-14T13:25:25.000Z</time>
   </trkpt>
   <trkpt lat="-8.041921" lon="-34.894138">
    <ele>15.4</ele>
    <time>2019-10-14T13:25:26.000Z</time>
   </trkpt>
   <trkpt lat="-8.041958" lon="-34.894157">
    <ele>15.3</ele>
    <time>2019-10-14T13:25:27.000Z</time>
   </trkpt>
   <trkpt lat="-8.04199" lon="-34.894178">
    <ele>15.1</ele>
    <time>2019-10-14T13:25:28.000Z</time>
   </trkpt>
   <trkpt lat="-8.042022" lon="-34.894197">
    <ele>15</ele>
    <time>2019-10-14T13:25:29.000Z</time>
   </trkpt>
   <trkpt lat="-8.042056" lon="-34.894224">
    <ele>14.8</ele>
    <time>2019-10-14T13:25:30.000Z</time>
   </trkpt>
   <trkpt lat="-8.042093" lon="-34.894257">
    <ele>14.6</ele>
    <time>2019-10-14T13:25:31.000Z</time>
   </trkpt>
   <trkpt lat="-8.042124" lon="-34.894295">
    <ele>14.4</ele>
    <time>2019-10-14T13:25:32.000Z</time>
   </trkpt>
   <trkpt lat="-8.042146" lon="-34.894322">
    <ele>14.2</ele>
    <time>2019-10-14T13:25:33.000Z</time>
   </trkpt>
   <trkpt lat="-8.042183" lon="-34.894346">
    <ele>14</ele>
    <time>2019-10-14T13:25:34.000Z</time>
   </trkpt>
   <trkpt lat="-8.042219" lon="-34.894377">
    <ele>13.8</ele>
    <time>2019-10-14T13:25:35.000Z</time>
   </trkpt>
   <trkpt lat="-8.042247" lon="-34.894408">
    <ele>13.6</ele>
    <time>2019-10-14T13:25:36.000Z</time>
   </trkpt>
   <trkpt lat="-8.042269" lon="-34.894449">
    <ele>13.9</ele>
    <time>2019-10-14T13:25:37.000Z</time>
   </trkpt>
   <trkpt lat="-8.042316" lon="-34.894495">
    <ele>14.4</ele>
    <time>2019-10-14T13:25:38.000Z</time>
   </trkpt>
   <trkpt lat="-8.042358" lon="-34.894539">
    <ele>14.8</ele>
    <time>2019-10-14T13:25:39.000Z</time>
   </trkpt>
   <trkpt lat="-8.042387" lon="-34.894585">
    <ele>15.2</ele>
    <time>2019-10-14T13:25:40.000Z</time>
   </trkpt>
   <trkpt lat="-8.042413" lon="-34.894622">
    <ele>15.5</ele>
    <time>2019-10-14T13:25:41.000Z</time>
   </trkpt>
   <trkpt lat="-8.042448" lon="-34.894652">
    <ele>15.8</ele>
    <time>2019-10-14T13:25:42.000Z</time>
   </trkpt>
   <trkpt lat="-8.042485" lon="-34.894669">
    <ele>16.1</ele>
    <time>2019-10-14T13:25:43.000Z</time>
   </trkpt>
   <trkpt lat="-8.042511" lon="-34.894704">
    <ele>16.4</ele>
    <time>2019-10-14T13:25:44.000Z</time>
   </trkpt>
   <trkpt lat="-8.04254" lon="-34.89474">
    <ele>16.7</ele>
    <time>2019-10-14T13:25:45.000Z</time>
   </trkpt>
   <trkpt lat="-8.042561" lon="-34.894783">
    <ele>16.9</ele>
    <time>2019-10-14T13:25:46.000Z</time>
   </trkpt>
   <trkpt lat="-8.042583" lon="-34.894827">
    <ele>17.2</ele>
    <time>2019-10-14T13:25:47.000Z</time>
   </trkpt>
   <trkpt lat="-8.042605" lon="-34.894867">
    <ele>17.5</ele>
    <time>2019-10-14T13:25:48.000Z</time>
   </trkpt>
   <trkpt lat="-8.042617" lon="-34.894905">
    <ele>17.8</ele>
    <time>2019-10-14T13:25:49.000Z</time>
   </trkpt>
   <trkpt lat="-8.042644" lon="-34.894981">
    <ele>18.3</ele>
    <time>2019-10-14T13:25:51.000Z</time>
   </trkpt>
   <trkpt lat="-8.042689" lon="-34.895034">
    <ele>18.7</ele>
    <time>2019-10-14T13:25:52.000Z</time>
   </trkpt>
   <trkpt lat="-8.042715" lon="-34.895078">
    <ele>19</ele>
    <time>2019-10-14T13:25:53.000Z</time>
   </trkpt>
   <trkpt lat="-8.042736" lon="-34.895117">
    <ele>19.2</ele>
    <time>2019-10-14T13:25:54.000Z</time>
   </trkpt>
   <trkpt lat="-8.042758" lon="-34.895155">
    <ele>19.3</ele>
    <time>2019-10-14T13:25:55.000Z</time>
   </trkpt>
   <trkpt lat="-8.042777" lon="-34.89519">
    <ele>19.5</ele>
    <time>2019-10-14T13:25:56.000Z</time>
   </trkpt>
   <trkpt lat="-8.042778" lon="-34.895238">
    <ele>19.6</ele>
    <time>2019-10-14T13:25:57.000Z</time>
   </trkpt>
   <trkpt lat="-8.042787" lon="-34.895276">
    <ele>19.7</ele>
    <time>2019-10-14T13:25:58.000Z</time>
   </trkpt>
   <trkpt lat="-8.042796" lon="-34.895312">
    <ele>19.8</ele>
    <time>2019-10-14T13:25:59.000Z</time>
   </trkpt>
   <trkpt lat="-8.042813" lon="-34.895344">
    <ele>20</ele>
    <time>2019-10-14T13:26:00.000Z</time>
   </trkpt>
   <trkpt lat="-8.04283" lon="-34.895366">
    <ele>20.1</ele>
    <time>2019-10-14T13:26:01.000Z</time>
   </trkpt>
   <trkpt lat="-8.042861" lon="-34.895383">
    <ele>20.3</ele>
    <time>2019-10-14T13:26:02.000Z</time>
   </trkpt>
   <trkpt lat="-8.042897" lon="-34.895428">
    <ele>20.5</ele>
    <time>2019-10-14T13:26:04.000Z</time>
   </trkpt>
   <trkpt lat="-8.042915" lon="-34.895455">
    <ele>20.6</ele>
    <time>2019-10-14T13:26:05.000Z</time>
   </trkpt>
   <trkpt lat="-8.042929" lon="-34.89549">
    <ele>20.7</ele>
    <time>2019-10-14T13:26:06.000Z</time>
   </trkpt>
   <trkpt lat="-8.042934" lon="-34.89552">
    <ele>20.7</ele>
    <time>2019-10-14T13:26:07.000Z</time>
   </trkpt>
   <trkpt lat="-8.042946" lon="-34.895558">
    <ele>20.8</ele>
    <time>2019-10-14T13:26:08.000Z</time>
   </trkpt>
   <trkpt lat="-8.042983" lon="-34.895608">
    <ele>20.8</ele>
    <time>2019-10-14T13:26:09.000Z</time>
   </trkpt>
   <trkpt lat="-8.043001" lon="-34.895636">
    <ele>20.9</ele>
    <time>2019-10-14T13:26:10.000Z</time>
   </trkpt>
   <trkpt lat="-8.043022" lon="-34.895664">
    <ele>20.9</ele>
    <time>2019-10-14T13:26:11.000Z</time>
   </trkpt>
   <trkpt lat="-8.043042" lon="-34.895704">
    <ele>21</ele>
    <time>2019-10-14T13:26:12.000Z</time>
   </trkpt>
   <trkpt lat="-8.043055" lon="-34.895735">
    <ele>21</ele>
    <time>2019-10-14T13:26:13.000Z</time>
   </trkpt>
   <trkpt lat="-8.043066" lon="-34.895772">
    <ele>21</ele>
    <time>2019-10-14T13:26:14.000Z</time>
   </trkpt>
   <trkpt lat="-8.043086" lon="-34.895836">
    <ele>21.1</ele>
    <time>2019-10-14T13:26:16.000Z</time>
   </trkpt>
   <trkpt lat="-8.043114" lon="-34.895875">
    <ele>21.2</ele>
    <time>2019-10-14T13:26:17.000Z</time>
   </trkpt>
   <trkpt lat="-8.043146" lon="-34.895916">
    <ele>21.1</ele>
    <time>2019-10-14T13:26:18.000Z</time>
   </trkpt>
   <trkpt lat="-8.043153" lon="-34.895947">
    <ele>21.1</ele>
    <time>2019-10-14T13:26:19.000Z</time>
   </trkpt>
   <trkpt lat="-8.043169" lon="-34.895983">
    <ele>21</ele>
    <time>2019-10-14T13:26:20.000Z</time>
   </trkpt>
   <trkpt lat="-8.043181" lon="-34.896028">
    <ele>21</ele>
    <time>2019-10-14T13:26:21.000Z</time>
   </trkpt>
   <trkpt lat="-8.043193" lon="-34.896066">
    <ele>21</ele>
    <time>2019-10-14T13:26:22.000Z</time>
   </trkpt>
   <trkpt lat="-8.043203" lon="-34.896116">
    <ele>20.9</ele>
    <time>2019-10-14T13:26:23.000Z</time>
   </trkpt>
   <trkpt lat="-8.043237" lon="-34.896179">
    <ele>20.9</ele>
    <time>2019-10-14T13:26:24.000Z</time>
   </trkpt>
   <trkpt lat="-8.043323" lon="-34.896241">
    <ele>20.7</ele>
    <time>2019-10-14T13:26:25.000Z</time>
   </trkpt>
   <trkpt lat="-8.043352" lon="-34.896289">
    <ele>20.6</ele>
    <time>2019-10-14T13:26:26.000Z</time>
   </trkpt>
   <trkpt lat="-8.043368" lon="-34.896341">
    <ele>20.5</ele>
    <time>2019-10-14T13:26:27.000Z</time>
   </trkpt>
   <trkpt lat="-8.043384" lon="-34.896395">
    <ele>20.4</ele>
    <time>2019-10-14T13:26:28.000Z</time>
   </trkpt>
   <trkpt lat="-8.043407" lon="-34.89645">
    <ele>20.3</ele>
    <time>2019-10-14T13:26:29.000Z</time>
   </trkpt>
   <trkpt lat="-8.043425" lon="-34.89651">
    <ele>20.2</ele>
    <time>2019-10-14T13:26:30.000Z</time>
   </trkpt>
   <trkpt lat="-8.043459" lon="-34.896567">
    <ele>19.8</ele>
    <time>2019-10-14T13:26:31.000Z</time>
   </trkpt>
   <trkpt lat="-8.043475" lon="-34.896599">
    <ele>19.3</ele>
    <time>2019-10-14T13:26:32.000Z</time>
   </trkpt>
   <trkpt lat="-8.043484" lon="-34.896641">
    <ele>18.8</ele>
    <time>2019-10-14T13:26:33.000Z</time>
   </trkpt>
   <trkpt lat="-8.043494" lon="-34.896691">
    <ele>18.1</ele>
    <time>2019-10-14T13:26:34.000Z</time>
   </trkpt>
   <trkpt lat="-8.043499" lon="-34.896742">
    <ele>17.7</ele>
    <time>2019-10-14T13:26:35.000Z</time>
   </trkpt>
   <trkpt lat="-8.043508" lon="-34.896787">
    <ele>17.3</ele>
    <time>2019-10-14T13:26:36.000Z</time>
   </trkpt>
   <trkpt lat="-8.043511" lon="-34.89684">
    <ele>16.9</ele>
    <time>2019-10-14T13:26:37.000Z</time>
   </trkpt>
   <trkpt lat="-8.043502" lon="-34.89688">
    <ele>16.5</ele>
    <time>2019-10-14T13:26:38.000Z</time>
   </trkpt>
   <trkpt lat="-8.043493" lon="-34.89692">
    <ele>16.2</ele>
    <time>2019-10-14T13:26:39.000Z</time>
   </trkpt>
   <trkpt lat="-8.043496" lon="-34.896948">
    <ele>15.9</ele>
    <time>2019-10-14T13:26:40.000Z</time>
   </trkpt>
   <trkpt lat="-8.043495" lon="-34.896976">
    <ele>15.7</ele>
    <time>2019-10-14T13:26:41.000Z</time>
   </trkpt>
   <trkpt lat="-8.043499" lon="-34.897004">
    <ele>15.6</ele>
    <time>2019-10-14T13:26:42.000Z</time>
   </trkpt>
   <trkpt lat="-8.043508" lon="-34.897036">
    <ele>15.4</ele>
    <time>2019-10-14T13:26:43.000Z</time>
   </trkpt>
   <trkpt lat="-8.043521" lon="-34.897065">
    <ele>15.2</ele>
    <time>2019-10-14T13:26:45.000Z</time>
   </trkpt>
   <trkpt lat="-8.043535" lon="-34.8971">
    <ele>15</ele>
    <time>2019-10-14T13:26:47.000Z</time>
   </trkpt>
   <trkpt lat="-8.043563" lon="-34.897136">
    <ele>14.8</ele>
    <time>2019-10-14T13:26:49.000Z</time>
   </trkpt>
   <trkpt lat="-8.043592" lon="-34.897124">
    <ele>14.6</ele>
    <time>2019-10-14T13:26:56.000Z</time>
   </trkpt>
   <trkpt lat="-8.043651" lon="-34.897153">
    <ele>14.2</ele>
    <time>2019-10-14T13:27:49.000Z</time>
   </trkpt>
   <trkpt lat="-8.04365" lon="-34.897219">
    <ele>13.7</ele>
    <time>2019-10-14T13:27:51.000Z</time>
   </trkpt>
   <trkpt lat="-8.043652" lon="-34.897263">
    <ele>13.3</ele>
    <time>2019-10-14T13:27:52.000Z</time>
   </trkpt>
   <trkpt lat="-8.043646" lon="-34.897295">
    <ele>12.9</ele>
    <time>2019-10-14T13:27:53.000Z</time>
   </trkpt>
   <trkpt lat="-8.043646" lon="-34.897327">
    <ele>12.6</ele>
    <time>2019-10-14T13:27:54.000Z</time>
   </trkpt>
   <trkpt lat="-8.043657" lon="-34.897358">
    <ele>12.2</ele>
    <time>2019-10-14T13:27:55.000Z</time>
   </trkpt>
   <trkpt lat="-8.043672" lon="-34.897398">
    <ele>12.5</ele>
    <time>2019-10-14T13:27:56.000Z</time>
   </trkpt>
   <trkpt lat="-8.043676" lon="-34.897446">
    <ele>12.8</ele>
    <time>2019-10-14T13:27:57.000Z</time>
   </trkpt>
   <trkpt lat="-8.043698" lon="-34.897494">
    <ele>13.1</ele>
    <time>2019-10-14T13:27:58.000Z</time>
   </trkpt>
   <trkpt lat="-8.043711" lon="-34.897553">
    <ele>13.5</ele>
    <time>2019-10-14T13:27:59.000Z</time>
   </trkpt>
   <trkpt lat="-8.043718" lon="-34.897597">
    <ele>13.7</ele>
    <time>2019-10-14T13:28:00.000Z</time>
   </trkpt>
   <trkpt lat="-8.043735" lon="-34.897647">
    <ele>13.9</ele>
    <time>2019-10-14T13:28:01.000Z</time>
   </trkpt>
   <trkpt lat="-8.043744" lon="-34.89769">
    <ele>14</ele>
    <time>2019-10-14T13:28:02.000Z</time>
   </trkpt>
   <trkpt lat="-8.043744" lon="-34.89774">
    <ele>14.1</ele>
    <time>2019-10-14T13:28:03.000Z</time>
   </trkpt>
   <trkpt lat="-8.043759" lon="-34.89781">
    <ele>14.3</ele>
    <time>2019-10-14T13:28:04.000Z</time>
   </trkpt>
   <trkpt lat="-8.043788" lon="-34.897853">
    <ele>14.3</ele>
    <time>2019-10-14T13:28:05.000Z</time>
   </trkpt>
   <trkpt lat="-8.043802" lon="-34.8979">
    <ele>14.3</ele>
    <time>2019-10-14T13:28:06.000Z</time>
   </trkpt>
   <trkpt lat="-8.043809" lon="-34.897945">
    <ele>14.4</ele>
    <time>2019-10-14T13:28:07.000Z</time>
   </trkpt>
   <trkpt lat="-8.043826" lon="-34.897988">
    <ele>14.4</ele>
    <time>2019-10-14T13:28:08.000Z</time>
   </trkpt>
   <trkpt lat="-8.04383" lon="-34.898041">
    <ele>14.4</ele>
    <time>2019-10-14T13:28:09.000Z</time>
   </trkpt>
   <trkpt lat="-8.043855" lon="-34.898093">
    <ele>14.4</ele>
    <time>2019-10-14T13:28:10.000Z</time>
   </trkpt>
   <trkpt lat="-8.043881" lon="-34.898135">
    <ele>14.4</ele>
    <time>2019-10-14T13:28:11.000Z</time>
   </trkpt>
   <trkpt lat="-8.043907" lon="-34.898166">
    <ele>14.4</ele>
    <time>2019-10-14T13:28:12.000Z</time>
   </trkpt>
   <trkpt lat="-8.043946" lon="-34.898179">
    <ele>14.4</ele>
    <time>2019-10-14T13:28:13.000Z</time>
   </trkpt>
   <trkpt lat="-8.043987" lon="-34.898192">
    <ele>14.9</ele>
    <time>2019-10-14T13:28:14.000Z</time>
   </trkpt>
   <trkpt lat="-8.044046" lon="-34.898189">
    <ele>15</ele>
    <time>2019-10-14T13:28:15.000Z</time>
   </trkpt>
   <trkpt lat="-8.044098" lon="-34.898184">
    <ele>15</ele>
    <time>2019-10-14T13:28:16.000Z</time>
   </trkpt>
   <trkpt lat="-8.04414" lon="-34.898177">
    <ele>15</ele>
    <time>2019-10-14T13:28:17.000Z</time>
   </trkpt>
   <trkpt lat="-8.044178" lon="-34.898171">
    <ele>15.1</ele>
    <time>2019-10-14T13:28:18.000Z</time>
   </trkpt>
   <trkpt lat="-8.044206" lon="-34.89816">
    <ele>15.2</ele>
    <time>2019-10-14T13:28:19.000Z</time>
   </trkpt>
   <trkpt lat="-8.044239" lon="-34.898146">
    <ele>15.3</ele>
    <time>2019-10-14T13:28:20.000Z</time>
   </trkpt>
   <trkpt lat="-8.044277" lon="-34.898145">
    <ele>15.4</ele>
    <time>2019-10-14T13:28:21.000Z</time>
   </trkpt>
   <trkpt lat="-8.044313" lon="-34.898161">
    <ele>15.7</ele>
    <time>2019-10-14T13:28:22.000Z</time>
   </trkpt>
   <trkpt lat="-8.044349" lon="-34.898178">
    <ele>15.8</ele>
    <time>2019-10-14T13:28:23.000Z</time>
   </trkpt>
   <trkpt lat="-8.044393" lon="-34.898196">
    <ele>16</ele>
    <time>2019-10-14T13:28:24.000Z</time>
   </trkpt>
   <trkpt lat="-8.044446" lon="-34.898207">
    <ele>16.2</ele>
    <time>2019-10-14T13:28:25.000Z</time>
   </trkpt>
   <trkpt lat="-8.044499" lon="-34.898218">
    <ele>16.5</ele>
    <time>2019-10-14T13:28:26.000Z</time>
   </trkpt>
   <trkpt lat="-8.044543" lon="-34.898237">
    <ele>16.6</ele>
    <time>2019-10-14T13:28:27.000Z</time>
   </trkpt>
   <trkpt lat="-8.044583" lon="-34.898261">
    <ele>16.7</ele>
    <time>2019-10-14T13:28:28.000Z</time>
   </trkpt>
   <trkpt lat="-8.044632" lon="-34.898255">
    <ele>16.9</ele>
    <time>2019-10-14T13:28:29.000Z</time>
   </trkpt>
   <trkpt lat="-8.044667" lon="-34.898269">
    <ele>16.9</ele>
    <time>2019-10-14T13:28:30.000Z</time>
   </trkpt>
   <trkpt lat="-8.0447" lon="-34.898262">
    <ele>16.9</ele>
    <time>2019-10-14T13:28:31.000Z</time>
   </trkpt>
   <trkpt lat="-8.044732" lon="-34.898272">
    <ele>17</ele>
    <time>2019-10-14T13:28:32.000Z</time>
   </trkpt>
   <trkpt lat="-8.044766" lon="-34.898267">
    <ele>17</ele>
    <time>2019-10-14T13:28:33.000Z</time>
   </trkpt>
   <trkpt lat="-8.044806" lon="-34.898271">
    <ele>17</ele>
    <time>2019-10-14T13:28:34.000Z</time>
   </trkpt>
   <trkpt lat="-8.044837" lon="-34.898273">
    <ele>17</ele>
    <time>2019-10-14T13:28:35.000Z</time>
   </trkpt>
   <trkpt lat="-8.044865" lon="-34.89828">
    <ele>17</ele>
    <time>2019-10-14T13:28:36.000Z</time>
   </trkpt>
   <trkpt lat="-8.044903" lon="-34.898306">
    <ele>17.1</ele>
    <time>2019-10-14T13:28:37.000Z</time>
   </trkpt>
   <trkpt lat="-8.044947" lon="-34.898332">
    <ele>17.1</ele>
    <time>2019-10-14T13:28:38.000Z</time>
   </trkpt>
   <trkpt lat="-8.045" lon="-34.898339">
    <ele>17.1</ele>
    <time>2019-10-14T13:28:39.000Z</time>
   </trkpt>
   <trkpt lat="-8.045055" lon="-34.89834">
    <ele>17.2</ele>
    <time>2019-10-14T13:28:40.000Z</time>
   </trkpt>
   <trkpt lat="-8.045116" lon="-34.898335">
    <ele>17.2</ele>
    <time>2019-10-14T13:28:41.000Z</time>
   </trkpt>
   <trkpt lat="-8.045161" lon="-34.898316">
    <ele>17.1</ele>
    <time>2019-10-14T13:28:42.000Z</time>
   </trkpt>
   <trkpt lat="-8.045183" lon="-34.898279">
    <ele>16.9</ele>
    <time>2019-10-14T13:28:43.000Z</time>
   </trkpt>
   <trkpt lat="-8.045205" lon="-34.898238">
    <ele>16.6</ele>
    <time>2019-10-14T13:28:44.000Z</time>
   </trkpt>
   <trkpt lat="-8.045238" lon="-34.898184">
    <ele>16.3</ele>
    <time>2019-10-14T13:28:45.000Z</time>
   </trkpt>
   <trkpt lat="-8.045258" lon="-34.898135">
    <ele>16.3</ele>
    <time>2019-10-14T13:28:46.000Z</time>
   </trkpt>
   <trkpt lat="-8.045272" lon="-34.898087">
    <ele>16.4</ele>
    <time>2019-10-14T13:28:47.000Z</time>
   </trkpt>
   <trkpt lat="-8.045294" lon="-34.898043">
    <ele>16.4</ele>
    <time>2019-10-14T13:28:48.000Z</time>
   </trkpt>
   <trkpt lat="-8.045309" lon="-34.897996">
    <ele>16.5</ele>
    <time>2019-10-14T13:28:49.000Z</time>
   </trkpt>
   <trkpt lat="-8.045328" lon="-34.89795">
    <ele>16.6</ele>
    <time>2019-10-14T13:28:50.000Z</time>
   </trkpt>
   <trkpt lat="-8.045334" lon="-34.897909">
    <ele>16.8</ele>
    <time>2019-10-14T13:28:51.000Z</time>
   </trkpt>
   <trkpt lat="-8.045328" lon="-34.897872">
    <ele>16.9</ele>
    <time>2019-10-14T13:28:52.000Z</time>
   </trkpt>
   <trkpt lat="-8.04532" lon="-34.897833">
    <ele>17.1</ele>
    <time>2019-10-14T13:28:53.000Z</time>
   </trkpt>
   <trkpt lat="-8.045336" lon="-34.897796">
    <ele>17.2</ele>
    <time>2019-10-14T13:28:54.000Z</time>
   </trkpt>
   <trkpt lat="-8.045345" lon="-34.897764">
    <ele>17.2</ele>
    <time>2019-10-14T13:28:55.000Z</time>
   </trkpt>
   <trkpt lat="-8.045367" lon="-34.897739">
    <ele>17.2</ele>
    <time>2019-10-14T13:28:56.000Z</time>
   </trkpt>
   <trkpt lat="-8.045407" lon="-34.897745">
    <ele>17.1</ele>
    <time>2019-10-14T13:28:58.000Z</time>
   </trkpt>
   <trkpt lat="-8.045445" lon="-34.897772">
    <ele>17</ele>
    <time>2019-10-14T13:28:59.000Z</time>
   </trkpt>
   <trkpt lat="-8.045483" lon="-34.897792">
    <ele>16.9</ele>
    <time>2019-10-14T13:29:00.000Z</time>
   </trkpt>
   <trkpt lat="-8.045519" lon="-34.897802">
    <ele>16.8</ele>
    <time>2019-10-14T13:29:01.000Z</time>
   </trkpt>
   <trkpt lat="-8.045566" lon="-34.897821">
    <ele>16.6</ele>
    <time>2019-10-14T13:29:02.000Z</time>
   </trkpt>
   <trkpt lat="-8.045602" lon="-34.897844">
    <ele>16.5</ele>
    <time>2019-10-14T13:29:03.000Z</time>
   </trkpt>
   <trkpt lat="-8.045638" lon="-34.89786">
    <ele>16.4</ele>
    <time>2019-10-14T13:29:04.000Z</time>
   </trkpt>
   <trkpt lat="-8.045688" lon="-34.897866">
    <ele>16.2</ele>
    <time>2019-10-14T13:29:05.000Z</time>
   </trkpt>
   <trkpt lat="-8.045728" lon="-34.897866">
    <ele>16.1</ele>
    <time>2019-10-14T13:29:06.000Z</time>
   </trkpt>
   <trkpt lat="-8.04576" lon="-34.897859">
    <ele>16</ele>
    <time>2019-10-14T13:29:07.000Z</time>
   </trkpt>
   <trkpt lat="-8.045803" lon="-34.897861">
    <ele>15.9</ele>
    <time>2019-10-14T13:29:08.000Z</time>
   </trkpt>
   <trkpt lat="-8.04585" lon="-34.897858">
    <ele>15.8</ele>
    <time>2019-10-14T13:29:09.000Z</time>
   </trkpt>
   <trkpt lat="-8.045894" lon="-34.897863">
    <ele>15.7</ele>
    <time>2019-10-14T13:29:10.000Z</time>
   </trkpt>
   <trkpt lat="-8.045925" lon="-34.897879">
    <ele>15.6</ele>
    <time>2019-10-14T13:29:11.000Z</time>
   </trkpt>
   <trkpt lat="-8.045974" lon="-34.897888">
    <ele>15.4</ele>
    <time>2019-10-14T13:29:12.000Z</time>
   </trkpt>
   <trkpt lat="-8.046018" lon="-34.897904">
    <ele>15.2</ele>
    <time>2019-10-14T13:29:13.000Z</time>
   </trkpt>
   <trkpt lat="-8.046061" lon="-34.897914">
    <ele>15.1</ele>
    <time>2019-10-14T13:29:14.000Z</time>
   </trkpt>
   <trkpt lat="-8.0461" lon="-34.897919">
    <ele>14.9</ele>
    <time>2019-10-14T13:29:15.000Z</time>
   </trkpt>
   <trkpt lat="-8.046125" lon="-34.897934">
    <ele>14.8</ele>
    <time>2019-10-14T13:29:16.000Z</time>
   </trkpt>
   <trkpt lat="-8.046156" lon="-34.897952">
    <ele>14.7</ele>
    <time>2019-10-14T13:29:17.000Z</time>
   </trkpt>
   <trkpt lat="-8.046184" lon="-34.897963">
    <ele>14.7</ele>
    <time>2019-10-14T13:29:18.000Z</time>
   </trkpt>
   <trkpt lat="-8.046212" lon="-34.897974">
    <ele>14.7</ele>
    <time>2019-10-14T13:29:19.000Z</time>
   </trkpt>
   <trkpt lat="-8.046247" lon="-34.897983">
    <ele>14.6</ele>
    <time>2019-10-14T13:29:20.000Z</time>
   </trkpt>
   <trkpt lat="-8.046297" lon="-34.897995">
    <ele>14.6</ele>
    <time>2019-10-14T13:29:21.000Z</time>
   </trkpt>
   <trkpt lat="-8.046343" lon="-34.898017">
    <ele>14.6</ele>
    <time>2019-10-14T13:29:22.000Z</time>
   </trkpt>
   <trkpt lat="-8.046377" lon="-34.898027">
    <ele>14.5</ele>
    <time>2019-10-14T13:29:23.000Z</time>
   </trkpt>
   <trkpt lat="-8.046426" lon="-34.898032">
    <ele>14.5</ele>
    <time>2019-10-14T13:29:24.000Z</time>
   </trkpt>
   <trkpt lat="-8.046468" lon="-34.89804">
    <ele>14.5</ele>
    <time>2019-10-14T13:29:25.000Z</time>
   </trkpt>
   <trkpt lat="-8.046521" lon="-34.898049">
    <ele>14.4</ele>
    <time>2019-10-14T13:29:26.000Z</time>
   </trkpt>
   <trkpt lat="-8.046576" lon="-34.898056">
    <ele>14.4</ele>
    <time>2019-10-14T13:29:27.000Z</time>
   </trkpt>
   <trkpt lat="-8.046627" lon="-34.898059">
    <ele>14.3</ele>
    <time>2019-10-14T13:29:28.000Z</time>
   </trkpt>
   <trkpt lat="-8.046675" lon="-34.898059">
    <ele>14.3</ele>
    <time>2019-10-14T13:29:29.000Z</time>
   </trkpt>
   <trkpt lat="-8.046713" lon="-34.898061">
    <ele>14.3</ele>
    <time>2019-10-14T13:29:30.000Z</time>
   </trkpt>
   <trkpt lat="-8.046747" lon="-34.89806">
    <ele>14.2</ele>
    <time>2019-10-14T13:29:31.000Z</time>
   </trkpt>
   <trkpt lat="-8.046779" lon="-34.898062">
    <ele>14.2</ele>
    <time>2019-10-14T13:29:32.000Z</time>
   </trkpt>
   <trkpt lat="-8.046809" lon="-34.898065">
    <ele>14.2</ele>
    <time>2019-10-14T13:29:33.000Z</time>
   </trkpt>
   <trkpt lat="-8.046837" lon="-34.898081">
    <ele>14.2</ele>
    <time>2019-10-14T13:29:34.000Z</time>
   </trkpt>
   <trkpt lat="-8.046874" lon="-34.898089">
    <ele>14.1</ele>
    <time>2019-10-14T13:29:35.000Z</time>
   </trkpt>
   <trkpt lat="-8.046912" lon="-34.898104">
    <ele>14.1</ele>
    <time>2019-10-14T13:29:36.000Z</time>
   </trkpt>
   <trkpt lat="-8.046948" lon="-34.898113">
    <ele>14.1</ele>
    <time>2019-10-14T13:29:37.000Z</time>
   </trkpt>
   <trkpt lat="-8.046975" lon="-34.89809">
    <ele>14.1</ele>
    <time>2019-10-14T13:29:38.000Z</time>
   </trkpt>
   <trkpt lat="-8.047013" lon="-34.898099">
    <ele>14</ele>
    <time>2019-10-14T13:29:39.000Z</time>
   </trkpt>
   <trkpt lat="-8.047069" lon="-34.898106">
    <ele>14</ele>
    <time>2019-10-14T13:29:41.000Z</time>
   </trkpt>
   <trkpt lat="-8.047095" lon="-34.898133">
    <ele>14</ele>
    <time>2019-10-14T13:29:45.000Z</time>
   </trkpt>
   <trkpt lat="-8.04711" lon="-34.898178">
    <ele>14</ele>
    <time>2019-10-14T13:29:48.000Z</time>
   </trkpt>
   <trkpt lat="-8.047111" lon="-34.898222">
    <ele>14.1</ele>
    <time>2019-10-14T13:29:49.000Z</time>
   </trkpt>
   <trkpt lat="-8.04712" lon="-34.898264">
    <ele>14.3</ele>
    <time>2019-10-14T13:29:50.000Z</time>
   </trkpt>
   <trkpt lat="-8.047126" lon="-34.898307">
    <ele>14.4</ele>
    <time>2019-10-14T13:29:51.000Z</time>
   </trkpt>
   <trkpt lat="-8.047135" lon="-34.898358">
    <ele>14.6</ele>
    <time>2019-10-14T13:29:52.000Z</time>
   </trkpt>
   <trkpt lat="-8.04714" lon="-34.898404">
    <ele>14.7</ele>
    <time>2019-10-14T13:29:53.000Z</time>
   </trkpt>
   <trkpt lat="-8.047147" lon="-34.89844">
    <ele>14.8</ele>
    <time>2019-10-14T13:29:54.000Z</time>
   </trkpt>
   <trkpt lat="-8.047149" lon="-34.898471">
    <ele>14.9</ele>
    <time>2019-10-14T13:29:55.000Z</time>
   </trkpt>
   <trkpt lat="-8.047148" lon="-34.898516">
    <ele>15</ele>
    <time>2019-10-14T13:29:56.000Z</time>
   </trkpt>
   <trkpt lat="-8.04714" lon="-34.898559">
    <ele>15.1</ele>
    <time>2019-10-14T13:29:57.000Z</time>
   </trkpt>
   <trkpt lat="-8.047132" lon="-34.898613">
    <ele>15.3</ele>
    <time>2019-10-14T13:29:58.000Z</time>
   </trkpt>
   <trkpt lat="-8.047132" lon="-34.898652">
    <ele>15.4</ele>
    <time>2019-10-14T13:29:59.000Z</time>
   </trkpt>
   <trkpt lat="-8.047153" lon="-34.898692">
    <ele>15.5</ele>
    <time>2019-10-14T13:30:00.000Z</time>
   </trkpt>
   <trkpt lat="-8.047171" lon="-34.898735">
    <ele>15.6</ele>
    <time>2019-10-14T13:30:01.000Z</time>
   </trkpt>
   <trkpt lat="-8.047176" lon="-34.898791">
    <ele>15.8</ele>
    <time>2019-10-14T13:30:02.000Z</time>
   </trkpt>
   <trkpt lat="-8.047181" lon="-34.898829">
    <ele>15.8</ele>
    <time>2019-10-14T13:30:03.000Z</time>
   </trkpt>
   <trkpt lat="-8.047177" lon="-34.898872">
    <ele>15.7</ele>
    <time>2019-10-14T13:30:04.000Z</time>
   </trkpt>
   <trkpt lat="-8.04717" lon="-34.898918">
    <ele>15.6</ele>
    <time>2019-10-14T13:30:05.000Z</time>
   </trkpt>
   <trkpt lat="-8.047167" lon="-34.898958">
    <ele>15.5</ele>
    <time>2019-10-14T13:30:06.000Z</time>
   </trkpt>
   <trkpt lat="-8.047169" lon="-34.899013">
    <ele>15.4</ele>
    <time>2019-10-14T13:30:07.000Z</time>
   </trkpt>
   <trkpt lat="-8.04717" lon="-34.89907">
    <ele>15.3</ele>
    <time>2019-10-14T13:30:08.000Z</time>
   </trkpt>
   <trkpt lat="-8.047169" lon="-34.899123">
    <ele>15.3</ele>
    <time>2019-10-14T13:30:09.000Z</time>
   </trkpt>
   <trkpt lat="-8.047177" lon="-34.899179">
    <ele>15.2</ele>
    <time>2019-10-14T13:30:10.000Z</time>
   </trkpt>
   <trkpt lat="-8.047183" lon="-34.899235">
    <ele>15</ele>
    <time>2019-10-14T13:30:11.000Z</time>
   </trkpt>
   <trkpt lat="-8.047174" lon="-34.899297">
    <ele>14.9</ele>
    <time>2019-10-14T13:30:12.000Z</time>
   </trkpt>
   <trkpt lat="-8.047169" lon="-34.899349">
    <ele>14.7</ele>
    <time>2019-10-14T13:30:13.000Z</time>
   </trkpt>
   <trkpt lat="-8.047162" lon="-34.8994">
    <ele>14.6</ele>
    <time>2019-10-14T13:30:14.000Z</time>
   </trkpt>
   <trkpt lat="-8.047159" lon="-34.899454">
    <ele>14.4</ele>
    <time>2019-10-14T13:30:15.000Z</time>
   </trkpt>
   <trkpt lat="-8.04716" lon="-34.8995">
    <ele>14.3</ele>
    <time>2019-10-14T13:30:16.000Z</time>
   </trkpt>
   <trkpt lat="-8.047161" lon="-34.899543">
    <ele>14.2</ele>
    <time>2019-10-14T13:30:17.000Z</time>
   </trkpt>
   <trkpt lat="-8.047169" lon="-34.899572">
    <ele>14.2</ele>
    <time>2019-10-14T13:30:18.000Z</time>
   </trkpt>
   <trkpt lat="-8.047172" lon="-34.899618">
    <ele>14.1</ele>
    <time>2019-10-14T13:30:19.000Z</time>
   </trkpt>
   <trkpt lat="-8.047184" lon="-34.899676">
    <ele>14</ele>
    <time>2019-10-14T13:30:20.000Z</time>
   </trkpt>
   <trkpt lat="-8.047199" lon="-34.899722">
    <ele>14</ele>
    <time>2019-10-14T13:30:21.000Z</time>
   </trkpt>
   <trkpt lat="-8.047255" lon="-34.899736">
    <ele>13.8</ele>
    <time>2019-10-14T13:30:23.000Z</time>
   </trkpt>
   <trkpt lat="-8.047291" lon="-34.899724">
    <ele>13.8</ele>
    <time>2019-10-14T13:30:24.000Z</time>
   </trkpt>
   <trkpt lat="-8.047338" lon="-34.899738">
    <ele>13.7</ele>
    <time>2019-10-14T13:30:25.000Z</time>
   </trkpt>
   <trkpt lat="-8.047369" lon="-34.899758">
    <ele>13.6</ele>
    <time>2019-10-14T13:30:28.000Z</time>
   </trkpt>
   <trkpt lat="-8.047394" lon="-34.89977">
    <ele>13.6</ele>
    <time>2019-10-14T13:30:30.000Z</time>
   </trkpt>
   <trkpt lat="-8.047404" lon="-34.899797">
    <ele>13.5</ele>
    <time>2019-10-14T13:30:38.000Z</time>
   </trkpt>
   <trkpt lat="-8.047385" lon="-34.899835">
    <ele>13.5</ele>
    <time>2019-10-14T13:31:30.000Z</time>
   </trkpt>
   <trkpt lat="-8.047427" lon="-34.899856">
    <ele>13.4</ele>
    <time>2019-10-14T13:31:32.000Z</time>
   </trkpt>
   <trkpt lat="-8.047475" lon="-34.899871">
    <ele>13.3</ele>
    <time>2019-10-14T13:31:33.000Z</time>
   </trkpt>
   <trkpt lat="-8.047501" lon="-34.899883">
    <ele>13.3</ele>
    <time>2019-10-14T13:31:34.000Z</time>
   </trkpt>
   <trkpt lat="-8.047551" lon="-34.899901">
    <ele>13.2</ele>
    <time>2019-10-14T13:31:36.000Z</time>
   </trkpt>
   <trkpt lat="-8.047589" lon="-34.899903">
    <ele>13.1</ele>
    <time>2019-10-14T13:31:37.000Z</time>
   </trkpt>
   <trkpt lat="-8.04763" lon="-34.899913">
    <ele>13.2</ele>
    <time>2019-10-14T13:31:38.000Z</time>
   </trkpt>
   <trkpt lat="-8.047663" lon="-34.899926">
    <ele>13.2</ele>
    <time>2019-10-14T13:31:39.000Z</time>
   </trkpt>
   <trkpt lat="-8.047706" lon="-34.899954">
    <ele>13.3</ele>
    <time>2019-10-14T13:31:40.000Z</time>
   </trkpt>
   <trkpt lat="-8.047743" lon="-34.899977">
    <ele>13.4</ele>
    <time>2019-10-14T13:31:41.000Z</time>
   </trkpt>
   <trkpt lat="-8.04779" lon="-34.899999">
    <ele>13.5</ele>
    <time>2019-10-14T13:31:42.000Z</time>
   </trkpt>
   <trkpt lat="-8.047826" lon="-34.900029">
    <ele>13.6</ele>
    <time>2019-10-14T13:31:43.000Z</time>
   </trkpt>
   <trkpt lat="-8.047869" lon="-34.900056">
    <ele>13.6</ele>
    <time>2019-10-14T13:31:44.000Z</time>
   </trkpt>
   <trkpt lat="-8.047908" lon="-34.900085">
    <ele>13.7</ele>
    <time>2019-10-14T13:31:45.000Z</time>
   </trkpt>
   <trkpt lat="-8.047943" lon="-34.900115">
    <ele>13.7</ele>
    <time>2019-10-14T13:31:46.000Z</time>
   </trkpt>
   <trkpt lat="-8.047978" lon="-34.900143">
    <ele>13.8</ele>
    <time>2019-10-14T13:31:47.000Z</time>
   </trkpt>
   <trkpt lat="-8.048018" lon="-34.900175">
    <ele>13.9</ele>
    <time>2019-10-14T13:31:48.000Z</time>
   </trkpt>
   <trkpt lat="-8.048065" lon="-34.900204">
    <ele>13.9</ele>
    <time>2019-10-14T13:31:49.000Z</time>
   </trkpt>
   <trkpt lat="-8.048124" lon="-34.900219">
    <ele>14</ele>
    <time>2019-10-14T13:31:50.000Z</time>
   </trkpt>
   <trkpt lat="-8.048164" lon="-34.90024">
    <ele>14</ele>
    <time>2019-10-14T13:31:51.000Z</time>
   </trkpt>
   <trkpt lat="-8.048206" lon="-34.900267">
    <ele>14.1</ele>
    <time>2019-10-14T13:31:52.000Z</time>
   </trkpt>
   <trkpt lat="-8.048237" lon="-34.900289">
    <ele>14.1</ele>
    <time>2019-10-14T13:31:53.000Z</time>
   </trkpt>
   <trkpt lat="-8.048277" lon="-34.900316">
    <ele>14.1</ele>
    <time>2019-10-14T13:31:54.000Z</time>
   </trkpt>
   <trkpt lat="-8.048318" lon="-34.900337">
    <ele>14.2</ele>
    <time>2019-10-14T13:31:55.000Z</time>
   </trkpt>
   <trkpt lat="-8.048346" lon="-34.900351">
    <ele>14.2</ele>
    <time>2019-10-14T13:31:56.000Z</time>
   </trkpt>
   <trkpt lat="-8.048385" lon="-34.90038">
    <ele>14.3</ele>
    <time>2019-10-14T13:31:57.000Z</time>
   </trkpt>
   <trkpt lat="-8.048431" lon="-34.900422">
    <ele>14.3</ele>
    <time>2019-10-14T13:31:59.000Z</time>
   </trkpt>
   <trkpt lat="-8.048489" lon="-34.900433">
    <ele>14.4</ele>
    <time>2019-10-14T13:32:00.000Z</time>
   </trkpt>
   <trkpt lat="-8.048526" lon="-34.900453">
    <ele>14.4</ele>
    <time>2019-10-14T13:32:01.000Z</time>
   </trkpt>
   <trkpt lat="-8.048573" lon="-34.900477">
    <ele>14.5</ele>
    <time>2019-10-14T13:32:02.000Z</time>
   </trkpt>
   <trkpt lat="-8.048613" lon="-34.900473">
    <ele>14.5</ele>
    <time>2019-10-14T13:32:03.000Z</time>
   </trkpt>
   <trkpt lat="-8.048677" lon="-34.900494">
    <ele>14.6</ele>
    <time>2019-10-14T13:32:05.000Z</time>
   </trkpt>
   <trkpt lat="-8.048726" lon="-34.900496">
    <ele>14.7</ele>
    <time>2019-10-14T13:32:06.000Z</time>
   </trkpt>
   <trkpt lat="-8.04876" lon="-34.900519">
    <ele>14.7</ele>
    <time>2019-10-14T13:32:07.000Z</time>
   </trkpt>
   <trkpt lat="-8.04879" lon="-34.900545">
    <ele>14.8</ele>
    <time>2019-10-14T13:32:08.000Z</time>
   </trkpt>
   <trkpt lat="-8.048822" lon="-34.900563">
    <ele>14.8</ele>
    <time>2019-10-14T13:32:09.000Z</time>
   </trkpt>
   <trkpt lat="-8.048858" lon="-34.900584">
    <ele>14.9</ele>
    <time>2019-10-14T13:32:10.000Z</time>
   </trkpt>
   <trkpt lat="-8.048898" lon="-34.90061">
    <ele>14.9</ele>
    <time>2019-10-14T13:32:11.000Z</time>
   </trkpt>
   <trkpt lat="-8.048932" lon="-34.900648">
    <ele>15</ele>
    <time>2019-10-14T13:32:12.000Z</time>
   </trkpt>
   <trkpt lat="-8.048988" lon="-34.900683">
    <ele>15</ele>
    <time>2019-10-14T13:32:13.000Z</time>
   </trkpt>
   <trkpt lat="-8.049038" lon="-34.900711">
    <ele>14.9</ele>
    <time>2019-10-14T13:32:14.000Z</time>
   </trkpt>
   <trkpt lat="-8.049078" lon="-34.900752">
    <ele>14.9</ele>
    <time>2019-10-14T13:32:15.000Z</time>
   </trkpt>
   <trkpt lat="-8.049128" lon="-34.900778">
    <ele>14.9</ele>
    <time>2019-10-14T13:32:16.000Z</time>
   </trkpt>
   <trkpt lat="-8.049186" lon="-34.900795">
    <ele>14.8</ele>
    <time>2019-10-14T13:32:17.000Z</time>
   </trkpt>
   <trkpt lat="-8.049234" lon="-34.900816">
    <ele>14.8</ele>
    <time>2019-10-14T13:32:18.000Z</time>
   </trkpt>
   <trkpt lat="-8.049271" lon="-34.900843">
    <ele>14.8</ele>
    <time>2019-10-14T13:32:19.000Z</time>
   </trkpt>
   <trkpt lat="-8.049305" lon="-34.900863">
    <ele>14.8</ele>
    <time>2019-10-14T13:32:20.000Z</time>
   </trkpt>
   <trkpt lat="-8.049336" lon="-34.900888">
    <ele>14.7</ele>
    <time>2019-10-14T13:32:21.000Z</time>
   </trkpt>
   <trkpt lat="-8.049371" lon="-34.900911">
    <ele>14.7</ele>
    <time>2019-10-14T13:32:22.000Z</time>
   </trkpt>
   <trkpt lat="-8.049406" lon="-34.90093">
    <ele>14.7</ele>
    <time>2019-10-14T13:32:23.000Z</time>
   </trkpt>
   <trkpt lat="-8.049465" lon="-34.900955">
    <ele>14.6</ele>
    <time>2019-10-14T13:32:24.000Z</time>
   </trkpt>
   <trkpt lat="-8.049504" lon="-34.900974">
    <ele>14.6</ele>
    <time>2019-10-14T13:32:25.000Z</time>
   </trkpt>
   <trkpt lat="-8.049549" lon="-34.900989">
    <ele>14.6</ele>
    <time>2019-10-14T13:32:26.000Z</time>
   </trkpt>
   <trkpt lat="-8.049583" lon="-34.901008">
    <ele>14.5</ele>
    <time>2019-10-14T13:32:27.000Z</time>
   </trkpt>
   <trkpt lat="-8.049614" lon="-34.901029">
    <ele>14.5</ele>
    <time>2019-10-14T13:32:28.000Z</time>
   </trkpt>
   <trkpt lat="-8.049661" lon="-34.901044">
    <ele>14.5</ele>
    <time>2019-10-14T13:32:29.000Z</time>
   </trkpt>
   <trkpt lat="-8.04971" lon="-34.901059">
    <ele>14.5</ele>
    <time>2019-10-14T13:32:30.000Z</time>
   </trkpt>
   <trkpt lat="-8.04976" lon="-34.901075">
    <ele>14.5</ele>
    <time>2019-10-14T13:32:31.000Z</time>
   </trkpt>
   <trkpt lat="-8.049807" lon="-34.90109">
    <ele>14.5</ele>
    <time>2019-10-14T13:32:32.000Z</time>
   </trkpt>
   <trkpt lat="-8.049857" lon="-34.901099">
    <ele>14.4</ele>
    <time>2019-10-14T13:32:33.000Z</time>
   </trkpt>
   <trkpt lat="-8.049901" lon="-34.901107">
    <ele>14.4</ele>
    <time>2019-10-14T13:32:34.000Z</time>
   </trkpt>
   <trkpt lat="-8.049942" lon="-34.901118">
    <ele>14.4</ele>
    <time>2019-10-14T13:32:35.000Z</time>
   </trkpt>
   <trkpt lat="-8.049977" lon="-34.901128">
    <ele>14.4</ele>
    <time>2019-10-14T13:32:36.000Z</time>
   </trkpt>
   <trkpt lat="-8.05002" lon="-34.901142">
    <ele>14.4</ele>
    <time>2019-10-14T13:32:37.000Z</time>
   </trkpt>
   <trkpt lat="-8.050065" lon="-34.901158">
    <ele>14.4</ele>
    <time>2019-10-14T13:32:38.000Z</time>
   </trkpt>
   <trkpt lat="-8.0501" lon="-34.901151">
    <ele>14.4</ele>
    <time>2019-10-14T13:32:39.000Z</time>
   </trkpt>
   <trkpt lat="-8.050144" lon="-34.90116">
    <ele>14.4</ele>
    <time>2019-10-14T13:32:40.000Z</time>
   </trkpt>
   <trkpt lat="-8.050199" lon="-34.901152">
    <ele>14.3</ele>
    <time>2019-10-14T13:32:42.000Z</time>
   </trkpt>
   <trkpt lat="-8.050246" lon="-34.901153">
    <ele>14.2</ele>
    <time>2019-10-14T13:32:44.000Z</time>
   </trkpt>
   <trkpt lat="-8.050276" lon="-34.901153">
    <ele>14.2</ele>
    <time>2019-10-14T13:32:49.000Z</time>
   </trkpt>
   <trkpt lat="-8.050309" lon="-34.901168">
    <ele>14.1</ele>
    <time>2019-10-14T13:32:50.000Z</time>
   </trkpt>
   <trkpt lat="-8.050349" lon="-34.901176">
    <ele>14.1</ele>
    <time>2019-10-14T13:32:51.000Z</time>
   </trkpt>
   <trkpt lat="-8.05039" lon="-34.901181">
    <ele>14</ele>
    <time>2019-10-14T13:32:52.000Z</time>
   </trkpt>
   <trkpt lat="-8.050422" lon="-34.901196">
    <ele>13.9</ele>
    <time>2019-10-14T13:32:53.000Z</time>
   </trkpt>
   <trkpt lat="-8.050453" lon="-34.901197">
    <ele>13.8</ele>
    <time>2019-10-14T13:32:54.000Z</time>
   </trkpt>
   <trkpt lat="-8.050491" lon="-34.9012">
    <ele>13.7</ele>
    <time>2019-10-14T13:32:55.000Z</time>
   </trkpt>
   <trkpt lat="-8.050522" lon="-34.9012">
    <ele>13.6</ele>
    <time>2019-10-14T13:32:56.000Z</time>
   </trkpt>
   <trkpt lat="-8.050558" lon="-34.901198">
    <ele>13.6</ele>
    <time>2019-10-14T13:32:57.000Z</time>
   </trkpt>
   <trkpt lat="-8.050616" lon="-34.901192">
    <ele>13.4</ele>
    <time>2019-10-14T13:32:58.000Z</time>
   </trkpt>
   <trkpt lat="-8.050677" lon="-34.901184">
    <ele>13.2</ele>
    <time>2019-10-14T13:32:59.000Z</time>
   </trkpt>
   <trkpt lat="-8.050721" lon="-34.901172">
    <ele>13</ele>
    <time>2019-10-14T13:33:00.000Z</time>
   </trkpt>
   <trkpt lat="-8.050768" lon="-34.901173">
    <ele>12.8</ele>
    <time>2019-10-14T13:33:01.000Z</time>
   </trkpt>
   <trkpt lat="-8.05081" lon="-34.901166">
    <ele>12.7</ele>
    <time>2019-10-14T13:33:02.000Z</time>
   </trkpt>
   <trkpt lat="-8.050845" lon="-34.901174">
    <ele>12.5</ele>
    <time>2019-10-14T13:33:03.000Z</time>
   </trkpt>
   <trkpt lat="-8.050872" lon="-34.90119">
    <ele>12.4</ele>
    <time>2019-10-14T13:33:04.000Z</time>
   </trkpt>
   <trkpt lat="-8.050875" lon="-34.901219">
    <ele>12.5</ele>
    <time>2019-10-14T13:33:05.000Z</time>
   </trkpt>
   <trkpt lat="-8.050864" lon="-34.901262">
    <ele>12.5</ele>
    <time>2019-10-14T13:33:06.000Z</time>
   </trkpt>
   <trkpt lat="-8.050845" lon="-34.901306">
    <ele>12.6</ele>
    <time>2019-10-14T13:33:07.000Z</time>
   </trkpt>
   <trkpt lat="-8.050847" lon="-34.901349">
    <ele>12.6</ele>
    <time>2019-10-14T13:33:08.000Z</time>
   </trkpt>
   <trkpt lat="-8.050852" lon="-34.901404">
    <ele>12.7</ele>
    <time>2019-10-14T13:33:10.000Z</time>
   </trkpt>
   <trkpt lat="-8.050844" lon="-34.901438">
    <ele>12.7</ele>
    <time>2019-10-14T13:33:11.000Z</time>
   </trkpt>
   <trkpt lat="-8.05085" lon="-34.901483">
    <ele>12.8</ele>
    <time>2019-10-14T13:33:12.000Z</time>
   </trkpt>
   <trkpt lat="-8.050851" lon="-34.901522">
    <ele>12.8</ele>
    <time>2019-10-14T13:33:13.000Z</time>
   </trkpt>
   <trkpt lat="-8.050867" lon="-34.901555">
    <ele>12.8</ele>
    <time>2019-10-14T13:33:14.000Z</time>
   </trkpt>
   <trkpt lat="-8.050851" lon="-34.901595">
    <ele>12.9</ele>
    <time>2019-10-14T13:33:15.000Z</time>
   </trkpt>
   <trkpt lat="-8.050843" lon="-34.901639">
    <ele>13</ele>
    <time>2019-10-14T13:33:16.000Z</time>
   </trkpt>
   <trkpt lat="-8.050835" lon="-34.901684">
    <ele>13</ele>
    <time>2019-10-14T13:33:17.000Z</time>
   </trkpt>
   <trkpt lat="-8.050829" lon="-34.901727">
    <ele>13.1</ele>
    <time>2019-10-14T13:33:18.000Z</time>
   </trkpt>
   <trkpt lat="-8.050813" lon="-34.901774">
    <ele>13.1</ele>
    <time>2019-10-14T13:33:19.000Z</time>
   </trkpt>
   <trkpt lat="-8.050795" lon="-34.901825">
    <ele>13.5</ele>
    <time>2019-10-14T13:33:20.000Z</time>
   </trkpt>
   <trkpt lat="-8.050788" lon="-34.901864">
    <ele>13.9</ele>
    <time>2019-10-14T13:33:21.000Z</time>
   </trkpt>
   <trkpt lat="-8.050785" lon="-34.901904">
    <ele>14.4</ele>
    <time>2019-10-14T13:33:22.000Z</time>
   </trkpt>
   <trkpt lat="-8.050789" lon="-34.901936">
    <ele>15</ele>
    <time>2019-10-14T13:33:23.000Z</time>
   </trkpt>
   <trkpt lat="-8.050798" lon="-34.901966">
    <ele>14.9</ele>
    <time>2019-10-14T13:33:24.000Z</time>
   </trkpt>
   <trkpt lat="-8.050826" lon="-34.901974">
    <ele>14.7</ele>
    <time>2019-10-14T13:33:25.000Z</time>
   </trkpt>
   <trkpt lat="-8.050867" lon="-34.901981">
    <ele>14.6</ele>
    <time>2019-10-14T13:33:26.000Z</time>
   </trkpt>
   <trkpt lat="-8.050913" lon="-34.901991">
    <ele>14.4</ele>
    <time>2019-10-14T13:33:27.000Z</time>
   </trkpt>
   <trkpt lat="-8.050958" lon="-34.902003">
    <ele>14.3</ele>
    <time>2019-10-14T13:33:28.000Z</time>
   </trkpt>
   <trkpt lat="-8.051003" lon="-34.902016">
    <ele>14.2</ele>
    <time>2019-10-14T13:33:29.000Z</time>
   </trkpt>
   <trkpt lat="-8.051055" lon="-34.902032">
    <ele>14.1</ele>
    <time>2019-10-14T13:33:30.000Z</time>
   </trkpt>
   <trkpt lat="-8.051098" lon="-34.90204">
    <ele>14.1</ele>
    <time>2019-10-14T13:33:31.000Z</time>
   </trkpt>
   <trkpt lat="-8.051141" lon="-34.902048">
    <ele>14</ele>
    <time>2019-10-14T13:33:32.000Z</time>
   </trkpt>
   <trkpt lat="-8.051183" lon="-34.902045">
    <ele>13.9</ele>
    <time>2019-10-14T13:33:33.000Z</time>
   </trkpt>
   <trkpt lat="-8.051219" lon="-34.902048">
    <ele>13.9</ele>
    <time>2019-10-14T13:33:34.000Z</time>
   </trkpt>
   <trkpt lat="-8.051257" lon="-34.90205">
    <ele>13.8</ele>
    <time>2019-10-14T13:33:35.000Z</time>
   </trkpt>
   <trkpt lat="-8.051297" lon="-34.902056">
    <ele>13.7</ele>
    <time>2019-10-14T13:33:36.000Z</time>
   </trkpt>
   <trkpt lat="-8.05133" lon="-34.902068">
    <ele>13.6</ele>
    <time>2019-10-14T13:33:37.000Z</time>
   </trkpt>
   <trkpt lat="-8.051374" lon="-34.902064">
    <ele>13.5</ele>
    <time>2019-10-14T13:33:38.000Z</time>
   </trkpt>
   <trkpt lat="-8.051413" lon="-34.902076">
    <ele>13.4</ele>
    <time>2019-10-14T13:33:39.000Z</time>
   </trkpt>
   <trkpt lat="-8.051447" lon="-34.902098">
    <ele>13.3</ele>
    <time>2019-10-14T13:33:40.000Z</time>
   </trkpt>
   <trkpt lat="-8.051475" lon="-34.902109">
    <ele>13.2</ele>
    <time>2019-10-14T13:33:41.000Z</time>
   </trkpt>
   <trkpt lat="-8.051506" lon="-34.902119">
    <ele>13.1</ele>
    <time>2019-10-14T13:33:42.000Z</time>
   </trkpt>
   <trkpt lat="-8.051542" lon="-34.902148">
    <ele>13</ele>
    <time>2019-10-14T13:33:43.000Z</time>
   </trkpt>
   <trkpt lat="-8.051593" lon="-34.90216">
    <ele>12.8</ele>
    <time>2019-10-14T13:33:44.000Z</time>
   </trkpt>
   <trkpt lat="-8.051641" lon="-34.902163">
    <ele>12.7</ele>
    <time>2019-10-14T13:33:45.000Z</time>
   </trkpt>
   <trkpt lat="-8.051684" lon="-34.902169">
    <ele>12.6</ele>
    <time>2019-10-14T13:33:46.000Z</time>
   </trkpt>
   <trkpt lat="-8.051726" lon="-34.902174">
    <ele>12.5</ele>
    <time>2019-10-14T13:33:47.000Z</time>
   </trkpt>
   <trkpt lat="-8.051763" lon="-34.902177">
    <ele>12.4</ele>
    <time>2019-10-14T13:33:48.000Z</time>
   </trkpt>
   <trkpt lat="-8.051806" lon="-34.90219">
    <ele>12.3</ele>
    <time>2019-10-14T13:33:49.000Z</time>
   </trkpt>
   <trkpt lat="-8.051845" lon="-34.902188">
    <ele>12.2</ele>
    <time>2019-10-14T13:33:50.000Z</time>
   </trkpt>
   <trkpt lat="-8.051878" lon="-34.902184">
    <ele>12.2</ele>
    <time>2019-10-14T13:33:51.000Z</time>
   </trkpt>
   <trkpt lat="-8.051919" lon="-34.902197">
    <ele>12.1</ele>
    <time>2019-10-14T13:33:52.000Z</time>
   </trkpt>
   <trkpt lat="-8.051961" lon="-34.902211">
    <ele>12</ele>
    <time>2019-10-14T13:33:53.000Z</time>
   </trkpt>
   <trkpt lat="-8.052004" lon="-34.902225">
    <ele>11.9</ele>
    <time>2019-10-14T13:33:54.000Z</time>
   </trkpt>
   <trkpt lat="-8.052045" lon="-34.902233">
    <ele>11.8</ele>
    <time>2019-10-14T13:33:55.000Z</time>
   </trkpt>
   <trkpt lat="-8.052086" lon="-34.902239">
    <ele>11.8</ele>
    <time>2019-10-14T13:33:56.000Z</time>
   </trkpt>
   <trkpt lat="-8.052129" lon="-34.902243">
    <ele>11.7</ele>
    <time>2019-10-14T13:33:57.000Z</time>
   </trkpt>
   <trkpt lat="-8.05218" lon="-34.902248">
    <ele>11.5</ele>
    <time>2019-10-14T13:33:58.000Z</time>
   </trkpt>
   <trkpt lat="-8.052221" lon="-34.90225">
    <ele>11.4</ele>
    <time>2019-10-14T13:33:59.000Z</time>
   </trkpt>
   <trkpt lat="-8.052265" lon="-34.902251">
    <ele>11.3</ele>
    <time>2019-10-14T13:34:00.000Z</time>
   </trkpt>
   <trkpt lat="-8.052305" lon="-34.902257">
    <ele>11.2</ele>
    <time>2019-10-14T13:34:01.000Z</time>
   </trkpt>
   <trkpt lat="-8.052343" lon="-34.902265">
    <ele>11.1</ele>
    <time>2019-10-14T13:34:02.000Z</time>
   </trkpt>
   <trkpt lat="-8.05238" lon="-34.902274">
    <ele>11</ele>
    <time>2019-10-14T13:34:03.000Z</time>
   </trkpt>
   <trkpt lat="-8.052417" lon="-34.902267">
    <ele>11</ele>
    <time>2019-10-14T13:34:04.000Z</time>
   </trkpt>
   <trkpt lat="-8.052473" lon="-34.90228">
    <ele>11</ele>
    <time>2019-10-14T13:34:06.000Z</time>
   </trkpt>
   <trkpt lat="-8.052502" lon="-34.902281">
    <ele>11</ele>
    <time>2019-10-14T13:34:07.000Z</time>
   </trkpt>
   <trkpt lat="-8.05253" lon="-34.902285">
    <ele>11</ele>
    <time>2019-10-14T13:34:08.000Z</time>
   </trkpt>
   <trkpt lat="-8.052564" lon="-34.902286">
    <ele>11</ele>
    <time>2019-10-14T13:34:09.000Z</time>
   </trkpt>
   <trkpt lat="-8.052599" lon="-34.902295">
    <ele>11</ele>
    <time>2019-10-14T13:34:10.000Z</time>
   </trkpt>
   <trkpt lat="-8.052629" lon="-34.902308">
    <ele>11</ele>
    <time>2019-10-14T13:34:11.000Z</time>
   </trkpt>
   <trkpt lat="-8.052659" lon="-34.90231">
    <ele>11</ele>
    <time>2019-10-14T13:34:12.000Z</time>
   </trkpt>
   <trkpt lat="-8.052704" lon="-34.902303">
    <ele>11</ele>
    <time>2019-10-14T13:34:14.000Z</time>
   </trkpt>
   <trkpt lat="-8.052769" lon="-34.902305">
    <ele>11</ele>
    <time>2019-10-14T13:34:16.000Z</time>
   </trkpt>
   <trkpt lat="-8.052801" lon="-34.902309">
    <ele>11</ele>
    <time>2019-10-14T13:34:20.000Z</time>
   </trkpt>
   <trkpt lat="-8.052832" lon="-34.902314">
    <ele>11.8</ele>
    <time>2019-10-14T13:34:47.000Z</time>
   </trkpt>
   <trkpt lat="-8.052863" lon="-34.902318">
    <ele>12.1</ele>
    <time>2019-10-14T13:34:48.000Z</time>
   </trkpt>
   <trkpt lat="-8.052909" lon="-34.902304">
    <ele>12.5</ele>
    <time>2019-10-14T13:34:49.000Z</time>
   </trkpt>
   <trkpt lat="-8.052976" lon="-34.902284">
    <ele>13</ele>
    <time>2019-10-14T13:34:50.000Z</time>
   </trkpt>
   <trkpt lat="-8.053038" lon="-34.902274">
    <ele>13.5</ele>
    <time>2019-10-14T13:34:51.000Z</time>
   </trkpt>
   <trkpt lat="-8.053108" lon="-34.902255">
    <ele>14.1</ele>
    <time>2019-10-14T13:34:52.000Z</time>
   </trkpt>
   <trkpt lat="-8.053168" lon="-34.902235">
    <ele>14.5</ele>
    <time>2019-10-14T13:34:53.000Z</time>
   </trkpt>
   <trkpt lat="-8.053214" lon="-34.902212">
    <ele>14.8</ele>
    <time>2019-10-14T13:34:54.000Z</time>
   </trkpt>
   <trkpt lat="-8.053264" lon="-34.9022">
    <ele>15</ele>
    <time>2019-10-14T13:34:55.000Z</time>
   </trkpt>
   <trkpt lat="-8.053313" lon="-34.902186">
    <ele>15.1</ele>
    <time>2019-10-14T13:34:56.000Z</time>
   </trkpt>
   <trkpt lat="-8.053362" lon="-34.902168">
    <ele>15.2</ele>
    <time>2019-10-14T13:34:57.000Z</time>
   </trkpt>
   <trkpt lat="-8.053403" lon="-34.902153">
    <ele>15.3</ele>
    <time>2019-10-14T13:34:58.000Z</time>
   </trkpt>
   <trkpt lat="-8.053429" lon="-34.902146">
    <ele>15.4</ele>
    <time>2019-10-14T13:34:59.000Z</time>
   </trkpt>
   <trkpt lat="-8.053485" lon="-34.902164">
    <ele>15.7</ele>
    <time>2019-10-14T13:35:00.000Z</time>
   </trkpt>
   <trkpt lat="-8.053554" lon="-34.902208">
    <ele>16</ele>
    <time>2019-10-14T13:35:01.000Z</time>
   </trkpt>
   <trkpt lat="-8.053601" lon="-34.902209">
    <ele>16.2</ele>
    <time>2019-10-14T13:35:02.000Z</time>
   </trkpt>
   <trkpt lat="-8.053652" lon="-34.902187">
    <ele>16.4</ele>
    <time>2019-10-14T13:35:03.000Z</time>
   </trkpt>
   <trkpt lat="-8.053703" lon="-34.902178">
    <ele>16.6</ele>
    <time>2019-10-14T13:35:04.000Z</time>
   </trkpt>
   <trkpt lat="-8.053738" lon="-34.902168">
    <ele>16.9</ele>
    <time>2019-10-14T13:35:05.000Z</time>
   </trkpt>
   <trkpt lat="-8.053795" lon="-34.902141">
    <ele>15.8</ele>
    <time>2019-10-14T13:35:07.000Z</time>
   </trkpt>
   <trkpt lat="-8.053852" lon="-34.902111">
    <ele>14.7</ele>
    <time>2019-10-14T13:35:08.000Z</time>
   </trkpt>
   <trkpt lat="-8.053926" lon="-34.902079">
    <ele>13.3</ele>
    <time>2019-10-14T13:35:09.000Z</time>
   </trkpt>
   <trkpt lat="-8.053994" lon="-34.902054">
    <ele>12</ele>
    <time>2019-10-14T13:35:10.000Z</time>
   </trkpt>
   <trkpt lat="-8.054069" lon="-34.902049">
    <ele>10.7</ele>
    <time>2019-10-14T13:35:11.000Z</time>
   </trkpt>
   <trkpt lat="-8.054119" lon="-34.902048">
    <ele>9.9</ele>
    <time>2019-10-14T13:35:12.000Z</time>
   </trkpt>
   <trkpt lat="-8.054156" lon="-34.902039">
    <ele>9.7</ele>
    <time>2019-10-14T13:35:13.000Z</time>
   </trkpt>
   <trkpt lat="-8.054192" lon="-34.902031">
    <ele>9.6</ele>
    <time>2019-10-14T13:35:14.000Z</time>
   </trkpt>
   <trkpt lat="-8.054224" lon="-34.902022">
    <ele>9.4</ele>
    <time>2019-10-14T13:35:15.000Z</time>
   </trkpt>
   <trkpt lat="-8.054274" lon="-34.902012">
    <ele>9.1</ele>
    <time>2019-10-14T13:35:16.000Z</time>
   </trkpt>
   <trkpt lat="-8.054321" lon="-34.902007">
    <ele>9.2</ele>
    <time>2019-10-14T13:35:17.000Z</time>
   </trkpt>
   <trkpt lat="-8.054364" lon="-34.901994">
    <ele>9.4</ele>
    <time>2019-10-14T13:35:18.000Z</time>
   </trkpt>
   <trkpt lat="-8.054375" lon="-34.901964">
    <ele>9.5</ele>
    <time>2019-10-14T13:35:19.000Z</time>
   </trkpt>
   <trkpt lat="-8.054399" lon="-34.90193">
    <ele>9.7</ele>
    <time>2019-10-14T13:35:20.000Z</time>
   </trkpt>
   <trkpt lat="-8.054454" lon="-34.901909">
    <ele>9.9</ele>
    <time>2019-10-14T13:35:21.000Z</time>
   </trkpt>
   <trkpt lat="-8.0545" lon="-34.901884">
    <ele>10.1</ele>
    <time>2019-10-14T13:35:22.000Z</time>
   </trkpt>
   <trkpt lat="-8.054546" lon="-34.901837">
    <ele>10</ele>
    <time>2019-10-14T13:35:23.000Z</time>
   </trkpt>
   <trkpt lat="-8.054573" lon="-34.901791">
    <ele>9.8</ele>
    <time>2019-10-14T13:35:24.000Z</time>
   </trkpt>
   <trkpt lat="-8.054567" lon="-34.901749">
    <ele>9.8</ele>
    <time>2019-10-14T13:35:25.000Z</time>
   </trkpt>
   <trkpt lat="-8.054558" lon="-34.901707">
    <ele>9.7</ele>
    <time>2019-10-14T13:35:26.000Z</time>
   </trkpt>
   <trkpt lat="-8.054553" lon="-34.901673">
    <ele>9.7</ele>
    <time>2019-10-14T13:35:27.000Z</time>
   </trkpt>
   <trkpt lat="-8.054547" lon="-34.901635">
    <ele>9.6</ele>
    <time>2019-10-14T13:35:28.000Z</time>
   </trkpt>
   <trkpt lat="-8.054546" lon="-34.9016">
    <ele>9.6</ele>
    <time>2019-10-14T13:35:29.000Z</time>
   </trkpt>
   <trkpt lat="-8.054571" lon="-34.901574">
    <ele>9.9</ele>
    <time>2019-10-14T13:35:30.000Z</time>
   </trkpt>
   <trkpt lat="-8.054625" lon="-34.901545">
    <ele>10.6</ele>
    <time>2019-10-14T13:35:31.000Z</time>
   </trkpt>
   <trkpt lat="-8.054653" lon="-34.901515">
    <ele>11.1</ele>
    <time>2019-10-14T13:35:32.000Z</time>
   </trkpt>
   <trkpt lat="-8.054689" lon="-34.901489">
    <ele>11.5</ele>
    <time>2019-10-14T13:35:33.000Z</time>
   </trkpt>
   <trkpt lat="-8.054705" lon="-34.901457">
    <ele>11.7</ele>
    <time>2019-10-14T13:35:34.000Z</time>
   </trkpt>
   <trkpt lat="-8.054717" lon="-34.901429">
    <ele>11.9</ele>
    <time>2019-10-14T13:35:35.000Z</time>
   </trkpt>
   <trkpt lat="-8.054744" lon="-34.901398">
    <ele>12.1</ele>
    <time>2019-10-14T13:35:36.000Z</time>
   </trkpt>
   <trkpt lat="-8.054766" lon="-34.90137">
    <ele>12.3</ele>
    <time>2019-10-14T13:35:37.000Z</time>
   </trkpt>
   <trkpt lat="-8.054792" lon="-34.901341">
    <ele>12.5</ele>
    <time>2019-10-14T13:35:38.000Z</time>
   </trkpt>
   <trkpt lat="-8.054816" lon="-34.901315">
    <ele>12.6</ele>
    <time>2019-10-14T13:35:39.000Z</time>
   </trkpt>
   <trkpt lat="-8.054844" lon="-34.9013">
    <ele>12.7</ele>
    <time>2019-10-14T13:35:40.000Z</time>
   </trkpt>
   <trkpt lat="-8.054878" lon="-34.901262">
    <ele>12.9</ele>
    <time>2019-10-14T13:35:42.000Z</time>
   </trkpt>
   <trkpt lat="-8.054923" lon="-34.901214">
    <ele>13</ele>
    <time>2019-10-14T13:35:44.000Z</time>
   </trkpt>
   <trkpt lat="-8.054947" lon="-34.901188">
    <ele>13</ele>
    <time>2019-10-14T13:35:45.000Z</time>
   </trkpt>
   <trkpt lat="-8.054979" lon="-34.901166">
    <ele>13.1</ele>
    <time>2019-10-14T13:35:46.000Z</time>
   </trkpt>
   <trkpt lat="-8.055017" lon="-34.901157">
    <ele>13.2</ele>
    <time>2019-10-14T13:35:47.000Z</time>
   </trkpt>
   <trkpt lat="-8.055045" lon="-34.901133">
    <ele>13.2</ele>
    <time>2019-10-14T13:35:48.000Z</time>
   </trkpt>
   <trkpt lat="-8.055072" lon="-34.9011">
    <ele>13.3</ele>
    <time>2019-10-14T13:35:49.000Z</time>
   </trkpt>
   <trkpt lat="-8.055103" lon="-34.901067">
    <ele>13.3</ele>
    <time>2019-10-14T13:35:50.000Z</time>
   </trkpt>
   <trkpt lat="-8.055135" lon="-34.901031">
    <ele>13.4</ele>
    <time>2019-10-14T13:35:51.000Z</time>
   </trkpt>
   <trkpt lat="-8.055179" lon="-34.901014">
    <ele>13.4</ele>
    <time>2019-10-14T13:35:52.000Z</time>
   </trkpt>
   <trkpt lat="-8.055211" lon="-34.900974">
    <ele>13.5</ele>
    <time>2019-10-14T13:35:53.000Z</time>
   </trkpt>
   <trkpt lat="-8.055236" lon="-34.900954">
    <ele>13.6</ele>
    <time>2019-10-14T13:35:54.000Z</time>
   </trkpt>
   <trkpt lat="-8.055267" lon="-34.90092">
    <ele>13.7</ele>
    <time>2019-10-14T13:35:55.000Z</time>
   </trkpt>
   <trkpt lat="-8.055305" lon="-34.900888">
    <ele>13.8</ele>
    <time>2019-10-14T13:35:56.000Z</time>
   </trkpt>
   <trkpt lat="-8.055343" lon="-34.900844">
    <ele>13.9</ele>
    <time>2019-10-14T13:35:57.000Z</time>
   </trkpt>
   <trkpt lat="-8.055373" lon="-34.900796">
    <ele>14.1</ele>
    <time>2019-10-14T13:35:58.000Z</time>
   </trkpt>
   <trkpt lat="-8.055386" lon="-34.900744">
    <ele>14.2</ele>
    <time>2019-10-14T13:35:59.000Z</time>
   </trkpt>
   <trkpt lat="-8.055392" lon="-34.900691">
    <ele>13.9</ele>
    <time>2019-10-14T13:36:00.000Z</time>
   </trkpt>
   <trkpt lat="-8.055388" lon="-34.900652">
    <ele>13.8</ele>
    <time>2019-10-14T13:36:01.000Z</time>
   </trkpt>
   <trkpt lat="-8.055383" lon="-34.900613">
    <ele>13.6</ele>
    <time>2019-10-14T13:36:02.000Z</time>
   </trkpt>
   <trkpt lat="-8.055374" lon="-34.900572">
    <ele>13.5</ele>
    <time>2019-10-14T13:36:03.000Z</time>
   </trkpt>
   <trkpt lat="-8.055375" lon="-34.900531">
    <ele>13.3</ele>
    <time>2019-10-14T13:36:04.000Z</time>
   </trkpt>
   <trkpt lat="-8.055369" lon="-34.90049">
    <ele>13.2</ele>
    <time>2019-10-14T13:36:05.000Z</time>
   </trkpt>
   <trkpt lat="-8.055367" lon="-34.900452">
    <ele>13.1</ele>
    <time>2019-10-14T13:36:06.000Z</time>
   </trkpt>
   <trkpt lat="-8.05536" lon="-34.900419">
    <ele>13</ele>
    <time>2019-10-14T13:36:07.000Z</time>
   </trkpt>
   <trkpt lat="-8.055358" lon="-34.900381">
    <ele>12.8</ele>
    <time>2019-10-14T13:36:08.000Z</time>
   </trkpt>
   <trkpt lat="-8.055353" lon="-34.900342">
    <ele>12.7</ele>
    <time>2019-10-14T13:36:09.000Z</time>
   </trkpt>
   <trkpt lat="-8.055352" lon="-34.900311">
    <ele>12.6</ele>
    <time>2019-10-14T13:36:10.000Z</time>
   </trkpt>
   <trkpt lat="-8.055347" lon="-34.900259">
    <ele>12.5</ele>
    <time>2019-10-14T13:36:12.000Z</time>
   </trkpt>
   <trkpt lat="-8.055334" lon="-34.900227">
    <ele>12.4</ele>
    <time>2019-10-14T13:36:13.000Z</time>
   </trkpt>
   <trkpt lat="-8.055336" lon="-34.900199">
    <ele>12.3</ele>
    <time>2019-10-14T13:36:14.000Z</time>
   </trkpt>
   <trkpt lat="-8.055386" lon="-34.90017">
    <ele>12.6</ele>
    <time>2019-10-14T13:36:17.000Z</time>
   </trkpt>
   <trkpt lat="-8.05543" lon="-34.900155">
    <ele>12.8</ele>
    <time>2019-10-14T13:36:18.000Z</time>
   </trkpt>
   <trkpt lat="-8.05548" lon="-34.900145">
    <ele>12.9</ele>
    <time>2019-10-14T13:36:19.000Z</time>
   </trkpt>
   <trkpt lat="-8.05553" lon="-34.900137">
    <ele>13</ele>
    <time>2019-10-14T13:36:20.000Z</time>
   </trkpt>
   <trkpt lat="-8.055585" lon="-34.900129">
    <ele>13.1</ele>
    <time>2019-10-14T13:36:21.000Z</time>
   </trkpt>
   <trkpt lat="-8.055649" lon="-34.900124">
    <ele>13.2</ele>
    <time>2019-10-14T13:36:23.000Z</time>
   </trkpt>
   <trkpt lat="-8.055698" lon="-34.90013">
    <ele>13.3</ele>
    <time>2019-10-14T13:36:24.000Z</time>
   </trkpt>
   <trkpt lat="-8.055742" lon="-34.900133">
    <ele>13.5</ele>
    <time>2019-10-14T13:36:25.000Z</time>
   </trkpt>
   <trkpt lat="-8.055795" lon="-34.900132">
    <ele>13.6</ele>
    <time>2019-10-14T13:36:26.000Z</time>
   </trkpt>
   <trkpt lat="-8.055848" lon="-34.900131">
    <ele>13.8</ele>
    <time>2019-10-14T13:36:27.000Z</time>
   </trkpt>
   <trkpt lat="-8.055899" lon="-34.900128">
    <ele>14.1</ele>
    <time>2019-10-14T13:36:28.000Z</time>
   </trkpt>
   <trkpt lat="-8.055943" lon="-34.900119">
    <ele>14.1</ele>
    <time>2019-10-14T13:36:29.000Z</time>
   </trkpt>
   <trkpt lat="-8.05599" lon="-34.900122">
    <ele>14</ele>
    <time>2019-10-14T13:36:30.000Z</time>
   </trkpt>
   <trkpt lat="-8.056034" lon="-34.900117">
    <ele>14</ele>
    <time>2019-10-14T13:36:31.000Z</time>
   </trkpt>
   <trkpt lat="-8.056082" lon="-34.900122">
    <ele>13.9</ele>
    <time>2019-10-14T13:36:32.000Z</time>
   </trkpt>
   <trkpt lat="-8.056127" lon="-34.900124">
    <ele>13.9</ele>
    <time>2019-10-14T13:36:33.000Z</time>
   </trkpt>
   <trkpt lat="-8.056172" lon="-34.900129">
    <ele>13.8</ele>
    <time>2019-10-14T13:36:34.000Z</time>
   </trkpt>
   <trkpt lat="-8.056258" lon="-34.900142">
    <ele>13.7</ele>
    <time>2019-10-14T13:36:36.000Z</time>
   </trkpt>
   <trkpt lat="-8.056288" lon="-34.900138">
    <ele>13.6</ele>
    <time>2019-10-14T13:36:37.000Z</time>
   </trkpt>
   <trkpt lat="-8.056326" lon="-34.900131">
    <ele>13.5</ele>
    <time>2019-10-14T13:36:38.000Z</time>
   </trkpt>
   <trkpt lat="-8.056378" lon="-34.900129">
    <ele>13.4</ele>
    <time>2019-10-14T13:36:39.000Z</time>
   </trkpt>
   <trkpt lat="-8.056429" lon="-34.900122">
    <ele>13.1</ele>
    <time>2019-10-14T13:36:40.000Z</time>
   </trkpt>
   <trkpt lat="-8.056475" lon="-34.900112">
    <ele>12.8</ele>
    <time>2019-10-14T13:36:41.000Z</time>
   </trkpt>
   <trkpt lat="-8.056523" lon="-34.900112">
    <ele>12.4</ele>
    <time>2019-10-14T13:36:42.000Z</time>
   </trkpt>
   <trkpt lat="-8.056573" lon="-34.900112">
    <ele>11.9</ele>
    <time>2019-10-14T13:36:43.000Z</time>
   </trkpt>
   <trkpt lat="-8.056617" lon="-34.900112">
    <ele>11.5</ele>
    <time>2019-10-14T13:36:44.000Z</time>
   </trkpt>
   <trkpt lat="-8.056656" lon="-34.90011">
    <ele>11.2</ele>
    <time>2019-10-14T13:36:45.000Z</time>
   </trkpt>
   <trkpt lat="-8.0567" lon="-34.900118">
    <ele>10.8</ele>
    <time>2019-10-14T13:36:46.000Z</time>
   </trkpt>
   <trkpt lat="-8.056743" lon="-34.900121">
    <ele>10.4</ele>
    <time>2019-10-14T13:36:48.000Z</time>
   </trkpt>
   <trkpt lat="-8.056786" lon="-34.900114">
    <ele>10.2</ele>
    <time>2019-10-14T13:36:50.000Z</time>
   </trkpt>
   <trkpt lat="-8.056831" lon="-34.900118">
    <ele>10</ele>
    <time>2019-10-14T13:36:52.000Z</time>
   </trkpt>
   <trkpt lat="-8.056878" lon="-34.900118">
    <ele>9.9</ele>
    <time>2019-10-14T13:36:54.000Z</time>
   </trkpt>
   <trkpt lat="-8.056941" lon="-34.900127">
    <ele>9.6</ele>
    <time>2019-10-14T13:36:57.000Z</time>
   </trkpt>
   <trkpt lat="-8.056934" lon="-34.900127">
    <ele>9.6</ele>
    <time>2019-10-14T13:37:05.000Z</time>
   </trkpt>
   <trkpt lat="-8.056955" lon="-34.900118">
    <ele>9.5</ele>
    <time>2019-10-14T13:37:25.000Z</time>
   </trkpt>
   <trkpt lat="-8.056976" lon="-34.90011">
    <ele>9.5</ele>
    <time>2019-10-14T13:37:26.000Z</time>
   </trkpt>
   <trkpt lat="-8.057035" lon="-34.900108">
    <ele>9.3</ele>
    <time>2019-10-14T13:37:27.000Z</time>
   </trkpt>
   <trkpt lat="-8.057087" lon="-34.900109">
    <ele>9.3</ele>
    <time>2019-10-14T13:37:28.000Z</time>
   </trkpt>
   <trkpt lat="-8.057134" lon="-34.900118">
    <ele>9.5</ele>
    <time>2019-10-14T13:37:29.000Z</time>
   </trkpt>
   <trkpt lat="-8.057176" lon="-34.900127">
    <ele>9.6</ele>
    <time>2019-10-14T13:37:30.000Z</time>
   </trkpt>
   <trkpt lat="-8.057229" lon="-34.900127">
    <ele>9.7</ele>
    <time>2019-10-14T13:37:31.000Z</time>
   </trkpt>
   <trkpt lat="-8.057274" lon="-34.900137">
    <ele>9.9</ele>
    <time>2019-10-14T13:37:32.000Z</time>
   </trkpt>
   <trkpt lat="-8.057323" lon="-34.900142">
    <ele>10</ele>
    <time>2019-10-14T13:37:33.000Z</time>
   </trkpt>
   <trkpt lat="-8.05737" lon="-34.90015">
    <ele>10.1</ele>
    <time>2019-10-14T13:37:34.000Z</time>
   </trkpt>
   <trkpt lat="-8.057418" lon="-34.900143">
    <ele>10.2</ele>
    <time>2019-10-14T13:37:36.000Z</time>
   </trkpt>
   <trkpt lat="-8.057414" lon="-34.900114">
    <ele>10.2</ele>
    <time>2019-10-14T13:37:40.000Z</time>
   </trkpt>
   <trkpt lat="-8.057512" lon="-34.899944">
    <ele>9.6</ele>
    <time>2019-10-14T13:37:54.000Z</time>
   </trkpt>
   <trkpt lat="-8.057521" lon="-34.899897">
    <ele>9.4</ele>
    <time>2019-10-14T13:37:55.000Z</time>
   </trkpt>
   <trkpt lat="-8.057541" lon="-34.899836">
    <ele>9.1</ele>
    <time>2019-10-14T13:37:56.000Z</time>
   </trkpt>
   <trkpt lat="-8.057552" lon="-34.899796">
    <ele>8.9</ele>
    <time>2019-10-14T13:37:57.000Z</time>
   </trkpt>
   <trkpt lat="-8.05756" lon="-34.899754">
    <ele>8.7</ele>
    <time>2019-10-14T13:37:58.000Z</time>
   </trkpt>
   <trkpt lat="-8.057565" lon="-34.899721">
    <ele>8.6</ele>
    <time>2019-10-14T13:37:59.000Z</time>
   </trkpt>
   <trkpt lat="-8.057564" lon="-34.89969">
    <ele>8.4</ele>
    <time>2019-10-14T13:38:00.000Z</time>
   </trkpt>
   <trkpt lat="-8.057566" lon="-34.89966">
    <ele>8.2</ele>
    <time>2019-10-14T13:38:01.000Z</time>
   </trkpt>
   <trkpt lat="-8.057572" lon="-34.899615">
    <ele>7.9</ele>
    <time>2019-10-14T13:38:02.000Z</time>
   </trkpt>
   <trkpt lat="-8.057584" lon="-34.899572">
    <ele>7.6</ele>
    <time>2019-10-14T13:38:03.000Z</time>
   </trkpt>
   <trkpt lat="-8.057583" lon="-34.899518">
    <ele>7.2</ele>
    <time>2019-10-14T13:38:04.000Z</time>
   </trkpt>
   <trkpt lat="-8.057582" lon="-34.899461">
    <ele>7.1</ele>
    <time>2019-10-14T13:38:05.000Z</time>
   </trkpt>
   <trkpt lat="-8.05757" lon="-34.899431">
    <ele>7</ele>
    <time>2019-10-14T13:38:06.000Z</time>
   </trkpt>
   <trkpt lat="-8.057562" lon="-34.899393">
    <ele>6.9</ele>
    <time>2019-10-14T13:38:07.000Z</time>
   </trkpt>
   <trkpt lat="-8.057557" lon="-34.899356">
    <ele>6.8</ele>
    <time>2019-10-14T13:38:08.000Z</time>
   </trkpt>
   <trkpt lat="-8.057553" lon="-34.899328">
    <ele>6.7</ele>
    <time>2019-10-14T13:38:09.000Z</time>
   </trkpt>
   <trkpt lat="-8.057545" lon="-34.899294">
    <ele>6.6</ele>
    <time>2019-10-14T13:38:11.000Z</time>
   </trkpt>
   <trkpt lat="-8.057553" lon="-34.899256">
    <ele>6.5</ele>
    <time>2019-10-14T13:38:13.000Z</time>
   </trkpt>
   <trkpt lat="-8.057537" lon="-34.899217">
    <ele>6.4</ele>
    <time>2019-10-14T13:38:15.000Z</time>
   </trkpt>
   <trkpt lat="-8.057504" lon="-34.899217">
    <ele>6.3</ele>
    <time>2019-10-14T13:38:18.000Z</time>
   </trkpt>
   <trkpt lat="-8.057541" lon="-34.899186">
    <ele>6.1</ele>
    <time>2019-10-14T13:38:24.000Z</time>
   </trkpt>
   <trkpt lat="-8.057583" lon="-34.899167">
    <ele>6.1</ele>
    <time>2019-10-14T13:38:26.000Z</time>
   </trkpt>
   <trkpt lat="-8.057596" lon="-34.89914">
    <ele>6.1</ele>
    <time>2019-10-14T13:38:30.000Z</time>
   </trkpt>
   <trkpt lat="-8.057639" lon="-34.899149">
    <ele>6.1</ele>
    <time>2019-10-14T13:38:33.000Z</time>
   </trkpt>
   <trkpt lat="-8.05767" lon="-34.899152">
    <ele>6.1</ele>
    <time>2019-10-14T13:38:35.000Z</time>
   </trkpt>
   <trkpt lat="-8.05771" lon="-34.899156">
    <ele>6.1</ele>
    <time>2019-10-14T13:38:37.000Z</time>
   </trkpt>
   <trkpt lat="-8.057737" lon="-34.89917">
    <ele>6.1</ele>
    <time>2019-10-14T13:38:39.000Z</time>
   </trkpt>
   <trkpt lat="-8.057815" lon="-34.898994">
    <ele>6.2</ele>
    <time>2019-10-14T13:39:01.000Z</time>
   </trkpt>
   <trkpt lat="-8.057843" lon="-34.898949">
    <ele>6.2</ele>
    <time>2019-10-14T13:39:05.000Z</time>
   </trkpt>
   <trkpt lat="-8.05785" lon="-34.898985">
    <ele>6.2</ele>
    <time>2019-10-14T13:39:07.000Z</time>
   </trkpt>
   <trkpt lat="-8.057868" lon="-34.899006">
    <ele>6.2</ele>
    <time>2019-10-14T13:39:11.000Z</time>
   </trkpt>
   <trkpt lat="-8.057878" lon="-34.899032">
    <ele>6.2</ele>
    <time>2019-10-14T13:39:14.000Z</time>
   </trkpt>
   <trkpt lat="-8.057867" lon="-34.899108">
    <ele>6.2</ele>
    <time>2019-10-14T13:39:55.000Z</time>
   </trkpt>
   <trkpt lat="-8.057845" lon="-34.899129">
    <ele>6.2</ele>
    <time>2019-10-14T13:39:58.000Z</time>
   </trkpt>
  </trkseg>
 </trk>
</gpx>
