<?xml version="1.0" encoding="UTF-8"?>
<gpx creator="StravaGPX" version="1.1" xmlns="http://www.topografix.com/GPX/1/1">
 <metadata>
  <time>2019-12-23T22:16:48Z</time>
 </metadata>
 <trk>
  <name>Evening Ride</name>
  <type>1</type>
  <trkseg>
   <trkpt lat="-8.06516" lon="-34.896494">
    <ele>3.7</ele>
    <time>2019-12-23T22:16:48.000Z</time>
   </trkpt>
   <trkpt lat="-8.065176" lon="-34.896521">
    <ele>3.8</ele>
    <time>2019-12-23T22:16:49.000Z</time>
   </trkpt>
   <trkpt lat="-8.0652" lon="-34.896556">
    <ele>3.9</ele>
    <time>2019-12-23T22:16:50.000Z</time>
   </trkpt>
   <trkpt lat="-8.065219" lon="-34.89659">
    <ele>4</ele>
    <time>2019-12-23T22:16:51.000Z</time>
   </trkpt>
   <trkpt lat="-8.065221" lon="-34.896604">
    <ele>4.1</ele>
    <time>2019-12-23T22:16:52.000Z</time>
   </trkpt>
   <trkpt lat="-8.065235" lon="-34.89666">
    <ele>4.2</ele>
    <time>2019-12-23T22:16:55.000Z</time>
   </trkpt>
   <trkpt lat="-8.065261" lon="-34.896727">
    <ele>4.3</ele>
    <time>2019-12-23T22:16:57.000Z</time>
   </trkpt>
   <trkpt lat="-8.065282" lon="-34.896764">
    <ele>4.3</ele>
    <time>2019-12-23T22:16:58.000Z</time>
   </trkpt>
   <trkpt lat="-8.065298" lon="-34.896829">
    <ele>4.5</ele>
    <time>2019-12-23T22:16:59.000Z</time>
   </trkpt>
   <trkpt lat="-8.065323" lon="-34.896905">
    <ele>4.6</ele>
    <time>2019-12-23T22:17:00.000Z</time>
   </trkpt>
   <trkpt lat="-8.065325" lon="-34.896939">
    <ele>4.6</ele>
    <time>2019-12-23T22:17:01.000Z</time>
   </trkpt>
   <trkpt lat="-8.065317" lon="-34.896956">
    <ele>4.7</ele>
    <time>2019-12-23T22:17:02.000Z</time>
   </trkpt>
   <trkpt lat="-8.065299" lon="-34.897012">
    <ele>4.8</ele>
    <time>2019-12-23T22:17:05.000Z</time>
   </trkpt>
   <trkpt lat="-8.065301" lon="-34.897034">
    <ele>4.9</ele>
    <time>2019-12-23T22:17:07.000Z</time>
   </trkpt>
   <trkpt lat="-8.065271" lon="-34.897046">
    <ele>4.9</ele>
    <time>2019-12-23T22:17:10.000Z</time>
   </trkpt>
   <trkpt lat="-8.065156" lon="-34.897034">
    <ele>5</ele>
    <time>2019-12-23T22:17:12.000Z</time>
   </trkpt>
   <trkpt lat="-8.065128" lon="-34.897027">
    <ele>5</ele>
    <time>2019-12-23T22:17:13.000Z</time>
   </trkpt>
   <trkpt lat="-8.065074" lon="-34.897036">
    <ele>5</ele>
    <time>2019-12-23T22:17:14.000Z</time>
   </trkpt>
   <trkpt lat="-8.065014" lon="-34.89703">
    <ele>5.1</ele>
    <time>2019-12-23T22:17:15.000Z</time>
   </trkpt>
   <trkpt lat="-8.064954" lon="-34.897041">
    <ele>5.1</ele>
    <time>2019-12-23T22:17:16.000Z</time>
   </trkpt>
   <trkpt lat="-8.064904" lon="-34.897049">
    <ele>5.2</ele>
    <time>2019-12-23T22:17:17.000Z</time>
   </trkpt>
   <trkpt lat="-8.06486" lon="-34.897042">
    <ele>5.2</ele>
    <time>2019-12-23T22:17:18.000Z</time>
   </trkpt>
   <trkpt lat="-8.064758" lon="-34.897027">
    <ele>5.3</ele>
    <time>2019-12-23T22:17:19.000Z</time>
   </trkpt>
   <trkpt lat="-8.064704" lon="-34.897032">
    <ele>5.3</ele>
    <time>2019-12-23T22:17:20.000Z</time>
   </trkpt>
   <trkpt lat="-8.064676" lon="-34.897048">
    <ele>5.3</ele>
    <time>2019-12-23T22:17:21.000Z</time>
   </trkpt>
   <trkpt lat="-8.064635" lon="-34.897058">
    <ele>5.3</ele>
    <time>2019-12-23T22:17:22.000Z</time>
   </trkpt>
   <trkpt lat="-8.064598" lon="-34.897068">
    <ele>5.2</ele>
    <time>2019-12-23T22:17:23.000Z</time>
   </trkpt>
   <trkpt lat="-8.064567" lon="-34.897089">
    <ele>5.1</ele>
    <time>2019-12-23T22:17:24.000Z</time>
   </trkpt>
   <trkpt lat="-8.064524" lon="-34.897089">
    <ele>5.1</ele>
    <time>2019-12-23T22:17:25.000Z</time>
   </trkpt>
   <trkpt lat="-8.064499" lon="-34.897103">
    <ele>5</ele>
    <time>2019-12-23T22:17:26.000Z</time>
   </trkpt>
   <trkpt lat="-8.064474" lon="-34.897116">
    <ele>5</ele>
    <time>2019-12-23T22:17:27.000Z</time>
   </trkpt>
   <trkpt lat="-8.064447" lon="-34.897135">
    <ele>5.1</ele>
    <time>2019-12-23T22:17:28.000Z</time>
   </trkpt>
   <trkpt lat="-8.064417" lon="-34.897139">
    <ele>5.1</ele>
    <time>2019-12-23T22:17:29.000Z</time>
   </trkpt>
   <trkpt lat="-8.064383" lon="-34.897156">
    <ele>5.2</ele>
    <time>2019-12-23T22:17:30.000Z</time>
   </trkpt>
   <trkpt lat="-8.064346" lon="-34.897163">
    <ele>5.3</ele>
    <time>2019-12-23T22:17:31.000Z</time>
   </trkpt>
   <trkpt lat="-8.064316" lon="-34.897158">
    <ele>5.3</ele>
    <time>2019-12-23T22:17:32.000Z</time>
   </trkpt>
   <trkpt lat="-8.064293" lon="-34.897154">
    <ele>5.3</ele>
    <time>2019-12-23T22:17:33.000Z</time>
   </trkpt>
   <trkpt lat="-8.064175" lon="-34.89713">
    <ele>5.5</ele>
    <time>2019-12-23T22:17:35.000Z</time>
   </trkpt>
   <trkpt lat="-8.064137" lon="-34.897119">
    <ele>5.5</ele>
    <time>2019-12-23T22:17:36.000Z</time>
   </trkpt>
   <trkpt lat="-8.064091" lon="-34.897102">
    <ele>5.5</ele>
    <time>2019-12-23T22:17:37.000Z</time>
   </trkpt>
   <trkpt lat="-8.064055" lon="-34.897089">
    <ele>5.5</ele>
    <time>2019-12-23T22:17:38.000Z</time>
   </trkpt>
   <trkpt lat="-8.064014" lon="-34.897069">
    <ele>5.6</ele>
    <time>2019-12-23T22:17:39.000Z</time>
   </trkpt>
   <trkpt lat="-8.063973" lon="-34.89705">
    <ele>5.6</ele>
    <time>2019-12-23T22:17:40.000Z</time>
   </trkpt>
   <trkpt lat="-8.063944" lon="-34.897038">
    <ele>5.6</ele>
    <time>2019-12-23T22:17:41.000Z</time>
   </trkpt>
   <trkpt lat="-8.063918" lon="-34.897038">
    <ele>5.6</ele>
    <time>2019-12-23T22:17:42.000Z</time>
   </trkpt>
   <trkpt lat="-8.06385" lon="-34.897036">
    <ele>5.6</ele>
    <time>2019-12-23T22:17:44.000Z</time>
   </trkpt>
   <trkpt lat="-8.063806" lon="-34.897044">
    <ele>5.6</ele>
    <time>2019-12-23T22:17:45.000Z</time>
   </trkpt>
   <trkpt lat="-8.063761" lon="-34.897048">
    <ele>5.6</ele>
    <time>2019-12-23T22:17:46.000Z</time>
   </trkpt>
   <trkpt lat="-8.063723" lon="-34.897056">
    <ele>5.5</ele>
    <time>2019-12-23T22:17:47.000Z</time>
   </trkpt>
   <trkpt lat="-8.063689" lon="-34.897074">
    <ele>5.5</ele>
    <time>2019-12-23T22:17:48.000Z</time>
   </trkpt>
   <trkpt lat="-8.063649" lon="-34.897081">
    <ele>5.4</ele>
    <time>2019-12-23T22:17:49.000Z</time>
   </trkpt>
   <trkpt lat="-8.063604" lon="-34.897078">
    <ele>5.4</ele>
    <time>2019-12-23T22:17:50.000Z</time>
   </trkpt>
   <trkpt lat="-8.063545" lon="-34.897081">
    <ele>5.3</ele>
    <time>2019-12-23T22:17:51.000Z</time>
   </trkpt>
   <trkpt lat="-8.063498" lon="-34.897086">
    <ele>5.3</ele>
    <time>2019-12-23T22:17:52.000Z</time>
   </trkpt>
   <trkpt lat="-8.063448" lon="-34.897091">
    <ele>5.2</ele>
    <time>2019-12-23T22:17:53.000Z</time>
   </trkpt>
   <trkpt lat="-8.063385" lon="-34.897101">
    <ele>5.1</ele>
    <time>2019-12-23T22:17:54.000Z</time>
   </trkpt>
   <trkpt lat="-8.063341" lon="-34.89711">
    <ele>5.1</ele>
    <time>2019-12-23T22:17:55.000Z</time>
   </trkpt>
   <trkpt lat="-8.063298" lon="-34.897114">
    <ele>5</ele>
    <time>2019-12-23T22:17:56.000Z</time>
   </trkpt>
   <trkpt lat="-8.063237" lon="-34.897132">
    <ele>4.9</ele>
    <time>2019-12-23T22:17:57.000Z</time>
   </trkpt>
   <trkpt lat="-8.06319" lon="-34.897147">
    <ele>4.8</ele>
    <time>2019-12-23T22:17:58.000Z</time>
   </trkpt>
   <trkpt lat="-8.063135" lon="-34.897162">
    <ele>4.6</ele>
    <time>2019-12-23T22:17:59.000Z</time>
   </trkpt>
   <trkpt lat="-8.063082" lon="-34.89717">
    <ele>4.5</ele>
    <time>2019-12-23T22:18:00.000Z</time>
   </trkpt>
   <trkpt lat="-8.063046" lon="-34.897184">
    <ele>4.3</ele>
    <time>2019-12-23T22:18:01.000Z</time>
   </trkpt>
   <trkpt lat="-8.062996" lon="-34.897188">
    <ele>4.2</ele>
    <time>2019-12-23T22:18:02.000Z</time>
   </trkpt>
   <trkpt lat="-8.062953" lon="-34.897192">
    <ele>4</ele>
    <time>2019-12-23T22:18:03.000Z</time>
   </trkpt>
   <trkpt lat="-8.06288" lon="-34.89718">
    <ele>3.8</ele>
    <time>2019-12-23T22:18:04.000Z</time>
   </trkpt>
   <trkpt lat="-8.062811" lon="-34.897179">
    <ele>3.6</ele>
    <time>2019-12-23T22:18:05.000Z</time>
   </trkpt>
   <trkpt lat="-8.062748" lon="-34.897183">
    <ele>3.5</ele>
    <time>2019-12-23T22:18:06.000Z</time>
   </trkpt>
   <trkpt lat="-8.06269" lon="-34.897189">
    <ele>3.3</ele>
    <time>2019-12-23T22:18:07.000Z</time>
   </trkpt>
   <trkpt lat="-8.062636" lon="-34.89719">
    <ele>3.3</ele>
    <time>2019-12-23T22:18:08.000Z</time>
   </trkpt>
   <trkpt lat="-8.062584" lon="-34.897191">
    <ele>3.2</ele>
    <time>2019-12-23T22:18:09.000Z</time>
   </trkpt>
   <trkpt lat="-8.062536" lon="-34.897195">
    <ele>3.1</ele>
    <time>2019-12-23T22:18:10.000Z</time>
   </trkpt>
   <trkpt lat="-8.062486" lon="-34.897199">
    <ele>3.1</ele>
    <time>2019-12-23T22:18:11.000Z</time>
   </trkpt>
   <trkpt lat="-8.062442" lon="-34.897201">
    <ele>3</ele>
    <time>2019-12-23T22:18:12.000Z</time>
   </trkpt>
   <trkpt lat="-8.062393" lon="-34.897204">
    <ele>3.2</ele>
    <time>2019-12-23T22:18:13.000Z</time>
   </trkpt>
   <trkpt lat="-8.062345" lon="-34.897205">
    <ele>3.4</ele>
    <time>2019-12-23T22:18:14.000Z</time>
   </trkpt>
   <trkpt lat="-8.062299" lon="-34.89721">
    <ele>3.6</ele>
    <time>2019-12-23T22:18:15.000Z</time>
   </trkpt>
   <trkpt lat="-8.062251" lon="-34.897215">
    <ele>3.8</ele>
    <time>2019-12-23T22:18:16.000Z</time>
   </trkpt>
   <trkpt lat="-8.062212" lon="-34.89722">
    <ele>4</ele>
    <time>2019-12-23T22:18:17.000Z</time>
   </trkpt>
   <trkpt lat="-8.062177" lon="-34.897224">
    <ele>4.1</ele>
    <time>2019-12-23T22:18:18.000Z</time>
   </trkpt>
   <trkpt lat="-8.062146" lon="-34.897226">
    <ele>4.2</ele>
    <time>2019-12-23T22:18:19.000Z</time>
   </trkpt>
   <trkpt lat="-8.062127" lon="-34.897224">
    <ele>4.3</ele>
    <time>2019-12-23T22:18:20.000Z</time>
   </trkpt>
   <trkpt lat="-8.062092" lon="-34.897214">
    <ele>4.3</ele>
    <time>2019-12-23T22:18:22.000Z</time>
   </trkpt>
   <trkpt lat="-8.062105" lon="-34.897154">
    <ele>4.4</ele>
    <time>2019-12-23T22:18:25.000Z</time>
   </trkpt>
   <trkpt lat="-8.062116" lon="-34.897128">
    <ele>4.5</ele>
    <time>2019-12-23T22:18:26.000Z</time>
   </trkpt>
   <trkpt lat="-8.062133" lon="-34.897108">
    <ele>4.5</ele>
    <time>2019-12-23T22:18:27.000Z</time>
   </trkpt>
   <trkpt lat="-8.062142" lon="-34.897046">
    <ele>4.7</ele>
    <time>2019-12-23T22:18:29.000Z</time>
   </trkpt>
   <trkpt lat="-8.062138" lon="-34.89701">
    <ele>4.8</ele>
    <time>2019-12-23T22:18:30.000Z</time>
   </trkpt>
   <trkpt lat="-8.062132" lon="-34.896971">
    <ele>4.9</ele>
    <time>2019-12-23T22:18:31.000Z</time>
   </trkpt>
   <trkpt lat="-8.062127" lon="-34.896934">
    <ele>5.1</ele>
    <time>2019-12-23T22:18:32.000Z</time>
   </trkpt>
   <trkpt lat="-8.062123" lon="-34.896894">
    <ele>5.3</ele>
    <time>2019-12-23T22:18:33.000Z</time>
   </trkpt>
   <trkpt lat="-8.062119" lon="-34.896854">
    <ele>5.5</ele>
    <time>2019-12-23T22:18:34.000Z</time>
   </trkpt>
   <trkpt lat="-8.062119" lon="-34.89681">
    <ele>5.8</ele>
    <time>2019-12-23T22:18:35.000Z</time>
   </trkpt>
   <trkpt lat="-8.062114" lon="-34.896771">
    <ele>6</ele>
    <time>2019-12-23T22:18:36.000Z</time>
   </trkpt>
   <trkpt lat="-8.062104" lon="-34.896736">
    <ele>6.1</ele>
    <time>2019-12-23T22:18:37.000Z</time>
   </trkpt>
   <trkpt lat="-8.062098" lon="-34.896699">
    <ele>6.3</ele>
    <time>2019-12-23T22:18:38.000Z</time>
   </trkpt>
   <trkpt lat="-8.062088" lon="-34.896659">
    <ele>6.4</ele>
    <time>2019-12-23T22:18:39.000Z</time>
   </trkpt>
   <trkpt lat="-8.062082" lon="-34.896616">
    <ele>6.5</ele>
    <time>2019-12-23T22:18:40.000Z</time>
   </trkpt>
   <trkpt lat="-8.062076" lon="-34.896578">
    <ele>6.6</ele>
    <time>2019-12-23T22:18:41.000Z</time>
   </trkpt>
   <trkpt lat="-8.062073" lon="-34.896531">
    <ele>6.6</ele>
    <time>2019-12-23T22:18:42.000Z</time>
   </trkpt>
   <trkpt lat="-8.06207" lon="-34.896482">
    <ele>6.6</ele>
    <time>2019-12-23T22:18:43.000Z</time>
   </trkpt>
   <trkpt lat="-8.062066" lon="-34.896445">
    <ele>6.6</ele>
    <time>2019-12-23T22:18:44.000Z</time>
   </trkpt>
   <trkpt lat="-8.062068" lon="-34.896431">
    <ele>6.6</ele>
    <time>2019-12-23T22:18:45.000Z</time>
   </trkpt>
   <trkpt lat="-8.06206" lon="-34.896365">
    <ele>6.6</ele>
    <time>2019-12-23T22:18:47.000Z</time>
   </trkpt>
   <trkpt lat="-8.062058" lon="-34.896338">
    <ele>6.5</ele>
    <time>2019-12-23T22:18:48.000Z</time>
   </trkpt>
   <trkpt lat="-8.062051" lon="-34.896299">
    <ele>6.5</ele>
    <time>2019-12-23T22:18:50.000Z</time>
   </trkpt>
   <trkpt lat="-8.062043" lon="-34.896261">
    <ele>6.4</ele>
    <time>2019-12-23T22:18:52.000Z</time>
   </trkpt>
   <trkpt lat="-8.062002" lon="-34.896212">
    <ele>6.4</ele>
    <time>2019-12-23T22:18:54.000Z</time>
   </trkpt>
   <trkpt lat="-8.061928" lon="-34.896131">
    <ele>6.3</ele>
    <time>2019-12-23T22:18:56.000Z</time>
   </trkpt>
   <trkpt lat="-8.061915" lon="-34.896088">
    <ele>6.3</ele>
    <time>2019-12-23T22:18:57.000Z</time>
   </trkpt>
   <trkpt lat="-8.061905" lon="-34.896045">
    <ele>6.3</ele>
    <time>2019-12-23T22:18:58.000Z</time>
   </trkpt>
   <trkpt lat="-8.061902" lon="-34.896041">
    <ele>6.3</ele>
    <time>2019-12-23T22:18:59.000Z</time>
   </trkpt>
   <trkpt lat="-8.06189" lon="-34.896012">
    <ele>6.4</ele>
    <time>2019-12-23T22:19:02.000Z</time>
   </trkpt>
   <trkpt lat="-8.061897" lon="-34.896037">
    <ele>6.4</ele>
    <time>2019-12-23T22:19:06.000Z</time>
   </trkpt>
   <trkpt lat="-8.059833" lon="-34.897499">
    <ele>8.5</ele>
    <time>2019-12-23T22:41:47.000Z</time>
   </trkpt>
   <trkpt lat="-8.059784" lon="-34.897494">
    <ele>9.4</ele>
    <time>2019-12-23T22:41:48.000Z</time>
   </trkpt>
   <trkpt lat="-8.059756" lon="-34.897488">
    <ele>10.3</ele>
    <time>2019-12-23T22:41:49.000Z</time>
   </trkpt>
   <trkpt lat="-8.059727" lon="-34.897488">
    <ele>10.3</ele>
    <time>2019-12-23T22:41:50.000Z</time>
   </trkpt>
   <trkpt lat="-8.059693" lon="-34.897494">
    <ele>10.3</ele>
    <time>2019-12-23T22:41:51.000Z</time>
   </trkpt>
   <trkpt lat="-8.059669" lon="-34.897496">
    <ele>10.2</ele>
    <time>2019-12-23T22:41:52.000Z</time>
   </trkpt>
   <trkpt lat="-8.059603" lon="-34.897514">
    <ele>10.2</ele>
    <time>2019-12-23T22:41:54.000Z</time>
   </trkpt>
   <trkpt lat="-8.059578" lon="-34.897522">
    <ele>10.1</ele>
    <time>2019-12-23T22:41:55.000Z</time>
   </trkpt>
   <trkpt lat="-8.059523" lon="-34.897546">
    <ele>10.1</ele>
    <time>2019-12-23T22:41:57.000Z</time>
   </trkpt>
   <trkpt lat="-8.059498" lon="-34.897544">
    <ele>10</ele>
    <time>2019-12-23T22:41:58.000Z</time>
   </trkpt>
   <trkpt lat="-8.059441" lon="-34.897531">
    <ele>10</ele>
    <time>2019-12-23T22:42:00.000Z</time>
   </trkpt>
   <trkpt lat="-8.059407" lon="-34.897529">
    <ele>9.9</ele>
    <time>2019-12-23T22:42:01.000Z</time>
   </trkpt>
   <trkpt lat="-8.059373" lon="-34.897534">
    <ele>9.9</ele>
    <time>2019-12-23T22:42:02.000Z</time>
   </trkpt>
   <trkpt lat="-8.059336" lon="-34.897552">
    <ele>9.8</ele>
    <time>2019-12-23T22:42:03.000Z</time>
   </trkpt>
   <trkpt lat="-8.059302" lon="-34.897559">
    <ele>9.8</ele>
    <time>2019-12-23T22:42:04.000Z</time>
   </trkpt>
   <trkpt lat="-8.059269" lon="-34.897568">
    <ele>9.8</ele>
    <time>2019-12-23T22:42:05.000Z</time>
   </trkpt>
   <trkpt lat="-8.059238" lon="-34.897575">
    <ele>9.7</ele>
    <time>2019-12-23T22:42:06.000Z</time>
   </trkpt>
   <trkpt lat="-8.059201" lon="-34.897582">
    <ele>9.7</ele>
    <time>2019-12-23T22:42:07.000Z</time>
   </trkpt>
   <trkpt lat="-8.059172" lon="-34.89759">
    <ele>9.7</ele>
    <time>2019-12-23T22:42:08.000Z</time>
   </trkpt>
   <trkpt lat="-8.059147" lon="-34.897612">
    <ele>9.6</ele>
    <time>2019-12-23T22:42:09.000Z</time>
   </trkpt>
   <trkpt lat="-8.059118" lon="-34.897614">
    <ele>9.6</ele>
    <time>2019-12-23T22:42:10.000Z</time>
   </trkpt>
   <trkpt lat="-8.059091" lon="-34.897612">
    <ele>9.6</ele>
    <time>2019-12-23T22:42:11.000Z</time>
   </trkpt>
   <trkpt lat="-8.059027" lon="-34.897602">
    <ele>9.5</ele>
    <time>2019-12-23T22:42:13.000Z</time>
   </trkpt>
   <trkpt lat="-8.058994" lon="-34.897606">
    <ele>9.4</ele>
    <time>2019-12-23T22:42:14.000Z</time>
   </trkpt>
   <trkpt lat="-8.058955" lon="-34.89763">
    <ele>9.4</ele>
    <time>2019-12-23T22:42:15.000Z</time>
   </trkpt>
   <trkpt lat="-8.058912" lon="-34.897623">
    <ele>9.3</ele>
    <time>2019-12-23T22:42:16.000Z</time>
   </trkpt>
   <trkpt lat="-8.058872" lon="-34.897617">
    <ele>9.3</ele>
    <time>2019-12-23T22:42:17.000Z</time>
   </trkpt>
   <trkpt lat="-8.058826" lon="-34.89762">
    <ele>9.3</ele>
    <time>2019-12-23T22:42:18.000Z</time>
   </trkpt>
   <trkpt lat="-8.058772" lon="-34.897626">
    <ele>10.4</ele>
    <time>2019-12-23T22:42:19.000Z</time>
   </trkpt>
   <trkpt lat="-8.058715" lon="-34.897623">
    <ele>10.1</ele>
    <time>2019-12-23T22:42:20.000Z</time>
   </trkpt>
   <trkpt lat="-8.058663" lon="-34.897643">
    <ele>9.8</ele>
    <time>2019-12-23T22:42:21.000Z</time>
   </trkpt>
   <trkpt lat="-8.058608" lon="-34.89764">
    <ele>9.4</ele>
    <time>2019-12-23T22:42:22.000Z</time>
   </trkpt>
   <trkpt lat="-8.058559" lon="-34.89764">
    <ele>9.1</ele>
    <time>2019-12-23T22:42:23.000Z</time>
   </trkpt>
   <trkpt lat="-8.058501" lon="-34.89764">
    <ele>8.9</ele>
    <time>2019-12-23T22:42:24.000Z</time>
   </trkpt>
   <trkpt lat="-8.058443" lon="-34.897639">
    <ele>8.6</ele>
    <time>2019-12-23T22:42:25.000Z</time>
   </trkpt>
   <trkpt lat="-8.05839" lon="-34.897636">
    <ele>8.3</ele>
    <time>2019-12-23T22:42:26.000Z</time>
   </trkpt>
   <trkpt lat="-8.058338" lon="-34.897643">
    <ele>8.2</ele>
    <time>2019-12-23T22:42:27.000Z</time>
   </trkpt>
   <trkpt lat="-8.058295" lon="-34.897652">
    <ele>8</ele>
    <time>2019-12-23T22:42:28.000Z</time>
   </trkpt>
   <trkpt lat="-8.058253" lon="-34.897658">
    <ele>7.9</ele>
    <time>2019-12-23T22:42:29.000Z</time>
   </trkpt>
   <trkpt lat="-8.058212" lon="-34.897663">
    <ele>7.9</ele>
    <time>2019-12-23T22:42:30.000Z</time>
   </trkpt>
   <trkpt lat="-8.058183" lon="-34.897666">
    <ele>7.8</ele>
    <time>2019-12-23T22:42:31.000Z</time>
   </trkpt>
   <trkpt lat="-8.058148" lon="-34.897671">
    <ele>7.8</ele>
    <time>2019-12-23T22:42:32.000Z</time>
   </trkpt>
   <trkpt lat="-8.058109" lon="-34.897673">
    <ele>7.7</ele>
    <time>2019-12-23T22:42:33.000Z</time>
   </trkpt>
   <trkpt lat="-8.058073" lon="-34.897676">
    <ele>7.7</ele>
    <time>2019-12-23T22:42:34.000Z</time>
   </trkpt>
   <trkpt lat="-8.058033" lon="-34.897674">
    <ele>7.6</ele>
    <time>2019-12-23T22:42:35.000Z</time>
   </trkpt>
   <trkpt lat="-8.057987" lon="-34.897674">
    <ele>7.6</ele>
    <time>2019-12-23T22:42:36.000Z</time>
   </trkpt>
   <trkpt lat="-8.05794" lon="-34.897664">
    <ele>7.5</ele>
    <time>2019-12-23T22:42:37.000Z</time>
   </trkpt>
   <trkpt lat="-8.057897" lon="-34.89766">
    <ele>7.5</ele>
    <time>2019-12-23T22:42:38.000Z</time>
   </trkpt>
   <trkpt lat="-8.057859" lon="-34.897661">
    <ele>7.4</ele>
    <time>2019-12-23T22:42:39.000Z</time>
   </trkpt>
   <trkpt lat="-8.057819" lon="-34.897675">
    <ele>7.4</ele>
    <time>2019-12-23T22:42:40.000Z</time>
   </trkpt>
   <trkpt lat="-8.057788" lon="-34.897674">
    <ele>7.4</ele>
    <time>2019-12-23T22:42:41.000Z</time>
   </trkpt>
   <trkpt lat="-8.05775" lon="-34.89767">
    <ele>7.3</ele>
    <time>2019-12-23T22:42:42.000Z</time>
   </trkpt>
   <trkpt lat="-8.057715" lon="-34.897666">
    <ele>7.3</ele>
    <time>2019-12-23T22:42:43.000Z</time>
   </trkpt>
   <trkpt lat="-8.057682" lon="-34.897664">
    <ele>7.3</ele>
    <time>2019-12-23T22:42:44.000Z</time>
   </trkpt>
   <trkpt lat="-8.057651" lon="-34.89766">
    <ele>7.2</ele>
    <time>2019-12-23T22:42:45.000Z</time>
   </trkpt>
   <trkpt lat="-8.057627" lon="-34.897671">
    <ele>7.2</ele>
    <time>2019-12-23T22:42:46.000Z</time>
   </trkpt>
   <trkpt lat="-8.057591" lon="-34.897668">
    <ele>7.2</ele>
    <time>2019-12-23T22:42:48.000Z</time>
   </trkpt>
   <trkpt lat="-8.057554" lon="-34.897658">
    <ele>7.1</ele>
    <time>2019-12-23T22:42:50.000Z</time>
   </trkpt>
   <trkpt lat="-8.057516" lon="-34.897634">
    <ele>7.1</ele>
    <time>2019-12-23T22:42:52.000Z</time>
   </trkpt>
   <trkpt lat="-8.057498" lon="-34.897619">
    <ele>7</ele>
    <time>2019-12-23T22:42:53.000Z</time>
   </trkpt>
   <trkpt lat="-8.057474" lon="-34.897606">
    <ele>7</ele>
    <time>2019-12-23T22:42:55.000Z</time>
   </trkpt>
   <trkpt lat="-8.057436" lon="-34.897594">
    <ele>7.1</ele>
    <time>2019-12-23T22:42:57.000Z</time>
   </trkpt>
   <trkpt lat="-8.057423" lon="-34.897617">
    <ele>7.3</ele>
    <time>2019-12-23T22:42:59.000Z</time>
   </trkpt>
   <trkpt lat="-8.057376" lon="-34.897614">
    <ele>7.5</ele>
    <time>2019-12-23T22:43:02.000Z</time>
   </trkpt>
   <trkpt lat="-8.057307" lon="-34.897617">
    <ele>7.9</ele>
    <time>2019-12-23T22:43:04.000Z</time>
   </trkpt>
   <trkpt lat="-8.057266" lon="-34.89762">
    <ele>8.1</ele>
    <time>2019-12-23T22:43:05.000Z</time>
   </trkpt>
   <trkpt lat="-8.057237" lon="-34.897622">
    <ele>8.2</ele>
    <time>2019-12-23T22:43:06.000Z</time>
   </trkpt>
   <trkpt lat="-8.057222" lon="-34.897625">
    <ele>8.3</ele>
    <time>2019-12-23T22:43:07.000Z</time>
   </trkpt>
   <trkpt lat="-8.057138" lon="-34.897625">
    <ele>8.7</ele>
    <time>2019-12-23T22:43:09.000Z</time>
   </trkpt>
   <trkpt lat="-8.057093" lon="-34.897628">
    <ele>8.7</ele>
    <time>2019-12-23T22:43:10.000Z</time>
   </trkpt>
   <trkpt lat="-8.057051" lon="-34.897627">
    <ele>8.7</ele>
    <time>2019-12-23T22:43:11.000Z</time>
   </trkpt>
   <trkpt lat="-8.057001" lon="-34.897627">
    <ele>8.7</ele>
    <time>2019-12-23T22:43:12.000Z</time>
   </trkpt>
   <trkpt lat="-8.056956" lon="-34.897616">
    <ele>8.8</ele>
    <time>2019-12-23T22:43:13.000Z</time>
   </trkpt>
   <trkpt lat="-8.056908" lon="-34.897618">
    <ele>8.8</ele>
    <time>2019-12-23T22:43:14.000Z</time>
   </trkpt>
   <trkpt lat="-8.056856" lon="-34.89762">
    <ele>8.8</ele>
    <time>2019-12-23T22:43:15.000Z</time>
   </trkpt>
   <trkpt lat="-8.056796" lon="-34.897616">
    <ele>8.8</ele>
    <time>2019-12-23T22:43:16.000Z</time>
   </trkpt>
   <trkpt lat="-8.056739" lon="-34.897603">
    <ele>8.9</ele>
    <time>2019-12-23T22:43:17.000Z</time>
   </trkpt>
   <trkpt lat="-8.056681" lon="-34.897602">
    <ele>8.4</ele>
    <time>2019-12-23T22:43:18.000Z</time>
   </trkpt>
   <trkpt lat="-8.056625" lon="-34.897599">
    <ele>8.2</ele>
    <time>2019-12-23T22:43:19.000Z</time>
   </trkpt>
   <trkpt lat="-8.056569" lon="-34.897601">
    <ele>7.9</ele>
    <time>2019-12-23T22:43:20.000Z</time>
   </trkpt>
   <trkpt lat="-8.056506" lon="-34.897594">
    <ele>6.8</ele>
    <time>2019-12-23T22:43:21.000Z</time>
   </trkpt>
   <trkpt lat="-8.056447" lon="-34.897589">
    <ele>6.3</ele>
    <time>2019-12-23T22:43:22.000Z</time>
   </trkpt>
   <trkpt lat="-8.056392" lon="-34.897585">
    <ele>6.1</ele>
    <time>2019-12-23T22:43:23.000Z</time>
   </trkpt>
   <trkpt lat="-8.056338" lon="-34.897602">
    <ele>5.9</ele>
    <time>2019-12-23T22:43:24.000Z</time>
   </trkpt>
   <trkpt lat="-8.056279" lon="-34.897602">
    <ele>5.8</ele>
    <time>2019-12-23T22:43:25.000Z</time>
   </trkpt>
   <trkpt lat="-8.056222" lon="-34.897601">
    <ele>5.8</ele>
    <time>2019-12-23T22:43:26.000Z</time>
   </trkpt>
   <trkpt lat="-8.056163" lon="-34.897583">
    <ele>5.9</ele>
    <time>2019-12-23T22:43:27.000Z</time>
   </trkpt>
   <trkpt lat="-8.056102" lon="-34.897567">
    <ele>6</ele>
    <time>2019-12-23T22:43:28.000Z</time>
   </trkpt>
   <trkpt lat="-8.056043" lon="-34.897564">
    <ele>6.2</ele>
    <time>2019-12-23T22:43:29.000Z</time>
   </trkpt>
   <trkpt lat="-8.055977" lon="-34.897572">
    <ele>6.4</ele>
    <time>2019-12-23T22:43:30.000Z</time>
   </trkpt>
   <trkpt lat="-8.055918" lon="-34.897583">
    <ele>6.4</ele>
    <time>2019-12-23T22:43:31.000Z</time>
   </trkpt>
   <trkpt lat="-8.055858" lon="-34.89757">
    <ele>6.9</ele>
    <time>2019-12-23T22:43:32.000Z</time>
   </trkpt>
   <trkpt lat="-8.055801" lon="-34.897552">
    <ele>7.5</ele>
    <time>2019-12-23T22:43:33.000Z</time>
   </trkpt>
   <trkpt lat="-8.055749" lon="-34.897543">
    <ele>8</ele>
    <time>2019-12-23T22:43:34.000Z</time>
   </trkpt>
   <trkpt lat="-8.055693" lon="-34.89754">
    <ele>8.6</ele>
    <time>2019-12-23T22:43:35.000Z</time>
   </trkpt>
   <trkpt lat="-8.055638" lon="-34.897521">
    <ele>9.2</ele>
    <time>2019-12-23T22:43:36.000Z</time>
   </trkpt>
   <trkpt lat="-8.055584" lon="-34.897508">
    <ele>9.7</ele>
    <time>2019-12-23T22:43:37.000Z</time>
   </trkpt>
   <trkpt lat="-8.055534" lon="-34.897486">
    <ele>10.2</ele>
    <time>2019-12-23T22:43:38.000Z</time>
   </trkpt>
   <trkpt lat="-8.055481" lon="-34.897471">
    <ele>10.8</ele>
    <time>2019-12-23T22:43:39.000Z</time>
   </trkpt>
   <trkpt lat="-8.05542" lon="-34.897453">
    <ele>10.6</ele>
    <time>2019-12-23T22:43:40.000Z</time>
   </trkpt>
   <trkpt lat="-8.055363" lon="-34.897425">
    <ele>10.6</ele>
    <time>2019-12-23T22:43:41.000Z</time>
   </trkpt>
   <trkpt lat="-8.055311" lon="-34.897402">
    <ele>10.5</ele>
    <time>2019-12-23T22:43:42.000Z</time>
   </trkpt>
   <trkpt lat="-8.055253" lon="-34.897391">
    <ele>10.5</ele>
    <time>2019-12-23T22:43:43.000Z</time>
   </trkpt>
   <trkpt lat="-8.055202" lon="-34.897366">
    <ele>10.4</ele>
    <time>2019-12-23T22:43:44.000Z</time>
   </trkpt>
   <trkpt lat="-8.05515" lon="-34.897338">
    <ele>10.4</ele>
    <time>2019-12-23T22:43:45.000Z</time>
   </trkpt>
   <trkpt lat="-8.055102" lon="-34.897314">
    <ele>10.4</ele>
    <time>2019-12-23T22:43:46.000Z</time>
   </trkpt>
   <trkpt lat="-8.055058" lon="-34.897277">
    <ele>10.3</ele>
    <time>2019-12-23T22:43:47.000Z</time>
   </trkpt>
   <trkpt lat="-8.055011" lon="-34.897245">
    <ele>10.3</ele>
    <time>2019-12-23T22:43:48.000Z</time>
   </trkpt>
   <trkpt lat="-8.054961" lon="-34.897215">
    <ele>10.3</ele>
    <time>2019-12-23T22:43:49.000Z</time>
   </trkpt>
   <trkpt lat="-8.05492" lon="-34.897172">
    <ele>10.2</ele>
    <time>2019-12-23T22:43:50.000Z</time>
   </trkpt>
   <trkpt lat="-8.054864" lon="-34.897143">
    <ele>10.2</ele>
    <time>2019-12-23T22:43:51.000Z</time>
   </trkpt>
   <trkpt lat="-8.054817" lon="-34.897107">
    <ele>10.1</ele>
    <time>2019-12-23T22:43:52.000Z</time>
   </trkpt>
   <trkpt lat="-8.054765" lon="-34.897078">
    <ele>10.1</ele>
    <time>2019-12-23T22:43:53.000Z</time>
   </trkpt>
   <trkpt lat="-8.054712" lon="-34.897043">
    <ele>10</ele>
    <time>2019-12-23T22:43:54.000Z</time>
   </trkpt>
   <trkpt lat="-8.054657" lon="-34.897017">
    <ele>10</ele>
    <time>2019-12-23T22:43:55.000Z</time>
   </trkpt>
   <trkpt lat="-8.054609" lon="-34.896958">
    <ele>9.9</ele>
    <time>2019-12-23T22:43:56.000Z</time>
   </trkpt>
   <trkpt lat="-8.054556" lon="-34.896924">
    <ele>9.8</ele>
    <time>2019-12-23T22:43:57.000Z</time>
   </trkpt>
   <trkpt lat="-8.054501" lon="-34.896882">
    <ele>9.6</ele>
    <time>2019-12-23T22:43:58.000Z</time>
   </trkpt>
   <trkpt lat="-8.054438" lon="-34.896858">
    <ele>9.5</ele>
    <time>2019-12-23T22:43:59.000Z</time>
   </trkpt>
   <trkpt lat="-8.054396" lon="-34.896818">
    <ele>9.3</ele>
    <time>2019-12-23T22:44:00.000Z</time>
   </trkpt>
   <trkpt lat="-8.054348" lon="-34.896788">
    <ele>9.2</ele>
    <time>2019-12-23T22:44:01.000Z</time>
   </trkpt>
   <trkpt lat="-8.054312" lon="-34.896754">
    <ele>9</ele>
    <time>2019-12-23T22:44:02.000Z</time>
   </trkpt>
   <trkpt lat="-8.054267" lon="-34.896728">
    <ele>8.9</ele>
    <time>2019-12-23T22:44:03.000Z</time>
   </trkpt>
   <trkpt lat="-8.054215" lon="-34.89669">
    <ele>8.7</ele>
    <time>2019-12-23T22:44:04.000Z</time>
   </trkpt>
   <trkpt lat="-8.054179" lon="-34.896644">
    <ele>8.5</ele>
    <time>2019-12-23T22:44:05.000Z</time>
   </trkpt>
   <trkpt lat="-8.054138" lon="-34.896602">
    <ele>8.4</ele>
    <time>2019-12-23T22:44:06.000Z</time>
   </trkpt>
   <trkpt lat="-8.054104" lon="-34.896569">
    <ele>8.2</ele>
    <time>2019-12-23T22:44:07.000Z</time>
   </trkpt>
   <trkpt lat="-8.054068" lon="-34.896546">
    <ele>8.1</ele>
    <time>2019-12-23T22:44:08.000Z</time>
   </trkpt>
   <trkpt lat="-8.05402" lon="-34.896521">
    <ele>7.9</ele>
    <time>2019-12-23T22:44:09.000Z</time>
   </trkpt>
   <trkpt lat="-8.053968" lon="-34.896492">
    <ele>7.6</ele>
    <time>2019-12-23T22:44:10.000Z</time>
   </trkpt>
   <trkpt lat="-8.053924" lon="-34.896444">
    <ele>7.3</ele>
    <time>2019-12-23T22:44:11.000Z</time>
   </trkpt>
   <trkpt lat="-8.053889" lon="-34.896398">
    <ele>6.9</ele>
    <time>2019-12-23T22:44:12.000Z</time>
   </trkpt>
   <trkpt lat="-8.053845" lon="-34.896364">
    <ele>6.6</ele>
    <time>2019-12-23T22:44:13.000Z</time>
   </trkpt>
   <trkpt lat="-8.053803" lon="-34.896339">
    <ele>6.2</ele>
    <time>2019-12-23T22:44:14.000Z</time>
   </trkpt>
   <trkpt lat="-8.05377" lon="-34.896304">
    <ele>5.7</ele>
    <time>2019-12-23T22:44:15.000Z</time>
   </trkpt>
   <trkpt lat="-8.053733" lon="-34.896271">
    <ele>5.3</ele>
    <time>2019-12-23T22:44:16.000Z</time>
   </trkpt>
   <trkpt lat="-8.053696" lon="-34.896243">
    <ele>4.9</ele>
    <time>2019-12-23T22:44:17.000Z</time>
   </trkpt>
   <trkpt lat="-8.053646" lon="-34.896209">
    <ele>4.4</ele>
    <time>2019-12-23T22:44:18.000Z</time>
   </trkpt>
   <trkpt lat="-8.053603" lon="-34.896184">
    <ele>4.2</ele>
    <time>2019-12-23T22:44:19.000Z</time>
   </trkpt>
   <trkpt lat="-8.053552" lon="-34.896164">
    <ele>3.9</ele>
    <time>2019-12-23T22:44:20.000Z</time>
   </trkpt>
   <trkpt lat="-8.053512" lon="-34.89613">
    <ele>3.7</ele>
    <time>2019-12-23T22:44:21.000Z</time>
   </trkpt>
   <trkpt lat="-8.053474" lon="-34.896098">
    <ele>3.5</ele>
    <time>2019-12-23T22:44:22.000Z</time>
   </trkpt>
   <trkpt lat="-8.05343" lon="-34.896068">
    <ele>3.3</ele>
    <time>2019-12-23T22:44:23.000Z</time>
   </trkpt>
   <trkpt lat="-8.053386" lon="-34.896032">
    <ele>3</ele>
    <time>2019-12-23T22:44:24.000Z</time>
   </trkpt>
   <trkpt lat="-8.053343" lon="-34.896005">
    <ele>2.8</ele>
    <time>2019-12-23T22:44:25.000Z</time>
   </trkpt>
   <trkpt lat="-8.053303" lon="-34.895975">
    <ele>2.5</ele>
    <time>2019-12-23T22:44:26.000Z</time>
   </trkpt>
   <trkpt lat="-8.053267" lon="-34.895947">
    <ele>2.3</ele>
    <time>2019-12-23T22:44:27.000Z</time>
   </trkpt>
   <trkpt lat="-8.053227" lon="-34.895911">
    <ele>2.1</ele>
    <time>2019-12-23T22:44:28.000Z</time>
   </trkpt>
   <trkpt lat="-8.053186" lon="-34.895883">
    <ele>1.9</ele>
    <time>2019-12-23T22:44:29.000Z</time>
   </trkpt>
   <trkpt lat="-8.053146" lon="-34.895861">
    <ele>1.8</ele>
    <time>2019-12-23T22:44:30.000Z</time>
   </trkpt>
   <trkpt lat="-8.053105" lon="-34.895829">
    <ele>1.7</ele>
    <time>2019-12-23T22:44:31.000Z</time>
   </trkpt>
   <trkpt lat="-8.053051" lon="-34.895813">
    <ele>1.6</ele>
    <time>2019-12-23T22:44:32.000Z</time>
   </trkpt>
   <trkpt lat="-8.053" lon="-34.895793">
    <ele>3.8</ele>
    <time>2019-12-23T22:44:33.000Z</time>
   </trkpt>
   <trkpt lat="-8.052946" lon="-34.895765">
    <ele>5.3</ele>
    <time>2019-12-23T22:44:34.000Z</time>
   </trkpt>
   <trkpt lat="-8.052887" lon="-34.895745">
    <ele>6.8</ele>
    <time>2019-12-23T22:44:35.000Z</time>
   </trkpt>
   <trkpt lat="-8.052831" lon="-34.895709">
    <ele>8.1</ele>
    <time>2019-12-23T22:44:36.000Z</time>
   </trkpt>
   <trkpt lat="-8.052779" lon="-34.895674">
    <ele>9.1</ele>
    <time>2019-12-23T22:44:37.000Z</time>
   </trkpt>
   <trkpt lat="-8.05272" lon="-34.895641">
    <ele>10.1</ele>
    <time>2019-12-23T22:44:38.000Z</time>
   </trkpt>
   <trkpt lat="-8.052663" lon="-34.895603">
    <ele>11.1</ele>
    <time>2019-12-23T22:44:39.000Z</time>
   </trkpt>
   <trkpt lat="-8.052611" lon="-34.895571">
    <ele>11.2</ele>
    <time>2019-12-23T22:44:40.000Z</time>
   </trkpt>
   <trkpt lat="-8.05256" lon="-34.895531">
    <ele>11.3</ele>
    <time>2019-12-23T22:44:41.000Z</time>
   </trkpt>
   <trkpt lat="-8.052503" lon="-34.895497">
    <ele>10.9</ele>
    <time>2019-12-23T22:44:42.000Z</time>
   </trkpt>
   <trkpt lat="-8.052448" lon="-34.895466">
    <ele>10.5</ele>
    <time>2019-12-23T22:44:43.000Z</time>
   </trkpt>
   <trkpt lat="-8.052394" lon="-34.895427">
    <ele>10.1</ele>
    <time>2019-12-23T22:44:44.000Z</time>
   </trkpt>
   <trkpt lat="-8.05234" lon="-34.895392">
    <ele>9.6</ele>
    <time>2019-12-23T22:44:45.000Z</time>
   </trkpt>
   <trkpt lat="-8.052293" lon="-34.895358">
    <ele>9.2</ele>
    <time>2019-12-23T22:44:46.000Z</time>
   </trkpt>
   <trkpt lat="-8.05225" lon="-34.89532">
    <ele>9</ele>
    <time>2019-12-23T22:44:47.000Z</time>
   </trkpt>
   <trkpt lat="-8.052197" lon="-34.895283">
    <ele>8.7</ele>
    <time>2019-12-23T22:44:48.000Z</time>
   </trkpt>
   <trkpt lat="-8.052145" lon="-34.895254">
    <ele>8.4</ele>
    <time>2019-12-23T22:44:49.000Z</time>
   </trkpt>
   <trkpt lat="-8.052093" lon="-34.89522">
    <ele>8.1</ele>
    <time>2019-12-23T22:44:50.000Z</time>
   </trkpt>
   <trkpt lat="-8.052053" lon="-34.895191">
    <ele>7.9</ele>
    <time>2019-12-23T22:44:51.000Z</time>
   </trkpt>
   <trkpt lat="-8.052018" lon="-34.895159">
    <ele>7.8</ele>
    <time>2019-12-23T22:44:52.000Z</time>
   </trkpt>
   <trkpt lat="-8.051985" lon="-34.895137">
    <ele>7.7</ele>
    <time>2019-12-23T22:44:53.000Z</time>
   </trkpt>
   <trkpt lat="-8.051954" lon="-34.895106">
    <ele>7.6</ele>
    <time>2019-12-23T22:44:54.000Z</time>
   </trkpt>
   <trkpt lat="-8.051928" lon="-34.895085">
    <ele>7.5</ele>
    <time>2019-12-23T22:44:55.000Z</time>
   </trkpt>
   <trkpt lat="-8.0519" lon="-34.895062">
    <ele>7.4</ele>
    <time>2019-12-23T22:44:56.000Z</time>
   </trkpt>
   <trkpt lat="-8.051877" lon="-34.895039">
    <ele>7.4</ele>
    <time>2019-12-23T22:44:57.000Z</time>
   </trkpt>
   <trkpt lat="-8.051864" lon="-34.895011">
    <ele>7.3</ele>
    <time>2019-12-23T22:44:58.000Z</time>
   </trkpt>
   <trkpt lat="-8.051856" lon="-34.894993">
    <ele>7.3</ele>
    <time>2019-12-23T22:44:59.000Z</time>
   </trkpt>
   <trkpt lat="-8.051836" lon="-34.894992">
    <ele>7.3</ele>
    <time>2019-12-23T22:45:02.000Z</time>
   </trkpt>
   <trkpt lat="-8.051818" lon="-34.894983">
    <ele>7.3</ele>
    <time>2019-12-23T22:45:06.000Z</time>
   </trkpt>
   <trkpt lat="-8.051812" lon="-34.894997">
    <ele>7.3</ele>
    <time>2019-12-23T22:45:09.000Z</time>
   </trkpt>
   <trkpt lat="-8.051805" lon="-34.895009">
    <ele>7.2</ele>
    <time>2019-12-23T22:45:12.000Z</time>
   </trkpt>
   <trkpt lat="-8.051798" lon="-34.89496">
    <ele>7.2</ele>
    <time>2019-12-23T22:45:14.000Z</time>
   </trkpt>
   <trkpt lat="-8.051776" lon="-34.894944">
    <ele>7.2</ele>
    <time>2019-12-23T22:45:15.000Z</time>
   </trkpt>
   <trkpt lat="-8.051742" lon="-34.894927">
    <ele>7.1</ele>
    <time>2019-12-23T22:45:16.000Z</time>
   </trkpt>
   <trkpt lat="-8.051701" lon="-34.894896">
    <ele>6.9</ele>
    <time>2019-12-23T22:45:17.000Z</time>
   </trkpt>
   <trkpt lat="-8.05165" lon="-34.894867">
    <ele>6.6</ele>
    <time>2019-12-23T22:45:18.000Z</time>
   </trkpt>
   <trkpt lat="-8.051605" lon="-34.894843">
    <ele>6.1</ele>
    <time>2019-12-23T22:45:19.000Z</time>
   </trkpt>
   <trkpt lat="-8.051555" lon="-34.894814">
    <ele>5.4</ele>
    <time>2019-12-23T22:45:20.000Z</time>
   </trkpt>
   <trkpt lat="-8.051523" lon="-34.894788">
    <ele>4.9</ele>
    <time>2019-12-23T22:45:21.000Z</time>
   </trkpt>
   <trkpt lat="-8.051479" lon="-34.894777">
    <ele>4.5</ele>
    <time>2019-12-23T22:45:22.000Z</time>
   </trkpt>
   <trkpt lat="-8.051434" lon="-34.894744">
    <ele>4</ele>
    <time>2019-12-23T22:45:23.000Z</time>
   </trkpt>
   <trkpt lat="-8.051388" lon="-34.894701">
    <ele>3.4</ele>
    <time>2019-12-23T22:45:24.000Z</time>
   </trkpt>
   <trkpt lat="-8.051348" lon="-34.89465">
    <ele>2.8</ele>
    <time>2019-12-23T22:45:25.000Z</time>
   </trkpt>
   <trkpt lat="-8.051306" lon="-34.894602">
    <ele>2.3</ele>
    <time>2019-12-23T22:45:26.000Z</time>
   </trkpt>
   <trkpt lat="-8.051262" lon="-34.894555">
    <ele>2</ele>
    <time>2019-12-23T22:45:27.000Z</time>
   </trkpt>
   <trkpt lat="-8.051212" lon="-34.894515">
    <ele>2</ele>
    <time>2019-12-23T22:45:28.000Z</time>
   </trkpt>
   <trkpt lat="-8.051163" lon="-34.894469">
    <ele>2</ele>
    <time>2019-12-23T22:45:29.000Z</time>
   </trkpt>
   <trkpt lat="-8.051116" lon="-34.894413">
    <ele>2</ele>
    <time>2019-12-23T22:45:30.000Z</time>
   </trkpt>
   <trkpt lat="-8.051061" lon="-34.894371">
    <ele>2.1</ele>
    <time>2019-12-23T22:45:31.000Z</time>
   </trkpt>
   <trkpt lat="-8.051005" lon="-34.89433">
    <ele>2.1</ele>
    <time>2019-12-23T22:45:32.000Z</time>
   </trkpt>
   <trkpt lat="-8.050958" lon="-34.894296">
    <ele>2.1</ele>
    <time>2019-12-23T22:45:33.000Z</time>
   </trkpt>
   <trkpt lat="-8.050916" lon="-34.894271">
    <ele>2.1</ele>
    <time>2019-12-23T22:45:34.000Z</time>
   </trkpt>
   <trkpt lat="-8.050879" lon="-34.894238">
    <ele>2.1</ele>
    <time>2019-12-23T22:45:35.000Z</time>
   </trkpt>
   <trkpt lat="-8.05084" lon="-34.89419">
    <ele>2.1</ele>
    <time>2019-12-23T22:45:36.000Z</time>
   </trkpt>
   <trkpt lat="-8.050783" lon="-34.894148">
    <ele>2.2</ele>
    <time>2019-12-23T22:45:37.000Z</time>
   </trkpt>
   <trkpt lat="-8.050723" lon="-34.894101">
    <ele>2.2</ele>
    <time>2019-12-23T22:45:38.000Z</time>
   </trkpt>
   <trkpt lat="-8.05066" lon="-34.894053">
    <ele>2.2</ele>
    <time>2019-12-23T22:45:39.000Z</time>
   </trkpt>
   <trkpt lat="-8.050592" lon="-34.89403">
    <ele>2.2</ele>
    <time>2019-12-23T22:45:40.000Z</time>
   </trkpt>
   <trkpt lat="-8.050536" lon="-34.89399">
    <ele>3</ele>
    <time>2019-12-23T22:45:41.000Z</time>
   </trkpt>
   <trkpt lat="-8.050493" lon="-34.893957">
    <ele>3.4</ele>
    <time>2019-12-23T22:45:42.000Z</time>
   </trkpt>
   <trkpt lat="-8.050458" lon="-34.893924">
    <ele>3.8</ele>
    <time>2019-12-23T22:45:43.000Z</time>
   </trkpt>
   <trkpt lat="-8.050416" lon="-34.893888">
    <ele>4.2</ele>
    <time>2019-12-23T22:45:44.000Z</time>
   </trkpt>
   <trkpt lat="-8.050362" lon="-34.893847">
    <ele>4.8</ele>
    <time>2019-12-23T22:45:45.000Z</time>
   </trkpt>
   <trkpt lat="-8.050307" lon="-34.893827">
    <ele>5.3</ele>
    <time>2019-12-23T22:45:46.000Z</time>
   </trkpt>
   <trkpt lat="-8.050265" lon="-34.893776">
    <ele>5.9</ele>
    <time>2019-12-23T22:45:47.000Z</time>
   </trkpt>
   <trkpt lat="-8.050208" lon="-34.893736">
    <ele>6.5</ele>
    <time>2019-12-23T22:45:48.000Z</time>
   </trkpt>
   <trkpt lat="-8.050148" lon="-34.893707">
    <ele>7.1</ele>
    <time>2019-12-23T22:45:49.000Z</time>
   </trkpt>
   <trkpt lat="-8.050093" lon="-34.893657">
    <ele>7.5</ele>
    <time>2019-12-23T22:45:50.000Z</time>
   </trkpt>
   <trkpt lat="-8.05004" lon="-34.893615">
    <ele>7.9</ele>
    <time>2019-12-23T22:45:51.000Z</time>
   </trkpt>
   <trkpt lat="-8.049989" lon="-34.893569">
    <ele>8.2</ele>
    <time>2019-12-23T22:45:52.000Z</time>
   </trkpt>
   <trkpt lat="-8.049933" lon="-34.89353">
    <ele>8.6</ele>
    <time>2019-12-23T22:45:53.000Z</time>
   </trkpt>
   <trkpt lat="-8.049873" lon="-34.893494">
    <ele>9</ele>
    <time>2019-12-23T22:45:54.000Z</time>
   </trkpt>
   <trkpt lat="-8.049826" lon="-34.893463">
    <ele>9.4</ele>
    <time>2019-12-23T22:45:55.000Z</time>
   </trkpt>
   <trkpt lat="-8.049781" lon="-34.893426">
    <ele>9.8</ele>
    <time>2019-12-23T22:45:56.000Z</time>
   </trkpt>
   <trkpt lat="-8.049733" lon="-34.893393">
    <ele>10.4</ele>
    <time>2019-12-23T22:45:57.000Z</time>
   </trkpt>
   <trkpt lat="-8.049684" lon="-34.893368">
    <ele>10.9</ele>
    <time>2019-12-23T22:45:58.000Z</time>
   </trkpt>
   <trkpt lat="-8.049642" lon="-34.893346">
    <ele>11.4</ele>
    <time>2019-12-23T22:45:59.000Z</time>
   </trkpt>
   <trkpt lat="-8.049589" lon="-34.893316">
    <ele>12</ele>
    <time>2019-12-23T22:46:00.000Z</time>
   </trkpt>
   <trkpt lat="-8.049533" lon="-34.893279">
    <ele>11.6</ele>
    <time>2019-12-23T22:46:01.000Z</time>
   </trkpt>
   <trkpt lat="-8.049481" lon="-34.893229">
    <ele>11.2</ele>
    <time>2019-12-23T22:46:02.000Z</time>
   </trkpt>
   <trkpt lat="-8.049433" lon="-34.893199">
    <ele>10.8</ele>
    <time>2019-12-23T22:46:03.000Z</time>
   </trkpt>
   <trkpt lat="-8.049388" lon="-34.893159">
    <ele>10.5</ele>
    <time>2019-12-23T22:46:04.000Z</time>
   </trkpt>
   <trkpt lat="-8.049343" lon="-34.893123">
    <ele>10.2</ele>
    <time>2019-12-23T22:46:05.000Z</time>
   </trkpt>
   <trkpt lat="-8.049297" lon="-34.893087">
    <ele>9.9</ele>
    <time>2019-12-23T22:46:06.000Z</time>
   </trkpt>
   <trkpt lat="-8.049253" lon="-34.893053">
    <ele>9.7</ele>
    <time>2019-12-23T22:46:07.000Z</time>
   </trkpt>
   <trkpt lat="-8.049205" lon="-34.893015">
    <ele>9.4</ele>
    <time>2019-12-23T22:46:08.000Z</time>
   </trkpt>
   <trkpt lat="-8.049159" lon="-34.892963">
    <ele>9</ele>
    <time>2019-12-23T22:46:09.000Z</time>
   </trkpt>
   <trkpt lat="-8.049113" lon="-34.892926">
    <ele>8.7</ele>
    <time>2019-12-23T22:46:10.000Z</time>
   </trkpt>
   <trkpt lat="-8.049064" lon="-34.892888">
    <ele>8.4</ele>
    <time>2019-12-23T22:46:11.000Z</time>
   </trkpt>
   <trkpt lat="-8.049027" lon="-34.892857">
    <ele>8.2</ele>
    <time>2019-12-23T22:46:12.000Z</time>
   </trkpt>
   <trkpt lat="-8.048992" lon="-34.892822">
    <ele>7.9</ele>
    <time>2019-12-23T22:46:13.000Z</time>
   </trkpt>
   <trkpt lat="-8.048959" lon="-34.892801">
    <ele>7.7</ele>
    <time>2019-12-23T22:46:14.000Z</time>
   </trkpt>
   <trkpt lat="-8.04893" lon="-34.892782">
    <ele>7.5</ele>
    <time>2019-12-23T22:46:15.000Z</time>
   </trkpt>
   <trkpt lat="-8.048911" lon="-34.892761">
    <ele>7.3</ele>
    <time>2019-12-23T22:46:16.000Z</time>
   </trkpt>
   <trkpt lat="-8.048887" lon="-34.892736">
    <ele>7.1</ele>
    <time>2019-12-23T22:46:17.000Z</time>
   </trkpt>
   <trkpt lat="-8.048866" lon="-34.892713">
    <ele>6.9</ele>
    <time>2019-12-23T22:46:18.000Z</time>
   </trkpt>
   <trkpt lat="-8.048838" lon="-34.892704">
    <ele>6.9</ele>
    <time>2019-12-23T22:46:19.000Z</time>
   </trkpt>
   <trkpt lat="-8.048816" lon="-34.892718">
    <ele>6.8</ele>
    <time>2019-12-23T22:46:20.000Z</time>
   </trkpt>
   <trkpt lat="-8.048777" lon="-34.892754">
    <ele>4.6</ele>
    <time>2019-12-23T22:46:22.000Z</time>
   </trkpt>
   <trkpt lat="-8.048755" lon="-34.892776">
    <ele>4.6</ele>
    <time>2019-12-23T22:46:23.000Z</time>
   </trkpt>
   <trkpt lat="-8.04873" lon="-34.892802">
    <ele>4.6</ele>
    <time>2019-12-23T22:46:24.000Z</time>
   </trkpt>
   <trkpt lat="-8.048714" lon="-34.892823">
    <ele>3.1</ele>
    <time>2019-12-23T22:46:25.000Z</time>
   </trkpt>
   <trkpt lat="-8.048687" lon="-34.892875">
    <ele>2.9</ele>
    <time>2019-12-23T22:46:27.000Z</time>
   </trkpt>
   <trkpt lat="-8.048664" lon="-34.892902">
    <ele>2.9</ele>
    <time>2019-12-23T22:46:28.000Z</time>
   </trkpt>
   <trkpt lat="-8.04865" lon="-34.892929">
    <ele>2.8</ele>
    <time>2019-12-23T22:46:29.000Z</time>
   </trkpt>
   <trkpt lat="-8.048633" lon="-34.892953">
    <ele>2.7</ele>
    <time>2019-12-23T22:46:30.000Z</time>
   </trkpt>
   <trkpt lat="-8.04861" lon="-34.89299">
    <ele>2.6</ele>
    <time>2019-12-23T22:46:31.000Z</time>
   </trkpt>
   <trkpt lat="-8.048579" lon="-34.893037">
    <ele>3.9</ele>
    <time>2019-12-23T22:46:32.000Z</time>
   </trkpt>
   <trkpt lat="-8.04856" lon="-34.893085">
    <ele>5.2</ele>
    <time>2019-12-23T22:46:33.000Z</time>
   </trkpt>
   <trkpt lat="-8.048545" lon="-34.893133">
    <ele>6.5</ele>
    <time>2019-12-23T22:46:34.000Z</time>
   </trkpt>
   <trkpt lat="-8.048527" lon="-34.893183">
    <ele>8</ele>
    <time>2019-12-23T22:46:35.000Z</time>
   </trkpt>
   <trkpt lat="-8.04851" lon="-34.893232">
    <ele>8</ele>
    <time>2019-12-23T22:46:36.000Z</time>
   </trkpt>
   <trkpt lat="-8.048491" lon="-34.893271">
    <ele>8</ele>
    <time>2019-12-23T22:46:37.000Z</time>
   </trkpt>
   <trkpt lat="-8.048458" lon="-34.893323">
    <ele>8</ele>
    <time>2019-12-23T22:46:38.000Z</time>
   </trkpt>
   <trkpt lat="-8.048435" lon="-34.893378">
    <ele>8</ele>
    <time>2019-12-23T22:46:39.000Z</time>
   </trkpt>
   <trkpt lat="-8.048407" lon="-34.893447">
    <ele>8</ele>
    <time>2019-12-23T22:46:40.000Z</time>
   </trkpt>
   <trkpt lat="-8.048389" lon="-34.893508">
    <ele>8</ele>
    <time>2019-12-23T22:46:41.000Z</time>
   </trkpt>
   <trkpt lat="-8.048359" lon="-34.893571">
    <ele>8</ele>
    <time>2019-12-23T22:46:42.000Z</time>
   </trkpt>
   <trkpt lat="-8.048339" lon="-34.893602">
    <ele>8</ele>
    <time>2019-12-23T22:46:43.000Z</time>
   </trkpt>
   <trkpt lat="-8.048322" lon="-34.893666">
    <ele>8</ele>
    <time>2019-12-23T22:46:44.000Z</time>
   </trkpt>
   <trkpt lat="-8.048294" lon="-34.893721">
    <ele>8</ele>
    <time>2019-12-23T22:46:45.000Z</time>
   </trkpt>
   <trkpt lat="-8.048268" lon="-34.893771">
    <ele>8</ele>
    <time>2019-12-23T22:46:46.000Z</time>
   </trkpt>
   <trkpt lat="-8.048246" lon="-34.893828">
    <ele>8.1</ele>
    <time>2019-12-23T22:46:47.000Z</time>
   </trkpt>
   <trkpt lat="-8.048224" lon="-34.893879">
    <ele>8.1</ele>
    <time>2019-12-23T22:46:48.000Z</time>
   </trkpt>
   <trkpt lat="-8.048199" lon="-34.893943">
    <ele>8.3</ele>
    <time>2019-12-23T22:46:49.000Z</time>
   </trkpt>
   <trkpt lat="-8.048181" lon="-34.893991">
    <ele>8.4</ele>
    <time>2019-12-23T22:46:50.000Z</time>
   </trkpt>
   <trkpt lat="-8.048149" lon="-34.894039">
    <ele>8.6</ele>
    <time>2019-12-23T22:46:51.000Z</time>
   </trkpt>
   <trkpt lat="-8.048121" lon="-34.894073">
    <ele>8.7</ele>
    <time>2019-12-23T22:46:52.000Z</time>
   </trkpt>
   <trkpt lat="-8.048099" lon="-34.894126">
    <ele>8.8</ele>
    <time>2019-12-23T22:46:53.000Z</time>
   </trkpt>
   <trkpt lat="-8.048063" lon="-34.894187">
    <ele>8.9</ele>
    <time>2019-12-23T22:46:54.000Z</time>
   </trkpt>
   <trkpt lat="-8.048035" lon="-34.894239">
    <ele>8.9</ele>
    <time>2019-12-23T22:46:55.000Z</time>
   </trkpt>
   <trkpt lat="-8.048005" lon="-34.89429">
    <ele>9</ele>
    <time>2019-12-23T22:46:56.000Z</time>
   </trkpt>
   <trkpt lat="-8.047982" lon="-34.894345">
    <ele>9.1</ele>
    <time>2019-12-23T22:46:57.000Z</time>
   </trkpt>
   <trkpt lat="-8.047952" lon="-34.894399">
    <ele>9.3</ele>
    <time>2019-12-23T22:46:58.000Z</time>
   </trkpt>
   <trkpt lat="-8.047923" lon="-34.89445">
    <ele>9.6</ele>
    <time>2019-12-23T22:46:59.000Z</time>
   </trkpt>
   <trkpt lat="-8.047904" lon="-34.894493">
    <ele>9.9</ele>
    <time>2019-12-23T22:47:00.000Z</time>
   </trkpt>
   <trkpt lat="-8.047881" lon="-34.894545">
    <ele>10.2</ele>
    <time>2019-12-23T22:47:01.000Z</time>
   </trkpt>
   <trkpt lat="-8.047863" lon="-34.894594">
    <ele>10.4</ele>
    <time>2019-12-23T22:47:02.000Z</time>
   </trkpt>
   <trkpt lat="-8.047848" lon="-34.89464">
    <ele>10.5</ele>
    <time>2019-12-23T22:47:03.000Z</time>
   </trkpt>
   <trkpt lat="-8.047824" lon="-34.894688">
    <ele>10.7</ele>
    <time>2019-12-23T22:47:04.000Z</time>
   </trkpt>
   <trkpt lat="-8.047798" lon="-34.894738">
    <ele>10.8</ele>
    <time>2019-12-23T22:47:05.000Z</time>
   </trkpt>
   <trkpt lat="-8.04778" lon="-34.894784">
    <ele>10.9</ele>
    <time>2019-12-23T22:47:06.000Z</time>
   </trkpt>
   <trkpt lat="-8.047756" lon="-34.894839">
    <ele>11.1</ele>
    <time>2019-12-23T22:47:07.000Z</time>
   </trkpt>
   <trkpt lat="-8.047739" lon="-34.894885">
    <ele>11.2</ele>
    <time>2019-12-23T22:47:08.000Z</time>
   </trkpt>
   <trkpt lat="-8.047724" lon="-34.894923">
    <ele>11.3</ele>
    <time>2019-12-23T22:47:09.000Z</time>
   </trkpt>
   <trkpt lat="-8.047706" lon="-34.894969">
    <ele>11.4</ele>
    <time>2019-12-23T22:47:10.000Z</time>
   </trkpt>
   <trkpt lat="-8.047676" lon="-34.895017">
    <ele>11.6</ele>
    <time>2019-12-23T22:47:11.000Z</time>
   </trkpt>
   <trkpt lat="-8.047671" lon="-34.895065">
    <ele>11.7</ele>
    <time>2019-12-23T22:47:12.000Z</time>
   </trkpt>
   <trkpt lat="-8.047672" lon="-34.895114">
    <ele>11.5</ele>
    <time>2019-12-23T22:47:13.000Z</time>
   </trkpt>
   <trkpt lat="-8.047697" lon="-34.895164">
    <ele>11.3</ele>
    <time>2019-12-23T22:47:14.000Z</time>
   </trkpt>
   <trkpt lat="-8.047734" lon="-34.89519">
    <ele>11.1</ele>
    <time>2019-12-23T22:47:15.000Z</time>
   </trkpt>
   <trkpt lat="-8.047781" lon="-34.895214">
    <ele>10.9</ele>
    <time>2019-12-23T22:47:16.000Z</time>
   </trkpt>
   <trkpt lat="-8.047821" lon="-34.895249">
    <ele>10.7</ele>
    <time>2019-12-23T22:47:17.000Z</time>
   </trkpt>
   <trkpt lat="-8.047871" lon="-34.895292">
    <ele>10.5</ele>
    <time>2019-12-23T22:47:18.000Z</time>
   </trkpt>
   <trkpt lat="-8.047925" lon="-34.895329">
    <ele>10.3</ele>
    <time>2019-12-23T22:47:19.000Z</time>
   </trkpt>
   <trkpt lat="-8.04799" lon="-34.895364">
    <ele>10</ele>
    <time>2019-12-23T22:47:20.000Z</time>
   </trkpt>
   <trkpt lat="-8.048041" lon="-34.895392">
    <ele>9.8</ele>
    <time>2019-12-23T22:47:21.000Z</time>
   </trkpt>
   <trkpt lat="-8.048088" lon="-34.895427">
    <ele>9.5</ele>
    <time>2019-12-23T22:47:22.000Z</time>
   </trkpt>
   <trkpt lat="-8.048131" lon="-34.895469">
    <ele>9.3</ele>
    <time>2019-12-23T22:47:23.000Z</time>
   </trkpt>
   <trkpt lat="-8.048163" lon="-34.8955">
    <ele>9.2</ele>
    <time>2019-12-23T22:47:24.000Z</time>
   </trkpt>
   <trkpt lat="-8.048195" lon="-34.895542">
    <ele>9</ele>
    <time>2019-12-23T22:47:25.000Z</time>
   </trkpt>
   <trkpt lat="-8.048221" lon="-34.895585">
    <ele>8.9</ele>
    <time>2019-12-23T22:47:26.000Z</time>
   </trkpt>
   <trkpt lat="-8.048268" lon="-34.89562">
    <ele>9.4</ele>
    <time>2019-12-23T22:47:27.000Z</time>
   </trkpt>
   <trkpt lat="-8.0483" lon="-34.89566">
    <ele>9.7</ele>
    <time>2019-12-23T22:47:28.000Z</time>
   </trkpt>
   <trkpt lat="-8.048325" lon="-34.895705">
    <ele>10</ele>
    <time>2019-12-23T22:47:29.000Z</time>
   </trkpt>
   <trkpt lat="-8.048362" lon="-34.895772">
    <ele>10.4</ele>
    <time>2019-12-23T22:47:30.000Z</time>
   </trkpt>
   <trkpt lat="-8.048387" lon="-34.895831">
    <ele>10.6</ele>
    <time>2019-12-23T22:47:31.000Z</time>
   </trkpt>
   <trkpt lat="-8.048422" lon="-34.89587">
    <ele>10.8</ele>
    <time>2019-12-23T22:47:32.000Z</time>
   </trkpt>
   <trkpt lat="-8.048465" lon="-34.895908">
    <ele>10.9</ele>
    <time>2019-12-23T22:47:33.000Z</time>
   </trkpt>
   <trkpt lat="-8.048505" lon="-34.895958">
    <ele>11.1</ele>
    <time>2019-12-23T22:47:34.000Z</time>
   </trkpt>
   <trkpt lat="-8.048547" lon="-34.895998">
    <ele>11.4</ele>
    <time>2019-12-23T22:47:35.000Z</time>
   </trkpt>
   <trkpt lat="-8.048592" lon="-34.896047">
    <ele>11.7</ele>
    <time>2019-12-23T22:47:36.000Z</time>
   </trkpt>
   <trkpt lat="-8.048637" lon="-34.896093">
    <ele>11.8</ele>
    <time>2019-12-23T22:47:37.000Z</time>
   </trkpt>
   <trkpt lat="-8.048673" lon="-34.896135">
    <ele>11.8</ele>
    <time>2019-12-23T22:47:38.000Z</time>
   </trkpt>
   <trkpt lat="-8.048712" lon="-34.896169">
    <ele>11.9</ele>
    <time>2019-12-23T22:47:39.000Z</time>
   </trkpt>
   <trkpt lat="-8.048752" lon="-34.896213">
    <ele>11.9</ele>
    <time>2019-12-23T22:47:40.000Z</time>
   </trkpt>
   <trkpt lat="-8.048788" lon="-34.896244">
    <ele>12</ele>
    <time>2019-12-23T22:47:41.000Z</time>
   </trkpt>
   <trkpt lat="-8.048815" lon="-34.89629">
    <ele>12</ele>
    <time>2019-12-23T22:47:42.000Z</time>
   </trkpt>
   <trkpt lat="-8.048841" lon="-34.896326">
    <ele>12</ele>
    <time>2019-12-23T22:47:43.000Z</time>
   </trkpt>
   <trkpt lat="-8.048861" lon="-34.896355">
    <ele>12.1</ele>
    <time>2019-12-23T22:47:44.000Z</time>
   </trkpt>
   <trkpt lat="-8.048872" lon="-34.896385">
    <ele>12.1</ele>
    <time>2019-12-23T22:47:45.000Z</time>
   </trkpt>
   <trkpt lat="-8.048878" lon="-34.896413">
    <ele>12.1</ele>
    <time>2019-12-23T22:47:46.000Z</time>
   </trkpt>
   <trkpt lat="-8.048876" lon="-34.896408">
    <ele>12.1</ele>
    <time>2019-12-23T22:47:47.000Z</time>
   </trkpt>
   <trkpt lat="-8.048867" lon="-34.896466">
    <ele>12.1</ele>
    <time>2019-12-23T22:47:50.000Z</time>
   </trkpt>
   <trkpt lat="-8.04884" lon="-34.896485">
    <ele>12.2</ele>
    <time>2019-12-23T22:47:51.000Z</time>
   </trkpt>
   <trkpt lat="-8.04881" lon="-34.896514">
    <ele>12</ele>
    <time>2019-12-23T22:47:52.000Z</time>
   </trkpt>
   <trkpt lat="-8.048766" lon="-34.896534">
    <ele>11.7</ele>
    <time>2019-12-23T22:47:53.000Z</time>
   </trkpt>
   <trkpt lat="-8.048722" lon="-34.896546">
    <ele>11.5</ele>
    <time>2019-12-23T22:47:54.000Z</time>
   </trkpt>
   <trkpt lat="-8.048672" lon="-34.89656">
    <ele>11.3</ele>
    <time>2019-12-23T22:47:55.000Z</time>
   </trkpt>
   <trkpt lat="-8.048624" lon="-34.896579">
    <ele>11.2</ele>
    <time>2019-12-23T22:47:56.000Z</time>
   </trkpt>
   <trkpt lat="-8.04858" lon="-34.896599">
    <ele>11</ele>
    <time>2019-12-23T22:47:57.000Z</time>
   </trkpt>
   <trkpt lat="-8.048532" lon="-34.896616">
    <ele>10.8</ele>
    <time>2019-12-23T22:47:58.000Z</time>
   </trkpt>
   <trkpt lat="-8.048489" lon="-34.896628">
    <ele>10.7</ele>
    <time>2019-12-23T22:47:59.000Z</time>
   </trkpt>
   <trkpt lat="-8.04844" lon="-34.896647">
    <ele>10.5</ele>
    <time>2019-12-23T22:48:00.000Z</time>
   </trkpt>
   <trkpt lat="-8.048401" lon="-34.896663">
    <ele>10.4</ele>
    <time>2019-12-23T22:48:01.000Z</time>
   </trkpt>
   <trkpt lat="-8.048349" lon="-34.896686">
    <ele>10.3</ele>
    <time>2019-12-23T22:48:02.000Z</time>
   </trkpt>
   <trkpt lat="-8.048288" lon="-34.896715">
    <ele>10.1</ele>
    <time>2019-12-23T22:48:03.000Z</time>
   </trkpt>
   <trkpt lat="-8.048246" lon="-34.896749">
    <ele>10.3</ele>
    <time>2019-12-23T22:48:04.000Z</time>
   </trkpt>
   <trkpt lat="-8.048208" lon="-34.896773">
    <ele>10.5</ele>
    <time>2019-12-23T22:48:05.000Z</time>
   </trkpt>
   <trkpt lat="-8.048144" lon="-34.89679">
    <ele>10.7</ele>
    <time>2019-12-23T22:48:06.000Z</time>
   </trkpt>
   <trkpt lat="-8.048097" lon="-34.896813">
    <ele>11</ele>
    <time>2019-12-23T22:48:07.000Z</time>
   </trkpt>
   <trkpt lat="-8.048036" lon="-34.89683">
    <ele>11.3</ele>
    <time>2019-12-23T22:48:08.000Z</time>
   </trkpt>
   <trkpt lat="-8.047976" lon="-34.896843">
    <ele>11.7</ele>
    <time>2019-12-23T22:48:09.000Z</time>
   </trkpt>
   <trkpt lat="-8.047924" lon="-34.896863">
    <ele>12</ele>
    <time>2019-12-23T22:48:10.000Z</time>
   </trkpt>
   <trkpt lat="-8.047886" lon="-34.896882">
    <ele>12.2</ele>
    <time>2019-12-23T22:48:11.000Z</time>
   </trkpt>
   <trkpt lat="-8.047843" lon="-34.896902">
    <ele>12.5</ele>
    <time>2019-12-23T22:48:12.000Z</time>
   </trkpt>
   <trkpt lat="-8.047795" lon="-34.896913">
    <ele>12.6</ele>
    <time>2019-12-23T22:48:13.000Z</time>
   </trkpt>
   <trkpt lat="-8.047754" lon="-34.896916">
    <ele>12.8</ele>
    <time>2019-12-23T22:48:14.000Z</time>
   </trkpt>
   <trkpt lat="-8.047703" lon="-34.896921">
    <ele>13</ele>
    <time>2019-12-23T22:48:15.000Z</time>
   </trkpt>
   <trkpt lat="-8.04766" lon="-34.896917">
    <ele>13.1</ele>
    <time>2019-12-23T22:48:16.000Z</time>
   </trkpt>
   <trkpt lat="-8.047621" lon="-34.896899">
    <ele>13.5</ele>
    <time>2019-12-23T22:48:17.000Z</time>
   </trkpt>
   <trkpt lat="-8.047586" lon="-34.896873">
    <ele>13.8</ele>
    <time>2019-12-23T22:48:18.000Z</time>
   </trkpt>
   <trkpt lat="-8.047556" lon="-34.896835">
    <ele>14</ele>
    <time>2019-12-23T22:48:19.000Z</time>
   </trkpt>
   <trkpt lat="-8.047518" lon="-34.896793">
    <ele>14.2</ele>
    <time>2019-12-23T22:48:20.000Z</time>
   </trkpt>
   <trkpt lat="-8.047487" lon="-34.896753">
    <ele>14.4</ele>
    <time>2019-12-23T22:48:21.000Z</time>
   </trkpt>
   <trkpt lat="-8.047462" lon="-34.896679">
    <ele>14.7</ele>
    <time>2019-12-23T22:48:22.000Z</time>
   </trkpt>
   <trkpt lat="-8.047436" lon="-34.896629">
    <ele>14.9</ele>
    <time>2019-12-23T22:48:23.000Z</time>
   </trkpt>
   <trkpt lat="-8.047411" lon="-34.896575">
    <ele>15.1</ele>
    <time>2019-12-23T22:48:24.000Z</time>
   </trkpt>
   <trkpt lat="-8.047369" lon="-34.89652">
    <ele>15.4</ele>
    <time>2019-12-23T22:48:25.000Z</time>
   </trkpt>
   <trkpt lat="-8.047335" lon="-34.896468">
    <ele>15.8</ele>
    <time>2019-12-23T22:48:26.000Z</time>
   </trkpt>
   <trkpt lat="-8.047304" lon="-34.896418">
    <ele>16.1</ele>
    <time>2019-12-23T22:48:27.000Z</time>
   </trkpt>
   <trkpt lat="-8.04727" lon="-34.896384">
    <ele>16.4</ele>
    <time>2019-12-23T22:48:28.000Z</time>
   </trkpt>
   <trkpt lat="-8.047226" lon="-34.896354">
    <ele>16.8</ele>
    <time>2019-12-23T22:48:29.000Z</time>
   </trkpt>
   <trkpt lat="-8.047199" lon="-34.896308">
    <ele>17.1</ele>
    <time>2019-12-23T22:48:30.000Z</time>
   </trkpt>
   <trkpt lat="-8.047162" lon="-34.896265">
    <ele>17.5</ele>
    <time>2019-12-23T22:48:31.000Z</time>
   </trkpt>
   <trkpt lat="-8.047125" lon="-34.896221">
    <ele>17.8</ele>
    <time>2019-12-23T22:48:32.000Z</time>
   </trkpt>
   <trkpt lat="-8.047088" lon="-34.896173">
    <ele>18</ele>
    <time>2019-12-23T22:48:33.000Z</time>
   </trkpt>
   <trkpt lat="-8.04706" lon="-34.896145">
    <ele>18.2</ele>
    <time>2019-12-23T22:48:34.000Z</time>
   </trkpt>
   <trkpt lat="-8.047027" lon="-34.896109">
    <ele>18.5</ele>
    <time>2019-12-23T22:48:35.000Z</time>
   </trkpt>
   <trkpt lat="-8.046989" lon="-34.89607">
    <ele>18.8</ele>
    <time>2019-12-23T22:48:36.000Z</time>
   </trkpt>
   <trkpt lat="-8.046946" lon="-34.896021">
    <ele>19.1</ele>
    <time>2019-12-23T22:48:37.000Z</time>
   </trkpt>
   <trkpt lat="-8.046891" lon="-34.895983">
    <ele>19.4</ele>
    <time>2019-12-23T22:48:38.000Z</time>
   </trkpt>
   <trkpt lat="-8.046848" lon="-34.89594">
    <ele>19.7</ele>
    <time>2019-12-23T22:48:39.000Z</time>
   </trkpt>
   <trkpt lat="-8.046803" lon="-34.895906">
    <ele>19.9</ele>
    <time>2019-12-23T22:48:40.000Z</time>
   </trkpt>
   <trkpt lat="-8.046768" lon="-34.895874">
    <ele>20.2</ele>
    <time>2019-12-23T22:48:41.000Z</time>
   </trkpt>
   <trkpt lat="-8.046722" lon="-34.895841">
    <ele>20.4</ele>
    <time>2019-12-23T22:48:42.000Z</time>
   </trkpt>
   <trkpt lat="-8.046657" lon="-34.895817">
    <ele>20.7</ele>
    <time>2019-12-23T22:48:43.000Z</time>
   </trkpt>
   <trkpt lat="-8.046616" lon="-34.895781">
    <ele>21</ele>
    <time>2019-12-23T22:48:44.000Z</time>
   </trkpt>
   <trkpt lat="-8.046567" lon="-34.895752">
    <ele>21.3</ele>
    <time>2019-12-23T22:48:45.000Z</time>
   </trkpt>
   <trkpt lat="-8.046522" lon="-34.895732">
    <ele>21.5</ele>
    <time>2019-12-23T22:48:46.000Z</time>
   </trkpt>
   <trkpt lat="-8.046483" lon="-34.895721">
    <ele>21.7</ele>
    <time>2019-12-23T22:48:47.000Z</time>
   </trkpt>
   <trkpt lat="-8.046447" lon="-34.895704">
    <ele>21.8</ele>
    <time>2019-12-23T22:48:48.000Z</time>
   </trkpt>
   <trkpt lat="-8.046386" lon="-34.895695">
    <ele>22.1</ele>
    <time>2019-12-23T22:48:49.000Z</time>
   </trkpt>
   <trkpt lat="-8.046315" lon="-34.895685">
    <ele>22.3</ele>
    <time>2019-12-23T22:48:50.000Z</time>
   </trkpt>
   <trkpt lat="-8.046267" lon="-34.89566">
    <ele>22.5</ele>
    <time>2019-12-23T22:48:51.000Z</time>
   </trkpt>
   <trkpt lat="-8.046229" lon="-34.895636">
    <ele>22.6</ele>
    <time>2019-12-23T22:48:52.000Z</time>
   </trkpt>
   <trkpt lat="-8.046188" lon="-34.895606">
    <ele>22.7</ele>
    <time>2019-12-23T22:48:53.000Z</time>
   </trkpt>
   <trkpt lat="-8.046154" lon="-34.895586">
    <ele>22.8</ele>
    <time>2019-12-23T22:48:54.000Z</time>
   </trkpt>
   <trkpt lat="-8.046144" lon="-34.895553">
    <ele>22.9</ele>
    <time>2019-12-23T22:48:55.000Z</time>
   </trkpt>
   <trkpt lat="-8.046108" lon="-34.89553">
    <ele>23</ele>
    <time>2019-12-23T22:48:56.000Z</time>
   </trkpt>
   <trkpt lat="-8.046065" lon="-34.89551">
    <ele>23.1</ele>
    <time>2019-12-23T22:48:57.000Z</time>
   </trkpt>
   <trkpt lat="-8.046024" lon="-34.895482">
    <ele>23.3</ele>
    <time>2019-12-23T22:48:58.000Z</time>
   </trkpt>
   <trkpt lat="-8.04597" lon="-34.895464">
    <ele>23.4</ele>
    <time>2019-12-23T22:48:59.000Z</time>
   </trkpt>
   <trkpt lat="-8.045917" lon="-34.895455">
    <ele>23.7</ele>
    <time>2019-12-23T22:49:00.000Z</time>
   </trkpt>
   <trkpt lat="-8.045854" lon="-34.895427">
    <ele>24</ele>
    <time>2019-12-23T22:49:01.000Z</time>
   </trkpt>
   <trkpt lat="-8.045797" lon="-34.895379">
    <ele>24</ele>
    <time>2019-12-23T22:49:02.000Z</time>
   </trkpt>
   <trkpt lat="-8.045747" lon="-34.895323">
    <ele>23.3</ele>
    <time>2019-12-23T22:49:03.000Z</time>
   </trkpt>
   <trkpt lat="-8.045688" lon="-34.895295">
    <ele>22.6</ele>
    <time>2019-12-23T22:49:04.000Z</time>
   </trkpt>
   <trkpt lat="-8.045628" lon="-34.895261">
    <ele>22</ele>
    <time>2019-12-23T22:49:05.000Z</time>
   </trkpt>
   <trkpt lat="-8.045588" lon="-34.895219">
    <ele>21.6</ele>
    <time>2019-12-23T22:49:06.000Z</time>
   </trkpt>
   <trkpt lat="-8.045535" lon="-34.895188">
    <ele>21.2</ele>
    <time>2019-12-23T22:49:07.000Z</time>
   </trkpt>
   <trkpt lat="-8.045487" lon="-34.895162">
    <ele>20.9</ele>
    <time>2019-12-23T22:49:08.000Z</time>
   </trkpt>
   <trkpt lat="-8.045443" lon="-34.895126">
    <ele>20.6</ele>
    <time>2019-12-23T22:49:09.000Z</time>
   </trkpt>
   <trkpt lat="-8.045425" lon="-34.895097">
    <ele>20.5</ele>
    <time>2019-12-23T22:49:10.000Z</time>
   </trkpt>
   <trkpt lat="-8.045403" lon="-34.89505">
    <ele>20.2</ele>
    <time>2019-12-23T22:49:11.000Z</time>
   </trkpt>
   <trkpt lat="-8.045355" lon="-34.895013">
    <ele>19.8</ele>
    <time>2019-12-23T22:49:12.000Z</time>
   </trkpt>
   <trkpt lat="-8.045321" lon="-34.894968">
    <ele>19.4</ele>
    <time>2019-12-23T22:49:13.000Z</time>
   </trkpt>
   <trkpt lat="-8.045281" lon="-34.894934">
    <ele>19</ele>
    <time>2019-12-23T22:49:14.000Z</time>
   </trkpt>
   <trkpt lat="-8.045268" lon="-34.894874">
    <ele>18.6</ele>
    <time>2019-12-23T22:49:15.000Z</time>
   </trkpt>
   <trkpt lat="-8.045235" lon="-34.894857">
    <ele>18.4</ele>
    <time>2019-12-23T22:49:16.000Z</time>
   </trkpt>
   <trkpt lat="-8.045207" lon="-34.894841">
    <ele>18.3</ele>
    <time>2019-12-23T22:49:17.000Z</time>
   </trkpt>
   <trkpt lat="-8.045178" lon="-34.894829">
    <ele>18.1</ele>
    <time>2019-12-23T22:49:18.000Z</time>
   </trkpt>
   <trkpt lat="-8.045155" lon="-34.894793">
    <ele>17.9</ele>
    <time>2019-12-23T22:49:19.000Z</time>
   </trkpt>
   <trkpt lat="-8.045119" lon="-34.894754">
    <ele>17.6</ele>
    <time>2019-12-23T22:49:20.000Z</time>
   </trkpt>
   <trkpt lat="-8.04508" lon="-34.894719">
    <ele>17.4</ele>
    <time>2019-12-23T22:49:21.000Z</time>
   </trkpt>
   <trkpt lat="-8.045042" lon="-34.894695">
    <ele>17.2</ele>
    <time>2019-12-23T22:49:22.000Z</time>
   </trkpt>
   <trkpt lat="-8.045" lon="-34.894671">
    <ele>16.9</ele>
    <time>2019-12-23T22:49:23.000Z</time>
   </trkpt>
   <trkpt lat="-8.044965" lon="-34.894646">
    <ele>16.7</ele>
    <time>2019-12-23T22:49:24.000Z</time>
   </trkpt>
   <trkpt lat="-8.044926" lon="-34.894611">
    <ele>16.5</ele>
    <time>2019-12-23T22:49:25.000Z</time>
   </trkpt>
   <trkpt lat="-8.044891" lon="-34.894565">
    <ele>16.1</ele>
    <time>2019-12-23T22:49:26.000Z</time>
   </trkpt>
   <trkpt lat="-8.044858" lon="-34.894528">
    <ele>15.9</ele>
    <time>2019-12-23T22:49:27.000Z</time>
   </trkpt>
   <trkpt lat="-8.044815" lon="-34.894499">
    <ele>15.6</ele>
    <time>2019-12-23T22:49:28.000Z</time>
   </trkpt>
   <trkpt lat="-8.044776" lon="-34.894462">
    <ele>15.4</ele>
    <time>2019-12-23T22:49:29.000Z</time>
   </trkpt>
   <trkpt lat="-8.04474" lon="-34.894423">
    <ele>15.1</ele>
    <time>2019-12-23T22:49:30.000Z</time>
   </trkpt>
   <trkpt lat="-8.044714" lon="-34.894382">
    <ele>14.9</ele>
    <time>2019-12-23T22:49:31.000Z</time>
   </trkpt>
   <trkpt lat="-8.044675" lon="-34.894356">
    <ele>14.7</ele>
    <time>2019-12-23T22:49:32.000Z</time>
   </trkpt>
   <trkpt lat="-8.044625" lon="-34.894331">
    <ele>14.4</ele>
    <time>2019-12-23T22:49:33.000Z</time>
   </trkpt>
   <trkpt lat="-8.044575" lon="-34.894286">
    <ele>14.1</ele>
    <time>2019-12-23T22:49:34.000Z</time>
   </trkpt>
   <trkpt lat="-8.044534" lon="-34.894256">
    <ele>13.9</ele>
    <time>2019-12-23T22:49:35.000Z</time>
   </trkpt>
   <trkpt lat="-8.044477" lon="-34.89422">
    <ele>13.7</ele>
    <time>2019-12-23T22:49:36.000Z</time>
   </trkpt>
   <trkpt lat="-8.044426" lon="-34.894178">
    <ele>13.6</ele>
    <time>2019-12-23T22:49:37.000Z</time>
   </trkpt>
   <trkpt lat="-8.044385" lon="-34.894124">
    <ele>13.7</ele>
    <time>2019-12-23T22:49:38.000Z</time>
   </trkpt>
   <trkpt lat="-8.044342" lon="-34.894075">
    <ele>13.9</ele>
    <time>2019-12-23T22:49:39.000Z</time>
   </trkpt>
   <trkpt lat="-8.044294" lon="-34.894034">
    <ele>14.1</ele>
    <time>2019-12-23T22:49:40.000Z</time>
   </trkpt>
   <trkpt lat="-8.044248" lon="-34.893999">
    <ele>14.2</ele>
    <time>2019-12-23T22:49:41.000Z</time>
   </trkpt>
   <trkpt lat="-8.044197" lon="-34.893953">
    <ele>14.4</ele>
    <time>2019-12-23T22:49:42.000Z</time>
   </trkpt>
   <trkpt lat="-8.044148" lon="-34.893909">
    <ele>14.5</ele>
    <time>2019-12-23T22:49:43.000Z</time>
   </trkpt>
   <trkpt lat="-8.044121" lon="-34.893891">
    <ele>14.5</ele>
    <time>2019-12-23T22:49:44.000Z</time>
   </trkpt>
   <trkpt lat="-8.044079" lon="-34.893868">
    <ele>14.5</ele>
    <time>2019-12-23T22:49:45.000Z</time>
   </trkpt>
   <trkpt lat="-8.044041" lon="-34.89385">
    <ele>14.6</ele>
    <time>2019-12-23T22:49:46.000Z</time>
   </trkpt>
   <trkpt lat="-8.044001" lon="-34.893823">
    <ele>14.6</ele>
    <time>2019-12-23T22:49:47.000Z</time>
   </trkpt>
   <trkpt lat="-8.043972" lon="-34.893797">
    <ele>14.6</ele>
    <time>2019-12-23T22:49:48.000Z</time>
   </trkpt>
   <trkpt lat="-8.043946" lon="-34.893777">
    <ele>14.6</ele>
    <time>2019-12-23T22:49:49.000Z</time>
   </trkpt>
   <trkpt lat="-8.043918" lon="-34.893765">
    <ele>14.6</ele>
    <time>2019-12-23T22:49:50.000Z</time>
   </trkpt>
   <trkpt lat="-8.043912" lon="-34.893763">
    <ele>14.6</ele>
    <time>2019-12-23T22:49:51.000Z</time>
   </trkpt>
   <trkpt lat="-8.043868" lon="-34.893712">
    <ele>14.7</ele>
    <time>2019-12-23T22:49:53.000Z</time>
   </trkpt>
   <trkpt lat="-8.043829" lon="-34.893694">
    <ele>14.7</ele>
    <time>2019-12-23T22:49:54.000Z</time>
   </trkpt>
   <trkpt lat="-8.043792" lon="-34.893663">
    <ele>14.7</ele>
    <time>2019-12-23T22:49:55.000Z</time>
   </trkpt>
   <trkpt lat="-8.043764" lon="-34.893649">
    <ele>14.7</ele>
    <time>2019-12-23T22:49:56.000Z</time>
   </trkpt>
   <trkpt lat="-8.043734" lon="-34.893634">
    <ele>14.8</ele>
    <time>2019-12-23T22:49:57.000Z</time>
   </trkpt>
   <trkpt lat="-8.043731" lon="-34.893603">
    <ele>14.8</ele>
    <time>2019-12-23T22:49:58.000Z</time>
   </trkpt>
   <trkpt lat="-8.043724" lon="-34.893603">
    <ele>14.9</ele>
    <time>2019-12-23T22:49:59.000Z</time>
   </trkpt>
   <trkpt lat="-8.043727" lon="-34.893577">
    <ele>14.9</ele>
    <time>2019-12-23T22:50:03.000Z</time>
   </trkpt>
   <trkpt lat="-8.043707" lon="-34.893563">
    <ele>15</ele>
    <time>2019-12-23T22:50:07.000Z</time>
   </trkpt>
   <trkpt lat="-8.043672" lon="-34.893528">
    <ele>15.1</ele>
    <time>2019-12-23T22:50:09.000Z</time>
   </trkpt>
   <trkpt lat="-8.043648" lon="-34.893505">
    <ele>15.2</ele>
    <time>2019-12-23T22:50:10.000Z</time>
   </trkpt>
   <trkpt lat="-8.04362" lon="-34.893487">
    <ele>15.3</ele>
    <time>2019-12-23T22:50:11.000Z</time>
   </trkpt>
   <trkpt lat="-8.043603" lon="-34.893467">
    <ele>15.3</ele>
    <time>2019-12-23T22:50:12.000Z</time>
   </trkpt>
   <trkpt lat="-8.043553" lon="-34.893408">
    <ele>15.5</ele>
    <time>2019-12-23T22:50:14.000Z</time>
   </trkpt>
   <trkpt lat="-8.043507" lon="-34.893398">
    <ele>15.6</ele>
    <time>2019-12-23T22:50:15.000Z</time>
   </trkpt>
   <trkpt lat="-8.043455" lon="-34.893378">
    <ele>15.7</ele>
    <time>2019-12-23T22:50:16.000Z</time>
   </trkpt>
   <trkpt lat="-8.043413" lon="-34.893362">
    <ele>15.7</ele>
    <time>2019-12-23T22:50:17.000Z</time>
   </trkpt>
   <trkpt lat="-8.043356" lon="-34.893331">
    <ele>15.7</ele>
    <time>2019-12-23T22:50:18.000Z</time>
   </trkpt>
   <trkpt lat="-8.043304" lon="-34.893314">
    <ele>15.7</ele>
    <time>2019-12-23T22:50:19.000Z</time>
   </trkpt>
   <trkpt lat="-8.043262" lon="-34.893288">
    <ele>15.8</ele>
    <time>2019-12-23T22:50:20.000Z</time>
   </trkpt>
   <trkpt lat="-8.043225" lon="-34.893262">
    <ele>15.8</ele>
    <time>2019-12-23T22:50:21.000Z</time>
   </trkpt>
   <trkpt lat="-8.043188" lon="-34.893229">
    <ele>15.8</ele>
    <time>2019-12-23T22:50:22.000Z</time>
   </trkpt>
   <trkpt lat="-8.043138" lon="-34.893197">
    <ele>15.9</ele>
    <time>2019-12-23T22:50:23.000Z</time>
   </trkpt>
   <trkpt lat="-8.043084" lon="-34.89316">
    <ele>16</ele>
    <time>2019-12-23T22:50:24.000Z</time>
   </trkpt>
   <trkpt lat="-8.043015" lon="-34.893117">
    <ele>16.2</ele>
    <time>2019-12-23T22:50:25.000Z</time>
   </trkpt>
   <trkpt lat="-8.04295" lon="-34.893076">
    <ele>16.3</ele>
    <time>2019-12-23T22:50:26.000Z</time>
   </trkpt>
   <trkpt lat="-8.042894" lon="-34.893033">
    <ele>16.5</ele>
    <time>2019-12-23T22:50:27.000Z</time>
   </trkpt>
   <trkpt lat="-8.042846" lon="-34.892987">
    <ele>16.6</ele>
    <time>2019-12-23T22:50:28.000Z</time>
   </trkpt>
   <trkpt lat="-8.042769" lon="-34.892957">
    <ele>16.7</ele>
    <time>2019-12-23T22:50:29.000Z</time>
   </trkpt>
   <trkpt lat="-8.042722" lon="-34.89293">
    <ele>16.8</ele>
    <time>2019-12-23T22:50:30.000Z</time>
   </trkpt>
   <trkpt lat="-8.042691" lon="-34.892905">
    <ele>16.8</ele>
    <time>2019-12-23T22:50:31.000Z</time>
   </trkpt>
   <trkpt lat="-8.042648" lon="-34.892872">
    <ele>16.8</ele>
    <time>2019-12-23T22:50:32.000Z</time>
   </trkpt>
   <trkpt lat="-8.042595" lon="-34.892832">
    <ele>16.9</ele>
    <time>2019-12-23T22:50:33.000Z</time>
   </trkpt>
   <trkpt lat="-8.042537" lon="-34.892776">
    <ele>16.9</ele>
    <time>2019-12-23T22:50:34.000Z</time>
   </trkpt>
   <trkpt lat="-8.04249" lon="-34.89273">
    <ele>16.9</ele>
    <time>2019-12-23T22:50:35.000Z</time>
   </trkpt>
   <trkpt lat="-8.042439" lon="-34.892671">
    <ele>16.9</ele>
    <time>2019-12-23T22:50:36.000Z</time>
   </trkpt>
   <trkpt lat="-8.04238" lon="-34.892652">
    <ele>16.9</ele>
    <time>2019-12-23T22:50:37.000Z</time>
   </trkpt>
   <trkpt lat="-8.042333" lon="-34.892626">
    <ele>16.9</ele>
    <time>2019-12-23T22:50:38.000Z</time>
   </trkpt>
   <trkpt lat="-8.042307" lon="-34.892582">
    <ele>16.9</ele>
    <time>2019-12-23T22:50:39.000Z</time>
   </trkpt>
   <trkpt lat="-8.042281" lon="-34.892554">
    <ele>17</ele>
    <time>2019-12-23T22:50:40.000Z</time>
   </trkpt>
   <trkpt lat="-8.042264" lon="-34.892505">
    <ele>16.9</ele>
    <time>2019-12-23T22:50:41.000Z</time>
   </trkpt>
   <trkpt lat="-8.04226" lon="-34.892451">
    <ele>16.8</ele>
    <time>2019-12-23T22:50:42.000Z</time>
   </trkpt>
   <trkpt lat="-8.042208" lon="-34.892397">
    <ele>16.6</ele>
    <time>2019-12-23T22:50:43.000Z</time>
   </trkpt>
   <trkpt lat="-8.042163" lon="-34.892358">
    <ele>16.5</ele>
    <time>2019-12-23T22:50:44.000Z</time>
   </trkpt>
   <trkpt lat="-8.042115" lon="-34.892314">
    <ele>16.4</ele>
    <time>2019-12-23T22:50:45.000Z</time>
   </trkpt>
   <trkpt lat="-8.042088" lon="-34.892281">
    <ele>16.3</ele>
    <time>2019-12-23T22:50:46.000Z</time>
   </trkpt>
   <trkpt lat="-8.042059" lon="-34.892243">
    <ele>16.2</ele>
    <time>2019-12-23T22:50:47.000Z</time>
   </trkpt>
   <trkpt lat="-8.042028" lon="-34.892236">
    <ele>16.1</ele>
    <time>2019-12-23T22:50:48.000Z</time>
   </trkpt>
   <trkpt lat="-8.042013" lon="-34.892216">
    <ele>16.1</ele>
    <time>2019-12-23T22:50:49.000Z</time>
   </trkpt>
   <trkpt lat="-8.041954" lon="-34.89216">
    <ele>16</ele>
    <time>2019-12-23T22:50:51.000Z</time>
   </trkpt>
   <trkpt lat="-8.041919" lon="-34.892114">
    <ele>15.9</ele>
    <time>2019-12-23T22:50:52.000Z</time>
   </trkpt>
   <trkpt lat="-8.041883" lon="-34.892077">
    <ele>15.9</ele>
    <time>2019-12-23T22:50:53.000Z</time>
   </trkpt>
   <trkpt lat="-8.041845" lon="-34.89203">
    <ele>15.8</ele>
    <time>2019-12-23T22:50:54.000Z</time>
   </trkpt>
   <trkpt lat="-8.041797" lon="-34.891976">
    <ele>15.7</ele>
    <time>2019-12-23T22:50:55.000Z</time>
   </trkpt>
   <trkpt lat="-8.041759" lon="-34.891944">
    <ele>15.6</ele>
    <time>2019-12-23T22:50:56.000Z</time>
   </trkpt>
   <trkpt lat="-8.041721" lon="-34.891906">
    <ele>15.5</ele>
    <time>2019-12-23T22:50:57.000Z</time>
   </trkpt>
   <trkpt lat="-8.041679" lon="-34.891873">
    <ele>15.3</ele>
    <time>2019-12-23T22:50:58.000Z</time>
   </trkpt>
   <trkpt lat="-8.041645" lon="-34.891843">
    <ele>15.2</ele>
    <time>2019-12-23T22:50:59.000Z</time>
   </trkpt>
   <trkpt lat="-8.041609" lon="-34.891808">
    <ele>15.1</ele>
    <time>2019-12-23T22:51:00.000Z</time>
   </trkpt>
   <trkpt lat="-8.041572" lon="-34.891777">
    <ele>15</ele>
    <time>2019-12-23T22:51:01.000Z</time>
   </trkpt>
   <trkpt lat="-8.041529" lon="-34.891733">
    <ele>14.9</ele>
    <time>2019-12-23T22:51:02.000Z</time>
   </trkpt>
   <trkpt lat="-8.04149" lon="-34.89169">
    <ele>14.8</ele>
    <time>2019-12-23T22:51:03.000Z</time>
   </trkpt>
   <trkpt lat="-8.041455" lon="-34.891644">
    <ele>14.6</ele>
    <time>2019-12-23T22:51:04.000Z</time>
   </trkpt>
   <trkpt lat="-8.041424" lon="-34.891603">
    <ele>14.5</ele>
    <time>2019-12-23T22:51:05.000Z</time>
   </trkpt>
   <trkpt lat="-8.041406" lon="-34.891547">
    <ele>14.3</ele>
    <time>2019-12-23T22:51:06.000Z</time>
   </trkpt>
   <trkpt lat="-8.041384" lon="-34.891507">
    <ele>14.2</ele>
    <time>2019-12-23T22:51:07.000Z</time>
   </trkpt>
   <trkpt lat="-8.041362" lon="-34.891483">
    <ele>14.1</ele>
    <time>2019-12-23T22:51:08.000Z</time>
   </trkpt>
   <trkpt lat="-8.041306" lon="-34.891462">
    <ele>13.9</ele>
    <time>2019-12-23T22:51:09.000Z</time>
   </trkpt>
   <trkpt lat="-8.041255" lon="-34.891456">
    <ele>13.7</ele>
    <time>2019-12-23T22:51:10.000Z</time>
   </trkpt>
   <trkpt lat="-8.041204" lon="-34.891454">
    <ele>13.5</ele>
    <time>2019-12-23T22:51:11.000Z</time>
   </trkpt>
   <trkpt lat="-8.04116" lon="-34.891471">
    <ele>13.4</ele>
    <time>2019-12-23T22:51:12.000Z</time>
   </trkpt>
   <trkpt lat="-8.041115" lon="-34.891514">
    <ele>13.3</ele>
    <time>2019-12-23T22:51:13.000Z</time>
   </trkpt>
   <trkpt lat="-8.041058" lon="-34.891543">
    <ele>13.2</ele>
    <time>2019-12-23T22:51:14.000Z</time>
   </trkpt>
   <trkpt lat="-8.04099" lon="-34.891566">
    <ele>13.1</ele>
    <time>2019-12-23T22:51:15.000Z</time>
   </trkpt>
   <trkpt lat="-8.040924" lon="-34.891601">
    <ele>13</ele>
    <time>2019-12-23T22:51:16.000Z</time>
   </trkpt>
   <trkpt lat="-8.040886" lon="-34.89162">
    <ele>13</ele>
    <time>2019-12-23T22:51:17.000Z</time>
   </trkpt>
   <trkpt lat="-8.040844" lon="-34.891633">
    <ele>13</ele>
    <time>2019-12-23T22:51:18.000Z</time>
   </trkpt>
   <trkpt lat="-8.040803" lon="-34.891652">
    <ele>13</ele>
    <time>2019-12-23T22:51:19.000Z</time>
   </trkpt>
   <trkpt lat="-8.040771" lon="-34.891664">
    <ele>13</ele>
    <time>2019-12-23T22:51:20.000Z</time>
   </trkpt>
   <trkpt lat="-8.040723" lon="-34.891685">
    <ele>13</ele>
    <time>2019-12-23T22:51:21.000Z</time>
   </trkpt>
   <trkpt lat="-8.040691" lon="-34.891709">
    <ele>13</ele>
    <time>2019-12-23T22:51:22.000Z</time>
   </trkpt>
   <trkpt lat="-8.040645" lon="-34.891719">
    <ele>13</ele>
    <time>2019-12-23T22:51:23.000Z</time>
   </trkpt>
   <trkpt lat="-8.040613" lon="-34.891722">
    <ele>13</ele>
    <time>2019-12-23T22:51:24.000Z</time>
   </trkpt>
   <trkpt lat="-8.04058" lon="-34.891722">
    <ele>13</ele>
    <time>2019-12-23T22:51:25.000Z</time>
   </trkpt>
   <trkpt lat="-8.04053" lon="-34.891718">
    <ele>13</ele>
    <time>2019-12-23T22:51:26.000Z</time>
   </trkpt>
   <trkpt lat="-8.040505" lon="-34.891693">
    <ele>12.8</ele>
    <time>2019-12-23T22:51:27.000Z</time>
   </trkpt>
   <trkpt lat="-8.040478" lon="-34.891659">
    <ele>12.6</ele>
    <time>2019-12-23T22:51:28.000Z</time>
   </trkpt>
   <trkpt lat="-8.040444" lon="-34.891615">
    <ele>12.4</ele>
    <time>2019-12-23T22:51:29.000Z</time>
   </trkpt>
   <trkpt lat="-8.040412" lon="-34.891586">
    <ele>12.3</ele>
    <time>2019-12-23T22:51:30.000Z</time>
   </trkpt>
   <trkpt lat="-8.040375" lon="-34.891544">
    <ele>12.1</ele>
    <time>2019-12-23T22:51:31.000Z</time>
   </trkpt>
   <trkpt lat="-8.040332" lon="-34.891497">
    <ele>11.9</ele>
    <time>2019-12-23T22:51:32.000Z</time>
   </trkpt>
   <trkpt lat="-8.040305" lon="-34.891462">
    <ele>11.8</ele>
    <time>2019-12-23T22:51:33.000Z</time>
   </trkpt>
   <trkpt lat="-8.040269" lon="-34.891416">
    <ele>11.6</ele>
    <time>2019-12-23T22:51:34.000Z</time>
   </trkpt>
   <trkpt lat="-8.040226" lon="-34.891374">
    <ele>11.4</ele>
    <time>2019-12-23T22:51:35.000Z</time>
   </trkpt>
   <trkpt lat="-8.040185" lon="-34.891329">
    <ele>11.2</ele>
    <time>2019-12-23T22:51:36.000Z</time>
   </trkpt>
   <trkpt lat="-8.040135" lon="-34.891282">
    <ele>11</ele>
    <time>2019-12-23T22:51:37.000Z</time>
   </trkpt>
   <trkpt lat="-8.040105" lon="-34.891233">
    <ele>10.8</ele>
    <time>2019-12-23T22:51:38.000Z</time>
   </trkpt>
   <trkpt lat="-8.040083" lon="-34.891203">
    <ele>10.7</ele>
    <time>2019-12-23T22:51:39.000Z</time>
   </trkpt>
   <trkpt lat="-8.04005" lon="-34.891161">
    <ele>10.6</ele>
    <time>2019-12-23T22:51:40.000Z</time>
   </trkpt>
   <trkpt lat="-8.040011" lon="-34.891111">
    <ele>10.5</ele>
    <time>2019-12-23T22:51:41.000Z</time>
   </trkpt>
   <trkpt lat="-8.039979" lon="-34.891052">
    <ele>11.2</ele>
    <time>2019-12-23T22:51:42.000Z</time>
   </trkpt>
   <trkpt lat="-8.039944" lon="-34.891003">
    <ele>11.7</ele>
    <time>2019-12-23T22:51:43.000Z</time>
   </trkpt>
   <trkpt lat="-8.039906" lon="-34.890954">
    <ele>12.1</ele>
    <time>2019-12-23T22:51:44.000Z</time>
   </trkpt>
   <trkpt lat="-8.03988" lon="-34.890917">
    <ele>12.3</ele>
    <time>2019-12-23T22:51:45.000Z</time>
   </trkpt>
   <trkpt lat="-8.03985" lon="-34.890876">
    <ele>12.5</ele>
    <time>2019-12-23T22:51:46.000Z</time>
   </trkpt>
   <trkpt lat="-8.039812" lon="-34.890835">
    <ele>12.8</ele>
    <time>2019-12-23T22:51:47.000Z</time>
   </trkpt>
   <trkpt lat="-8.039783" lon="-34.890783">
    <ele>13</ele>
    <time>2019-12-23T22:51:48.000Z</time>
   </trkpt>
   <trkpt lat="-8.039736" lon="-34.89076">
    <ele>12.9</ele>
    <time>2019-12-23T22:51:49.000Z</time>
   </trkpt>
   <trkpt lat="-8.039707" lon="-34.890726">
    <ele>12.6</ele>
    <time>2019-12-23T22:51:50.000Z</time>
   </trkpt>
   <trkpt lat="-8.039673" lon="-34.890697">
    <ele>12.4</ele>
    <time>2019-12-23T22:51:51.000Z</time>
   </trkpt>
   <trkpt lat="-8.039636" lon="-34.890672">
    <ele>12.2</ele>
    <time>2019-12-23T22:51:52.000Z</time>
   </trkpt>
   <trkpt lat="-8.039599" lon="-34.890644">
    <ele>12.1</ele>
    <time>2019-12-23T22:51:53.000Z</time>
   </trkpt>
   <trkpt lat="-8.03956" lon="-34.890617">
    <ele>11.8</ele>
    <time>2019-12-23T22:51:54.000Z</time>
   </trkpt>
   <trkpt lat="-8.039514" lon="-34.890587">
    <ele>11.6</ele>
    <time>2019-12-23T22:51:55.000Z</time>
   </trkpt>
   <trkpt lat="-8.039468" lon="-34.890555">
    <ele>11.4</ele>
    <time>2019-12-23T22:51:56.000Z</time>
   </trkpt>
   <trkpt lat="-8.039421" lon="-34.890527">
    <ele>11.1</ele>
    <time>2019-12-23T22:51:57.000Z</time>
   </trkpt>
   <trkpt lat="-8.039381" lon="-34.8905">
    <ele>11</ele>
    <time>2019-12-23T22:51:58.000Z</time>
   </trkpt>
   <trkpt lat="-8.039341" lon="-34.890467">
    <ele>11</ele>
    <time>2019-12-23T22:51:59.000Z</time>
   </trkpt>
   <trkpt lat="-8.039303" lon="-34.890448">
    <ele>10.9</ele>
    <time>2019-12-23T22:52:00.000Z</time>
   </trkpt>
   <trkpt lat="-8.039273" lon="-34.89043">
    <ele>10.9</ele>
    <time>2019-12-23T22:52:01.000Z</time>
   </trkpt>
   <trkpt lat="-8.03925" lon="-34.890423">
    <ele>10.8</ele>
    <time>2019-12-23T22:52:02.000Z</time>
   </trkpt>
   <trkpt lat="-8.03921" lon="-34.890422">
    <ele>10.8</ele>
    <time>2019-12-23T22:52:04.000Z</time>
   </trkpt>
   <trkpt lat="-8.039186" lon="-34.890419">
    <ele>10.7</ele>
    <time>2019-12-23T22:52:06.000Z</time>
   </trkpt>
   <trkpt lat="-8.039182" lon="-34.890424">
    <ele>10.7</ele>
    <time>2019-12-23T22:52:09.000Z</time>
   </trkpt>
   <trkpt lat="-8.039202" lon="-34.890402">
    <ele>10.7</ele>
    <time>2019-12-23T22:52:12.000Z</time>
   </trkpt>
   <trkpt lat="-8.039179" lon="-34.890407">
    <ele>10.7</ele>
    <time>2019-12-23T22:52:16.000Z</time>
   </trkpt>
   <trkpt lat="-8.039164" lon="-34.890366">
    <ele>10.6</ele>
    <time>2019-12-23T22:52:18.000Z</time>
   </trkpt>
   <trkpt lat="-8.039146" lon="-34.89038">
    <ele>10.6</ele>
    <time>2019-12-23T22:52:20.000Z</time>
   </trkpt>
   <trkpt lat="-8.03912" lon="-34.890361">
    <ele>10.5</ele>
    <time>2019-12-23T22:52:23.000Z</time>
   </trkpt>
   <trkpt lat="-8.03908" lon="-34.89035">
    <ele>10</ele>
    <time>2019-12-23T22:52:26.000Z</time>
   </trkpt>
   <trkpt lat="-8.039041" lon="-34.89034">
    <ele>9.8</ele>
    <time>2019-12-23T22:52:28.000Z</time>
   </trkpt>
   <trkpt lat="-8.039001" lon="-34.890329">
    <ele>9.5</ele>
    <time>2019-12-23T22:52:46.000Z</time>
   </trkpt>
   <trkpt lat="-8.038961" lon="-34.890318">
    <ele>8.9</ele>
    <time>2019-12-23T22:52:47.000Z</time>
   </trkpt>
   <trkpt lat="-8.038913" lon="-34.890293">
    <ele>8.7</ele>
    <time>2019-12-23T22:52:48.000Z</time>
   </trkpt>
   <trkpt lat="-8.038851" lon="-34.890268">
    <ele>8.6</ele>
    <time>2019-12-23T22:52:49.000Z</time>
   </trkpt>
   <trkpt lat="-8.038791" lon="-34.89025">
    <ele>8.8</ele>
    <time>2019-12-23T22:52:50.000Z</time>
   </trkpt>
   <trkpt lat="-8.038729" lon="-34.890213">
    <ele>8.8</ele>
    <time>2019-12-23T22:52:51.000Z</time>
   </trkpt>
   <trkpt lat="-8.038664" lon="-34.890191">
    <ele>9</ele>
    <time>2019-12-23T22:52:52.000Z</time>
   </trkpt>
   <trkpt lat="-8.038607" lon="-34.890172">
    <ele>9.4</ele>
    <time>2019-12-23T22:52:53.000Z</time>
   </trkpt>
   <trkpt lat="-8.038547" lon="-34.89015">
    <ele>10.1</ele>
    <time>2019-12-23T22:52:54.000Z</time>
   </trkpt>
   <trkpt lat="-8.038489" lon="-34.890127">
    <ele>10.9</ele>
    <time>2019-12-23T22:52:55.000Z</time>
   </trkpt>
   <trkpt lat="-8.038442" lon="-34.890104">
    <ele>11.3</ele>
    <time>2019-12-23T22:52:56.000Z</time>
   </trkpt>
   <trkpt lat="-8.038383" lon="-34.890079">
    <ele>11.7</ele>
    <time>2019-12-23T22:52:57.000Z</time>
   </trkpt>
   <trkpt lat="-8.038338" lon="-34.890058">
    <ele>11.7</ele>
    <time>2019-12-23T22:52:58.000Z</time>
   </trkpt>
   <trkpt lat="-8.038285" lon="-34.89004">
    <ele>11.7</ele>
    <time>2019-12-23T22:52:59.000Z</time>
   </trkpt>
   <trkpt lat="-8.038239" lon="-34.890021">
    <ele>11.7</ele>
    <time>2019-12-23T22:53:00.000Z</time>
   </trkpt>
   <trkpt lat="-8.038189" lon="-34.890002">
    <ele>12</ele>
    <time>2019-12-23T22:53:01.000Z</time>
   </trkpt>
   <trkpt lat="-8.038144" lon="-34.889974">
    <ele>12.2</ele>
    <time>2019-12-23T22:53:02.000Z</time>
   </trkpt>
   <trkpt lat="-8.038094" lon="-34.889955">
    <ele>12.5</ele>
    <time>2019-12-23T22:53:03.000Z</time>
   </trkpt>
   <trkpt lat="-8.038036" lon="-34.889934">
    <ele>12.6</ele>
    <time>2019-12-23T22:53:04.000Z</time>
   </trkpt>
   <trkpt lat="-8.037967" lon="-34.88991">
    <ele>12.5</ele>
    <time>2019-12-23T22:53:05.000Z</time>
   </trkpt>
   <trkpt lat="-8.037912" lon="-34.889883">
    <ele>12.4</ele>
    <time>2019-12-23T22:53:06.000Z</time>
   </trkpt>
   <trkpt lat="-8.037849" lon="-34.889858">
    <ele>12.2</ele>
    <time>2019-12-23T22:53:07.000Z</time>
   </trkpt>
   <trkpt lat="-8.03779" lon="-34.889832">
    <ele>12.1</ele>
    <time>2019-12-23T22:53:08.000Z</time>
   </trkpt>
   <trkpt lat="-8.037745" lon="-34.889835">
    <ele>12.1</ele>
    <time>2019-12-23T22:53:09.000Z</time>
   </trkpt>
   <trkpt lat="-8.037721" lon="-34.889861">
    <ele>12</ele>
    <time>2019-12-23T22:53:10.000Z</time>
   </trkpt>
   <trkpt lat="-8.037701" lon="-34.889911">
    <ele>11.9</ele>
    <time>2019-12-23T22:53:11.000Z</time>
   </trkpt>
   <trkpt lat="-8.037667" lon="-34.88996">
    <ele>11.7</ele>
    <time>2019-12-23T22:53:12.000Z</time>
   </trkpt>
   <trkpt lat="-8.03764" lon="-34.890012">
    <ele>11.6</ele>
    <time>2019-12-23T22:53:13.000Z</time>
   </trkpt>
   <trkpt lat="-8.03761" lon="-34.890062">
    <ele>11.4</ele>
    <time>2019-12-23T22:53:14.000Z</time>
   </trkpt>
   <trkpt lat="-8.037561" lon="-34.890107">
    <ele>11.2</ele>
    <time>2019-12-23T22:53:15.000Z</time>
   </trkpt>
   <trkpt lat="-8.037535" lon="-34.890159">
    <ele>11</ele>
    <time>2019-12-23T22:53:16.000Z</time>
   </trkpt>
   <trkpt lat="-8.037506" lon="-34.89021">
    <ele>11.3</ele>
    <time>2019-12-23T22:53:17.000Z</time>
   </trkpt>
   <trkpt lat="-8.03748" lon="-34.890253">
    <ele>11.4</ele>
    <time>2019-12-23T22:53:18.000Z</time>
   </trkpt>
   <trkpt lat="-8.037462" lon="-34.890301">
    <ele>11.5</ele>
    <time>2019-12-23T22:53:19.000Z</time>
   </trkpt>
   <trkpt lat="-8.037431" lon="-34.890342">
    <ele>11.6</ele>
    <time>2019-12-23T22:53:20.000Z</time>
   </trkpt>
   <trkpt lat="-8.037406" lon="-34.890385">
    <ele>11.8</ele>
    <time>2019-12-23T22:53:21.000Z</time>
   </trkpt>
   <trkpt lat="-8.037386" lon="-34.890434">
    <ele>11.9</ele>
    <time>2019-12-23T22:53:22.000Z</time>
   </trkpt>
   <trkpt lat="-8.037347" lon="-34.890491">
    <ele>12</ele>
    <time>2019-12-23T22:53:23.000Z</time>
   </trkpt>
   <trkpt lat="-8.037313" lon="-34.890533">
    <ele>12.2</ele>
    <time>2019-12-23T22:53:24.000Z</time>
   </trkpt>
   <trkpt lat="-8.037273" lon="-34.890582">
    <ele>11.6</ele>
    <time>2019-12-23T22:53:25.000Z</time>
   </trkpt>
   <trkpt lat="-8.037247" lon="-34.890634">
    <ele>11.3</ele>
    <time>2019-12-23T22:53:26.000Z</time>
   </trkpt>
   <trkpt lat="-8.037217" lon="-34.890678">
    <ele>11</ele>
    <time>2019-12-23T22:53:27.000Z</time>
   </trkpt>
   <trkpt lat="-8.037189" lon="-34.890722">
    <ele>10.7</ele>
    <time>2019-12-23T22:53:28.000Z</time>
   </trkpt>
   <trkpt lat="-8.037164" lon="-34.89076">
    <ele>10.5</ele>
    <time>2019-12-23T22:53:29.000Z</time>
   </trkpt>
   <trkpt lat="-8.037162" lon="-34.890807">
    <ele>10.2</ele>
    <time>2019-12-23T22:53:30.000Z</time>
   </trkpt>
   <trkpt lat="-8.037154" lon="-34.89085">
    <ele>9.2</ele>
    <time>2019-12-23T22:53:31.000Z</time>
   </trkpt>
   <trkpt lat="-8.037142" lon="-34.890883">
    <ele>8.6</ele>
    <time>2019-12-23T22:53:32.000Z</time>
   </trkpt>
   <trkpt lat="-8.037123" lon="-34.890915">
    <ele>8</ele>
    <time>2019-12-23T22:53:33.000Z</time>
   </trkpt>
   <trkpt lat="-8.037102" lon="-34.890949">
    <ele>7</ele>
    <time>2019-12-23T22:53:34.000Z</time>
   </trkpt>
   <trkpt lat="-8.037075" lon="-34.890986">
    <ele>6.9</ele>
    <time>2019-12-23T22:53:35.000Z</time>
   </trkpt>
   <trkpt lat="-8.037059" lon="-34.891011">
    <ele>6.9</ele>
    <time>2019-12-23T22:53:36.000Z</time>
   </trkpt>
   <trkpt lat="-8.037053" lon="-34.891038">
    <ele>6.8</ele>
    <time>2019-12-23T22:53:37.000Z</time>
   </trkpt>
   <trkpt lat="-8.037058" lon="-34.891044">
    <ele>6.8</ele>
    <time>2019-12-23T22:53:38.000Z</time>
   </trkpt>
   <trkpt lat="-8.037065" lon="-34.891105">
    <ele>7.5</ele>
    <time>2019-12-23T22:53:44.000Z</time>
   </trkpt>
   <trkpt lat="-8.037082" lon="-34.891129">
    <ele>7.4</ele>
    <time>2019-12-23T22:53:45.000Z</time>
   </trkpt>
   <trkpt lat="-8.037116" lon="-34.891143">
    <ele>7.3</ele>
    <time>2019-12-23T22:53:46.000Z</time>
   </trkpt>
   <trkpt lat="-8.037148" lon="-34.891169">
    <ele>7.2</ele>
    <time>2019-12-23T22:53:47.000Z</time>
   </trkpt>
   <trkpt lat="-8.037192" lon="-34.891191">
    <ele>7.1</ele>
    <time>2019-12-23T22:53:48.000Z</time>
   </trkpt>
   <trkpt lat="-8.037234" lon="-34.891217">
    <ele>7.9</ele>
    <time>2019-12-23T22:53:49.000Z</time>
   </trkpt>
   <trkpt lat="-8.037277" lon="-34.891239">
    <ele>8.5</ele>
    <time>2019-12-23T22:53:50.000Z</time>
   </trkpt>
   <trkpt lat="-8.037319" lon="-34.891266">
    <ele>9</ele>
    <time>2019-12-23T22:53:51.000Z</time>
   </trkpt>
   <trkpt lat="-8.037357" lon="-34.891303">
    <ele>9.5</ele>
    <time>2019-12-23T22:53:52.000Z</time>
   </trkpt>
   <trkpt lat="-8.037396" lon="-34.891339">
    <ele>9.9</ele>
    <time>2019-12-23T22:53:53.000Z</time>
   </trkpt>
   <trkpt lat="-8.03744" lon="-34.891373">
    <ele>10.3</ele>
    <time>2019-12-23T22:53:54.000Z</time>
   </trkpt>
   <trkpt lat="-8.037485" lon="-34.891407">
    <ele>10.7</ele>
    <time>2019-12-23T22:53:55.000Z</time>
   </trkpt>
   <trkpt lat="-8.037528" lon="-34.891434">
    <ele>10.9</ele>
    <time>2019-12-23T22:53:56.000Z</time>
   </trkpt>
   <trkpt lat="-8.037574" lon="-34.891447">
    <ele>11.2</ele>
    <time>2019-12-23T22:53:57.000Z</time>
   </trkpt>
   <trkpt lat="-8.037616" lon="-34.891476">
    <ele>11.4</ele>
    <time>2019-12-23T22:53:58.000Z</time>
   </trkpt>
   <trkpt lat="-8.037653" lon="-34.891496">
    <ele>11.6</ele>
    <time>2019-12-23T22:53:59.000Z</time>
   </trkpt>
   <trkpt lat="-8.037685" lon="-34.891529">
    <ele>11.8</ele>
    <time>2019-12-23T22:54:00.000Z</time>
   </trkpt>
   <trkpt lat="-8.037723" lon="-34.891544">
    <ele>11.9</ele>
    <time>2019-12-23T22:54:01.000Z</time>
   </trkpt>
   <trkpt lat="-8.037754" lon="-34.891557">
    <ele>12</ele>
    <time>2019-12-23T22:54:02.000Z</time>
   </trkpt>
   <trkpt lat="-8.037774" lon="-34.891571">
    <ele>12.1</ele>
    <time>2019-12-23T22:54:03.000Z</time>
   </trkpt>
   <trkpt lat="-8.037776" lon="-34.891595">
    <ele>11.7</ele>
    <time>2019-12-23T22:54:05.000Z</time>
   </trkpt>
   <trkpt lat="-8.037731" lon="-34.891645">
    <ele>11.4</ele>
    <time>2019-12-23T22:54:07.000Z</time>
   </trkpt>
   <trkpt lat="-8.037716" lon="-34.891672">
    <ele>11.2</ele>
    <time>2019-12-23T22:54:08.000Z</time>
   </trkpt>
   <trkpt lat="-8.037696" lon="-34.891705">
    <ele>11</ele>
    <time>2019-12-23T22:54:09.000Z</time>
   </trkpt>
   <trkpt lat="-8.037667" lon="-34.891733">
    <ele>10.8</ele>
    <time>2019-12-23T22:54:10.000Z</time>
   </trkpt>
   <trkpt lat="-8.037635" lon="-34.891742">
    <ele>10.7</ele>
    <time>2019-12-23T22:54:11.000Z</time>
   </trkpt>
   <trkpt lat="-8.037614" lon="-34.891775">
    <ele>10.5</ele>
    <time>2019-12-23T22:54:12.000Z</time>
   </trkpt>
   <trkpt lat="-8.037579" lon="-34.891804">
    <ele>10.3</ele>
    <time>2019-12-23T22:54:13.000Z</time>
   </trkpt>
   <trkpt lat="-8.037545" lon="-34.89184">
    <ele>10</ele>
    <time>2019-12-23T22:54:14.000Z</time>
   </trkpt>
   <trkpt lat="-8.037514" lon="-34.891875">
    <ele>9.8</ele>
    <time>2019-12-23T22:54:15.000Z</time>
   </trkpt>
   <trkpt lat="-8.037477" lon="-34.891906">
    <ele>9.6</ele>
    <time>2019-12-23T22:54:16.000Z</time>
   </trkpt>
   <trkpt lat="-8.037441" lon="-34.891928">
    <ele>9.4</ele>
    <time>2019-12-23T22:54:17.000Z</time>
   </trkpt>
   <trkpt lat="-8.037414" lon="-34.89196">
    <ele>9.2</ele>
    <time>2019-12-23T22:54:18.000Z</time>
   </trkpt>
   <trkpt lat="-8.03739" lon="-34.891996">
    <ele>9</ele>
    <time>2019-12-23T22:54:19.000Z</time>
   </trkpt>
   <trkpt lat="-8.037364" lon="-34.892027">
    <ele>8.8</ele>
    <time>2019-12-23T22:54:20.000Z</time>
   </trkpt>
   <trkpt lat="-8.037372" lon="-34.892095">
    <ele>8.5</ele>
    <time>2019-12-23T22:54:21.000Z</time>
   </trkpt>
   <trkpt lat="-8.037379" lon="-34.892159">
    <ele>8.6</ele>
    <time>2019-12-23T22:54:22.000Z</time>
   </trkpt>
   <trkpt lat="-8.037383" lon="-34.892233">
    <ele>8.7</ele>
    <time>2019-12-23T22:54:23.000Z</time>
   </trkpt>
   <trkpt lat="-8.037384" lon="-34.892302">
    <ele>8.9</ele>
    <time>2019-12-23T22:54:24.000Z</time>
   </trkpt>
   <trkpt lat="-8.037386" lon="-34.892363">
    <ele>9</ele>
    <time>2019-12-23T22:54:25.000Z</time>
   </trkpt>
   <trkpt lat="-8.03739" lon="-34.892428">
    <ele>9.1</ele>
    <time>2019-12-23T22:54:26.000Z</time>
   </trkpt>
   <trkpt lat="-8.037399" lon="-34.892489">
    <ele>9.2</ele>
    <time>2019-12-23T22:54:27.000Z</time>
   </trkpt>
   <trkpt lat="-8.037395" lon="-34.892542">
    <ele>9.3</ele>
    <time>2019-12-23T22:54:28.000Z</time>
   </trkpt>
   <trkpt lat="-8.037391" lon="-34.892603">
    <ele>9.5</ele>
    <time>2019-12-23T22:54:29.000Z</time>
   </trkpt>
   <trkpt lat="-8.037389" lon="-34.892664">
    <ele>9.6</ele>
    <time>2019-12-23T22:54:30.000Z</time>
   </trkpt>
   <trkpt lat="-8.037386" lon="-34.892713">
    <ele>9.6</ele>
    <time>2019-12-23T22:54:31.000Z</time>
   </trkpt>
   <trkpt lat="-8.037362" lon="-34.892763">
    <ele>9.7</ele>
    <time>2019-12-23T22:54:32.000Z</time>
   </trkpt>
   <trkpt lat="-8.037343" lon="-34.892806">
    <ele>9.8</ele>
    <time>2019-12-23T22:54:33.000Z</time>
   </trkpt>
   <trkpt lat="-8.037319" lon="-34.89285">
    <ele>9.7</ele>
    <time>2019-12-23T22:54:34.000Z</time>
   </trkpt>
   <trkpt lat="-8.037287" lon="-34.892845">
    <ele>9.6</ele>
    <time>2019-12-23T22:54:35.000Z</time>
   </trkpt>
   <trkpt lat="-8.037247" lon="-34.892843">
    <ele>9.5</ele>
    <time>2019-12-23T22:54:36.000Z</time>
   </trkpt>
   <trkpt lat="-8.037211" lon="-34.892836">
    <ele>9.3</ele>
    <time>2019-12-23T22:54:37.000Z</time>
   </trkpt>
   <trkpt lat="-8.037177" lon="-34.892818">
    <ele>9.1</ele>
    <time>2019-12-23T22:54:38.000Z</time>
   </trkpt>
   <trkpt lat="-8.037145" lon="-34.892808">
    <ele>9</ele>
    <time>2019-12-23T22:54:39.000Z</time>
   </trkpt>
   <trkpt lat="-8.037118" lon="-34.892799">
    <ele>8.9</ele>
    <time>2019-12-23T22:54:40.000Z</time>
   </trkpt>
   <trkpt lat="-8.037087" lon="-34.892781">
    <ele>8.8</ele>
    <time>2019-12-23T22:54:41.000Z</time>
   </trkpt>
   <trkpt lat="-8.037057" lon="-34.892771">
    <ele>8.6</ele>
    <time>2019-12-23T22:54:42.000Z</time>
   </trkpt>
   <trkpt lat="-8.037035" lon="-34.892769">
    <ele>8.6</ele>
    <time>2019-12-23T22:54:43.000Z</time>
   </trkpt>
   <trkpt lat="-8.036991" lon="-34.892766">
    <ele>8.4</ele>
    <time>2019-12-23T22:54:45.000Z</time>
   </trkpt>
   <trkpt lat="-8.036973" lon="-34.892754">
    <ele>8.3</ele>
    <time>2019-12-23T22:54:47.000Z</time>
   </trkpt>
   <trkpt lat="-8.036963" lon="-34.892734">
    <ele>8.2</ele>
    <time>2019-12-23T22:54:51.000Z</time>
   </trkpt>
   <trkpt lat="-8.036991" lon="-34.892732">
    <ele>8.1</ele>
    <time>2019-12-23T22:54:56.000Z</time>
   </trkpt>
   <trkpt lat="-8.036886" lon="-34.892711">
    <ele>7.8</ele>
    <time>2019-12-23T22:55:12.000Z</time>
   </trkpt>
   <trkpt lat="-8.036867" lon="-34.892714">
    <ele>7.7</ele>
    <time>2019-12-23T22:55:13.000Z</time>
   </trkpt>
   <trkpt lat="-8.036847" lon="-34.892739">
    <ele>7.6</ele>
    <time>2019-12-23T22:55:15.000Z</time>
   </trkpt>
   <trkpt lat="-8.036841" lon="-34.892773">
    <ele>7.6</ele>
    <time>2019-12-23T22:55:17.000Z</time>
   </trkpt>
   <trkpt lat="-8.036834" lon="-34.892818">
    <ele>7.4</ele>
    <time>2019-12-23T22:55:19.000Z</time>
   </trkpt>
   <trkpt lat="-8.036828" lon="-34.89287">
    <ele>7.2</ele>
    <time>2019-12-23T22:55:21.000Z</time>
   </trkpt>
   <trkpt lat="-8.036821" lon="-34.892915">
    <ele>6.9</ele>
    <time>2019-12-23T22:55:23.000Z</time>
   </trkpt>
   <trkpt lat="-8.036725" lon="-34.892894">
    <ele>6.4</ele>
    <time>2019-12-23T22:55:25.000Z</time>
   </trkpt>
   <trkpt lat="-8.036548" lon="-34.893349">
    <ele>5.8</ele>
    <time>2019-12-23T22:56:02.000Z</time>
   </trkpt>
   <trkpt lat="-8.036694" lon="-34.893305">
    <ele>5.8</ele>
    <time>2019-12-23T22:56:05.000Z</time>
   </trkpt>
   <trkpt lat="-8.036728" lon="-34.893291">
    <ele>5.8</ele>
    <time>2019-12-23T22:56:06.000Z</time>
   </trkpt>
   <trkpt lat="-8.03674" lon="-34.893263">
    <ele>5.8</ele>
    <time>2019-12-23T22:56:07.000Z</time>
   </trkpt>
   <trkpt lat="-8.036765" lon="-34.89323">
    <ele>5.8</ele>
    <time>2019-12-23T22:56:08.000Z</time>
   </trkpt>
   <trkpt lat="-8.036784" lon="-34.893215">
    <ele>5.8</ele>
    <time>2019-12-23T22:56:09.000Z</time>
   </trkpt>
   <trkpt lat="-8.036807" lon="-34.893173">
    <ele>5.9</ele>
    <time>2019-12-23T22:56:11.000Z</time>
   </trkpt>
  </trkseg>
 </trk>
</gpx>
