<?xml version="1.0" encoding="UTF-8"?>
<gpx creator="StravaGPX" version="1.1" xmlns="http://www.topografix.com/GPX/1/1">
 <metadata>
  <time>2024-08-14T15:32:21Z</time>
 </metadata>
 <trk>
  <name>Afternoon Ride</name>
  <type>1</type>
  <trkseg>
   <trkpt lat="52.474959" lon="13.47741">
    <ele>39.4</ele>
    <time>2024-08-14T15:32:21.000Z</time>
   </trkpt>
   <trkpt lat="52.475012" lon="13.477377">
    <ele>39</ele>
    <time>2024-08-14T15:32:22.000Z</time>
   </trkpt>
   <trkpt lat="52.475294" lon="13.477132">
    <ele>39.8</ele>
    <time>2024-08-14T15:32:26.000Z</time>
   </trkpt>
   <trkpt lat="52.475371" lon="13.476981">
    <ele>39.6</ele>
    <time>2024-08-14T15:32:28.000Z</time>
   </trkpt>
   <trkpt lat="52.475444" lon="13.476852">
    <ele>39.8</ele>
    <time>2024-08-14T15:32:30.000Z</time>
   </trkpt>
   <trkpt lat="52.475563" lon="13.476611">
    <ele>39.8</ele>
    <time>2024-08-14T15:32:34.000Z</time>
   </trkpt>
   <trkpt lat="52.475615" lon="13.476541">
    <ele>39.8</ele>
    <time>2024-08-14T15:32:35.000Z</time>
   </trkpt>
   <trkpt lat="52.475835" lon="13.476204">
    <ele>39.6</ele>
    <time>2024-08-14T15:32:41.000Z</time>
   </trkpt>
   <trkpt lat="52.475934" lon="13.476052">
    <ele>39.6</ele>
    <time>2024-08-14T15:32:45.000Z</time>
   </trkpt>
   <trkpt lat="52.475947" lon="13.475999">
    <ele>39.6</ele>
    <time>2024-08-14T15:32:46.000Z</time>
   </trkpt>
   <trkpt lat="52.475977" lon="13.47572">
    <ele>39.6</ele>
    <time>2024-08-14T15:32:51.000Z</time>
   </trkpt>
   <trkpt lat="52.475988" lon="13.475698">
    <ele>39.6</ele>
    <time>2024-08-14T15:32:52.000Z</time>
   </trkpt>
   <trkpt lat="52.475996" lon="13.475695">
    <ele>39.6</ele>
    <time>2024-08-14T15:32:53.000Z</time>
   </trkpt>
   <trkpt lat="52.476075" lon="13.475771">
    <ele>39.6</ele>
    <time>2024-08-14T15:32:56.000Z</time>
   </trkpt>
   <trkpt lat="52.476129" lon="13.475935">
    <ele>39.8</ele>
    <time>2024-08-14T15:33:00.000Z</time>
   </trkpt>
   <trkpt lat="52.47617" lon="13.476024">
    <ele>39.8</ele>
    <time>2024-08-14T15:33:02.000Z</time>
   </trkpt>
   <trkpt lat="52.47622" lon="13.476117">
    <ele>39.8</ele>
    <time>2024-08-14T15:33:04.000Z</time>
   </trkpt>
   <trkpt lat="52.476245" lon="13.476167">
    <ele>39.8</ele>
    <time>2024-08-14T15:33:05.000Z</time>
   </trkpt>
   <trkpt lat="52.476254" lon="13.476207">
    <ele>39.8</ele>
    <time>2024-08-14T15:33:06.000Z</time>
   </trkpt>
   <trkpt lat="52.476264" lon="13.476234">
    <ele>39.8</ele>
    <time>2024-08-14T15:33:07.000Z</time>
   </trkpt>
   <trkpt lat="52.476309" lon="13.476287">
    <ele>39.8</ele>
    <time>2024-08-14T15:33:09.000Z</time>
   </trkpt>
   <trkpt lat="52.476345" lon="13.476393">
    <ele>39.8</ele>
    <time>2024-08-14T15:33:11.000Z</time>
   </trkpt>
   <trkpt lat="52.476379" lon="13.47647">
    <ele>39.8</ele>
    <time>2024-08-14T15:33:12.000Z</time>
   </trkpt>
   <trkpt lat="52.4765" lon="13.476649">
    <ele>39.8</ele>
    <time>2024-08-14T15:33:15.000Z</time>
   </trkpt>
   <trkpt lat="52.476704" lon="13.477092">
    <ele>39.8</ele>
    <time>2024-08-14T15:33:22.000Z</time>
   </trkpt>
   <trkpt lat="52.476847" lon="13.477392">
    <ele>40</ele>
    <time>2024-08-14T15:33:27.000Z</time>
   </trkpt>
   <trkpt lat="52.47691" lon="13.477498">
    <ele>40</ele>
    <time>2024-08-14T15:33:29.000Z</time>
   </trkpt>
   <trkpt lat="52.477075" lon="13.477811">
    <ele>40.2</ele>
    <time>2024-08-14T15:33:35.000Z</time>
   </trkpt>
   <trkpt lat="52.477102" lon="13.477859">
    <ele>40.2</ele>
    <time>2024-08-14T15:33:36.000Z</time>
   </trkpt>
   <trkpt lat="52.477203" lon="13.478045">
    <ele>40.4</ele>
    <time>2024-08-14T15:33:40.000Z</time>
   </trkpt>
   <trkpt lat="52.477365" lon="13.478272">
    <ele>40.6</ele>
    <time>2024-08-14T15:33:45.000Z</time>
   </trkpt>
   <trkpt lat="52.477508" lon="13.478528">
    <ele>40.6</ele>
    <time>2024-08-14T15:33:51.000Z</time>
   </trkpt>
   <trkpt lat="52.477622" lon="13.47869">
    <ele>40.6</ele>
    <time>2024-08-14T15:33:54.000Z</time>
   </trkpt>
   <trkpt lat="52.477778" lon="13.478926">
    <ele>40.6</ele>
    <time>2024-08-14T15:33:59.000Z</time>
   </trkpt>
   <trkpt lat="52.477838" lon="13.479002">
    <ele>40.6</ele>
    <time>2024-08-14T15:34:01.000Z</time>
   </trkpt>
   <trkpt lat="52.477931" lon="13.479188">
    <ele>40.4</ele>
    <time>2024-08-14T15:34:05.000Z</time>
   </trkpt>
   <trkpt lat="52.477949" lon="13.479237">
    <ele>40.4</ele>
    <time>2024-08-14T15:34:06.000Z</time>
   </trkpt>
   <trkpt lat="52.478164" lon="13.479671">
    <ele>40.4</ele>
    <time>2024-08-14T15:34:14.000Z</time>
   </trkpt>
   <trkpt lat="52.478235" lon="13.479785">
    <ele>40.4</ele>
    <time>2024-08-14T15:34:16.000Z</time>
   </trkpt>
   <trkpt lat="52.478291" lon="13.479905">
    <ele>40.4</ele>
    <time>2024-08-14T15:34:18.000Z</time>
   </trkpt>
   <trkpt lat="52.478526" lon="13.480357">
    <ele>40.6</ele>
    <time>2024-08-14T15:34:25.000Z</time>
   </trkpt>
   <trkpt lat="52.478762" lon="13.480817">
    <ele>40.6</ele>
    <time>2024-08-14T15:34:32.000Z</time>
   </trkpt>
   <trkpt lat="52.479022" lon="13.481308">
    <ele>40.4</ele>
    <time>2024-08-14T15:34:40.000Z</time>
   </trkpt>
   <trkpt lat="52.479076" lon="13.481427">
    <ele>40.4</ele>
    <time>2024-08-14T15:34:42.000Z</time>
   </trkpt>
   <trkpt lat="52.479202" lon="13.481661">
    <ele>40.6</ele>
    <time>2024-08-14T15:34:46.000Z</time>
   </trkpt>
   <trkpt lat="52.479335" lon="13.481919">
    <ele>40.8</ele>
    <time>2024-08-14T15:34:51.000Z</time>
   </trkpt>
   <trkpt lat="52.479411" lon="13.482079">
    <ele>40.8</ele>
    <time>2024-08-14T15:34:54.000Z</time>
   </trkpt>
   <trkpt lat="52.479537" lon="13.482306">
    <ele>40.8</ele>
    <time>2024-08-14T15:34:58.000Z</time>
   </trkpt>
   <trkpt lat="52.479637" lon="13.482502">
    <ele>40.8</ele>
    <time>2024-08-14T15:35:01.000Z</time>
   </trkpt>
   <trkpt lat="52.47982" lon="13.482869">
    <ele>40.8</ele>
    <time>2024-08-14T15:35:07.000Z</time>
   </trkpt>
   <trkpt lat="52.479934" lon="13.483063">
    <ele>40.8</ele>
    <time>2024-08-14T15:35:11.000Z</time>
   </trkpt>
   <trkpt lat="52.47996" lon="13.483118">
    <ele>40.8</ele>
    <time>2024-08-14T15:35:12.000Z</time>
   </trkpt>
   <trkpt lat="52.480059" lon="13.483303">
    <ele>40.6</ele>
    <time>2024-08-14T15:35:17.000Z</time>
   </trkpt>
   <trkpt lat="52.48017" lon="13.483496">
    <ele>40.8</ele>
    <time>2024-08-14T15:35:25.000Z</time>
   </trkpt>
   <trkpt lat="52.480199" lon="13.483497">
    <ele>40.8</ele>
    <time>2024-08-14T15:35:26.000Z</time>
   </trkpt>
   <trkpt lat="52.480236" lon="13.483489">
    <ele>40.6</ele>
    <time>2024-08-14T15:35:27.000Z</time>
   </trkpt>
   <trkpt lat="52.480317" lon="13.483451">
    <ele>40.6</ele>
    <time>2024-08-14T15:35:29.000Z</time>
   </trkpt>
   <trkpt lat="52.48036" lon="13.483428">
    <ele>40.8</ele>
    <time>2024-08-14T15:35:30.000Z</time>
   </trkpt>
   <trkpt lat="52.480442" lon="13.483383">
    <ele>40.8</ele>
    <time>2024-08-14T15:35:32.000Z</time>
   </trkpt>
   <trkpt lat="52.480524" lon="13.483311">
    <ele>40.8</ele>
    <time>2024-08-14T15:35:34.000Z</time>
   </trkpt>
   <trkpt lat="52.480919" lon="13.482948">
    <ele>40.8</ele>
    <time>2024-08-14T15:35:43.000Z</time>
   </trkpt>
   <trkpt lat="52.481277" lon="13.482616">
    <ele>40.6</ele>
    <time>2024-08-14T15:35:51.000Z</time>
   </trkpt>
   <trkpt lat="52.481704" lon="13.482261">
    <ele>40.6</ele>
    <time>2024-08-14T15:36:00.000Z</time>
   </trkpt>
   <trkpt lat="52.481748" lon="13.482225">
    <ele>40.6</ele>
    <time>2024-08-14T15:36:01.000Z</time>
   </trkpt>
   <trkpt lat="52.481937" lon="13.482102">
    <ele>40.6</ele>
    <time>2024-08-14T15:36:05.000Z</time>
   </trkpt>
   <trkpt lat="52.482313" lon="13.481762">
    <ele>40.6</ele>
    <time>2024-08-14T15:36:13.000Z</time>
   </trkpt>
   <trkpt lat="52.482412" lon="13.48169">
    <ele>40.6</ele>
    <time>2024-08-14T15:36:15.000Z</time>
   </trkpt>
   <trkpt lat="52.482599" lon="13.481544">
    <ele>40.6</ele>
    <time>2024-08-14T15:36:19.000Z</time>
   </trkpt>
   <trkpt lat="52.482647" lon="13.481496">
    <ele>40.6</ele>
    <time>2024-08-14T15:36:20.000Z</time>
   </trkpt>
   <trkpt lat="52.482879" lon="13.48123">
    <ele>40.6</ele>
    <time>2024-08-14T15:36:25.000Z</time>
   </trkpt>
   <trkpt lat="52.482927" lon="13.481198">
    <ele>40.6</ele>
    <time>2024-08-14T15:36:26.000Z</time>
   </trkpt>
   <trkpt lat="52.483019" lon="13.481128">
    <ele>40.6</ele>
    <time>2024-08-14T15:36:28.000Z</time>
   </trkpt>
   <trkpt lat="52.48306" lon="13.481086">
    <ele>40.6</ele>
    <time>2024-08-14T15:36:29.000Z</time>
   </trkpt>
   <trkpt lat="52.483216" lon="13.480868">
    <ele>41</ele>
    <time>2024-08-14T15:36:33.000Z</time>
   </trkpt>
   <trkpt lat="52.483249" lon="13.480808">
    <ele>41</ele>
    <time>2024-08-14T15:36:34.000Z</time>
   </trkpt>
   <trkpt lat="52.48329" lon="13.480772">
    <ele>41</ele>
    <time>2024-08-14T15:36:35.000Z</time>
   </trkpt>
   <trkpt lat="52.483386" lon="13.48071">
    <ele>41</ele>
    <time>2024-08-14T15:36:37.000Z</time>
   </trkpt>
   <trkpt lat="52.483439" lon="13.48066">
    <ele>41</ele>
    <time>2024-08-14T15:36:38.000Z</time>
   </trkpt>
   <trkpt lat="52.483534" lon="13.480586">
    <ele>41</ele>
    <time>2024-08-14T15:36:40.000Z</time>
   </trkpt>
   <trkpt lat="52.483673" lon="13.48048">
    <ele>41</ele>
    <time>2024-08-14T15:36:43.000Z</time>
   </trkpt>
   <trkpt lat="52.483763" lon="13.480403">
    <ele>41</ele>
    <time>2024-08-14T15:36:45.000Z</time>
   </trkpt>
   <trkpt lat="52.483954" lon="13.480284">
    <ele>41</ele>
    <time>2024-08-14T15:36:49.000Z</time>
   </trkpt>
   <trkpt lat="52.484179" lon="13.480066">
    <ele>41</ele>
    <time>2024-08-14T15:36:54.000Z</time>
   </trkpt>
   <trkpt lat="52.484224" lon="13.480024">
    <ele>41.2</ele>
    <time>2024-08-14T15:36:55.000Z</time>
   </trkpt>
   <trkpt lat="52.484404" lon="13.479858">
    <ele>41</ele>
    <time>2024-08-14T15:36:59.000Z</time>
   </trkpt>
   <trkpt lat="52.484443" lon="13.479809">
    <ele>41</ele>
    <time>2024-08-14T15:37:00.000Z</time>
   </trkpt>
   <trkpt lat="52.484528" lon="13.479695">
    <ele>40.8</ele>
    <time>2024-08-14T15:37:02.000Z</time>
   </trkpt>
   <trkpt lat="52.484574" lon="13.479651">
    <ele>40.6</ele>
    <time>2024-08-14T15:37:03.000Z</time>
   </trkpt>
   <trkpt lat="52.484708" lon="13.479541">
    <ele>40.6</ele>
    <time>2024-08-14T15:37:06.000Z</time>
   </trkpt>
   <trkpt lat="52.484806" lon="13.479484">
    <ele>40.6</ele>
    <time>2024-08-14T15:37:08.000Z</time>
   </trkpt>
   <trkpt lat="52.484859" lon="13.479439">
    <ele>40.6</ele>
    <time>2024-08-14T15:37:09.000Z</time>
   </trkpt>
   <trkpt lat="52.485254" lon="13.479047">
    <ele>40.6</ele>
    <time>2024-08-14T15:37:18.000Z</time>
   </trkpt>
   <trkpt lat="52.485628" lon="13.478709">
    <ele>40.6</ele>
    <time>2024-08-14T15:37:26.000Z</time>
   </trkpt>
   <trkpt lat="52.4861" lon="13.478271">
    <ele>40.6</ele>
    <time>2024-08-14T15:37:36.000Z</time>
   </trkpt>
   <trkpt lat="52.486372" lon="13.478026">
    <ele>40.4</ele>
    <time>2024-08-14T15:37:42.000Z</time>
   </trkpt>
   <trkpt lat="52.486469" lon="13.477939">
    <ele>40.4</ele>
    <time>2024-08-14T15:37:44.000Z</time>
   </trkpt>
   <trkpt lat="52.486814" lon="13.477624">
    <ele>40.4</ele>
    <time>2024-08-14T15:37:52.000Z</time>
   </trkpt>
   <trkpt lat="52.487173" lon="13.477283">
    <ele>40.8</ele>
    <time>2024-08-14T15:38:00.000Z</time>
   </trkpt>
   <trkpt lat="52.487251" lon="13.477191">
    <ele>40.8</ele>
    <time>2024-08-14T15:38:02.000Z</time>
   </trkpt>
   <trkpt lat="52.487348" lon="13.47712">
    <ele>40.8</ele>
    <time>2024-08-14T15:38:04.000Z</time>
   </trkpt>
   <trkpt lat="52.487392" lon="13.477079">
    <ele>40.8</ele>
    <time>2024-08-14T15:38:05.000Z</time>
   </trkpt>
   <trkpt lat="52.487611" lon="13.476829">
    <ele>40.6</ele>
    <time>2024-08-14T15:38:10.000Z</time>
   </trkpt>
   <trkpt lat="52.487698" lon="13.476713">
    <ele>40.6</ele>
    <time>2024-08-14T15:38:12.000Z</time>
   </trkpt>
   <trkpt lat="52.487808" lon="13.476554">
    <ele>40.6</ele>
    <time>2024-08-14T15:38:15.000Z</time>
   </trkpt>
   <trkpt lat="52.487844" lon="13.47649">
    <ele>40.6</ele>
    <time>2024-08-14T15:38:16.000Z</time>
   </trkpt>
   <trkpt lat="52.487875" lon="13.476422">
    <ele>40.6</ele>
    <time>2024-08-14T15:38:17.000Z</time>
   </trkpt>
   <trkpt lat="52.48795" lon="13.476141">
    <ele>40.6</ele>
    <time>2024-08-14T15:38:21.000Z</time>
   </trkpt>
   <trkpt lat="52.487993" lon="13.476015">
    <ele>40.6</ele>
    <time>2024-08-14T15:38:23.000Z</time>
   </trkpt>
   <trkpt lat="52.488038" lon="13.475873">
    <ele>40.6</ele>
    <time>2024-08-14T15:38:25.000Z</time>
   </trkpt>
   <trkpt lat="52.488055" lon="13.475798">
    <ele>40.6</ele>
    <time>2024-08-14T15:38:26.000Z</time>
   </trkpt>
   <trkpt lat="52.488164" lon="13.475436">
    <ele>40.4</ele>
    <time>2024-08-14T15:38:31.000Z</time>
   </trkpt>
   <trkpt lat="52.488184" lon="13.475373">
    <ele>40.4</ele>
    <time>2024-08-14T15:38:32.000Z</time>
   </trkpt>
   <trkpt lat="52.488336" lon="13.47487">
    <ele>40.4</ele>
    <time>2024-08-14T15:38:39.000Z</time>
   </trkpt>
   <trkpt lat="52.488514" lon="13.474335">
    <ele>40.6</ele>
    <time>2024-08-14T15:38:46.000Z</time>
   </trkpt>
   <trkpt lat="52.488696" lon="13.473692">
    <ele>40.6</ele>
    <time>2024-08-14T15:38:54.000Z</time>
   </trkpt>
   <trkpt lat="52.488731" lon="13.473544">
    <ele>40.6</ele>
    <time>2024-08-14T15:38:56.000Z</time>
   </trkpt>
   <trkpt lat="52.488811" lon="13.473294">
    <ele>40.4</ele>
    <time>2024-08-14T15:39:00.000Z</time>
   </trkpt>
   <trkpt lat="52.488839" lon="13.47324">
    <ele>40.4</ele>
    <time>2024-08-14T15:39:01.000Z</time>
   </trkpt>
   <trkpt lat="52.488884" lon="13.473113">
    <ele>40.2</ele>
    <time>2024-08-14T15:39:03.000Z</time>
   </trkpt>
   <trkpt lat="52.488924" lon="13.47297">
    <ele>40.2</ele>
    <time>2024-08-14T15:39:05.000Z</time>
   </trkpt>
   <trkpt lat="52.48894" lon="13.472905">
    <ele>40.2</ele>
    <time>2024-08-14T15:39:06.000Z</time>
   </trkpt>
   <trkpt lat="52.488978" lon="13.472738">
    <ele>40.4</ele>
    <time>2024-08-14T15:39:08.000Z</time>
   </trkpt>
   <trkpt lat="52.489015" lon="13.472586">
    <ele>40.4</ele>
    <time>2024-08-14T15:39:10.000Z</time>
   </trkpt>
   <trkpt lat="52.489043" lon="13.472524">
    <ele>40.4</ele>
    <time>2024-08-14T15:39:11.000Z</time>
   </trkpt>
   <trkpt lat="52.489142" lon="13.472266">
    <ele>40.6</ele>
    <time>2024-08-14T15:39:14.000Z</time>
   </trkpt>
   <trkpt lat="52.489194" lon="13.47208">
    <ele>40.6</ele>
    <time>2024-08-14T15:39:16.000Z</time>
   </trkpt>
   <trkpt lat="52.489232" lon="13.471932">
    <ele>40.6</ele>
    <time>2024-08-14T15:39:18.000Z</time>
   </trkpt>
   <trkpt lat="52.48925" lon="13.471858">
    <ele>40.4</ele>
    <time>2024-08-14T15:39:19.000Z</time>
   </trkpt>
   <trkpt lat="52.489305" lon="13.471728">
    <ele>40.4</ele>
    <time>2024-08-14T15:39:21.000Z</time>
   </trkpt>
   <trkpt lat="52.489352" lon="13.471546">
    <ele>40.4</ele>
    <time>2024-08-14T15:39:23.000Z</time>
   </trkpt>
   <trkpt lat="52.48954" lon="13.470824">
    <ele>40.4</ele>
    <time>2024-08-14T15:39:31.000Z</time>
   </trkpt>
   <trkpt lat="52.489663" lon="13.470411">
    <ele>40.2</ele>
    <time>2024-08-14T15:39:37.000Z</time>
   </trkpt>
   <trkpt lat="52.48968" lon="13.470363">
    <ele>40.2</ele>
    <time>2024-08-14T15:39:38.000Z</time>
   </trkpt>
   <trkpt lat="52.489702" lon="13.470296">
    <ele>40.2</ele>
    <time>2024-08-14T15:39:39.000Z</time>
   </trkpt>
   <trkpt lat="52.48974" lon="13.470162">
    <ele>40.2</ele>
    <time>2024-08-14T15:39:41.000Z</time>
   </trkpt>
   <trkpt lat="52.489783" lon="13.470023">
    <ele>40.2</ele>
    <time>2024-08-14T15:39:43.000Z</time>
   </trkpt>
   <trkpt lat="52.489862" lon="13.469829">
    <ele>40.2</ele>
    <time>2024-08-14T15:39:46.000Z</time>
   </trkpt>
   <trkpt lat="52.489899" lon="13.469708">
    <ele>40.2</ele>
    <time>2024-08-14T15:39:48.000Z</time>
   </trkpt>
   <trkpt lat="52.489937" lon="13.469562">
    <ele>40.2</ele>
    <time>2024-08-14T15:39:50.000Z</time>
   </trkpt>
   <trkpt lat="52.490033" lon="13.469216">
    <ele>40.2</ele>
    <time>2024-08-14T15:39:54.000Z</time>
   </trkpt>
   <trkpt lat="52.490137" lon="13.468852">
    <ele>40.4</ele>
    <time>2024-08-14T15:39:59.000Z</time>
   </trkpt>
   <trkpt lat="52.490152" lon="13.468772">
    <ele>40.2</ele>
    <time>2024-08-14T15:40:00.000Z</time>
   </trkpt>
   <trkpt lat="52.490294" lon="13.468245">
    <ele>40.4</ele>
    <time>2024-08-14T15:40:06.000Z</time>
   </trkpt>
   <trkpt lat="52.490318" lon="13.468161">
    <ele>40.4</ele>
    <time>2024-08-14T15:40:07.000Z</time>
   </trkpt>
   <trkpt lat="52.490474" lon="13.467776">
    <ele>40.6</ele>
    <time>2024-08-14T15:40:11.000Z</time>
   </trkpt>
   <trkpt lat="52.490604" lon="13.467268">
    <ele>40.4</ele>
    <time>2024-08-14T15:40:18.000Z</time>
   </trkpt>
   <trkpt lat="52.490791" lon="13.466692">
    <ele>40.4</ele>
    <time>2024-08-14T15:40:26.000Z</time>
   </trkpt>
   <trkpt lat="52.49082" lon="13.466623">
    <ele>40.4</ele>
    <time>2024-08-14T15:40:27.000Z</time>
   </trkpt>
   <trkpt lat="52.490875" lon="13.466435">
    <ele>40.6</ele>
    <time>2024-08-14T15:40:30.000Z</time>
   </trkpt>
   <trkpt lat="52.490884" lon="13.466382">
    <ele>40.4</ele>
    <time>2024-08-14T15:40:31.000Z</time>
   </trkpt>
   <trkpt lat="52.490898" lon="13.466321">
    <ele>40.6</ele>
    <time>2024-08-14T15:40:32.000Z</time>
   </trkpt>
   <trkpt lat="52.490944" lon="13.466168">
    <ele>40.6</ele>
    <time>2024-08-14T15:40:34.000Z</time>
   </trkpt>
   <trkpt lat="52.490967" lon="13.466101">
    <ele>40.6</ele>
    <time>2024-08-14T15:40:35.000Z</time>
   </trkpt>
   <trkpt lat="52.491005" lon="13.465961">
    <ele>40.6</ele>
    <time>2024-08-14T15:40:37.000Z</time>
   </trkpt>
   <trkpt lat="52.491067" lon="13.465756">
    <ele>40.8</ele>
    <time>2024-08-14T15:40:40.000Z</time>
   </trkpt>
   <trkpt lat="52.491118" lon="13.465608">
    <ele>40.8</ele>
    <time>2024-08-14T15:40:42.000Z</time>
   </trkpt>
   <trkpt lat="52.491203" lon="13.465377">
    <ele>40.8</ele>
    <time>2024-08-14T15:40:45.000Z</time>
   </trkpt>
   <trkpt lat="52.491301" lon="13.465062">
    <ele>40.8</ele>
    <time>2024-08-14T15:40:49.000Z</time>
   </trkpt>
   <trkpt lat="52.491353" lon="13.464897">
    <ele>40.8</ele>
    <time>2024-08-14T15:40:51.000Z</time>
   </trkpt>
   <trkpt lat="52.491377" lon="13.464822">
    <ele>40.8</ele>
    <time>2024-08-14T15:40:52.000Z</time>
   </trkpt>
   <trkpt lat="52.491411" lon="13.464674">
    <ele>40.8</ele>
    <time>2024-08-14T15:40:54.000Z</time>
   </trkpt>
   <trkpt lat="52.491482" lon="13.464445">
    <ele>40.8</ele>
    <time>2024-08-14T15:40:57.000Z</time>
   </trkpt>
   <trkpt lat="52.491508" lon="13.464344">
    <ele>41</ele>
    <time>2024-08-14T15:40:58.000Z</time>
   </trkpt>
   <trkpt lat="52.49158" lon="13.464124">
    <ele>40.8</ele>
    <time>2024-08-14T15:41:00.000Z</time>
   </trkpt>
   <trkpt lat="52.49164" lon="13.463945">
    <ele>41</ele>
    <time>2024-08-14T15:41:02.000Z</time>
   </trkpt>
   <trkpt lat="52.491733" lon="13.463731">
    <ele>41</ele>
    <time>2024-08-14T15:41:05.000Z</time>
   </trkpt>
   <trkpt lat="52.491794" lon="13.463499">
    <ele>40.6</ele>
    <time>2024-08-14T15:41:08.000Z</time>
   </trkpt>
   <trkpt lat="52.491946" lon="13.462969">
    <ele>40.4</ele>
    <time>2024-08-14T15:41:15.000Z</time>
   </trkpt>
   <trkpt lat="52.492049" lon="13.462585">
    <ele>40.4</ele>
    <time>2024-08-14T15:41:20.000Z</time>
   </trkpt>
   <trkpt lat="52.492122" lon="13.462296">
    <ele>40.4</ele>
    <time>2024-08-14T15:41:24.000Z</time>
   </trkpt>
   <trkpt lat="52.492183" lon="13.462116">
    <ele>40.6</ele>
    <time>2024-08-14T15:41:27.000Z</time>
   </trkpt>
   <trkpt lat="52.492228" lon="13.461975">
    <ele>40.6</ele>
    <time>2024-08-14T15:41:29.000Z</time>
   </trkpt>
   <trkpt lat="52.492262" lon="13.461814">
    <ele>40.6</ele>
    <time>2024-08-14T15:41:31.000Z</time>
   </trkpt>
   <trkpt lat="52.492293" lon="13.461653">
    <ele>40.6</ele>
    <time>2024-08-14T15:41:33.000Z</time>
   </trkpt>
   <trkpt lat="52.492361" lon="13.461463">
    <ele>40.6</ele>
    <time>2024-08-14T15:41:35.000Z</time>
   </trkpt>
   <trkpt lat="52.492479" lon="13.461115">
    <ele>40.6</ele>
    <time>2024-08-14T15:41:40.000Z</time>
   </trkpt>
   <trkpt lat="52.492655" lon="13.460322">
    <ele>40.6</ele>
    <time>2024-08-14T15:41:49.000Z</time>
   </trkpt>
   <trkpt lat="52.492655" lon="13.460307">
    <ele>40.6</ele>
    <time>2024-08-14T15:41:50.000Z</time>
   </trkpt>
   <trkpt lat="52.492786" lon="13.460224">
    <ele>40.6</ele>
    <time>2024-08-14T15:41:54.000Z</time>
   </trkpt>
   <trkpt lat="52.492863" lon="13.460083">
    <ele>40.4</ele>
    <time>2024-08-14T15:41:58.000Z</time>
   </trkpt>
   <trkpt lat="52.492819" lon="13.459917">
    <ele>40.4</ele>
    <time>2024-08-14T15:42:03.000Z</time>
   </trkpt>
   <trkpt lat="52.492813" lon="13.459779">
    <ele>40.6</ele>
    <time>2024-08-14T15:42:09.000Z</time>
   </trkpt>
   <trkpt lat="52.492818" lon="13.45976">
    <ele>40.6</ele>
    <time>2024-08-14T15:42:10.000Z</time>
   </trkpt>
   <trkpt lat="52.492836" lon="13.459688">
    <ele>40.6</ele>
    <time>2024-08-14T15:42:34.000Z</time>
   </trkpt>
   <trkpt lat="52.492883" lon="13.459572">
    <ele>40.6</ele>
    <time>2024-08-14T15:42:37.000Z</time>
   </trkpt>
   <trkpt lat="52.492981" lon="13.459257">
    <ele>40.4</ele>
    <time>2024-08-14T15:42:44.000Z</time>
   </trkpt>
   <trkpt lat="52.493052" lon="13.458957">
    <ele>40.4</ele>
    <time>2024-08-14T15:42:50.000Z</time>
   </trkpt>
   <trkpt lat="52.493083" lon="13.458861">
    <ele>40.4</ele>
    <time>2024-08-14T15:42:52.000Z</time>
   </trkpt>
   <trkpt lat="52.493111" lon="13.458747">
    <ele>40.4</ele>
    <time>2024-08-14T15:42:54.000Z</time>
   </trkpt>
   <trkpt lat="52.493129" lon="13.458682">
    <ele>40.4</ele>
    <time>2024-08-14T15:42:55.000Z</time>
   </trkpt>
   <trkpt lat="52.4932" lon="13.458484">
    <ele>40.4</ele>
    <time>2024-08-14T15:42:58.000Z</time>
   </trkpt>
   <trkpt lat="52.493291" lon="13.45822">
    <ele>40.4</ele>
    <time>2024-08-14T15:43:01.000Z</time>
   </trkpt>
   <trkpt lat="52.493368" lon="13.457979">
    <ele>40.6</ele>
    <time>2024-08-14T15:43:04.000Z</time>
   </trkpt>
   <trkpt lat="52.493479" lon="13.457677">
    <ele>40.6</ele>
    <time>2024-08-14T15:43:08.000Z</time>
   </trkpt>
   <trkpt lat="52.493529" lon="13.457492">
    <ele>40.6</ele>
    <time>2024-08-14T15:43:10.000Z</time>
   </trkpt>
   <trkpt lat="52.49361" lon="13.457242">
    <ele>40.6</ele>
    <time>2024-08-14T15:43:13.000Z</time>
   </trkpt>
   <trkpt lat="52.493755" lon="13.456694">
    <ele>40.6</ele>
    <time>2024-08-14T15:43:20.000Z</time>
   </trkpt>
   <trkpt lat="52.493873" lon="13.456325">
    <ele>40.4</ele>
    <time>2024-08-14T15:43:25.000Z</time>
   </trkpt>
   <trkpt lat="52.493964" lon="13.45601">
    <ele>40.4</ele>
    <time>2024-08-14T15:43:29.000Z</time>
   </trkpt>
   <trkpt lat="52.494002" lon="13.455856">
    <ele>40.4</ele>
    <time>2024-08-14T15:43:31.000Z</time>
   </trkpt>
   <trkpt lat="52.494118" lon="13.455507">
    <ele>40.6</ele>
    <time>2024-08-14T15:43:36.000Z</time>
   </trkpt>
   <trkpt lat="52.494177" lon="13.45534">
    <ele>40.6</ele>
    <time>2024-08-14T15:43:38.000Z</time>
   </trkpt>
   <trkpt lat="52.494251" lon="13.455077">
    <ele>40.8</ele>
    <time>2024-08-14T15:43:41.000Z</time>
   </trkpt>
   <trkpt lat="52.494321" lon="13.454825">
    <ele>40.8</ele>
    <time>2024-08-14T15:43:44.000Z</time>
   </trkpt>
   <trkpt lat="52.494378" lon="13.454551">
    <ele>40.8</ele>
    <time>2024-08-14T15:43:47.000Z</time>
   </trkpt>
   <trkpt lat="52.494397" lon="13.454473">
    <ele>40.6</ele>
    <time>2024-08-14T15:43:48.000Z</time>
   </trkpt>
   <trkpt lat="52.494522" lon="13.454163">
    <ele>40.2</ele>
    <time>2024-08-14T15:43:52.000Z</time>
   </trkpt>
   <trkpt lat="52.494544" lon="13.454099">
    <ele>40.2</ele>
    <time>2024-08-14T15:43:53.000Z</time>
   </trkpt>
   <trkpt lat="52.494559" lon="13.454021">
    <ele>40.2</ele>
    <time>2024-08-14T15:43:54.000Z</time>
   </trkpt>
   <trkpt lat="52.494665" lon="13.453676">
    <ele>40.4</ele>
    <time>2024-08-14T15:43:59.000Z</time>
   </trkpt>
   <trkpt lat="52.494736" lon="13.453486">
    <ele>40.4</ele>
    <time>2024-08-14T15:44:02.000Z</time>
   </trkpt>
   <trkpt lat="52.494813" lon="13.453345">
    <ele>40.4</ele>
    <time>2024-08-14T15:44:04.000Z</time>
   </trkpt>
   <trkpt lat="52.495079" lon="13.452818">
    <ele>40.6</ele>
    <time>2024-08-14T15:44:12.000Z</time>
   </trkpt>
   <trkpt lat="52.495164" lon="13.45268">
    <ele>40.4</ele>
    <time>2024-08-14T15:44:14.000Z</time>
   </trkpt>
   <trkpt lat="52.495357" lon="13.452333">
    <ele>40.4</ele>
    <time>2024-08-14T15:44:18.000Z</time>
   </trkpt>
   <trkpt lat="52.495722" lon="13.451691">
    <ele>40.6</ele>
    <time>2024-08-14T15:44:27.000Z</time>
   </trkpt>
   <trkpt lat="52.496134" lon="13.451008">
    <ele>40.8</ele>
    <time>2024-08-14T15:44:38.000Z</time>
   </trkpt>
   <trkpt lat="52.496403" lon="13.450542">
    <ele>40.8</ele>
    <time>2024-08-14T15:44:46.000Z</time>
   </trkpt>
   <trkpt lat="52.496654" lon="13.450139">
    <ele>40.8</ele>
    <time>2024-08-14T15:44:54.000Z</time>
   </trkpt>
   <trkpt lat="52.496905" lon="13.449683">
    <ele>41</ele>
    <time>2024-08-14T15:45:02.000Z</time>
   </trkpt>
   <trkpt lat="52.497152" lon="13.449222">
    <ele>40.8</ele>
    <time>2024-08-14T15:45:09.000Z</time>
   </trkpt>
   <trkpt lat="52.497195" lon="13.449155">
    <ele>40.8</ele>
    <time>2024-08-14T15:45:10.000Z</time>
   </trkpt>
   <trkpt lat="52.497366" lon="13.448887">
    <ele>41</ele>
    <time>2024-08-14T15:45:14.000Z</time>
   </trkpt>
   <trkpt lat="52.497734" lon="13.448228">
    <ele>41.8</ele>
    <time>2024-08-14T15:45:23.000Z</time>
   </trkpt>
   <trkpt lat="52.498" lon="13.447849">
    <ele>41</ele>
    <time>2024-08-14T15:45:28.000Z</time>
   </trkpt>
   <trkpt lat="52.498369" lon="13.447245">
    <ele>40.4</ele>
    <time>2024-08-14T15:45:35.000Z</time>
   </trkpt>
   <trkpt lat="52.49871" lon="13.446649">
    <ele>40.2</ele>
    <time>2024-08-14T15:45:42.000Z</time>
   </trkpt>
   <trkpt lat="52.499086" lon="13.445977">
    <ele>40.2</ele>
    <time>2024-08-14T15:45:50.000Z</time>
   </trkpt>
   <trkpt lat="52.499122" lon="13.4459">
    <ele>40.2</ele>
    <time>2024-08-14T15:45:51.000Z</time>
   </trkpt>
   <trkpt lat="52.499192" lon="13.445758">
    <ele>40.2</ele>
    <time>2024-08-14T15:45:53.000Z</time>
   </trkpt>
   <trkpt lat="52.49927" lon="13.445626">
    <ele>40</ele>
    <time>2024-08-14T15:45:55.000Z</time>
   </trkpt>
   <trkpt lat="52.49931" lon="13.445565">
    <ele>40</ele>
    <time>2024-08-14T15:45:56.000Z</time>
   </trkpt>
   <trkpt lat="52.499468" lon="13.445289">
    <ele>40</ele>
    <time>2024-08-14T15:46:00.000Z</time>
   </trkpt>
   <trkpt lat="52.49951" lon="13.445225">
    <ele>40</ele>
    <time>2024-08-14T15:46:01.000Z</time>
   </trkpt>
   <trkpt lat="52.499753" lon="13.444756">
    <ele>40</ele>
    <time>2024-08-14T15:46:08.000Z</time>
   </trkpt>
   <trkpt lat="52.499828" lon="13.444629">
    <ele>40</ele>
    <time>2024-08-14T15:46:12.000Z</time>
   </trkpt>
   <trkpt lat="52.499845" lon="13.444583">
    <ele>40.2</ele>
    <time>2024-08-14T15:46:15.000Z</time>
   </trkpt>
   <trkpt lat="52.499854" lon="13.44456">
    <ele>40.2</ele>
    <time>2024-08-14T15:46:17.000Z</time>
   </trkpt>
   <trkpt lat="52.499888" lon="13.444483">
    <ele>40.2</ele>
    <time>2024-08-14T15:46:24.000Z</time>
   </trkpt>
   <trkpt lat="52.499996" lon="13.444302">
    <ele>40.2</ele>
    <time>2024-08-14T15:46:30.000Z</time>
   </trkpt>
   <trkpt lat="52.500086" lon="13.444078">
    <ele>40.2</ele>
    <time>2024-08-14T15:46:34.000Z</time>
   </trkpt>
   <trkpt lat="52.500119" lon="13.444016">
    <ele>40.2</ele>
    <time>2024-08-14T15:46:35.000Z</time>
   </trkpt>
   <trkpt lat="52.500323" lon="13.443632">
    <ele>40.2</ele>
    <time>2024-08-14T15:46:41.000Z</time>
   </trkpt>
   <trkpt lat="52.500579" lon="13.443152">
    <ele>40.4</ele>
    <time>2024-08-14T15:46:49.000Z</time>
   </trkpt>
   <trkpt lat="52.500762" lon="13.442822">
    <ele>40.6</ele>
    <time>2024-08-14T15:46:54.000Z</time>
   </trkpt>
   <trkpt lat="52.500826" lon="13.442691">
    <ele>40.4</ele>
    <time>2024-08-14T15:46:56.000Z</time>
   </trkpt>
   <trkpt lat="52.501005" lon="13.442345">
    <ele>40.6</ele>
    <time>2024-08-14T15:47:02.000Z</time>
   </trkpt>
   <trkpt lat="52.501102" lon="13.442156">
    <ele>40.6</ele>
    <time>2024-08-14T15:47:06.000Z</time>
   </trkpt>
   <trkpt lat="52.501151" lon="13.442074">
    <ele>40.8</ele>
    <time>2024-08-14T15:47:08.000Z</time>
   </trkpt>
   <trkpt lat="52.501236" lon="13.441943">
    <ele>40.8</ele>
    <time>2024-08-14T15:47:11.000Z</time>
   </trkpt>
   <trkpt lat="52.501309" lon="13.441864">
    <ele>40.8</ele>
    <time>2024-08-14T15:47:14.000Z</time>
   </trkpt>
   <trkpt lat="52.501317" lon="13.441839">
    <ele>40.8</ele>
    <time>2024-08-14T15:47:15.000Z</time>
   </trkpt>
   <trkpt lat="52.501318" lon="13.44183">
    <ele>41</ele>
    <time>2024-08-14T15:47:16.000Z</time>
   </trkpt>
   <trkpt lat="52.501316" lon="13.441746">
    <ele>40.6</ele>
    <time>2024-08-14T15:47:47.000Z</time>
   </trkpt>
   <trkpt lat="52.501311" lon="13.441695">
    <ele>40.6</ele>
    <time>2024-08-14T15:47:48.000Z</time>
   </trkpt>
   <trkpt lat="52.501274" lon="13.441582">
    <ele>40.6</ele>
    <time>2024-08-14T15:47:50.000Z</time>
   </trkpt>
   <trkpt lat="52.501222" lon="13.441489">
    <ele>40.6</ele>
    <time>2024-08-14T15:47:52.000Z</time>
   </trkpt>
   <trkpt lat="52.501079" lon="13.441274">
    <ele>40.8</ele>
    <time>2024-08-14T15:47:56.000Z</time>
   </trkpt>
   <trkpt lat="52.501007" lon="13.441156">
    <ele>40.8</ele>
    <time>2024-08-14T15:47:58.000Z</time>
   </trkpt>
   <trkpt lat="52.500981" lon="13.44111">
    <ele>40.8</ele>
    <time>2024-08-14T15:47:59.000Z</time>
   </trkpt>
   <trkpt lat="52.500941" lon="13.440964">
    <ele>40.8</ele>
    <time>2024-08-14T15:48:01.000Z</time>
   </trkpt>
   <trkpt lat="52.500929" lon="13.440883">
    <ele>40.8</ele>
    <time>2024-08-14T15:48:02.000Z</time>
   </trkpt>
   <trkpt lat="52.50088" lon="13.440566">
    <ele>40.8</ele>
    <time>2024-08-14T15:48:06.000Z</time>
   </trkpt>
   <trkpt lat="52.500869" lon="13.440488">
    <ele>40.8</ele>
    <time>2024-08-14T15:48:07.000Z</time>
   </trkpt>
   <trkpt lat="52.500822" lon="13.44023">
    <ele>41</ele>
    <time>2024-08-14T15:48:10.000Z</time>
   </trkpt>
   <trkpt lat="52.500794" lon="13.440141">
    <ele>41</ele>
    <time>2024-08-14T15:48:11.000Z</time>
   </trkpt>
   <trkpt lat="52.500768" lon="13.440057">
    <ele>41</ele>
    <time>2024-08-14T15:48:12.000Z</time>
   </trkpt>
   <trkpt lat="52.500687" lon="13.43979">
    <ele>41.2</ele>
    <time>2024-08-14T15:48:15.000Z</time>
   </trkpt>
   <trkpt lat="52.500621" lon="13.439481">
    <ele>41.2</ele>
    <time>2024-08-14T15:48:18.000Z</time>
   </trkpt>
   <trkpt lat="52.500585" lon="13.439222">
    <ele>41.2</ele>
    <time>2024-08-14T15:48:21.000Z</time>
   </trkpt>
   <trkpt lat="52.500568" lon="13.439135">
    <ele>41.4</ele>
    <time>2024-08-14T15:48:22.000Z</time>
   </trkpt>
   <trkpt lat="52.500536" lon="13.438792">
    <ele>41.6</ele>
    <time>2024-08-14T15:48:26.000Z</time>
   </trkpt>
   <trkpt lat="52.500523" lon="13.438636">
    <ele>41.6</ele>
    <time>2024-08-14T15:48:28.000Z</time>
   </trkpt>
   <trkpt lat="52.500513" lon="13.438374">
    <ele>41.8</ele>
    <time>2024-08-14T15:48:31.000Z</time>
   </trkpt>
   <trkpt lat="52.500489" lon="13.438225">
    <ele>41.6</ele>
    <time>2024-08-14T15:48:33.000Z</time>
   </trkpt>
   <trkpt lat="52.500464" lon="13.438085">
    <ele>41.8</ele>
    <time>2024-08-14T15:48:36.000Z</time>
   </trkpt>
   <trkpt lat="52.500448" lon="13.438057">
    <ele>41.8</ele>
    <time>2024-08-14T15:48:37.000Z</time>
   </trkpt>
   <trkpt lat="52.500408" lon="13.437942">
    <ele>41.8</ele>
    <time>2024-08-14T15:48:41.000Z</time>
   </trkpt>
   <trkpt lat="52.500401" lon="13.437895">
    <ele>41.6</ele>
    <time>2024-08-14T15:49:02.000Z</time>
   </trkpt>
   <trkpt lat="52.500393" lon="13.437848">
    <ele>41.6</ele>
    <time>2024-08-14T15:49:03.000Z</time>
   </trkpt>
   <trkpt lat="52.500358" lon="13.437586">
    <ele>41.6</ele>
    <time>2024-08-14T15:49:07.000Z</time>
   </trkpt>
   <trkpt lat="52.500339" lon="13.437354">
    <ele>41.6</ele>
    <time>2024-08-14T15:49:10.000Z</time>
   </trkpt>
   <trkpt lat="52.500358" lon="13.437212">
    <ele>41.6</ele>
    <time>2024-08-14T15:49:12.000Z</time>
   </trkpt>
   <trkpt lat="52.500364" lon="13.437091">
    <ele>41.6</ele>
    <time>2024-08-14T15:49:14.000Z</time>
   </trkpt>
   <trkpt lat="52.500345" lon="13.436984">
    <ele>41.6</ele>
    <time>2024-08-14T15:49:16.000Z</time>
   </trkpt>
   <trkpt lat="52.500305" lon="13.436837">
    <ele>41.6</ele>
    <time>2024-08-14T15:49:18.000Z</time>
   </trkpt>
   <trkpt lat="52.500239" lon="13.436662">
    <ele>41.6</ele>
    <time>2024-08-14T15:49:20.000Z</time>
   </trkpt>
   <trkpt lat="52.500202" lon="13.436591">
    <ele>41.6</ele>
    <time>2024-08-14T15:49:21.000Z</time>
   </trkpt>
   <trkpt lat="52.500175" lon="13.436511">
    <ele>41.6</ele>
    <time>2024-08-14T15:49:22.000Z</time>
   </trkpt>
   <trkpt lat="52.500115" lon="13.436173">
    <ele>41.6</ele>
    <time>2024-08-14T15:49:25.000Z</time>
   </trkpt>
   <trkpt lat="52.500093" lon="13.436097">
    <ele>41.6</ele>
    <time>2024-08-14T15:49:26.000Z</time>
   </trkpt>
   <trkpt lat="52.500055" lon="13.435916">
    <ele>41.6</ele>
    <time>2024-08-14T15:49:28.000Z</time>
   </trkpt>
   <trkpt lat="52.500039" lon="13.435839">
    <ele>41.8</ele>
    <time>2024-08-14T15:49:29.000Z</time>
   </trkpt>
   <trkpt lat="52.500028" lon="13.435765">
    <ele>41.8</ele>
    <time>2024-08-14T15:49:30.000Z</time>
   </trkpt>
   <trkpt lat="52.499998" lon="13.43568">
    <ele>42</ele>
    <time>2024-08-14T15:49:31.000Z</time>
   </trkpt>
   <trkpt lat="52.500004" lon="13.435577">
    <ele>42</ele>
    <time>2024-08-14T15:49:32.000Z</time>
   </trkpt>
   <trkpt lat="52.500025" lon="13.435478">
    <ele>42</ele>
    <time>2024-08-14T15:49:33.000Z</time>
   </trkpt>
   <trkpt lat="52.49999" lon="13.435099">
    <ele>42</ele>
    <time>2024-08-14T15:49:36.000Z</time>
   </trkpt>
   <trkpt lat="52.499924" lon="13.434924">
    <ele>42</ele>
    <time>2024-08-14T15:49:38.000Z</time>
   </trkpt>
   <trkpt lat="52.499908" lon="13.434717">
    <ele>42</ele>
    <time>2024-08-14T15:49:40.000Z</time>
   </trkpt>
   <trkpt lat="52.499866" lon="13.434467">
    <ele>42</ele>
    <time>2024-08-14T15:49:43.000Z</time>
   </trkpt>
   <trkpt lat="52.499886" lon="13.43424">
    <ele>42</ele>
    <time>2024-08-14T15:49:45.000Z</time>
   </trkpt>
   <trkpt lat="52.499848" lon="13.43408">
    <ele>42</ele>
    <time>2024-08-14T15:49:47.000Z</time>
   </trkpt>
   <trkpt lat="52.49985" lon="13.433914">
    <ele>42</ele>
    <time>2024-08-14T15:49:49.000Z</time>
   </trkpt>
   <trkpt lat="52.499842" lon="13.43375">
    <ele>42</ele>
    <time>2024-08-14T15:49:51.000Z</time>
   </trkpt>
   <trkpt lat="52.499738" lon="13.433391">
    <ele>42</ele>
    <time>2024-08-14T15:49:55.000Z</time>
   </trkpt>
   <trkpt lat="52.499671" lon="13.433087">
    <ele>42.2</ele>
    <time>2024-08-14T15:49:59.000Z</time>
   </trkpt>
   <trkpt lat="52.499663" lon="13.432916">
    <ele>42.4</ele>
    <time>2024-08-14T15:50:01.000Z</time>
   </trkpt>
   <trkpt lat="52.499656" lon="13.432666">
    <ele>42.4</ele>
    <time>2024-08-14T15:50:04.000Z</time>
   </trkpt>
   <trkpt lat="52.499631" lon="13.43248">
    <ele>42.2</ele>
    <time>2024-08-14T15:50:06.000Z</time>
   </trkpt>
   <trkpt lat="52.499606" lon="13.432337">
    <ele>42.2</ele>
    <time>2024-08-14T15:50:08.000Z</time>
   </trkpt>
   <trkpt lat="52.499567" lon="13.432194">
    <ele>42.2</ele>
    <time>2024-08-14T15:50:10.000Z</time>
   </trkpt>
   <trkpt lat="52.499557" lon="13.43212">
    <ele>42.2</ele>
    <time>2024-08-14T15:50:11.000Z</time>
   </trkpt>
   <trkpt lat="52.499515" lon="13.431765">
    <ele>42</ele>
    <time>2024-08-14T15:50:16.000Z</time>
   </trkpt>
   <trkpt lat="52.49944" lon="13.431032">
    <ele>42.4</ele>
    <time>2024-08-14T15:50:25.000Z</time>
   </trkpt>
   <trkpt lat="52.499443" lon="13.430947">
    <ele>42.4</ele>
    <time>2024-08-14T15:50:26.000Z</time>
   </trkpt>
   <trkpt lat="52.499451" lon="13.430758">
    <ele>42.6</ele>
    <time>2024-08-14T15:50:28.000Z</time>
   </trkpt>
   <trkpt lat="52.499459" lon="13.430606">
    <ele>42.6</ele>
    <time>2024-08-14T15:50:30.000Z</time>
   </trkpt>
   <trkpt lat="52.499518" lon="13.430085">
    <ele>42.2</ele>
    <time>2024-08-14T15:50:37.000Z</time>
   </trkpt>
   <trkpt lat="52.499524" lon="13.429955">
    <ele>42.2</ele>
    <time>2024-08-14T15:50:39.000Z</time>
   </trkpt>
   <trkpt lat="52.499503" lon="13.429674">
    <ele>41.8</ele>
    <time>2024-08-14T15:50:43.000Z</time>
   </trkpt>
   <trkpt lat="52.499493" lon="13.42954">
    <ele>42</ele>
    <time>2024-08-14T15:50:45.000Z</time>
   </trkpt>
   <trkpt lat="52.49949" lon="13.429328">
    <ele>42</ele>
    <time>2024-08-14T15:50:48.000Z</time>
   </trkpt>
   <trkpt lat="52.499472" lon="13.429256">
    <ele>42</ele>
    <time>2024-08-14T15:50:49.000Z</time>
   </trkpt>
   <trkpt lat="52.49943" lon="13.428943">
    <ele>42</ele>
    <time>2024-08-14T15:50:54.000Z</time>
   </trkpt>
   <trkpt lat="52.499417" lon="13.428879">
    <ele>42</ele>
    <time>2024-08-14T15:50:55.000Z</time>
   </trkpt>
   <trkpt lat="52.499399" lon="13.428777">
    <ele>42.2</ele>
    <time>2024-08-14T15:50:57.000Z</time>
   </trkpt>
   <trkpt lat="52.499371" lon="13.428692">
    <ele>41.8</ele>
    <time>2024-08-14T15:50:59.000Z</time>
   </trkpt>
   <trkpt lat="52.499355" lon="13.428629">
    <ele>41.6</ele>
    <time>2024-08-14T15:51:00.000Z</time>
   </trkpt>
   <trkpt lat="52.499353" lon="13.428478">
    <ele>42</ele>
    <time>2024-08-14T15:51:02.000Z</time>
   </trkpt>
   <trkpt lat="52.499309" lon="13.428216">
    <ele>41.6</ele>
    <time>2024-08-14T15:51:07.000Z</time>
   </trkpt>
   <trkpt lat="52.499314" lon="13.427908">
    <ele>41.6</ele>
    <time>2024-08-14T15:51:12.000Z</time>
   </trkpt>
   <trkpt lat="52.499284" lon="13.42763">
    <ele>41.6</ele>
    <time>2024-08-14T15:51:17.000Z</time>
   </trkpt>
   <trkpt lat="52.499273" lon="13.427331">
    <ele>41.4</ele>
    <time>2024-08-14T15:51:23.000Z</time>
   </trkpt>
   <trkpt lat="52.499269" lon="13.42728">
    <ele>41.4</ele>
    <time>2024-08-14T15:51:25.000Z</time>
   </trkpt>
   <trkpt lat="52.499277" lon="13.427219">
    <ele>41.2</ele>
    <time>2024-08-14T15:51:32.000Z</time>
   </trkpt>
   <trkpt lat="52.499282" lon="13.427157">
    <ele>41.2</ele>
    <time>2024-08-14T15:51:34.000Z</time>
   </trkpt>
   <trkpt lat="52.499287" lon="13.427118">
    <ele>41.2</ele>
    <time>2024-08-14T15:51:40.000Z</time>
   </trkpt>
   <trkpt lat="52.499285" lon="13.427115">
    <ele>41.2</ele>
    <time>2024-08-14T15:51:43.000Z</time>
   </trkpt>
   <trkpt lat="52.499295" lon="13.427064">
    <ele>41.4</ele>
    <time>2024-08-14T15:52:14.000Z</time>
   </trkpt>
   <trkpt lat="52.499294" lon="13.426985">
    <ele>41.4</ele>
    <time>2024-08-14T15:52:16.000Z</time>
   </trkpt>
   <trkpt lat="52.499294" lon="13.426745">
    <ele>41.4</ele>
    <time>2024-08-14T15:52:20.000Z</time>
   </trkpt>
   <trkpt lat="52.499332" lon="13.426622">
    <ele>41.4</ele>
    <time>2024-08-14T15:52:22.000Z</time>
   </trkpt>
   <trkpt lat="52.499357" lon="13.426558">
    <ele>41.2</ele>
    <time>2024-08-14T15:52:23.000Z</time>
   </trkpt>
   <trkpt lat="52.4994" lon="13.426405">
    <ele>41.2</ele>
    <time>2024-08-14T15:52:25.000Z</time>
   </trkpt>
   <trkpt lat="52.499464" lon="13.426157">
    <ele>41.2</ele>
    <time>2024-08-14T15:52:28.000Z</time>
   </trkpt>
   <trkpt lat="52.499531" lon="13.425886">
    <ele>41.2</ele>
    <time>2024-08-14T15:52:31.000Z</time>
   </trkpt>
   <trkpt lat="52.49959" lon="13.42571">
    <ele>41.2</ele>
    <time>2024-08-14T15:52:33.000Z</time>
   </trkpt>
   <trkpt lat="52.499613" lon="13.425641">
    <ele>41.2</ele>
    <time>2024-08-14T15:52:34.000Z</time>
   </trkpt>
   <trkpt lat="52.499635" lon="13.425552">
    <ele>41.2</ele>
    <time>2024-08-14T15:52:35.000Z</time>
   </trkpt>
   <trkpt lat="52.499744" lon="13.425217">
    <ele>41.2</ele>
    <time>2024-08-14T15:52:39.000Z</time>
   </trkpt>
   <trkpt lat="52.499896" lon="13.424745">
    <ele>41.2</ele>
    <time>2024-08-14T15:52:45.000Z</time>
   </trkpt>
   <trkpt lat="52.500058" lon="13.424064">
    <ele>41</ele>
    <time>2024-08-14T15:52:53.000Z</time>
   </trkpt>
   <trkpt lat="52.500208" lon="13.423485">
    <ele>40.8</ele>
    <time>2024-08-14T15:53:01.000Z</time>
   </trkpt>
   <trkpt lat="52.50027" lon="13.423328">
    <ele>41</ele>
    <time>2024-08-14T15:53:05.000Z</time>
   </trkpt>
   <trkpt lat="52.500271" lon="13.423323">
    <ele>41</ele>
    <time>2024-08-14T15:53:06.000Z</time>
   </trkpt>
   <trkpt lat="52.500272" lon="13.423295">
    <ele>41.2</ele>
    <time>2024-08-14T15:53:14.000Z</time>
   </trkpt>
   <trkpt lat="52.500302" lon="13.423235">
    <ele>41.2</ele>
    <time>2024-08-14T15:53:16.000Z</time>
   </trkpt>
   <trkpt lat="52.500358" lon="13.423087">
    <ele>41.2</ele>
    <time>2024-08-14T15:53:19.000Z</time>
   </trkpt>
   <trkpt lat="52.500432" lon="13.422789">
    <ele>41.2</ele>
    <time>2024-08-14T15:53:23.000Z</time>
   </trkpt>
   <trkpt lat="52.500573" lon="13.422208">
    <ele>41</ele>
    <time>2024-08-14T15:53:30.000Z</time>
   </trkpt>
   <trkpt lat="52.500717" lon="13.421618">
    <ele>40.8</ele>
    <time>2024-08-14T15:53:37.000Z</time>
   </trkpt>
   <trkpt lat="52.50074" lon="13.42154">
    <ele>40.8</ele>
    <time>2024-08-14T15:53:38.000Z</time>
   </trkpt>
   <trkpt lat="52.500921" lon="13.420919">
    <ele>40.8</ele>
    <time>2024-08-14T15:53:46.000Z</time>
   </trkpt>
   <trkpt lat="52.501096" lon="13.420299">
    <ele>40.6</ele>
    <time>2024-08-14T15:53:54.000Z</time>
   </trkpt>
   <trkpt lat="52.501247" lon="13.419759">
    <ele>40.6</ele>
    <time>2024-08-14T15:54:02.000Z</time>
   </trkpt>
   <trkpt lat="52.501302" lon="13.419587">
    <ele>40.8</ele>
    <time>2024-08-14T15:54:06.000Z</time>
   </trkpt>
   <trkpt lat="52.501311" lon="13.419536">
    <ele>40.8</ele>
    <time>2024-08-14T15:54:23.000Z</time>
   </trkpt>
   <trkpt lat="52.501311" lon="13.419456">
    <ele>40.8</ele>
    <time>2024-08-14T15:54:25.000Z</time>
   </trkpt>
   <trkpt lat="52.501366" lon="13.419234">
    <ele>40.8</ele>
    <time>2024-08-14T15:54:29.000Z</time>
   </trkpt>
   <trkpt lat="52.501418" lon="13.419107">
    <ele>40.8</ele>
    <time>2024-08-14T15:54:31.000Z</time>
   </trkpt>
   <trkpt lat="52.501469" lon="13.418966">
    <ele>40.8</ele>
    <time>2024-08-14T15:54:33.000Z</time>
   </trkpt>
   <trkpt lat="52.501609" lon="13.418429">
    <ele>40.8</ele>
    <time>2024-08-14T15:54:40.000Z</time>
   </trkpt>
   <trkpt lat="52.501633" lon="13.418352">
    <ele>40.8</ele>
    <time>2024-08-14T15:54:41.000Z</time>
   </trkpt>
   <trkpt lat="52.501781" lon="13.417897">
    <ele>40.8</ele>
    <time>2024-08-14T15:54:47.000Z</time>
   </trkpt>
   <trkpt lat="52.501996" lon="13.417073">
    <ele>41</ele>
    <time>2024-08-14T15:54:57.000Z</time>
   </trkpt>
   <trkpt lat="52.50204" lon="13.416919">
    <ele>41</ele>
    <time>2024-08-14T15:54:59.000Z</time>
   </trkpt>
   <trkpt lat="52.502092" lon="13.416713">
    <ele>41</ele>
    <time>2024-08-14T15:55:02.000Z</time>
   </trkpt>
   <trkpt lat="52.502284" lon="13.416302">
    <ele>41</ele>
    <time>2024-08-14T15:55:08.000Z</time>
   </trkpt>
   <trkpt lat="52.502417" lon="13.415787">
    <ele>41</ele>
    <time>2024-08-14T15:55:15.000Z</time>
   </trkpt>
   <trkpt lat="52.502532" lon="13.415413">
    <ele>40.8</ele>
    <time>2024-08-14T15:55:21.000Z</time>
   </trkpt>
   <trkpt lat="52.502561" lon="13.415284">
    <ele>40.8</ele>
    <time>2024-08-14T15:55:25.000Z</time>
   </trkpt>
   <trkpt lat="52.502568" lon="13.415251">
    <ele>41</ele>
    <time>2024-08-14T15:55:27.000Z</time>
   </trkpt>
   <trkpt lat="52.502566" lon="13.415108">
    <ele>41</ele>
    <time>2024-08-14T15:55:31.000Z</time>
   </trkpt>
   <trkpt lat="52.502558" lon="13.41498">
    <ele>41.2</ele>
    <time>2024-08-14T15:55:33.000Z</time>
   </trkpt>
   <trkpt lat="52.502575" lon="13.414839">
    <ele>41.2</ele>
    <time>2024-08-14T15:55:35.000Z</time>
   </trkpt>
   <trkpt lat="52.502714" lon="13.414384">
    <ele>41.2</ele>
    <time>2024-08-14T15:55:41.000Z</time>
   </trkpt>
   <trkpt lat="52.502958" lon="13.413577">
    <ele>41</ele>
    <time>2024-08-14T15:55:51.000Z</time>
   </trkpt>
   <trkpt lat="52.503125" lon="13.412902">
    <ele>41</ele>
    <time>2024-08-14T15:55:59.000Z</time>
   </trkpt>
   <trkpt lat="52.503275" lon="13.412357">
    <ele>41</ele>
    <time>2024-08-14T15:56:06.000Z</time>
   </trkpt>
   <trkpt lat="52.503388" lon="13.411963">
    <ele>41</ele>
    <time>2024-08-14T15:56:13.000Z</time>
   </trkpt>
   <trkpt lat="52.50347" lon="13.411651">
    <ele>41.2</ele>
    <time>2024-08-14T15:56:18.000Z</time>
   </trkpt>
   <trkpt lat="52.503492" lon="13.411577">
    <ele>41.2</ele>
    <time>2024-08-14T15:56:19.000Z</time>
   </trkpt>
   <trkpt lat="52.503555" lon="13.411357">
    <ele>41.2</ele>
    <time>2024-08-14T15:56:22.000Z</time>
   </trkpt>
   <trkpt lat="52.503579" lon="13.411304">
    <ele>41.4</ele>
    <time>2024-08-14T15:56:23.000Z</time>
   </trkpt>
   <trkpt lat="52.503615" lon="13.411268">
    <ele>41.2</ele>
    <time>2024-08-14T15:56:24.000Z</time>
   </trkpt>
   <trkpt lat="52.503694" lon="13.411213">
    <ele>41.4</ele>
    <time>2024-08-14T15:56:26.000Z</time>
   </trkpt>
   <trkpt lat="52.503739" lon="13.411184">
    <ele>41.4</ele>
    <time>2024-08-14T15:56:27.000Z</time>
   </trkpt>
   <trkpt lat="52.503867" lon="13.411068">
    <ele>41.4</ele>
    <time>2024-08-14T15:56:30.000Z</time>
   </trkpt>
   <trkpt lat="52.503914" lon="13.410965">
    <ele>41.4</ele>
    <time>2024-08-14T15:56:32.000Z</time>
   </trkpt>
   <trkpt lat="52.503918" lon="13.41081">
    <ele>41.4</ele>
    <time>2024-08-14T15:56:34.000Z</time>
   </trkpt>
   <trkpt lat="52.503907" lon="13.410727">
    <ele>41.4</ele>
    <time>2024-08-14T15:56:35.000Z</time>
   </trkpt>
   <trkpt lat="52.50387" lon="13.410476">
    <ele>41.4</ele>
    <time>2024-08-14T15:56:38.000Z</time>
   </trkpt>
   <trkpt lat="52.503892" lon="13.410312">
    <ele>41.2</ele>
    <time>2024-08-14T15:56:40.000Z</time>
   </trkpt>
   <trkpt lat="52.504017" lon="13.409877">
    <ele>41.2</ele>
    <time>2024-08-14T15:56:46.000Z</time>
   </trkpt>
   <trkpt lat="52.504079" lon="13.409651">
    <ele>41</ele>
    <time>2024-08-14T15:56:49.000Z</time>
   </trkpt>
   <trkpt lat="52.504099" lon="13.409577">
    <ele>41</ele>
    <time>2024-08-14T15:56:50.000Z</time>
   </trkpt>
   <trkpt lat="52.504133" lon="13.409432">
    <ele>41</ele>
    <time>2024-08-14T15:56:52.000Z</time>
   </trkpt>
   <trkpt lat="52.504185" lon="13.409315">
    <ele>41</ele>
    <time>2024-08-14T15:56:54.000Z</time>
   </trkpt>
   <trkpt lat="52.504203" lon="13.409254">
    <ele>41.2</ele>
    <time>2024-08-14T15:56:55.000Z</time>
   </trkpt>
   <trkpt lat="52.504309" lon="13.408846">
    <ele>41.4</ele>
    <time>2024-08-14T15:57:01.000Z</time>
   </trkpt>
   <trkpt lat="52.50435" lon="13.408722">
    <ele>41.4</ele>
    <time>2024-08-14T15:57:03.000Z</time>
   </trkpt>
   <trkpt lat="52.504405" lon="13.408557">
    <ele>41.4</ele>
    <time>2024-08-14T15:57:06.000Z</time>
   </trkpt>
   <trkpt lat="52.504484" lon="13.408282">
    <ele>41.4</ele>
    <time>2024-08-14T15:57:11.000Z</time>
   </trkpt>
   <trkpt lat="52.504512" lon="13.408147">
    <ele>41.4</ele>
    <time>2024-08-14T15:57:14.000Z</time>
   </trkpt>
   <trkpt lat="52.504506" lon="13.408114">
    <ele>41.4</ele>
    <time>2024-08-14T15:57:15.000Z</time>
   </trkpt>
   <trkpt lat="52.504472" lon="13.40807">
    <ele>41.4</ele>
    <time>2024-08-14T15:57:18.000Z</time>
   </trkpt>
   <trkpt lat="52.504458" lon="13.408045">
    <ele>41.4</ele>
    <time>2024-08-14T15:57:19.000Z</time>
   </trkpt>
   <trkpt lat="52.50436" lon="13.407919">
    <ele>41.4</ele>
    <time>2024-08-14T15:57:23.000Z</time>
   </trkpt>
   <trkpt lat="52.504328" lon="13.407895">
    <ele>41.4</ele>
    <time>2024-08-14T15:57:25.000Z</time>
   </trkpt>
   <trkpt lat="52.504316" lon="13.407894">
    <ele>41.4</ele>
    <time>2024-08-14T15:57:28.000Z</time>
   </trkpt>
   <trkpt lat="52.504306" lon="13.407886">
    <ele>41.4</ele>
    <time>2024-08-14T15:57:29.000Z</time>
   </trkpt>
   <trkpt lat="52.504227" lon="13.407824">
    <ele>41.4</ele>
    <time>2024-08-14T15:57:33.000Z</time>
   </trkpt>
   <trkpt lat="52.504125" lon="13.407746">
    <ele>41.4</ele>
    <time>2024-08-14T15:57:36.000Z</time>
   </trkpt>
   <trkpt lat="52.504085" lon="13.407703">
    <ele>41.4</ele>
    <time>2024-08-14T15:57:37.000Z</time>
   </trkpt>
   <trkpt lat="52.504057" lon="13.407679">
    <ele>41.4</ele>
    <time>2024-08-14T15:57:38.000Z</time>
   </trkpt>
   <trkpt lat="52.503848" lon="13.407474">
    <ele>41.4</ele>
    <time>2024-08-14T15:57:44.000Z</time>
   </trkpt>
   <trkpt lat="52.503574" lon="13.407251">
    <ele>41.6</ele>
    <time>2024-08-14T15:57:52.000Z</time>
   </trkpt>
   <trkpt lat="52.503568" lon="13.407238">
    <ele>41.6</ele>
    <time>2024-08-14T15:57:53.000Z</time>
   </trkpt>
   <trkpt lat="52.503572" lon="13.407245">
    <ele>41.6</ele>
    <time>2024-08-14T15:57:54.000Z</time>
   </trkpt>
   <trkpt lat="52.503534" lon="13.40725">
    <ele>41.6</ele>
    <time>2024-08-14T15:57:57.000Z</time>
   </trkpt>
   <trkpt lat="52.503529" lon="13.407249">
    <ele>41.6</ele>
    <time>2024-08-14T15:57:58.000Z</time>
   </trkpt>
   <trkpt lat="52.503344" lon="13.40795">
    <ele>41.6</ele>
    <time>2024-08-14T15:58:13.000Z</time>
   </trkpt>
   <trkpt lat="52.503379" lon="13.408049">
    <ele>41.6</ele>
    <time>2024-08-14T15:58:14.000Z</time>
   </trkpt>
   <trkpt lat="52.503373" lon="13.408073">
    <ele>41.6</ele>
    <time>2024-08-14T15:58:16.000Z</time>
   </trkpt>
   <trkpt lat="52.503387" lon="13.408105">
    <ele>41.8</ele>
    <time>2024-08-14T15:58:18.000Z</time>
   </trkpt>
   <trkpt lat="52.503433" lon="13.408152">
    <ele>42</ele>
    <time>2024-08-14T15:58:20.000Z</time>
   </trkpt>
   <trkpt lat="52.503444" lon="13.408195">
    <ele>42</ele>
    <time>2024-08-14T15:58:22.000Z</time>
   </trkpt>
   <trkpt lat="52.50349" lon="13.408282">
    <ele>42</ele>
    <time>2024-08-14T15:58:24.000Z</time>
   </trkpt>
   <trkpt lat="52.503486" lon="13.40829">
    <ele>42</ele>
    <time>2024-08-14T15:58:25.000Z</time>
   </trkpt>
   <trkpt lat="52.503486" lon="13.40829">
    <ele>42</ele>
    <time>2024-08-14T15:58:28.000Z</time>
   </trkpt>
   <trkpt lat="52.503506" lon="13.408329">
    <ele>42</ele>
    <time>2024-08-14T15:58:30.000Z</time>
   </trkpt>
  </trkseg>
 </trk>
</gpx>
