<?xml version="1.0" encoding="UTF-8"?>
<gpx creator="StravaGPX" version="1.1" xmlns="http://www.topografix.com/GPX/1/1">
 <metadata>
  <time>2020-01-13T22:37:37Z</time>
 </metadata>
 <trk>
  <name>Evening Ride</name>
  <type>1</type>
  <trkseg>
   <trkpt lat="-8.06532" lon="-34.896788">
    <ele>5.1</ele>
    <time>2020-01-13T22:37:37.000Z</time>
   </trkpt>
   <trkpt lat="-8.065303" lon="-34.896804">
    <ele>5.1</ele>
    <time>2020-01-13T22:37:38.000Z</time>
   </trkpt>
   <trkpt lat="-8.065277" lon="-34.896821">
    <ele>5</ele>
    <time>2020-01-13T22:37:40.000Z</time>
   </trkpt>
   <trkpt lat="-8.065254" lon="-34.896853">
    <ele>5</ele>
    <time>2020-01-13T22:37:43.000Z</time>
   </trkpt>
   <trkpt lat="-8.065223" lon="-34.896886">
    <ele>5</ele>
    <time>2020-01-13T22:37:45.000Z</time>
   </trkpt>
   <trkpt lat="-8.065196" lon="-34.896888">
    <ele>5</ele>
    <time>2020-01-13T22:37:46.000Z</time>
   </trkpt>
   <trkpt lat="-8.065137" lon="-34.896893">
    <ele>5</ele>
    <time>2020-01-13T22:37:48.000Z</time>
   </trkpt>
   <trkpt lat="-8.065108" lon="-34.896907">
    <ele>5</ele>
    <time>2020-01-13T22:37:49.000Z</time>
   </trkpt>
   <trkpt lat="-8.065092" lon="-34.896911">
    <ele>5</ele>
    <time>2020-01-13T22:37:50.000Z</time>
   </trkpt>
   <trkpt lat="-8.065047" lon="-34.896933">
    <ele>5.1</ele>
    <time>2020-01-13T22:37:52.000Z</time>
   </trkpt>
   <trkpt lat="-8.065013" lon="-34.896953">
    <ele>5.1</ele>
    <time>2020-01-13T22:37:54.000Z</time>
   </trkpt>
   <trkpt lat="-8.064946" lon="-34.896965">
    <ele>5.1</ele>
    <time>2020-01-13T22:37:56.000Z</time>
   </trkpt>
   <trkpt lat="-8.06491" lon="-34.89697">
    <ele>5.2</ele>
    <time>2020-01-13T22:37:57.000Z</time>
   </trkpt>
   <trkpt lat="-8.064873" lon="-34.89697">
    <ele>5.2</ele>
    <time>2020-01-13T22:37:58.000Z</time>
   </trkpt>
   <trkpt lat="-8.064835" lon="-34.896982">
    <ele>5.2</ele>
    <time>2020-01-13T22:37:59.000Z</time>
   </trkpt>
   <trkpt lat="-8.064787" lon="-34.896995">
    <ele>5.2</ele>
    <time>2020-01-13T22:38:00.000Z</time>
   </trkpt>
   <trkpt lat="-8.064748" lon="-34.897013">
    <ele>5.3</ele>
    <time>2020-01-13T22:38:01.000Z</time>
   </trkpt>
   <trkpt lat="-8.064699" lon="-34.897017">
    <ele>5.3</ele>
    <time>2020-01-13T22:38:02.000Z</time>
   </trkpt>
   <trkpt lat="-8.064646" lon="-34.897025">
    <ele>5.3</ele>
    <time>2020-01-13T22:38:03.000Z</time>
   </trkpt>
   <trkpt lat="-8.064592" lon="-34.897025">
    <ele>5.2</ele>
    <time>2020-01-13T22:38:04.000Z</time>
   </trkpt>
   <trkpt lat="-8.06454" lon="-34.897031">
    <ele>5.1</ele>
    <time>2020-01-13T22:38:05.000Z</time>
   </trkpt>
   <trkpt lat="-8.064489" lon="-34.897028">
    <ele>5</ele>
    <time>2020-01-13T22:38:06.000Z</time>
   </trkpt>
   <trkpt lat="-8.06444" lon="-34.897035">
    <ele>5.1</ele>
    <time>2020-01-13T22:38:07.000Z</time>
   </trkpt>
   <trkpt lat="-8.064401" lon="-34.897044">
    <ele>5.2</ele>
    <time>2020-01-13T22:38:08.000Z</time>
   </trkpt>
   <trkpt lat="-8.064379" lon="-34.897064">
    <ele>5.2</ele>
    <time>2020-01-13T22:38:09.000Z</time>
   </trkpt>
   <trkpt lat="-8.064358" lon="-34.897071">
    <ele>5.3</ele>
    <time>2020-01-13T22:38:10.000Z</time>
   </trkpt>
   <trkpt lat="-8.064301" lon="-34.897074">
    <ele>5.3</ele>
    <time>2020-01-13T22:38:12.000Z</time>
   </trkpt>
   <trkpt lat="-8.064271" lon="-34.897086">
    <ele>5.4</ele>
    <time>2020-01-13T22:38:13.000Z</time>
   </trkpt>
   <trkpt lat="-8.064244" lon="-34.897096">
    <ele>5.4</ele>
    <time>2020-01-13T22:38:14.000Z</time>
   </trkpt>
   <trkpt lat="-8.064222" lon="-34.897098">
    <ele>5.4</ele>
    <time>2020-01-13T22:38:15.000Z</time>
   </trkpt>
   <trkpt lat="-8.064186" lon="-34.897114">
    <ele>5.5</ele>
    <time>2020-01-13T22:38:17.000Z</time>
   </trkpt>
   <trkpt lat="-8.064139" lon="-34.897101">
    <ele>5.5</ele>
    <time>2020-01-13T22:38:19.000Z</time>
   </trkpt>
   <trkpt lat="-8.064121" lon="-34.897127">
    <ele>5.5</ele>
    <time>2020-01-13T22:38:21.000Z</time>
   </trkpt>
   <trkpt lat="-8.064095" lon="-34.897139">
    <ele>5.5</ele>
    <time>2020-01-13T22:38:23.000Z</time>
   </trkpt>
   <trkpt lat="-8.064022" lon="-34.897163">
    <ele>5.6</ele>
    <time>2020-01-13T22:38:25.000Z</time>
   </trkpt>
   <trkpt lat="-8.064001" lon="-34.897167">
    <ele>5.6</ele>
    <time>2020-01-13T22:38:26.000Z</time>
   </trkpt>
   <trkpt lat="-8.063951" lon="-34.897158">
    <ele>5.6</ele>
    <time>2020-01-13T22:38:28.000Z</time>
   </trkpt>
   <trkpt lat="-8.063905" lon="-34.897164">
    <ele>5.6</ele>
    <time>2020-01-13T22:38:29.000Z</time>
   </trkpt>
   <trkpt lat="-8.063863" lon="-34.897168">
    <ele>5.6</ele>
    <time>2020-01-13T22:38:30.000Z</time>
   </trkpt>
   <trkpt lat="-8.063812" lon="-34.897161">
    <ele>5.6</ele>
    <time>2020-01-13T22:38:31.000Z</time>
   </trkpt>
   <trkpt lat="-8.063762" lon="-34.897174">
    <ele>5.6</ele>
    <time>2020-01-13T22:38:32.000Z</time>
   </trkpt>
   <trkpt lat="-8.063714" lon="-34.897179">
    <ele>5.5</ele>
    <time>2020-01-13T22:38:33.000Z</time>
   </trkpt>
   <trkpt lat="-8.063671" lon="-34.897186">
    <ele>5.5</ele>
    <time>2020-01-13T22:38:34.000Z</time>
   </trkpt>
   <trkpt lat="-8.063621" lon="-34.897193">
    <ele>5.4</ele>
    <time>2020-01-13T22:38:35.000Z</time>
   </trkpt>
   <trkpt lat="-8.063563" lon="-34.897164">
    <ele>5.3</ele>
    <time>2020-01-13T22:38:36.000Z</time>
   </trkpt>
   <trkpt lat="-8.063502" lon="-34.897193">
    <ele>5.2</ele>
    <time>2020-01-13T22:38:37.000Z</time>
   </trkpt>
   <trkpt lat="-8.063427" lon="-34.897188">
    <ele>5.2</ele>
    <time>2020-01-13T22:38:38.000Z</time>
   </trkpt>
   <trkpt lat="-8.063359" lon="-34.897197">
    <ele>5.1</ele>
    <time>2020-01-13T22:38:39.000Z</time>
   </trkpt>
   <trkpt lat="-8.063288" lon="-34.897211">
    <ele>5</ele>
    <time>2020-01-13T22:38:40.000Z</time>
   </trkpt>
   <trkpt lat="-8.063223" lon="-34.897224">
    <ele>4.8</ele>
    <time>2020-01-13T22:38:41.000Z</time>
   </trkpt>
   <trkpt lat="-8.063152" lon="-34.897237">
    <ele>4.6</ele>
    <time>2020-01-13T22:38:42.000Z</time>
   </trkpt>
   <trkpt lat="-8.06309" lon="-34.897247">
    <ele>4.5</ele>
    <time>2020-01-13T22:38:43.000Z</time>
   </trkpt>
   <trkpt lat="-8.063037" lon="-34.897246">
    <ele>4.3</ele>
    <time>2020-01-13T22:38:44.000Z</time>
   </trkpt>
   <trkpt lat="-8.062979" lon="-34.897246">
    <ele>4.1</ele>
    <time>2020-01-13T22:38:45.000Z</time>
   </trkpt>
   <trkpt lat="-8.062921" lon="-34.897247">
    <ele>3.9</ele>
    <time>2020-01-13T22:38:46.000Z</time>
   </trkpt>
   <trkpt lat="-8.062865" lon="-34.897243">
    <ele>3.7</ele>
    <time>2020-01-13T22:38:47.000Z</time>
   </trkpt>
   <trkpt lat="-8.062805" lon="-34.897238">
    <ele>3.6</ele>
    <time>2020-01-13T22:38:48.000Z</time>
   </trkpt>
   <trkpt lat="-8.062748" lon="-34.897232">
    <ele>3.4</ele>
    <time>2020-01-13T22:38:49.000Z</time>
   </trkpt>
   <trkpt lat="-8.062709" lon="-34.897241">
    <ele>3.3</ele>
    <time>2020-01-13T22:38:50.000Z</time>
   </trkpt>
   <trkpt lat="-8.062675" lon="-34.897247">
    <ele>3.3</ele>
    <time>2020-01-13T22:38:51.000Z</time>
   </trkpt>
   <trkpt lat="-8.062657" lon="-34.897243">
    <ele>3.3</ele>
    <time>2020-01-13T22:38:52.000Z</time>
   </trkpt>
   <trkpt lat="-8.062603" lon="-34.897238">
    <ele>3.2</ele>
    <time>2020-01-13T22:38:54.000Z</time>
   </trkpt>
   <trkpt lat="-8.062557" lon="-34.89725">
    <ele>3.1</ele>
    <time>2020-01-13T22:38:57.000Z</time>
   </trkpt>
   <trkpt lat="-8.06251" lon="-34.897263">
    <ele>3</ele>
    <time>2020-01-13T22:39:01.000Z</time>
   </trkpt>
   <trkpt lat="-8.062464" lon="-34.897275">
    <ele>3.2</ele>
    <time>2020-01-13T22:39:52.000Z</time>
   </trkpt>
   <trkpt lat="-8.062418" lon="-34.897287">
    <ele>3.3</ele>
    <time>2020-01-13T22:39:53.000Z</time>
   </trkpt>
   <trkpt lat="-8.062358" lon="-34.897293">
    <ele>3.5</ele>
    <time>2020-01-13T22:39:54.000Z</time>
   </trkpt>
   <trkpt lat="-8.062298" lon="-34.897305">
    <ele>3.7</ele>
    <time>2020-01-13T22:39:55.000Z</time>
   </trkpt>
   <trkpt lat="-8.062227" lon="-34.897313">
    <ele>4</ele>
    <time>2020-01-13T22:39:56.000Z</time>
   </trkpt>
   <trkpt lat="-8.062165" lon="-34.897316">
    <ele>4.2</ele>
    <time>2020-01-13T22:39:57.000Z</time>
   </trkpt>
   <trkpt lat="-8.062095" lon="-34.897331">
    <ele>4.5</ele>
    <time>2020-01-13T22:39:58.000Z</time>
   </trkpt>
   <trkpt lat="-8.062019" lon="-34.897315">
    <ele>4.9</ele>
    <time>2020-01-13T22:39:59.000Z</time>
   </trkpt>
   <trkpt lat="-8.061952" lon="-34.897318">
    <ele>5.2</ele>
    <time>2020-01-13T22:40:00.000Z</time>
   </trkpt>
   <trkpt lat="-8.061881" lon="-34.897326">
    <ele>5.5</ele>
    <time>2020-01-13T22:40:01.000Z</time>
   </trkpt>
   <trkpt lat="-8.06181" lon="-34.897336">
    <ele>5.8</ele>
    <time>2020-01-13T22:40:02.000Z</time>
   </trkpt>
   <trkpt lat="-8.061732" lon="-34.897349">
    <ele>6.1</ele>
    <time>2020-01-13T22:40:03.000Z</time>
   </trkpt>
   <trkpt lat="-8.061652" lon="-34.897354">
    <ele>6.3</ele>
    <time>2020-01-13T22:40:04.000Z</time>
   </trkpt>
   <trkpt lat="-8.06157" lon="-34.89736">
    <ele>6.6</ele>
    <time>2020-01-13T22:40:05.000Z</time>
   </trkpt>
   <trkpt lat="-8.061476" lon="-34.897373">
    <ele>6.9</ele>
    <time>2020-01-13T22:40:06.000Z</time>
   </trkpt>
   <trkpt lat="-8.061396" lon="-34.897382">
    <ele>7.1</ele>
    <time>2020-01-13T22:40:07.000Z</time>
   </trkpt>
   <trkpt lat="-8.061304" lon="-34.897391">
    <ele>7.4</ele>
    <time>2020-01-13T22:40:08.000Z</time>
   </trkpt>
   <trkpt lat="-8.06121" lon="-34.897398">
    <ele>7.6</ele>
    <time>2020-01-13T22:40:09.000Z</time>
   </trkpt>
   <trkpt lat="-8.061119" lon="-34.897411">
    <ele>7.9</ele>
    <time>2020-01-13T22:40:10.000Z</time>
   </trkpt>
   <trkpt lat="-8.061033" lon="-34.89742">
    <ele>8.2</ele>
    <time>2020-01-13T22:40:11.000Z</time>
   </trkpt>
   <trkpt lat="-8.060953" lon="-34.897428">
    <ele>8.4</ele>
    <time>2020-01-13T22:40:12.000Z</time>
   </trkpt>
   <trkpt lat="-8.060885" lon="-34.89743">
    <ele>8.7</ele>
    <time>2020-01-13T22:40:13.000Z</time>
   </trkpt>
   <trkpt lat="-8.06081" lon="-34.897436">
    <ele>8.9</ele>
    <time>2020-01-13T22:40:14.000Z</time>
   </trkpt>
   <trkpt lat="-8.060732" lon="-34.897442">
    <ele>9.2</ele>
    <time>2020-01-13T22:40:15.000Z</time>
   </trkpt>
   <trkpt lat="-8.060663" lon="-34.897453">
    <ele>9.5</ele>
    <time>2020-01-13T22:40:16.000Z</time>
   </trkpt>
   <trkpt lat="-8.06058" lon="-34.897463">
    <ele>9.9</ele>
    <time>2020-01-13T22:40:17.000Z</time>
   </trkpt>
   <trkpt lat="-8.060494" lon="-34.897477">
    <ele>10.2</ele>
    <time>2020-01-13T22:40:18.000Z</time>
   </trkpt>
   <trkpt lat="-8.060414" lon="-34.897497">
    <ele>10.3</ele>
    <time>2020-01-13T22:40:19.000Z</time>
   </trkpt>
   <trkpt lat="-8.060325" lon="-34.897516">
    <ele>10.5</ele>
    <time>2020-01-13T22:40:20.000Z</time>
   </trkpt>
   <trkpt lat="-8.060247" lon="-34.89753">
    <ele>10.6</ele>
    <time>2020-01-13T22:40:21.000Z</time>
   </trkpt>
   <trkpt lat="-8.060163" lon="-34.897546">
    <ele>10.8</ele>
    <time>2020-01-13T22:40:22.000Z</time>
   </trkpt>
   <trkpt lat="-8.060084" lon="-34.89755">
    <ele>10.7</ele>
    <time>2020-01-13T22:40:23.000Z</time>
   </trkpt>
   <trkpt lat="-8.060007" lon="-34.897555">
    <ele>10.6</ele>
    <time>2020-01-13T22:40:24.000Z</time>
   </trkpt>
   <trkpt lat="-8.059926" lon="-34.897564">
    <ele>10.6</ele>
    <time>2020-01-13T22:40:25.000Z</time>
   </trkpt>
   <trkpt lat="-8.059849" lon="-34.897565">
    <ele>10.4</ele>
    <time>2020-01-13T22:40:26.000Z</time>
   </trkpt>
   <trkpt lat="-8.059789" lon="-34.897569">
    <ele>10.4</ele>
    <time>2020-01-13T22:40:27.000Z</time>
   </trkpt>
   <trkpt lat="-8.059723" lon="-34.897574">
    <ele>10.3</ele>
    <time>2020-01-13T22:40:28.000Z</time>
   </trkpt>
   <trkpt lat="-8.059649" lon="-34.897579">
    <ele>10.2</ele>
    <time>2020-01-13T22:40:29.000Z</time>
   </trkpt>
   <trkpt lat="-8.05957" lon="-34.897593">
    <ele>10.1</ele>
    <time>2020-01-13T22:40:30.000Z</time>
   </trkpt>
   <trkpt lat="-8.059497" lon="-34.897605">
    <ele>10</ele>
    <time>2020-01-13T22:40:31.000Z</time>
   </trkpt>
   <trkpt lat="-8.059417" lon="-34.897613">
    <ele>9.9</ele>
    <time>2020-01-13T22:40:32.000Z</time>
   </trkpt>
   <trkpt lat="-8.059352" lon="-34.897612">
    <ele>9.8</ele>
    <time>2020-01-13T22:40:33.000Z</time>
   </trkpt>
   <trkpt lat="-8.059273" lon="-34.897608">
    <ele>9.7</ele>
    <time>2020-01-13T22:40:34.000Z</time>
   </trkpt>
   <trkpt lat="-8.059204" lon="-34.897625">
    <ele>9.6</ele>
    <time>2020-01-13T22:40:35.000Z</time>
   </trkpt>
   <trkpt lat="-8.059121" lon="-34.897632">
    <ele>9.6</ele>
    <time>2020-01-13T22:40:36.000Z</time>
   </trkpt>
   <trkpt lat="-8.059026" lon="-34.897656">
    <ele>9.4</ele>
    <time>2020-01-13T22:40:37.000Z</time>
   </trkpt>
   <trkpt lat="-8.05894" lon="-34.897667">
    <ele>9.3</ele>
    <time>2020-01-13T22:40:38.000Z</time>
   </trkpt>
   <trkpt lat="-8.058866" lon="-34.897671">
    <ele>9.7</ele>
    <time>2020-01-13T22:40:39.000Z</time>
   </trkpt>
   <trkpt lat="-8.058786" lon="-34.897669">
    <ele>10.2</ele>
    <time>2020-01-13T22:40:40.000Z</time>
   </trkpt>
   <trkpt lat="-8.058704" lon="-34.89766">
    <ele>10</ele>
    <time>2020-01-13T22:40:41.000Z</time>
   </trkpt>
   <trkpt lat="-8.058617" lon="-34.897662">
    <ele>9.5</ele>
    <time>2020-01-13T22:40:42.000Z</time>
   </trkpt>
   <trkpt lat="-8.058527" lon="-34.897665">
    <ele>9</ele>
    <time>2020-01-13T22:40:43.000Z</time>
   </trkpt>
   <trkpt lat="-8.058445" lon="-34.897665">
    <ele>8.6</ele>
    <time>2020-01-13T22:40:44.000Z</time>
   </trkpt>
   <trkpt lat="-8.058374" lon="-34.897661">
    <ele>8.3</ele>
    <time>2020-01-13T22:40:45.000Z</time>
   </trkpt>
   <trkpt lat="-8.058299" lon="-34.897661">
    <ele>8.1</ele>
    <time>2020-01-13T22:40:46.000Z</time>
   </trkpt>
   <trkpt lat="-8.05822" lon="-34.897657">
    <ele>7.9</ele>
    <time>2020-01-13T22:40:47.000Z</time>
   </trkpt>
   <trkpt lat="-8.058145" lon="-34.897658">
    <ele>7.8</ele>
    <time>2020-01-13T22:40:48.000Z</time>
   </trkpt>
   <trkpt lat="-8.058074" lon="-34.897664">
    <ele>7.7</ele>
    <time>2020-01-13T22:40:49.000Z</time>
   </trkpt>
   <trkpt lat="-8.057996" lon="-34.897667">
    <ele>7.6</ele>
    <time>2020-01-13T22:40:50.000Z</time>
   </trkpt>
   <trkpt lat="-8.057914" lon="-34.897666">
    <ele>7.5</ele>
    <time>2020-01-13T22:40:51.000Z</time>
   </trkpt>
   <trkpt lat="-8.057838" lon="-34.897663">
    <ele>7.4</ele>
    <time>2020-01-13T22:40:52.000Z</time>
   </trkpt>
   <trkpt lat="-8.057767" lon="-34.897661">
    <ele>7.4</ele>
    <time>2020-01-13T22:40:53.000Z</time>
   </trkpt>
   <trkpt lat="-8.057704" lon="-34.897656">
    <ele>7.3</ele>
    <time>2020-01-13T22:40:54.000Z</time>
   </trkpt>
   <trkpt lat="-8.057623" lon="-34.897653">
    <ele>7.2</ele>
    <time>2020-01-13T22:40:55.000Z</time>
   </trkpt>
   <trkpt lat="-8.057548" lon="-34.897661">
    <ele>7.1</ele>
    <time>2020-01-13T22:40:56.000Z</time>
   </trkpt>
   <trkpt lat="-8.057483" lon="-34.897662">
    <ele>7.1</ele>
    <time>2020-01-13T22:40:57.000Z</time>
   </trkpt>
   <trkpt lat="-8.057427" lon="-34.897658">
    <ele>7</ele>
    <time>2020-01-13T22:40:58.000Z</time>
   </trkpt>
   <trkpt lat="-8.057397" lon="-34.897658">
    <ele>7.3</ele>
    <time>2020-01-13T22:40:59.000Z</time>
   </trkpt>
   <trkpt lat="-8.057319" lon="-34.897653">
    <ele>7.8</ele>
    <time>2020-01-13T22:41:00.000Z</time>
   </trkpt>
   <trkpt lat="-8.057267" lon="-34.897655">
    <ele>8</ele>
    <time>2020-01-13T22:41:01.000Z</time>
   </trkpt>
   <trkpt lat="-8.057221" lon="-34.897653">
    <ele>8.3</ele>
    <time>2020-01-13T22:41:02.000Z</time>
   </trkpt>
   <trkpt lat="-8.057167" lon="-34.897657">
    <ele>8.6</ele>
    <time>2020-01-13T22:41:03.000Z</time>
   </trkpt>
   <trkpt lat="-8.057102" lon="-34.897656">
    <ele>8.7</ele>
    <time>2020-01-13T22:41:04.000Z</time>
   </trkpt>
   <trkpt lat="-8.057052" lon="-34.897655">
    <ele>8.7</ele>
    <time>2020-01-13T22:41:05.000Z</time>
   </trkpt>
   <trkpt lat="-8.056993" lon="-34.897653">
    <ele>8.8</ele>
    <time>2020-01-13T22:41:06.000Z</time>
   </trkpt>
   <trkpt lat="-8.056934" lon="-34.897651">
    <ele>8.8</ele>
    <time>2020-01-13T22:41:07.000Z</time>
   </trkpt>
   <trkpt lat="-8.056867" lon="-34.897654">
    <ele>8.8</ele>
    <time>2020-01-13T22:41:08.000Z</time>
   </trkpt>
   <trkpt lat="-8.056795" lon="-34.89766">
    <ele>8.9</ele>
    <time>2020-01-13T22:41:09.000Z</time>
   </trkpt>
   <trkpt lat="-8.056734" lon="-34.897668">
    <ele>8.6</ele>
    <time>2020-01-13T22:41:10.000Z</time>
   </trkpt>
   <trkpt lat="-8.056675" lon="-34.897665">
    <ele>8.4</ele>
    <time>2020-01-13T22:41:11.000Z</time>
   </trkpt>
   <trkpt lat="-8.056608" lon="-34.897662">
    <ele>8.1</ele>
    <time>2020-01-13T22:41:12.000Z</time>
   </trkpt>
   <trkpt lat="-8.056542" lon="-34.897662">
    <ele>7.8</ele>
    <time>2020-01-13T22:41:13.000Z</time>
   </trkpt>
   <trkpt lat="-8.056475" lon="-34.897657">
    <ele>6.8</ele>
    <time>2020-01-13T22:41:14.000Z</time>
   </trkpt>
   <trkpt lat="-8.056412" lon="-34.897655">
    <ele>6.2</ele>
    <time>2020-01-13T22:41:15.000Z</time>
   </trkpt>
   <trkpt lat="-8.056343" lon="-34.897655">
    <ele>6</ele>
    <time>2020-01-13T22:41:16.000Z</time>
   </trkpt>
   <trkpt lat="-8.056261" lon="-34.897652">
    <ele>5.8</ele>
    <time>2020-01-13T22:41:17.000Z</time>
   </trkpt>
   <trkpt lat="-8.056191" lon="-34.897643">
    <ele>5.9</ele>
    <time>2020-01-13T22:41:18.000Z</time>
   </trkpt>
   <trkpt lat="-8.056115" lon="-34.897639">
    <ele>6</ele>
    <time>2020-01-13T22:41:19.000Z</time>
   </trkpt>
   <trkpt lat="-8.056036" lon="-34.897635">
    <ele>6.2</ele>
    <time>2020-01-13T22:41:20.000Z</time>
   </trkpt>
   <trkpt lat="-8.05596" lon="-34.897629">
    <ele>6.4</ele>
    <time>2020-01-13T22:41:21.000Z</time>
   </trkpt>
   <trkpt lat="-8.055877" lon="-34.897616">
    <ele>6.7</ele>
    <time>2020-01-13T22:41:22.000Z</time>
   </trkpt>
   <trkpt lat="-8.055792" lon="-34.8976">
    <ele>7.6</ele>
    <time>2020-01-13T22:41:23.000Z</time>
   </trkpt>
   <trkpt lat="-8.05571" lon="-34.897584">
    <ele>8.5</ele>
    <time>2020-01-13T22:41:24.000Z</time>
   </trkpt>
   <trkpt lat="-8.055632" lon="-34.89756">
    <ele>9.3</ele>
    <time>2020-01-13T22:41:25.000Z</time>
   </trkpt>
   <trkpt lat="-8.055568" lon="-34.897535">
    <ele>10.1</ele>
    <time>2020-01-13T22:41:26.000Z</time>
   </trkpt>
   <trkpt lat="-8.055502" lon="-34.897514">
    <ele>10.8</ele>
    <time>2020-01-13T22:41:27.000Z</time>
   </trkpt>
   <trkpt lat="-8.055435" lon="-34.897492">
    <ele>10.7</ele>
    <time>2020-01-13T22:41:28.000Z</time>
   </trkpt>
   <trkpt lat="-8.055378" lon="-34.897491">
    <ele>10.6</ele>
    <time>2020-01-13T22:41:29.000Z</time>
   </trkpt>
   <trkpt lat="-8.055311" lon="-34.897473">
    <ele>10.5</ele>
    <time>2020-01-13T22:41:30.000Z</time>
   </trkpt>
   <trkpt lat="-8.055224" lon="-34.897444">
    <ele>10.5</ele>
    <time>2020-01-13T22:41:31.000Z</time>
   </trkpt>
   <trkpt lat="-8.055152" lon="-34.897419">
    <ele>10.4</ele>
    <time>2020-01-13T22:41:32.000Z</time>
   </trkpt>
   <trkpt lat="-8.055083" lon="-34.897379">
    <ele>10.4</ele>
    <time>2020-01-13T22:41:33.000Z</time>
   </trkpt>
   <trkpt lat="-8.055014" lon="-34.897337">
    <ele>10.3</ele>
    <time>2020-01-13T22:41:34.000Z</time>
   </trkpt>
   <trkpt lat="-8.054952" lon="-34.897292">
    <ele>10.3</ele>
    <time>2020-01-13T22:41:35.000Z</time>
   </trkpt>
   <trkpt lat="-8.054887" lon="-34.897251">
    <ele>10.2</ele>
    <time>2020-01-13T22:41:36.000Z</time>
   </trkpt>
   <trkpt lat="-8.054826" lon="-34.897211">
    <ele>10.2</ele>
    <time>2020-01-13T22:41:37.000Z</time>
   </trkpt>
   <trkpt lat="-8.05477" lon="-34.897166">
    <ele>10.1</ele>
    <time>2020-01-13T22:41:38.000Z</time>
   </trkpt>
   <trkpt lat="-8.05471" lon="-34.897113">
    <ele>10.1</ele>
    <time>2020-01-13T22:41:39.000Z</time>
   </trkpt>
   <trkpt lat="-8.054657" lon="-34.897064">
    <ele>10</ele>
    <time>2020-01-13T22:41:40.000Z</time>
   </trkpt>
   <trkpt lat="-8.054604" lon="-34.897021">
    <ele>9.9</ele>
    <time>2020-01-13T22:41:41.000Z</time>
   </trkpt>
   <trkpt lat="-8.054543" lon="-34.896965">
    <ele>9.8</ele>
    <time>2020-01-13T22:41:42.000Z</time>
   </trkpt>
   <trkpt lat="-8.054491" lon="-34.896919">
    <ele>9.7</ele>
    <time>2020-01-13T22:41:43.000Z</time>
   </trkpt>
   <trkpt lat="-8.054439" lon="-34.896891">
    <ele>9.5</ele>
    <time>2020-01-13T22:41:44.000Z</time>
   </trkpt>
   <trkpt lat="-8.054382" lon="-34.896858">
    <ele>9.6</ele>
    <time>2020-01-13T22:41:45.000Z</time>
   </trkpt>
   <trkpt lat="-8.054322" lon="-34.896822">
    <ele>9.8</ele>
    <time>2020-01-13T22:41:46.000Z</time>
   </trkpt>
   <trkpt lat="-8.054262" lon="-34.896784">
    <ele>9.9</ele>
    <time>2020-01-13T22:41:47.000Z</time>
   </trkpt>
   <trkpt lat="-8.054201" lon="-34.896741">
    <ele>9.6</ele>
    <time>2020-01-13T22:41:48.000Z</time>
   </trkpt>
   <trkpt lat="-8.054138" lon="-34.896698">
    <ele>9</ele>
    <time>2020-01-13T22:41:49.000Z</time>
   </trkpt>
   <trkpt lat="-8.054068" lon="-34.896656">
    <ele>8.4</ele>
    <time>2020-01-13T22:41:50.000Z</time>
   </trkpt>
   <trkpt lat="-8.054" lon="-34.896609">
    <ele>7.8</ele>
    <time>2020-01-13T22:41:51.000Z</time>
   </trkpt>
   <trkpt lat="-8.053937" lon="-34.896561">
    <ele>7.2</ele>
    <time>2020-01-13T22:41:52.000Z</time>
   </trkpt>
   <trkpt lat="-8.053876" lon="-34.896514">
    <ele>6.6</ele>
    <time>2020-01-13T22:41:53.000Z</time>
   </trkpt>
   <trkpt lat="-8.053815" lon="-34.896459">
    <ele>6.2</ele>
    <time>2020-01-13T22:41:54.000Z</time>
   </trkpt>
   <trkpt lat="-8.053757" lon="-34.896406">
    <ele>5.8</ele>
    <time>2020-01-13T22:41:55.000Z</time>
   </trkpt>
   <trkpt lat="-8.053703" lon="-34.896366">
    <ele>5.5</ele>
    <time>2020-01-13T22:41:56.000Z</time>
   </trkpt>
   <trkpt lat="-8.053647" lon="-34.89633">
    <ele>5</ele>
    <time>2020-01-13T22:41:57.000Z</time>
   </trkpt>
   <trkpt lat="-8.053585" lon="-34.896287">
    <ele>4.4</ele>
    <time>2020-01-13T22:41:58.000Z</time>
   </trkpt>
   <trkpt lat="-8.053514" lon="-34.896244">
    <ele>4</ele>
    <time>2020-01-13T22:41:59.000Z</time>
   </trkpt>
   <trkpt lat="-8.053447" lon="-34.896195">
    <ele>4.1</ele>
    <time>2020-01-13T22:42:00.000Z</time>
   </trkpt>
   <trkpt lat="-8.053394" lon="-34.896152">
    <ele>4.1</ele>
    <time>2020-01-13T22:42:01.000Z</time>
   </trkpt>
   <trkpt lat="-8.053332" lon="-34.89611">
    <ele>4.1</ele>
    <time>2020-01-13T22:42:02.000Z</time>
   </trkpt>
   <trkpt lat="-8.053278" lon="-34.896072">
    <ele>4.2</ele>
    <time>2020-01-13T22:42:03.000Z</time>
   </trkpt>
   <trkpt lat="-8.053214" lon="-34.896029">
    <ele>4.2</ele>
    <time>2020-01-13T22:42:04.000Z</time>
   </trkpt>
   <trkpt lat="-8.053148" lon="-34.89598">
    <ele>4.3</ele>
    <time>2020-01-13T22:42:05.000Z</time>
   </trkpt>
   <trkpt lat="-8.053083" lon="-34.895933">
    <ele>4.6</ele>
    <time>2020-01-13T22:42:06.000Z</time>
   </trkpt>
   <trkpt lat="-8.053019" lon="-34.895885">
    <ele>5.2</ele>
    <time>2020-01-13T22:42:07.000Z</time>
   </trkpt>
   <trkpt lat="-8.052952" lon="-34.895837">
    <ele>6</ele>
    <time>2020-01-13T22:42:08.000Z</time>
   </trkpt>
   <trkpt lat="-8.052891" lon="-34.895791">
    <ele>7.1</ele>
    <time>2020-01-13T22:42:09.000Z</time>
   </trkpt>
   <trkpt lat="-8.052825" lon="-34.895751">
    <ele>8.2</ele>
    <time>2020-01-13T22:42:10.000Z</time>
   </trkpt>
   <trkpt lat="-8.05276" lon="-34.895715">
    <ele>9.1</ele>
    <time>2020-01-13T22:42:11.000Z</time>
   </trkpt>
   <trkpt lat="-8.0527" lon="-34.895675">
    <ele>9.8</ele>
    <time>2020-01-13T22:42:12.000Z</time>
   </trkpt>
   <trkpt lat="-8.052637" lon="-34.895635">
    <ele>10.5</ele>
    <time>2020-01-13T22:42:13.000Z</time>
   </trkpt>
   <trkpt lat="-8.052577" lon="-34.895596">
    <ele>10.7</ele>
    <time>2020-01-13T22:42:14.000Z</time>
   </trkpt>
   <trkpt lat="-8.052517" lon="-34.895553">
    <ele>10.8</ele>
    <time>2020-01-13T22:42:15.000Z</time>
   </trkpt>
   <trkpt lat="-8.052465" lon="-34.895506">
    <ele>10.9</ele>
    <time>2020-01-13T22:42:16.000Z</time>
   </trkpt>
   <trkpt lat="-8.052417" lon="-34.895465">
    <ele>10.9</ele>
    <time>2020-01-13T22:42:17.000Z</time>
   </trkpt>
   <trkpt lat="-8.052371" lon="-34.895431">
    <ele>10.9</ele>
    <time>2020-01-13T22:42:18.000Z</time>
   </trkpt>
   <trkpt lat="-8.052321" lon="-34.895402">
    <ele>10.9</ele>
    <time>2020-01-13T22:42:19.000Z</time>
   </trkpt>
   <trkpt lat="-8.052276" lon="-34.895373">
    <ele>10.9</ele>
    <time>2020-01-13T22:42:20.000Z</time>
   </trkpt>
   <trkpt lat="-8.05224" lon="-34.895356">
    <ele>10.8</ele>
    <time>2020-01-13T22:42:21.000Z</time>
   </trkpt>
   <trkpt lat="-8.052209" lon="-34.895327">
    <ele>10.7</ele>
    <time>2020-01-13T22:42:22.000Z</time>
   </trkpt>
   <trkpt lat="-8.052162" lon="-34.895293">
    <ele>10.6</ele>
    <time>2020-01-13T22:42:23.000Z</time>
   </trkpt>
   <trkpt lat="-8.052114" lon="-34.895257">
    <ele>10.4</ele>
    <time>2020-01-13T22:42:24.000Z</time>
   </trkpt>
   <trkpt lat="-8.052068" lon="-34.895232">
    <ele>10.2</ele>
    <time>2020-01-13T22:42:25.000Z</time>
   </trkpt>
   <trkpt lat="-8.052024" lon="-34.895207">
    <ele>10</ele>
    <time>2020-01-13T22:42:26.000Z</time>
   </trkpt>
   <trkpt lat="-8.051985" lon="-34.895179">
    <ele>9.7</ele>
    <time>2020-01-13T22:42:27.000Z</time>
   </trkpt>
   <trkpt lat="-8.05195" lon="-34.895153">
    <ele>9.5</ele>
    <time>2020-01-13T22:42:28.000Z</time>
   </trkpt>
   <trkpt lat="-8.051917" lon="-34.895115">
    <ele>9.1</ele>
    <time>2020-01-13T22:42:29.000Z</time>
   </trkpt>
   <trkpt lat="-8.051875" lon="-34.89508">
    <ele>8.7</ele>
    <time>2020-01-13T22:42:30.000Z</time>
   </trkpt>
   <trkpt lat="-8.051856" lon="-34.895065">
    <ele>8.5</ele>
    <time>2020-01-13T22:42:31.000Z</time>
   </trkpt>
   <trkpt lat="-8.051792" lon="-34.895023">
    <ele>7.9</ele>
    <time>2020-01-13T22:42:33.000Z</time>
   </trkpt>
   <trkpt lat="-8.051802" lon="-34.895037">
    <ele>7.6</ele>
    <time>2020-01-13T22:42:34.000Z</time>
   </trkpt>
   <trkpt lat="-8.05176" lon="-34.895037">
    <ele>7.1</ele>
    <time>2020-01-13T22:42:36.000Z</time>
   </trkpt>
   <trkpt lat="-8.051691" lon="-34.895003">
    <ele>6.4</ele>
    <time>2020-01-13T22:42:38.000Z</time>
   </trkpt>
   <trkpt lat="-8.05164" lon="-34.894976">
    <ele>6.3</ele>
    <time>2020-01-13T22:42:40.000Z</time>
   </trkpt>
   <trkpt lat="-8.051589" lon="-34.894948">
    <ele>6.2</ele>
    <time>2020-01-13T22:43:04.000Z</time>
   </trkpt>
   <trkpt lat="-8.051538" lon="-34.894921">
    <ele>5.9</ele>
    <time>2020-01-13T22:43:05.000Z</time>
   </trkpt>
   <trkpt lat="-8.051485" lon="-34.8949">
    <ele>5.6</ele>
    <time>2020-01-13T22:43:06.000Z</time>
   </trkpt>
   <trkpt lat="-8.051426" lon="-34.894877">
    <ele>5.3</ele>
    <time>2020-01-13T22:43:07.000Z</time>
   </trkpt>
   <trkpt lat="-8.051361" lon="-34.894845">
    <ele>5</ele>
    <time>2020-01-13T22:43:08.000Z</time>
   </trkpt>
   <trkpt lat="-8.051291" lon="-34.894809">
    <ele>4.6</ele>
    <time>2020-01-13T22:43:09.000Z</time>
   </trkpt>
   <trkpt lat="-8.051229" lon="-34.894772">
    <ele>4.2</ele>
    <time>2020-01-13T22:43:10.000Z</time>
   </trkpt>
   <trkpt lat="-8.051171" lon="-34.894729">
    <ele>3.7</ele>
    <time>2020-01-13T22:43:11.000Z</time>
   </trkpt>
   <trkpt lat="-8.051108" lon="-34.894677">
    <ele>2.9</ele>
    <time>2020-01-13T22:43:12.000Z</time>
   </trkpt>
   <trkpt lat="-8.051048" lon="-34.894641">
    <ele>2.1</ele>
    <time>2020-01-13T22:43:13.000Z</time>
   </trkpt>
   <trkpt lat="-8.050998" lon="-34.894592">
    <ele>1.2</ele>
    <time>2020-01-13T22:43:14.000Z</time>
   </trkpt>
   <trkpt lat="-8.050941" lon="-34.894537">
    <ele>0.4</ele>
    <time>2020-01-13T22:43:15.000Z</time>
   </trkpt>
   <trkpt lat="-8.050869" lon="-34.894488">
    <ele>-0.4</ele>
    <time>2020-01-13T22:43:16.000Z</time>
   </trkpt>
   <trkpt lat="-8.050809" lon="-34.89444">
    <ele>-1.4</ele>
    <time>2020-01-13T22:43:17.000Z</time>
   </trkpt>
   <trkpt lat="-8.050752" lon="-34.894393">
    <ele>-2.2</ele>
    <time>2020-01-13T22:43:18.000Z</time>
   </trkpt>
   <trkpt lat="-8.050695" lon="-34.894351">
    <ele>-3</ele>
    <time>2020-01-13T22:43:19.000Z</time>
   </trkpt>
   <trkpt lat="-8.050634" lon="-34.894306">
    <ele>-2.9</ele>
    <time>2020-01-13T22:43:20.000Z</time>
   </trkpt>
   <trkpt lat="-8.050566" lon="-34.894259">
    <ele>-3</ele>
    <time>2020-01-13T22:43:21.000Z</time>
   </trkpt>
   <trkpt lat="-8.050501" lon="-34.894205">
    <ele>-3.1</ele>
    <time>2020-01-13T22:43:22.000Z</time>
   </trkpt>
   <trkpt lat="-8.050438" lon="-34.894162">
    <ele>-3.2</ele>
    <time>2020-01-13T22:43:23.000Z</time>
   </trkpt>
   <trkpt lat="-8.050377" lon="-34.894109">
    <ele>-3.3</ele>
    <time>2020-01-13T22:43:24.000Z</time>
   </trkpt>
   <trkpt lat="-8.050326" lon="-34.894061">
    <ele>-3.5</ele>
    <time>2020-01-13T22:43:25.000Z</time>
   </trkpt>
   <trkpt lat="-8.050272" lon="-34.894009">
    <ele>-3.6</ele>
    <time>2020-01-13T22:43:26.000Z</time>
   </trkpt>
   <trkpt lat="-8.050216" lon="-34.893962">
    <ele>-3.7</ele>
    <time>2020-01-13T22:43:27.000Z</time>
   </trkpt>
   <trkpt lat="-8.050167" lon="-34.893917">
    <ele>-3.8</ele>
    <time>2020-01-13T22:43:28.000Z</time>
   </trkpt>
   <trkpt lat="-8.050109" lon="-34.893879">
    <ele>-3.8</ele>
    <time>2020-01-13T22:43:29.000Z</time>
   </trkpt>
   <trkpt lat="-8.050053" lon="-34.893848">
    <ele>-3.8</ele>
    <time>2020-01-13T22:43:30.000Z</time>
   </trkpt>
   <trkpt lat="-8.05" lon="-34.893802">
    <ele>-3.8</ele>
    <time>2020-01-13T22:43:31.000Z</time>
   </trkpt>
   <trkpt lat="-8.049952" lon="-34.893756">
    <ele>-3.7</ele>
    <time>2020-01-13T22:43:32.000Z</time>
   </trkpt>
   <trkpt lat="-8.049897" lon="-34.893724">
    <ele>-3.6</ele>
    <time>2020-01-13T22:43:33.000Z</time>
   </trkpt>
   <trkpt lat="-8.049835" lon="-34.893672">
    <ele>-3.4</ele>
    <time>2020-01-13T22:43:34.000Z</time>
   </trkpt>
   <trkpt lat="-8.049783" lon="-34.893628">
    <ele>-3.3</ele>
    <time>2020-01-13T22:43:35.000Z</time>
   </trkpt>
   <trkpt lat="-8.049732" lon="-34.89359">
    <ele>-3.1</ele>
    <time>2020-01-13T22:43:36.000Z</time>
   </trkpt>
   <trkpt lat="-8.049684" lon="-34.893552">
    <ele>-3</ele>
    <time>2020-01-13T22:43:37.000Z</time>
   </trkpt>
   <trkpt lat="-8.049636" lon="-34.893515">
    <ele>-2.8</ele>
    <time>2020-01-13T22:43:38.000Z</time>
   </trkpt>
   <trkpt lat="-8.049576" lon="-34.893476">
    <ele>-2.6</ele>
    <time>2020-01-13T22:43:39.000Z</time>
   </trkpt>
   <trkpt lat="-8.049505" lon="-34.893456">
    <ele>-2.4</ele>
    <time>2020-01-13T22:43:40.000Z</time>
   </trkpt>
   <trkpt lat="-8.049466" lon="-34.893438">
    <ele>-2.3</ele>
    <time>2020-01-13T22:43:41.000Z</time>
   </trkpt>
   <trkpt lat="-8.049422" lon="-34.893408">
    <ele>-2.2</ele>
    <time>2020-01-13T22:43:42.000Z</time>
   </trkpt>
   <trkpt lat="-8.049382" lon="-34.893372">
    <ele>-2.1</ele>
    <time>2020-01-13T22:43:43.000Z</time>
   </trkpt>
   <trkpt lat="-8.04934" lon="-34.893332">
    <ele>-1.9</ele>
    <time>2020-01-13T22:43:44.000Z</time>
   </trkpt>
   <trkpt lat="-8.049301" lon="-34.893299">
    <ele>-1.8</ele>
    <time>2020-01-13T22:43:45.000Z</time>
   </trkpt>
   <trkpt lat="-8.049254" lon="-34.893281">
    <ele>-1.6</ele>
    <time>2020-01-13T22:43:46.000Z</time>
   </trkpt>
   <trkpt lat="-8.049203" lon="-34.893243">
    <ele>-1.4</ele>
    <time>2020-01-13T22:43:47.000Z</time>
   </trkpt>
   <trkpt lat="-8.049161" lon="-34.893212">
    <ele>-1.3</ele>
    <time>2020-01-13T22:43:48.000Z</time>
   </trkpt>
   <trkpt lat="-8.049117" lon="-34.893171">
    <ele>-1</ele>
    <time>2020-01-13T22:43:49.000Z</time>
   </trkpt>
   <trkpt lat="-8.049082" lon="-34.893139">
    <ele>-0.8</ele>
    <time>2020-01-13T22:43:50.000Z</time>
   </trkpt>
   <trkpt lat="-8.049039" lon="-34.893098">
    <ele>-0.4</ele>
    <time>2020-01-13T22:43:51.000Z</time>
   </trkpt>
   <trkpt lat="-8.049007" lon="-34.893068">
    <ele>0</ele>
    <time>2020-01-13T22:43:52.000Z</time>
   </trkpt>
   <trkpt lat="-8.04897" lon="-34.893033">
    <ele>0.5</ele>
    <time>2020-01-13T22:43:53.000Z</time>
   </trkpt>
   <trkpt lat="-8.048928" lon="-34.893">
    <ele>1</ele>
    <time>2020-01-13T22:43:54.000Z</time>
   </trkpt>
   <trkpt lat="-8.04888" lon="-34.892971">
    <ele>1.5</ele>
    <time>2020-01-13T22:43:55.000Z</time>
   </trkpt>
   <trkpt lat="-8.048834" lon="-34.892935">
    <ele>2</ele>
    <time>2020-01-13T22:43:56.000Z</time>
   </trkpt>
   <trkpt lat="-8.048794" lon="-34.892904">
    <ele>2.8</ele>
    <time>2020-01-13T22:43:57.000Z</time>
   </trkpt>
   <trkpt lat="-8.048766" lon="-34.892883">
    <ele>3.1</ele>
    <time>2020-01-13T22:43:58.000Z</time>
   </trkpt>
   <trkpt lat="-8.048743" lon="-34.892875">
    <ele>3.1</ele>
    <time>2020-01-13T22:43:59.000Z</time>
   </trkpt>
   <trkpt lat="-8.048713" lon="-34.892882">
    <ele>2.9</ele>
    <time>2020-01-13T22:44:01.000Z</time>
   </trkpt>
   <trkpt lat="-8.048678" lon="-34.892919">
    <ele>2.8</ele>
    <time>2020-01-13T22:44:03.000Z</time>
   </trkpt>
   <trkpt lat="-8.048668" lon="-34.892933">
    <ele>2.8</ele>
    <time>2020-01-13T22:44:04.000Z</time>
   </trkpt>
   <trkpt lat="-8.048642" lon="-34.892988">
    <ele>2.6</ele>
    <time>2020-01-13T22:44:06.000Z</time>
   </trkpt>
   <trkpt lat="-8.048633" lon="-34.893044">
    <ele>3.4</ele>
    <time>2020-01-13T22:44:07.000Z</time>
   </trkpt>
   <trkpt lat="-8.048616" lon="-34.893083">
    <ele>4</ele>
    <time>2020-01-13T22:44:08.000Z</time>
   </trkpt>
   <trkpt lat="-8.048601" lon="-34.89314">
    <ele>6.1</ele>
    <time>2020-01-13T22:44:09.000Z</time>
   </trkpt>
   <trkpt lat="-8.048583" lon="-34.893188">
    <ele>7.5</ele>
    <time>2020-01-13T22:44:10.000Z</time>
   </trkpt>
   <trkpt lat="-8.048557" lon="-34.893246">
    <ele>8</ele>
    <time>2020-01-13T22:44:11.000Z</time>
   </trkpt>
   <trkpt lat="-8.048544" lon="-34.893299">
    <ele>8</ele>
    <time>2020-01-13T22:44:12.000Z</time>
   </trkpt>
   <trkpt lat="-8.048523" lon="-34.893355">
    <ele>8</ele>
    <time>2020-01-13T22:44:13.000Z</time>
   </trkpt>
   <trkpt lat="-8.048499" lon="-34.893405">
    <ele>8</ele>
    <time>2020-01-13T22:44:14.000Z</time>
   </trkpt>
   <trkpt lat="-8.048466" lon="-34.893462">
    <ele>8</ele>
    <time>2020-01-13T22:44:15.000Z</time>
   </trkpt>
   <trkpt lat="-8.048431" lon="-34.893528">
    <ele>8</ele>
    <time>2020-01-13T22:44:16.000Z</time>
   </trkpt>
   <trkpt lat="-8.048398" lon="-34.893587">
    <ele>8</ele>
    <time>2020-01-13T22:44:17.000Z</time>
   </trkpt>
   <trkpt lat="-8.04837" lon="-34.893646">
    <ele>8</ele>
    <time>2020-01-13T22:44:18.000Z</time>
   </trkpt>
   <trkpt lat="-8.048343" lon="-34.893705">
    <ele>8</ele>
    <time>2020-01-13T22:44:19.000Z</time>
   </trkpt>
   <trkpt lat="-8.048318" lon="-34.893766">
    <ele>8</ele>
    <time>2020-01-13T22:44:20.000Z</time>
   </trkpt>
   <trkpt lat="-8.048288" lon="-34.893827">
    <ele>8.1</ele>
    <time>2020-01-13T22:44:21.000Z</time>
   </trkpt>
   <trkpt lat="-8.048258" lon="-34.893883">
    <ele>8.1</ele>
    <time>2020-01-13T22:44:22.000Z</time>
   </trkpt>
   <trkpt lat="-8.048239" lon="-34.893936">
    <ele>8.2</ele>
    <time>2020-01-13T22:44:23.000Z</time>
   </trkpt>
   <trkpt lat="-8.048224" lon="-34.893995">
    <ele>8.3</ele>
    <time>2020-01-13T22:44:24.000Z</time>
   </trkpt>
   <trkpt lat="-8.048201" lon="-34.894057">
    <ele>8.5</ele>
    <time>2020-01-13T22:44:25.000Z</time>
   </trkpt>
   <trkpt lat="-8.048152" lon="-34.894101">
    <ele>8.7</ele>
    <time>2020-01-13T22:44:26.000Z</time>
   </trkpt>
   <trkpt lat="-8.048122" lon="-34.894152">
    <ele>8.8</ele>
    <time>2020-01-13T22:44:27.000Z</time>
   </trkpt>
   <trkpt lat="-8.048095" lon="-34.894205">
    <ele>8.9</ele>
    <time>2020-01-13T22:44:29.000Z</time>
   </trkpt>
   <trkpt lat="-8.048063" lon="-34.894257">
    <ele>8.9</ele>
    <time>2020-01-13T22:44:30.000Z</time>
   </trkpt>
   <trkpt lat="-8.048024" lon="-34.894317">
    <ele>9</ele>
    <time>2020-01-13T22:44:31.000Z</time>
   </trkpt>
   <trkpt lat="-8.047991" lon="-34.894384">
    <ele>9.2</ele>
    <time>2020-01-13T22:44:32.000Z</time>
   </trkpt>
   <trkpt lat="-8.04796" lon="-34.894444">
    <ele>9.5</ele>
    <time>2020-01-13T22:44:33.000Z</time>
   </trkpt>
   <trkpt lat="-8.04795" lon="-34.894507">
    <ele>9.8</ele>
    <time>2020-01-13T22:44:34.000Z</time>
   </trkpt>
   <trkpt lat="-8.04793" lon="-34.894583">
    <ele>10.2</ele>
    <time>2020-01-13T22:44:35.000Z</time>
   </trkpt>
   <trkpt lat="-8.047904" lon="-34.894633">
    <ele>10.4</ele>
    <time>2020-01-13T22:44:36.000Z</time>
   </trkpt>
   <trkpt lat="-8.047877" lon="-34.89471">
    <ele>10.7</ele>
    <time>2020-01-13T22:44:37.000Z</time>
   </trkpt>
   <trkpt lat="-8.047843" lon="-34.894779">
    <ele>10.9</ele>
    <time>2020-01-13T22:44:38.000Z</time>
   </trkpt>
   <trkpt lat="-8.047814" lon="-34.894847">
    <ele>11</ele>
    <time>2020-01-13T22:44:39.000Z</time>
   </trkpt>
   <trkpt lat="-8.047791" lon="-34.8949">
    <ele>11.1</ele>
    <time>2020-01-13T22:44:40.000Z</time>
   </trkpt>
   <trkpt lat="-8.047761" lon="-34.894942">
    <ele>11.3</ele>
    <time>2020-01-13T22:44:41.000Z</time>
   </trkpt>
   <trkpt lat="-8.047752" lon="-34.894977">
    <ele>11.4</ele>
    <time>2020-01-13T22:44:42.000Z</time>
   </trkpt>
   <trkpt lat="-8.047743" lon="-34.895003">
    <ele>11.4</ele>
    <time>2020-01-13T22:44:43.000Z</time>
   </trkpt>
   <trkpt lat="-8.047726" lon="-34.895035">
    <ele>11.5</ele>
    <time>2020-01-13T22:44:44.000Z</time>
   </trkpt>
   <trkpt lat="-8.047714" lon="-34.895063">
    <ele>11.6</ele>
    <time>2020-01-13T22:44:45.000Z</time>
   </trkpt>
   <trkpt lat="-8.047696" lon="-34.895093">
    <ele>11.7</ele>
    <time>2020-01-13T22:44:46.000Z</time>
   </trkpt>
   <trkpt lat="-8.047656" lon="-34.895124">
    <ele>11.9</ele>
    <time>2020-01-13T22:44:47.000Z</time>
   </trkpt>
   <trkpt lat="-8.047649" lon="-34.895136">
    <ele>11.9</ele>
    <time>2020-01-13T22:44:48.000Z</time>
   </trkpt>
   <trkpt lat="-8.047652" lon="-34.895185">
    <ele>12</ele>
    <time>2020-01-13T22:44:51.000Z</time>
   </trkpt>
   <trkpt lat="-8.047675" lon="-34.895217">
    <ele>11.3</ele>
    <time>2020-01-13T22:44:52.000Z</time>
   </trkpt>
   <trkpt lat="-8.047714" lon="-34.895248">
    <ele>11.1</ele>
    <time>2020-01-13T22:44:53.000Z</time>
   </trkpt>
   <trkpt lat="-8.047754" lon="-34.895269">
    <ele>10.9</ele>
    <time>2020-01-13T22:44:54.000Z</time>
   </trkpt>
   <trkpt lat="-8.047817" lon="-34.895298">
    <ele>10.7</ele>
    <time>2020-01-13T22:44:55.000Z</time>
   </trkpt>
   <trkpt lat="-8.047884" lon="-34.89533">
    <ele>10.4</ele>
    <time>2020-01-13T22:44:56.000Z</time>
   </trkpt>
   <trkpt lat="-8.047936" lon="-34.895361">
    <ele>10.2</ele>
    <time>2020-01-13T22:44:57.000Z</time>
   </trkpt>
   <trkpt lat="-8.047985" lon="-34.895399">
    <ele>10</ele>
    <time>2020-01-13T22:44:58.000Z</time>
   </trkpt>
   <trkpt lat="-8.048033" lon="-34.895443">
    <ele>9.7</ele>
    <time>2020-01-13T22:44:59.000Z</time>
   </trkpt>
   <trkpt lat="-8.048081" lon="-34.895483">
    <ele>9.4</ele>
    <time>2020-01-13T22:45:00.000Z</time>
   </trkpt>
   <trkpt lat="-8.048123" lon="-34.895516">
    <ele>9.3</ele>
    <time>2020-01-13T22:45:01.000Z</time>
   </trkpt>
   <trkpt lat="-8.048175" lon="-34.895575">
    <ele>9</ele>
    <time>2020-01-13T22:45:02.000Z</time>
   </trkpt>
   <trkpt lat="-8.048221" lon="-34.895616">
    <ele>8.9</ele>
    <time>2020-01-13T22:45:03.000Z</time>
   </trkpt>
   <trkpt lat="-8.048271" lon="-34.89567">
    <ele>9.7</ele>
    <time>2020-01-13T22:45:04.000Z</time>
   </trkpt>
   <trkpt lat="-8.048311" lon="-34.895713">
    <ele>10</ele>
    <time>2020-01-13T22:45:05.000Z</time>
   </trkpt>
   <trkpt lat="-8.048347" lon="-34.895764">
    <ele>10.3</ele>
    <time>2020-01-13T22:45:06.000Z</time>
   </trkpt>
   <trkpt lat="-8.048381" lon="-34.895814">
    <ele>10.5</ele>
    <time>2020-01-13T22:45:07.000Z</time>
   </trkpt>
   <trkpt lat="-8.048416" lon="-34.895856">
    <ele>10.7</ele>
    <time>2020-01-13T22:45:08.000Z</time>
   </trkpt>
   <trkpt lat="-8.048464" lon="-34.895901">
    <ele>10.9</ele>
    <time>2020-01-13T22:45:09.000Z</time>
   </trkpt>
   <trkpt lat="-8.0485" lon="-34.89594">
    <ele>11.1</ele>
    <time>2020-01-13T22:45:10.000Z</time>
   </trkpt>
   <trkpt lat="-8.048535" lon="-34.895976">
    <ele>11.3</ele>
    <time>2020-01-13T22:45:11.000Z</time>
   </trkpt>
   <trkpt lat="-8.048567" lon="-34.896015">
    <ele>11.5</ele>
    <time>2020-01-13T22:45:12.000Z</time>
   </trkpt>
   <trkpt lat="-8.0486" lon="-34.896057">
    <ele>11.7</ele>
    <time>2020-01-13T22:45:13.000Z</time>
   </trkpt>
   <trkpt lat="-8.048638" lon="-34.896104">
    <ele>11.8</ele>
    <time>2020-01-13T22:45:14.000Z</time>
   </trkpt>
   <trkpt lat="-8.048684" lon="-34.896147">
    <ele>11.8</ele>
    <time>2020-01-13T22:45:15.000Z</time>
   </trkpt>
   <trkpt lat="-8.048721" lon="-34.896179">
    <ele>11.9</ele>
    <time>2020-01-13T22:45:16.000Z</time>
   </trkpt>
   <trkpt lat="-8.048761" lon="-34.896206">
    <ele>11.9</ele>
    <time>2020-01-13T22:45:17.000Z</time>
   </trkpt>
   <trkpt lat="-8.048796" lon="-34.896238">
    <ele>12</ele>
    <time>2020-01-13T22:45:18.000Z</time>
   </trkpt>
   <trkpt lat="-8.048827" lon="-34.896279">
    <ele>12</ele>
    <time>2020-01-13T22:45:19.000Z</time>
   </trkpt>
   <trkpt lat="-8.048859" lon="-34.89632">
    <ele>12</ele>
    <time>2020-01-13T22:45:20.000Z</time>
   </trkpt>
   <trkpt lat="-8.048877" lon="-34.896354">
    <ele>12.1</ele>
    <time>2020-01-13T22:45:21.000Z</time>
   </trkpt>
   <trkpt lat="-8.048886" lon="-34.896386">
    <ele>12.1</ele>
    <time>2020-01-13T22:45:22.000Z</time>
   </trkpt>
   <trkpt lat="-8.048891" lon="-34.896421">
    <ele>12.1</ele>
    <time>2020-01-13T22:45:23.000Z</time>
   </trkpt>
   <trkpt lat="-8.048877" lon="-34.896453">
    <ele>12.1</ele>
    <time>2020-01-13T22:45:24.000Z</time>
   </trkpt>
   <trkpt lat="-8.048845" lon="-34.89649">
    <ele>12.2</ele>
    <time>2020-01-13T22:45:25.000Z</time>
   </trkpt>
   <trkpt lat="-8.048804" lon="-34.896545">
    <ele>11.9</ele>
    <time>2020-01-13T22:45:26.000Z</time>
   </trkpt>
   <trkpt lat="-8.048758" lon="-34.89657">
    <ele>11.6</ele>
    <time>2020-01-13T22:45:27.000Z</time>
   </trkpt>
   <trkpt lat="-8.048714" lon="-34.896587">
    <ele>11.4</ele>
    <time>2020-01-13T22:45:28.000Z</time>
   </trkpt>
   <trkpt lat="-8.048662" lon="-34.896604">
    <ele>11.3</ele>
    <time>2020-01-13T22:45:29.000Z</time>
   </trkpt>
   <trkpt lat="-8.048608" lon="-34.896627">
    <ele>11.1</ele>
    <time>2020-01-13T22:45:30.000Z</time>
   </trkpt>
   <trkpt lat="-8.048558" lon="-34.89665">
    <ele>10.9</ele>
    <time>2020-01-13T22:45:31.000Z</time>
   </trkpt>
   <trkpt lat="-8.048512" lon="-34.896678">
    <ele>10.7</ele>
    <time>2020-01-13T22:45:32.000Z</time>
   </trkpt>
   <trkpt lat="-8.048463" lon="-34.896697">
    <ele>10.6</ele>
    <time>2020-01-13T22:45:33.000Z</time>
   </trkpt>
   <trkpt lat="-8.048402" lon="-34.896725">
    <ele>10.4</ele>
    <time>2020-01-13T22:45:34.000Z</time>
   </trkpt>
   <trkpt lat="-8.048344" lon="-34.896746">
    <ele>10.2</ele>
    <time>2020-01-13T22:45:35.000Z</time>
   </trkpt>
   <trkpt lat="-8.048297" lon="-34.896772">
    <ele>10.1</ele>
    <time>2020-01-13T22:45:36.000Z</time>
   </trkpt>
   <trkpt lat="-8.048249" lon="-34.896794">
    <ele>10.1</ele>
    <time>2020-01-13T22:45:37.000Z</time>
   </trkpt>
   <trkpt lat="-8.048201" lon="-34.896818">
    <ele>10.5</ele>
    <time>2020-01-13T22:45:38.000Z</time>
   </trkpt>
   <trkpt lat="-8.048152" lon="-34.896843">
    <ele>10.7</ele>
    <time>2020-01-13T22:45:39.000Z</time>
   </trkpt>
   <trkpt lat="-8.048094" lon="-34.896872">
    <ele>11.1</ele>
    <time>2020-01-13T22:45:40.000Z</time>
   </trkpt>
   <trkpt lat="-8.048037" lon="-34.89689">
    <ele>11.4</ele>
    <time>2020-01-13T22:45:41.000Z</time>
   </trkpt>
   <trkpt lat="-8.047982" lon="-34.896905">
    <ele>11.8</ele>
    <time>2020-01-13T22:45:42.000Z</time>
   </trkpt>
   <trkpt lat="-8.047927" lon="-34.896913">
    <ele>12.2</ele>
    <time>2020-01-13T22:45:43.000Z</time>
   </trkpt>
   <trkpt lat="-8.047865" lon="-34.896926">
    <ele>12.4</ele>
    <time>2020-01-13T22:45:44.000Z</time>
   </trkpt>
   <trkpt lat="-8.047807" lon="-34.89695">
    <ele>12.6</ele>
    <time>2020-01-13T22:45:45.000Z</time>
   </trkpt>
   <trkpt lat="-8.047754" lon="-34.896966">
    <ele>12.8</ele>
    <time>2020-01-13T22:45:46.000Z</time>
   </trkpt>
   <trkpt lat="-8.047705" lon="-34.896963">
    <ele>13</ele>
    <time>2020-01-13T22:45:47.000Z</time>
   </trkpt>
   <trkpt lat="-8.047661" lon="-34.896946">
    <ele>13.3</ele>
    <time>2020-01-13T22:45:48.000Z</time>
   </trkpt>
   <trkpt lat="-8.047612" lon="-34.89691">
    <ele>13.6</ele>
    <time>2020-01-13T22:45:49.000Z</time>
   </trkpt>
   <trkpt lat="-8.047577" lon="-34.896866">
    <ele>13.8</ele>
    <time>2020-01-13T22:45:50.000Z</time>
   </trkpt>
   <trkpt lat="-8.047541" lon="-34.896812">
    <ele>14.1</ele>
    <time>2020-01-13T22:45:51.000Z</time>
   </trkpt>
   <trkpt lat="-8.047511" lon="-34.896761">
    <ele>14.3</ele>
    <time>2020-01-13T22:45:52.000Z</time>
   </trkpt>
   <trkpt lat="-8.047498" lon="-34.896706">
    <ele>14.5</ele>
    <time>2020-01-13T22:45:53.000Z</time>
   </trkpt>
   <trkpt lat="-8.047466" lon="-34.896655">
    <ele>14.8</ele>
    <time>2020-01-13T22:45:54.000Z</time>
   </trkpt>
   <trkpt lat="-8.047436" lon="-34.896603">
    <ele>15</ele>
    <time>2020-01-13T22:45:55.000Z</time>
   </trkpt>
   <trkpt lat="-8.047404" lon="-34.896548">
    <ele>15.3</ele>
    <time>2020-01-13T22:45:56.000Z</time>
   </trkpt>
   <trkpt lat="-8.047366" lon="-34.896503">
    <ele>15.5</ele>
    <time>2020-01-13T22:45:57.000Z</time>
   </trkpt>
   <trkpt lat="-8.047321" lon="-34.896457">
    <ele>15.9</ele>
    <time>2020-01-13T22:45:58.000Z</time>
   </trkpt>
   <trkpt lat="-8.047253" lon="-34.896423">
    <ele>16.4</ele>
    <time>2020-01-13T22:45:59.000Z</time>
   </trkpt>
   <trkpt lat="-8.047186" lon="-34.896381">
    <ele>17</ele>
    <time>2020-01-13T22:46:00.000Z</time>
   </trkpt>
   <trkpt lat="-8.047145" lon="-34.896327">
    <ele>17.4</ele>
    <time>2020-01-13T22:46:01.000Z</time>
   </trkpt>
   <trkpt lat="-8.047107" lon="-34.896278">
    <ele>17.7</ele>
    <time>2020-01-13T22:46:02.000Z</time>
   </trkpt>
   <trkpt lat="-8.047076" lon="-34.89623">
    <ele>18</ele>
    <time>2020-01-13T22:46:03.000Z</time>
   </trkpt>
   <trkpt lat="-8.047046" lon="-34.896184">
    <ele>18.2</ele>
    <time>2020-01-13T22:46:04.000Z</time>
   </trkpt>
   <trkpt lat="-8.047013" lon="-34.896146">
    <ele>18.5</ele>
    <time>2020-01-13T22:46:05.000Z</time>
   </trkpt>
   <trkpt lat="-8.046987" lon="-34.896099">
    <ele>18.8</ele>
    <time>2020-01-13T22:46:06.000Z</time>
   </trkpt>
   <trkpt lat="-8.04696" lon="-34.896053">
    <ele>19</ele>
    <time>2020-01-13T22:46:07.000Z</time>
   </trkpt>
   <trkpt lat="-8.046908" lon="-34.896011">
    <ele>19.3</ele>
    <time>2020-01-13T22:46:08.000Z</time>
   </trkpt>
   <trkpt lat="-8.046866" lon="-34.895984">
    <ele>19.6</ele>
    <time>2020-01-13T22:46:09.000Z</time>
   </trkpt>
   <trkpt lat="-8.046818" lon="-34.895964">
    <ele>19.8</ele>
    <time>2020-01-13T22:46:10.000Z</time>
   </trkpt>
   <trkpt lat="-8.046755" lon="-34.895933">
    <ele>20.1</ele>
    <time>2020-01-13T22:46:11.000Z</time>
   </trkpt>
   <trkpt lat="-8.046718" lon="-34.895889">
    <ele>20.4</ele>
    <time>2020-01-13T22:46:12.000Z</time>
   </trkpt>
   <trkpt lat="-8.046671" lon="-34.89585">
    <ele>20.7</ele>
    <time>2020-01-13T22:46:13.000Z</time>
   </trkpt>
   <trkpt lat="-8.046627" lon="-34.895811">
    <ele>21</ele>
    <time>2020-01-13T22:46:14.000Z</time>
   </trkpt>
   <trkpt lat="-8.046584" lon="-34.895778">
    <ele>21.3</ele>
    <time>2020-01-13T22:46:15.000Z</time>
   </trkpt>
   <trkpt lat="-8.046543" lon="-34.895755">
    <ele>21.5</ele>
    <time>2020-01-13T22:46:16.000Z</time>
   </trkpt>
   <trkpt lat="-8.046522" lon="-34.89574">
    <ele>21.6</ele>
    <time>2020-01-13T22:46:17.000Z</time>
   </trkpt>
   <trkpt lat="-8.046451" lon="-34.895695">
    <ele>21.9</ele>
    <time>2020-01-13T22:46:19.000Z</time>
   </trkpt>
   <trkpt lat="-8.046411" lon="-34.895661">
    <ele>22.1</ele>
    <time>2020-01-13T22:46:20.000Z</time>
   </trkpt>
   <trkpt lat="-8.046367" lon="-34.895634">
    <ele>22.3</ele>
    <time>2020-01-13T22:46:21.000Z</time>
   </trkpt>
   <trkpt lat="-8.046329" lon="-34.895602">
    <ele>22.4</ele>
    <time>2020-01-13T22:46:22.000Z</time>
   </trkpt>
   <trkpt lat="-8.046295" lon="-34.895577">
    <ele>22.6</ele>
    <time>2020-01-13T22:46:23.000Z</time>
   </trkpt>
   <trkpt lat="-8.046262" lon="-34.89556">
    <ele>22.6</ele>
    <time>2020-01-13T22:46:24.000Z</time>
   </trkpt>
   <trkpt lat="-8.046231" lon="-34.89554">
    <ele>22.7</ele>
    <time>2020-01-13T22:46:25.000Z</time>
   </trkpt>
   <trkpt lat="-8.0462" lon="-34.895524">
    <ele>22.8</ele>
    <time>2020-01-13T22:46:26.000Z</time>
   </trkpt>
   <trkpt lat="-8.04616" lon="-34.89549">
    <ele>22.9</ele>
    <time>2020-01-13T22:46:27.000Z</time>
   </trkpt>
   <trkpt lat="-8.046126" lon="-34.895463">
    <ele>23</ele>
    <time>2020-01-13T22:46:28.000Z</time>
   </trkpt>
   <trkpt lat="-8.046088" lon="-34.895452">
    <ele>23.2</ele>
    <time>2020-01-13T22:46:29.000Z</time>
   </trkpt>
   <trkpt lat="-8.046066" lon="-34.895435">
    <ele>23.2</ele>
    <time>2020-01-13T22:46:30.000Z</time>
   </trkpt>
   <trkpt lat="-8.046043" lon="-34.895413">
    <ele>23.3</ele>
    <time>2020-01-13T22:46:31.000Z</time>
   </trkpt>
   <trkpt lat="-8.046009" lon="-34.895399">
    <ele>23.4</ele>
    <time>2020-01-13T22:46:32.000Z</time>
   </trkpt>
   <trkpt lat="-8.045988" lon="-34.895393">
    <ele>23.5</ele>
    <time>2020-01-13T22:46:33.000Z</time>
   </trkpt>
   <trkpt lat="-8.045952" lon="-34.895388">
    <ele>23.7</ele>
    <time>2020-01-13T22:46:35.000Z</time>
   </trkpt>
   <trkpt lat="-8.045874" lon="-34.895354">
    <ele>24.2</ele>
    <time>2020-01-13T22:46:37.000Z</time>
   </trkpt>
   <trkpt lat="-8.045831" lon="-34.895338">
    <ele>23.8</ele>
    <time>2020-01-13T22:46:38.000Z</time>
   </trkpt>
   <trkpt lat="-8.045788" lon="-34.895317">
    <ele>23.3</ele>
    <time>2020-01-13T22:46:39.000Z</time>
   </trkpt>
   <trkpt lat="-8.045744" lon="-34.895297">
    <ele>22.9</ele>
    <time>2020-01-13T22:46:40.000Z</time>
   </trkpt>
   <trkpt lat="-8.045696" lon="-34.895253">
    <ele>22.3</ele>
    <time>2020-01-13T22:46:41.000Z</time>
   </trkpt>
   <trkpt lat="-8.045653" lon="-34.895226">
    <ele>21.9</ele>
    <time>2020-01-13T22:46:42.000Z</time>
   </trkpt>
   <trkpt lat="-8.045608" lon="-34.895202">
    <ele>21.5</ele>
    <time>2020-01-13T22:46:43.000Z</time>
   </trkpt>
   <trkpt lat="-8.045572" lon="-34.89517">
    <ele>21.2</ele>
    <time>2020-01-13T22:46:44.000Z</time>
   </trkpt>
   <trkpt lat="-8.045536" lon="-34.895135">
    <ele>20.9</ele>
    <time>2020-01-13T22:46:45.000Z</time>
   </trkpt>
   <trkpt lat="-8.045501" lon="-34.8951">
    <ele>20.7</ele>
    <time>2020-01-13T22:46:46.000Z</time>
   </trkpt>
   <trkpt lat="-8.045473" lon="-34.895065">
    <ele>20.5</ele>
    <time>2020-01-13T22:46:47.000Z</time>
   </trkpt>
   <trkpt lat="-8.04544" lon="-34.895036">
    <ele>20.3</ele>
    <time>2020-01-13T22:46:48.000Z</time>
   </trkpt>
   <trkpt lat="-8.045409" lon="-34.895009">
    <ele>20</ele>
    <time>2020-01-13T22:46:49.000Z</time>
   </trkpt>
   <trkpt lat="-8.04538" lon="-34.894989">
    <ele>19.8</ele>
    <time>2020-01-13T22:46:50.000Z</time>
   </trkpt>
   <trkpt lat="-8.045355" lon="-34.894966">
    <ele>19.5</ele>
    <time>2020-01-13T22:46:51.000Z</time>
   </trkpt>
   <trkpt lat="-8.045334" lon="-34.894938">
    <ele>19.3</ele>
    <time>2020-01-13T22:46:52.000Z</time>
   </trkpt>
   <trkpt lat="-8.045319" lon="-34.894904">
    <ele>19</ele>
    <time>2020-01-13T22:46:53.000Z</time>
   </trkpt>
   <trkpt lat="-8.045283" lon="-34.894866">
    <ele>18.7</ele>
    <time>2020-01-13T22:46:54.000Z</time>
   </trkpt>
   <trkpt lat="-8.045246" lon="-34.894832">
    <ele>18.4</ele>
    <time>2020-01-13T22:46:55.000Z</time>
   </trkpt>
   <trkpt lat="-8.045208" lon="-34.894801">
    <ele>18.2</ele>
    <time>2020-01-13T22:46:56.000Z</time>
   </trkpt>
   <trkpt lat="-8.045169" lon="-34.894775">
    <ele>17.9</ele>
    <time>2020-01-13T22:46:57.000Z</time>
   </trkpt>
   <trkpt lat="-8.045123" lon="-34.894745">
    <ele>17.7</ele>
    <time>2020-01-13T22:46:58.000Z</time>
   </trkpt>
   <trkpt lat="-8.045073" lon="-34.894686">
    <ele>17.3</ele>
    <time>2020-01-13T22:46:59.000Z</time>
   </trkpt>
   <trkpt lat="-8.045018" lon="-34.894657">
    <ele>17</ele>
    <time>2020-01-13T22:47:00.000Z</time>
   </trkpt>
   <trkpt lat="-8.044919" lon="-34.894635">
    <ele>16.5</ele>
    <time>2020-01-13T22:47:01.000Z</time>
   </trkpt>
   <trkpt lat="-8.044859" lon="-34.894607">
    <ele>16.2</ele>
    <time>2020-01-13T22:47:02.000Z</time>
   </trkpt>
   <trkpt lat="-8.044792" lon="-34.89457">
    <ele>15.8</ele>
    <time>2020-01-13T22:47:03.000Z</time>
   </trkpt>
   <trkpt lat="-8.04474" lon="-34.894549">
    <ele>15.5</ele>
    <time>2020-01-13T22:47:04.000Z</time>
   </trkpt>
   <trkpt lat="-8.044713" lon="-34.894484">
    <ele>15.2</ele>
    <time>2020-01-13T22:47:05.000Z</time>
   </trkpt>
   <trkpt lat="-8.044663" lon="-34.894454">
    <ele>14.9</ele>
    <time>2020-01-13T22:47:06.000Z</time>
   </trkpt>
   <trkpt lat="-8.044618" lon="-34.894422">
    <ele>14.6</ele>
    <time>2020-01-13T22:47:07.000Z</time>
   </trkpt>
   <trkpt lat="-8.044566" lon="-34.894378">
    <ele>14.3</ele>
    <time>2020-01-13T22:47:08.000Z</time>
   </trkpt>
   <trkpt lat="-8.044516" lon="-34.894337">
    <ele>14.1</ele>
    <time>2020-01-13T22:47:09.000Z</time>
   </trkpt>
   <trkpt lat="-8.044477" lon="-34.894293">
    <ele>13.9</ele>
    <time>2020-01-13T22:47:10.000Z</time>
   </trkpt>
   <trkpt lat="-8.044448" lon="-34.894245">
    <ele>13.7</ele>
    <time>2020-01-13T22:47:11.000Z</time>
   </trkpt>
   <trkpt lat="-8.044412" lon="-34.894206">
    <ele>13.6</ele>
    <time>2020-01-13T22:47:12.000Z</time>
   </trkpt>
   <trkpt lat="-8.044376" lon="-34.894169">
    <ele>13.7</ele>
    <time>2020-01-13T22:47:13.000Z</time>
   </trkpt>
   <trkpt lat="-8.044352" lon="-34.894136">
    <ele>13.8</ele>
    <time>2020-01-13T22:47:14.000Z</time>
   </trkpt>
   <trkpt lat="-8.044313" lon="-34.89411">
    <ele>13.9</ele>
    <time>2020-01-13T22:47:15.000Z</time>
   </trkpt>
   <trkpt lat="-8.044264" lon="-34.894068">
    <ele>14.1</ele>
    <time>2020-01-13T22:47:16.000Z</time>
   </trkpt>
   <trkpt lat="-8.044222" lon="-34.894013">
    <ele>14.2</ele>
    <time>2020-01-13T22:47:17.000Z</time>
   </trkpt>
   <trkpt lat="-8.044187" lon="-34.893955">
    <ele>14.4</ele>
    <time>2020-01-13T22:47:18.000Z</time>
   </trkpt>
   <trkpt lat="-8.044148" lon="-34.893904">
    <ele>14.5</ele>
    <time>2020-01-13T22:47:19.000Z</time>
   </trkpt>
   <trkpt lat="-8.044115" lon="-34.893861">
    <ele>14.5</ele>
    <time>2020-01-13T22:47:20.000Z</time>
   </trkpt>
   <trkpt lat="-8.044074" lon="-34.893818">
    <ele>14.6</ele>
    <time>2020-01-13T22:47:21.000Z</time>
   </trkpt>
   <trkpt lat="-8.044034" lon="-34.89377">
    <ele>14.6</ele>
    <time>2020-01-13T22:47:22.000Z</time>
   </trkpt>
   <trkpt lat="-8.043991" lon="-34.893753">
    <ele>14.6</ele>
    <time>2020-01-13T22:47:23.000Z</time>
   </trkpt>
   <trkpt lat="-8.043965" lon="-34.893728">
    <ele>14.6</ele>
    <time>2020-01-13T22:47:24.000Z</time>
   </trkpt>
   <trkpt lat="-8.043941" lon="-34.8937">
    <ele>14.6</ele>
    <time>2020-01-13T22:47:25.000Z</time>
   </trkpt>
   <trkpt lat="-8.043907" lon="-34.893668">
    <ele>14.6</ele>
    <time>2020-01-13T22:47:26.000Z</time>
   </trkpt>
   <trkpt lat="-8.043872" lon="-34.893632">
    <ele>14.7</ele>
    <time>2020-01-13T22:47:27.000Z</time>
   </trkpt>
   <trkpt lat="-8.043843" lon="-34.893598">
    <ele>14.7</ele>
    <time>2020-01-13T22:47:28.000Z</time>
   </trkpt>
   <trkpt lat="-8.043809" lon="-34.893575">
    <ele>14.7</ele>
    <time>2020-01-13T22:47:29.000Z</time>
   </trkpt>
   <trkpt lat="-8.043787" lon="-34.893551">
    <ele>14.8</ele>
    <time>2020-01-13T22:47:30.000Z</time>
   </trkpt>
   <trkpt lat="-8.043735" lon="-34.893539">
    <ele>14.9</ele>
    <time>2020-01-13T22:47:31.000Z</time>
   </trkpt>
   <trkpt lat="-8.043694" lon="-34.893545">
    <ele>15</ele>
    <time>2020-01-13T22:47:32.000Z</time>
   </trkpt>
   <trkpt lat="-8.043655" lon="-34.893548">
    <ele>15</ele>
    <time>2020-01-13T22:47:33.000Z</time>
   </trkpt>
   <trkpt lat="-8.043625" lon="-34.893537">
    <ele>15.1</ele>
    <time>2020-01-13T22:47:34.000Z</time>
   </trkpt>
   <trkpt lat="-8.043596" lon="-34.893537">
    <ele>15.2</ele>
    <time>2020-01-13T22:47:35.000Z</time>
   </trkpt>
   <trkpt lat="-8.04357" lon="-34.893534">
    <ele>15.3</ele>
    <time>2020-01-13T22:47:36.000Z</time>
   </trkpt>
   <trkpt lat="-8.043529" lon="-34.893528">
    <ele>15.4</ele>
    <time>2020-01-13T22:47:38.000Z</time>
   </trkpt>
   <trkpt lat="-8.043518" lon="-34.893516">
    <ele>15.4</ele>
    <time>2020-01-13T22:47:40.000Z</time>
   </trkpt>
   <trkpt lat="-8.043512" lon="-34.893474">
    <ele>15.5</ele>
    <time>2020-01-13T22:47:44.000Z</time>
   </trkpt>
   <trkpt lat="-8.043368" lon="-34.89336">
    <ele>15.7</ele>
    <time>2020-01-13T22:47:54.000Z</time>
   </trkpt>
   <trkpt lat="-8.043333" lon="-34.893325">
    <ele>15.7</ele>
    <time>2020-01-13T22:47:55.000Z</time>
   </trkpt>
   <trkpt lat="-8.043295" lon="-34.893292">
    <ele>15.7</ele>
    <time>2020-01-13T22:47:56.000Z</time>
   </trkpt>
   <trkpt lat="-8.043245" lon="-34.893272">
    <ele>15.8</ele>
    <time>2020-01-13T22:47:57.000Z</time>
   </trkpt>
   <trkpt lat="-8.043191" lon="-34.893255">
    <ele>15.8</ele>
    <time>2020-01-13T22:47:58.000Z</time>
   </trkpt>
   <trkpt lat="-8.043164" lon="-34.893214">
    <ele>15.8</ele>
    <time>2020-01-13T22:47:59.000Z</time>
   </trkpt>
   <trkpt lat="-8.043128" lon="-34.893184">
    <ele>15.9</ele>
    <time>2020-01-13T22:48:00.000Z</time>
   </trkpt>
   <trkpt lat="-8.043086" lon="-34.893156">
    <ele>16</ele>
    <time>2020-01-13T22:48:01.000Z</time>
   </trkpt>
   <trkpt lat="-8.04304" lon="-34.893128">
    <ele>16.1</ele>
    <time>2020-01-13T22:48:02.000Z</time>
   </trkpt>
   <trkpt lat="-8.042985" lon="-34.893092">
    <ele>16.2</ele>
    <time>2020-01-13T22:48:03.000Z</time>
   </trkpt>
   <trkpt lat="-8.04294" lon="-34.893056">
    <ele>16.4</ele>
    <time>2020-01-13T22:48:04.000Z</time>
   </trkpt>
   <trkpt lat="-8.042894" lon="-34.893034">
    <ele>16.5</ele>
    <time>2020-01-13T22:48:05.000Z</time>
   </trkpt>
   <trkpt lat="-8.042845" lon="-34.893008">
    <ele>16.6</ele>
    <time>2020-01-13T22:48:06.000Z</time>
   </trkpt>
   <trkpt lat="-8.042806" lon="-34.892991">
    <ele>16.7</ele>
    <time>2020-01-13T22:48:07.000Z</time>
   </trkpt>
   <trkpt lat="-8.042756" lon="-34.89297">
    <ele>16.7</ele>
    <time>2020-01-13T22:48:08.000Z</time>
   </trkpt>
   <trkpt lat="-8.042714" lon="-34.892948">
    <ele>16.8</ele>
    <time>2020-01-13T22:48:09.000Z</time>
   </trkpt>
   <trkpt lat="-8.042679" lon="-34.892918">
    <ele>16.8</ele>
    <time>2020-01-13T22:48:10.000Z</time>
   </trkpt>
   <trkpt lat="-8.042654" lon="-34.892868">
    <ele>16.8</ele>
    <time>2020-01-13T22:48:11.000Z</time>
   </trkpt>
   <trkpt lat="-8.042624" lon="-34.892831">
    <ele>16.9</ele>
    <time>2020-01-13T22:48:12.000Z</time>
   </trkpt>
   <trkpt lat="-8.042591" lon="-34.8928">
    <ele>16.9</ele>
    <time>2020-01-13T22:48:13.000Z</time>
   </trkpt>
   <trkpt lat="-8.042567" lon="-34.892772">
    <ele>16.9</ele>
    <time>2020-01-13T22:48:14.000Z</time>
   </trkpt>
   <trkpt lat="-8.042543" lon="-34.892743">
    <ele>16.9</ele>
    <time>2020-01-13T22:48:15.000Z</time>
   </trkpt>
   <trkpt lat="-8.042513" lon="-34.892719">
    <ele>16.9</ele>
    <time>2020-01-13T22:48:16.000Z</time>
   </trkpt>
   <trkpt lat="-8.042483" lon="-34.892707">
    <ele>16.9</ele>
    <time>2020-01-13T22:48:17.000Z</time>
   </trkpt>
   <trkpt lat="-8.042464" lon="-34.892697">
    <ele>16.9</ele>
    <time>2020-01-13T22:48:18.000Z</time>
   </trkpt>
   <trkpt lat="-8.042456" lon="-34.892682">
    <ele>16.9</ele>
    <time>2020-01-13T22:48:20.000Z</time>
   </trkpt>
   <trkpt lat="-8.042402" lon="-34.892686">
    <ele>16.9</ele>
    <time>2020-01-13T22:48:23.000Z</time>
   </trkpt>
   <trkpt lat="-8.042394" lon="-34.892673">
    <ele>16.9</ele>
    <time>2020-01-13T22:48:24.000Z</time>
   </trkpt>
   <trkpt lat="-8.042364" lon="-34.892643">
    <ele>16.9</ele>
    <time>2020-01-13T22:48:26.000Z</time>
   </trkpt>
   <trkpt lat="-8.042325" lon="-34.892585">
    <ele>17</ele>
    <time>2020-01-13T22:48:28.000Z</time>
   </trkpt>
   <trkpt lat="-8.042295" lon="-34.892544">
    <ele>16.9</ele>
    <time>2020-01-13T22:48:29.000Z</time>
   </trkpt>
   <trkpt lat="-8.042268" lon="-34.892502">
    <ele>16.8</ele>
    <time>2020-01-13T22:48:30.000Z</time>
   </trkpt>
   <trkpt lat="-8.042244" lon="-34.89246">
    <ele>16.7</ele>
    <time>2020-01-13T22:48:31.000Z</time>
   </trkpt>
   <trkpt lat="-8.042201" lon="-34.892418">
    <ele>16.6</ele>
    <time>2020-01-13T22:48:32.000Z</time>
   </trkpt>
   <trkpt lat="-8.042172" lon="-34.892368">
    <ele>16.5</ele>
    <time>2020-01-13T22:48:33.000Z</time>
   </trkpt>
   <trkpt lat="-8.042136" lon="-34.892321">
    <ele>16.4</ele>
    <time>2020-01-13T22:48:34.000Z</time>
   </trkpt>
   <trkpt lat="-8.042098" lon="-34.892279">
    <ele>16.3</ele>
    <time>2020-01-13T22:48:35.000Z</time>
   </trkpt>
   <trkpt lat="-8.042076" lon="-34.892245">
    <ele>16.2</ele>
    <time>2020-01-13T22:48:36.000Z</time>
   </trkpt>
   <trkpt lat="-8.042034" lon="-34.892204">
    <ele>16.1</ele>
    <time>2020-01-13T22:48:37.000Z</time>
   </trkpt>
   <trkpt lat="-8.042003" lon="-34.892161">
    <ele>16</ele>
    <time>2020-01-13T22:48:38.000Z</time>
   </trkpt>
   <trkpt lat="-8.041969" lon="-34.892125">
    <ele>15.9</ele>
    <time>2020-01-13T22:48:39.000Z</time>
   </trkpt>
   <trkpt lat="-8.041934" lon="-34.892086">
    <ele>15.9</ele>
    <time>2020-01-13T22:48:40.000Z</time>
   </trkpt>
   <trkpt lat="-8.041895" lon="-34.892059">
    <ele>15.9</ele>
    <time>2020-01-13T22:48:41.000Z</time>
   </trkpt>
   <trkpt lat="-8.041858" lon="-34.892028">
    <ele>15.8</ele>
    <time>2020-01-13T22:48:42.000Z</time>
   </trkpt>
   <trkpt lat="-8.041822" lon="-34.891987">
    <ele>15.8</ele>
    <time>2020-01-13T22:48:43.000Z</time>
   </trkpt>
   <trkpt lat="-8.041782" lon="-34.891938">
    <ele>15.6</ele>
    <time>2020-01-13T22:48:44.000Z</time>
   </trkpt>
   <trkpt lat="-8.041741" lon="-34.891897">
    <ele>15.5</ele>
    <time>2020-01-13T22:48:45.000Z</time>
   </trkpt>
   <trkpt lat="-8.041709" lon="-34.891855">
    <ele>15.3</ele>
    <time>2020-01-13T22:48:46.000Z</time>
   </trkpt>
   <trkpt lat="-8.041676" lon="-34.891806">
    <ele>15.2</ele>
    <time>2020-01-13T22:48:47.000Z</time>
   </trkpt>
   <trkpt lat="-8.041642" lon="-34.891768">
    <ele>15</ele>
    <time>2020-01-13T22:48:48.000Z</time>
   </trkpt>
   <trkpt lat="-8.041612" lon="-34.891729">
    <ele>14.9</ele>
    <time>2020-01-13T22:48:49.000Z</time>
   </trkpt>
   <trkpt lat="-8.04159" lon="-34.891693">
    <ele>14.9</ele>
    <time>2020-01-13T22:48:50.000Z</time>
   </trkpt>
   <trkpt lat="-8.041546" lon="-34.89165">
    <ele>14.8</ele>
    <time>2020-01-13T22:48:51.000Z</time>
   </trkpt>
   <trkpt lat="-8.041496" lon="-34.891609">
    <ele>14.6</ele>
    <time>2020-01-13T22:48:52.000Z</time>
   </trkpt>
   <trkpt lat="-8.041447" lon="-34.891582">
    <ele>14.5</ele>
    <time>2020-01-13T22:48:53.000Z</time>
   </trkpt>
   <trkpt lat="-8.041387" lon="-34.891566">
    <ele>14.3</ele>
    <time>2020-01-13T22:48:54.000Z</time>
   </trkpt>
   <trkpt lat="-8.041341" lon="-34.891564">
    <ele>13.8</ele>
    <time>2020-01-13T22:48:55.000Z</time>
   </trkpt>
   <trkpt lat="-8.0413" lon="-34.891572">
    <ele>13.7</ele>
    <time>2020-01-13T22:48:56.000Z</time>
   </trkpt>
   <trkpt lat="-8.04125" lon="-34.891592">
    <ele>13.5</ele>
    <time>2020-01-13T22:48:57.000Z</time>
   </trkpt>
   <trkpt lat="-8.041193" lon="-34.891636">
    <ele>13.4</ele>
    <time>2020-01-13T22:48:58.000Z</time>
   </trkpt>
   <trkpt lat="-8.041118" lon="-34.89167">
    <ele>13.2</ele>
    <time>2020-01-13T22:48:59.000Z</time>
   </trkpt>
   <trkpt lat="-8.04106" lon="-34.891693">
    <ele>13.1</ele>
    <time>2020-01-13T22:49:00.000Z</time>
   </trkpt>
   <trkpt lat="-8.040991" lon="-34.891706">
    <ele>13</ele>
    <time>2020-01-13T22:49:01.000Z</time>
   </trkpt>
   <trkpt lat="-8.040926" lon="-34.891725">
    <ele>13</ele>
    <time>2020-01-13T22:49:02.000Z</time>
   </trkpt>
   <trkpt lat="-8.040871" lon="-34.891744">
    <ele>13</ele>
    <time>2020-01-13T22:49:03.000Z</time>
   </trkpt>
   <trkpt lat="-8.040804" lon="-34.891772">
    <ele>13</ele>
    <time>2020-01-13T22:49:04.000Z</time>
   </trkpt>
   <trkpt lat="-8.040738" lon="-34.891788">
    <ele>13</ele>
    <time>2020-01-13T22:49:05.000Z</time>
   </trkpt>
   <trkpt lat="-8.040673" lon="-34.891803">
    <ele>13</ele>
    <time>2020-01-13T22:49:06.000Z</time>
   </trkpt>
   <trkpt lat="-8.04063" lon="-34.891817">
    <ele>13</ele>
    <time>2020-01-13T22:49:07.000Z</time>
   </trkpt>
   <trkpt lat="-8.040586" lon="-34.891801">
    <ele>13</ele>
    <time>2020-01-13T22:49:08.000Z</time>
   </trkpt>
   <trkpt lat="-8.040559" lon="-34.891764">
    <ele>13</ele>
    <time>2020-01-13T22:49:09.000Z</time>
   </trkpt>
   <trkpt lat="-8.040529" lon="-34.891709">
    <ele>12.8</ele>
    <time>2020-01-13T22:49:10.000Z</time>
   </trkpt>
   <trkpt lat="-8.040493" lon="-34.89166">
    <ele>12.7</ele>
    <time>2020-01-13T22:49:11.000Z</time>
   </trkpt>
   <trkpt lat="-8.040446" lon="-34.89161">
    <ele>12.4</ele>
    <time>2020-01-13T22:49:12.000Z</time>
   </trkpt>
   <trkpt lat="-8.040399" lon="-34.891551">
    <ele>12.1</ele>
    <time>2020-01-13T22:49:13.000Z</time>
   </trkpt>
   <trkpt lat="-8.040334" lon="-34.891496">
    <ele>11.9</ele>
    <time>2020-01-13T22:49:14.000Z</time>
   </trkpt>
   <trkpt lat="-8.040272" lon="-34.891435">
    <ele>11.6</ele>
    <time>2020-01-13T22:49:15.000Z</time>
   </trkpt>
   <trkpt lat="-8.040218" lon="-34.891384">
    <ele>11.3</ele>
    <time>2020-01-13T22:49:16.000Z</time>
   </trkpt>
   <trkpt lat="-8.040156" lon="-34.891322">
    <ele>11</ele>
    <time>2020-01-13T22:49:17.000Z</time>
   </trkpt>
   <trkpt lat="-8.040104" lon="-34.891259">
    <ele>10.8</ele>
    <time>2020-01-13T22:49:18.000Z</time>
   </trkpt>
   <trkpt lat="-8.040055" lon="-34.891193">
    <ele>10.5</ele>
    <time>2020-01-13T22:49:19.000Z</time>
   </trkpt>
   <trkpt lat="-8.040006" lon="-34.891131">
    <ele>11</ele>
    <time>2020-01-13T22:49:20.000Z</time>
   </trkpt>
   <trkpt lat="-8.039955" lon="-34.891059">
    <ele>11.7</ele>
    <time>2020-01-13T22:49:21.000Z</time>
   </trkpt>
   <trkpt lat="-8.039914" lon="-34.890989">
    <ele>12.1</ele>
    <time>2020-01-13T22:49:22.000Z</time>
   </trkpt>
   <trkpt lat="-8.03988" lon="-34.890936">
    <ele>12.4</ele>
    <time>2020-01-13T22:49:23.000Z</time>
   </trkpt>
   <trkpt lat="-8.039841" lon="-34.89088">
    <ele>12.7</ele>
    <time>2020-01-13T22:49:24.000Z</time>
   </trkpt>
   <trkpt lat="-8.039808" lon="-34.89083">
    <ele>12.9</ele>
    <time>2020-01-13T22:49:25.000Z</time>
   </trkpt>
   <trkpt lat="-8.039772" lon="-34.890789">
    <ele>12.9</ele>
    <time>2020-01-13T22:49:26.000Z</time>
   </trkpt>
   <trkpt lat="-8.03974" lon="-34.890742">
    <ele>12.8</ele>
    <time>2020-01-13T22:49:27.000Z</time>
   </trkpt>
   <trkpt lat="-8.039706" lon="-34.890692">
    <ele>12.4</ele>
    <time>2020-01-13T22:49:28.000Z</time>
   </trkpt>
   <trkpt lat="-8.039664" lon="-34.890654">
    <ele>12.2</ele>
    <time>2020-01-13T22:49:29.000Z</time>
   </trkpt>
   <trkpt lat="-8.039624" lon="-34.890612">
    <ele>12.1</ele>
    <time>2020-01-13T22:49:30.000Z</time>
   </trkpt>
   <trkpt lat="-8.039595" lon="-34.890583">
    <ele>11.9</ele>
    <time>2020-01-13T22:49:31.000Z</time>
   </trkpt>
   <trkpt lat="-8.039573" lon="-34.890567">
    <ele>11.7</ele>
    <time>2020-01-13T22:49:32.000Z</time>
   </trkpt>
   <trkpt lat="-8.039517" lon="-34.89054">
    <ele>11.5</ele>
    <time>2020-01-13T22:49:34.000Z</time>
   </trkpt>
   <trkpt lat="-8.039499" lon="-34.890524">
    <ele>11.4</ele>
    <time>2020-01-13T22:49:36.000Z</time>
   </trkpt>
   <trkpt lat="-8.03946" lon="-34.89051">
    <ele>11.2</ele>
    <time>2020-01-13T22:49:39.000Z</time>
   </trkpt>
   <trkpt lat="-8.039444" lon="-34.890513">
    <ele>11.1</ele>
    <time>2020-01-13T22:49:42.000Z</time>
   </trkpt>
   <trkpt lat="-8.039413" lon="-34.890483">
    <ele>11</ele>
    <time>2020-01-13T22:49:46.000Z</time>
   </trkpt>
   <trkpt lat="-8.039365" lon="-34.890463">
    <ele>11</ele>
    <time>2020-01-13T22:49:48.000Z</time>
   </trkpt>
   <trkpt lat="-8.039304" lon="-34.890459">
    <ele>10.9</ele>
    <time>2020-01-13T22:49:49.000Z</time>
   </trkpt>
   <trkpt lat="-8.039254" lon="-34.890459">
    <ele>10.8</ele>
    <time>2020-01-13T22:49:50.000Z</time>
   </trkpt>
   <trkpt lat="-8.039194" lon="-34.890446">
    <ele>10.6</ele>
    <time>2020-01-13T22:49:51.000Z</time>
   </trkpt>
   <trkpt lat="-8.039155" lon="-34.890433">
    <ele>10.6</ele>
    <time>2020-01-13T22:49:52.000Z</time>
   </trkpt>
   <trkpt lat="-8.039125" lon="-34.890441">
    <ele>10.5</ele>
    <time>2020-01-13T22:49:53.000Z</time>
   </trkpt>
   <trkpt lat="-8.039099" lon="-34.890437">
    <ele>10.3</ele>
    <time>2020-01-13T22:49:54.000Z</time>
   </trkpt>
   <trkpt lat="-8.039016" lon="-34.890427">
    <ele>9.5</ele>
    <time>2020-01-13T22:49:56.000Z</time>
   </trkpt>
   <trkpt lat="-8.038959" lon="-34.890414">
    <ele>9</ele>
    <time>2020-01-13T22:49:57.000Z</time>
   </trkpt>
   <trkpt lat="-8.038906" lon="-34.890398">
    <ele>8.7</ele>
    <time>2020-01-13T22:49:58.000Z</time>
   </trkpt>
   <trkpt lat="-8.038859" lon="-34.890364">
    <ele>8.6</ele>
    <time>2020-01-13T22:49:59.000Z</time>
   </trkpt>
   <trkpt lat="-8.038797" lon="-34.890338">
    <ele>8.8</ele>
    <time>2020-01-13T22:50:00.000Z</time>
   </trkpt>
   <trkpt lat="-8.038746" lon="-34.890313">
    <ele>8.8</ele>
    <time>2020-01-13T22:50:01.000Z</time>
   </trkpt>
   <trkpt lat="-8.038691" lon="-34.890284">
    <ele>8.8</ele>
    <time>2020-01-13T22:50:02.000Z</time>
   </trkpt>
   <trkpt lat="-8.038633" lon="-34.890251">
    <ele>9.1</ele>
    <time>2020-01-13T22:50:03.000Z</time>
   </trkpt>
   <trkpt lat="-8.038569" lon="-34.890215">
    <ele>9.8</ele>
    <time>2020-01-13T22:50:04.000Z</time>
   </trkpt>
   <trkpt lat="-8.03851" lon="-34.890178">
    <ele>10.6</ele>
    <time>2020-01-13T22:50:05.000Z</time>
   </trkpt>
   <trkpt lat="-8.038454" lon="-34.890153">
    <ele>11.2</ele>
    <time>2020-01-13T22:50:06.000Z</time>
   </trkpt>
   <trkpt lat="-8.038398" lon="-34.890118">
    <ele>11.6</ele>
    <time>2020-01-13T22:50:07.000Z</time>
   </trkpt>
   <trkpt lat="-8.038326" lon="-34.890081">
    <ele>11.7</ele>
    <time>2020-01-13T22:50:08.000Z</time>
   </trkpt>
   <trkpt lat="-8.038258" lon="-34.89005">
    <ele>11.7</ele>
    <time>2020-01-13T22:50:09.000Z</time>
   </trkpt>
   <trkpt lat="-8.038186" lon="-34.890017">
    <ele>12</ele>
    <time>2020-01-13T22:50:10.000Z</time>
   </trkpt>
   <trkpt lat="-8.038132" lon="-34.889998">
    <ele>12.3</ele>
    <time>2020-01-13T22:50:11.000Z</time>
   </trkpt>
   <trkpt lat="-8.038084" lon="-34.889976">
    <ele>12.5</ele>
    <time>2020-01-13T22:50:12.000Z</time>
   </trkpt>
   <trkpt lat="-8.038033" lon="-34.88995">
    <ele>12.6</ele>
    <time>2020-01-13T22:50:13.000Z</time>
   </trkpt>
   <trkpt lat="-8.037969" lon="-34.889922">
    <ele>12.5</ele>
    <time>2020-01-13T22:50:14.000Z</time>
   </trkpt>
   <trkpt lat="-8.037915" lon="-34.889894">
    <ele>12.4</ele>
    <time>2020-01-13T22:50:15.000Z</time>
   </trkpt>
   <trkpt lat="-8.037842" lon="-34.889887">
    <ele>12.2</ele>
    <time>2020-01-13T22:50:16.000Z</time>
   </trkpt>
   <trkpt lat="-8.037805" lon="-34.889882">
    <ele>12.1</ele>
    <time>2020-01-13T22:50:17.000Z</time>
   </trkpt>
   <trkpt lat="-8.037773" lon="-34.889883">
    <ele>12</ele>
    <time>2020-01-13T22:50:18.000Z</time>
   </trkpt>
   <trkpt lat="-8.037744" lon="-34.889917">
    <ele>11.9</ele>
    <time>2020-01-13T22:50:19.000Z</time>
   </trkpt>
   <trkpt lat="-8.037722" lon="-34.88997">
    <ele>11.7</ele>
    <time>2020-01-13T22:50:20.000Z</time>
   </trkpt>
   <trkpt lat="-8.037687" lon="-34.890023">
    <ele>11.5</ele>
    <time>2020-01-13T22:50:21.000Z</time>
   </trkpt>
   <trkpt lat="-8.037659" lon="-34.890081">
    <ele>11.3</ele>
    <time>2020-01-13T22:50:22.000Z</time>
   </trkpt>
   <trkpt lat="-8.037634" lon="-34.890124">
    <ele>11.2</ele>
    <time>2020-01-13T22:50:23.000Z</time>
   </trkpt>
   <trkpt lat="-8.037621" lon="-34.890155">
    <ele>11</ele>
    <time>2020-01-13T22:50:24.000Z</time>
   </trkpt>
   <trkpt lat="-8.037593" lon="-34.890188">
    <ele>11.1</ele>
    <time>2020-01-13T22:50:25.000Z</time>
   </trkpt>
   <trkpt lat="-8.037571" lon="-34.890217">
    <ele>11.2</ele>
    <time>2020-01-13T22:50:26.000Z</time>
   </trkpt>
   <trkpt lat="-8.037548" lon="-34.890262">
    <ele>11.4</ele>
    <time>2020-01-13T22:50:27.000Z</time>
   </trkpt>
   <trkpt lat="-8.037523" lon="-34.890307">
    <ele>11.5</ele>
    <time>2020-01-13T22:50:28.000Z</time>
   </trkpt>
   <trkpt lat="-8.037485" lon="-34.890364">
    <ele>11.7</ele>
    <time>2020-01-13T22:50:29.000Z</time>
   </trkpt>
   <trkpt lat="-8.037462" lon="-34.89042">
    <ele>11.8</ele>
    <time>2020-01-13T22:50:30.000Z</time>
   </trkpt>
   <trkpt lat="-8.037445" lon="-34.890473">
    <ele>11.9</ele>
    <time>2020-01-13T22:50:31.000Z</time>
   </trkpt>
   <trkpt lat="-8.037415" lon="-34.890515">
    <ele>12.1</ele>
    <time>2020-01-13T22:50:32.000Z</time>
   </trkpt>
   <trkpt lat="-8.037386" lon="-34.890564">
    <ele>12</ele>
    <time>2020-01-13T22:50:33.000Z</time>
   </trkpt>
   <trkpt lat="-8.037357" lon="-34.890608">
    <ele>11.6</ele>
    <time>2020-01-13T22:50:34.000Z</time>
   </trkpt>
   <trkpt lat="-8.037311" lon="-34.890658">
    <ele>11.2</ele>
    <time>2020-01-13T22:50:35.000Z</time>
   </trkpt>
   <trkpt lat="-8.037277" lon="-34.890704">
    <ele>10.9</ele>
    <time>2020-01-13T22:50:36.000Z</time>
   </trkpt>
   <trkpt lat="-8.037262" lon="-34.890738">
    <ele>10.7</ele>
    <time>2020-01-13T22:50:37.000Z</time>
   </trkpt>
   <trkpt lat="-8.037243" lon="-34.890782">
    <ele>10.2</ele>
    <time>2020-01-13T22:50:38.000Z</time>
   </trkpt>
   <trkpt lat="-8.037224" lon="-34.890833">
    <ele>9.8</ele>
    <time>2020-01-13T22:50:39.000Z</time>
   </trkpt>
   <trkpt lat="-8.037213" lon="-34.890874">
    <ele>9.6</ele>
    <time>2020-01-13T22:50:40.000Z</time>
   </trkpt>
   <trkpt lat="-8.037206" lon="-34.890911">
    <ele>8.3</ele>
    <time>2020-01-13T22:50:41.000Z</time>
   </trkpt>
   <trkpt lat="-8.037202" lon="-34.890946">
    <ele>8.1</ele>
    <time>2020-01-13T22:50:42.000Z</time>
   </trkpt>
   <trkpt lat="-8.037176" lon="-34.890982">
    <ele>7.9</ele>
    <time>2020-01-13T22:50:43.000Z</time>
   </trkpt>
   <trkpt lat="-8.037157" lon="-34.891017">
    <ele>7.3</ele>
    <time>2020-01-13T22:50:44.000Z</time>
   </trkpt>
   <trkpt lat="-8.037132" lon="-34.891039">
    <ele>7.3</ele>
    <time>2020-01-13T22:50:45.000Z</time>
   </trkpt>
   <trkpt lat="-8.037105" lon="-34.891061">
    <ele>7.2</ele>
    <time>2020-01-13T22:50:46.000Z</time>
   </trkpt>
   <trkpt lat="-8.037098" lon="-34.891073">
    <ele>7.1</ele>
    <time>2020-01-13T22:50:47.000Z</time>
   </trkpt>
   <trkpt lat="-8.037094" lon="-34.891081">
    <ele>7.1</ele>
    <time>2020-01-13T22:50:50.000Z</time>
   </trkpt>
   <trkpt lat="-8.037139" lon="-34.891091">
    <ele>7</ele>
    <time>2020-01-13T22:50:54.000Z</time>
   </trkpt>
   <trkpt lat="-8.037268" lon="-34.891187">
    <ele>8.1</ele>
    <time>2020-01-13T22:51:09.000Z</time>
   </trkpt>
   <trkpt lat="-8.037307" lon="-34.891209">
    <ele>8.6</ele>
    <time>2020-01-13T22:51:10.000Z</time>
   </trkpt>
   <trkpt lat="-8.037339" lon="-34.891234">
    <ele>9</ele>
    <time>2020-01-13T22:51:11.000Z</time>
   </trkpt>
   <trkpt lat="-8.037364" lon="-34.891261">
    <ele>9.3</ele>
    <time>2020-01-13T22:51:12.000Z</time>
   </trkpt>
   <trkpt lat="-8.037394" lon="-34.891282">
    <ele>9.7</ele>
    <time>2020-01-13T22:51:13.000Z</time>
   </trkpt>
   <trkpt lat="-8.037427" lon="-34.891313">
    <ele>10.1</ele>
    <time>2020-01-13T22:51:14.000Z</time>
   </trkpt>
   <trkpt lat="-8.037456" lon="-34.891344">
    <ele>10.3</ele>
    <time>2020-01-13T22:51:15.000Z</time>
   </trkpt>
   <trkpt lat="-8.037487" lon="-34.891368">
    <ele>10.6</ele>
    <time>2020-01-13T22:51:16.000Z</time>
   </trkpt>
   <trkpt lat="-8.037519" lon="-34.891393">
    <ele>10.8</ele>
    <time>2020-01-13T22:51:17.000Z</time>
   </trkpt>
   <trkpt lat="-8.037542" lon="-34.891411">
    <ele>11</ele>
    <time>2020-01-13T22:51:18.000Z</time>
   </trkpt>
   <trkpt lat="-8.037571" lon="-34.891433">
    <ele>11.2</ele>
    <time>2020-01-13T22:51:19.000Z</time>
   </trkpt>
   <trkpt lat="-8.037596" lon="-34.891451">
    <ele>11.3</ele>
    <time>2020-01-13T22:51:20.000Z</time>
   </trkpt>
   <trkpt lat="-8.037627" lon="-34.891474">
    <ele>11.5</ele>
    <time>2020-01-13T22:51:21.000Z</time>
   </trkpt>
   <trkpt lat="-8.037663" lon="-34.891481">
    <ele>11.6</ele>
    <time>2020-01-13T22:51:22.000Z</time>
   </trkpt>
   <trkpt lat="-8.037686" lon="-34.891496">
    <ele>11.7</ele>
    <time>2020-01-13T22:51:23.000Z</time>
   </trkpt>
   <trkpt lat="-8.037719" lon="-34.891508">
    <ele>11.8</ele>
    <time>2020-01-13T22:51:24.000Z</time>
   </trkpt>
   <trkpt lat="-8.037742" lon="-34.891522">
    <ele>11.9</ele>
    <time>2020-01-13T22:51:25.000Z</time>
   </trkpt>
   <trkpt lat="-8.03778" lon="-34.89156">
    <ele>11.9</ele>
    <time>2020-01-13T22:51:27.000Z</time>
   </trkpt>
   <trkpt lat="-8.037753" lon="-34.891593">
    <ele>11.7</ele>
    <time>2020-01-13T22:51:29.000Z</time>
   </trkpt>
   <trkpt lat="-8.037697" lon="-34.891644">
    <ele>11.3</ele>
    <time>2020-01-13T22:51:31.000Z</time>
   </trkpt>
   <trkpt lat="-8.037662" lon="-34.89168">
    <ele>11</ele>
    <time>2020-01-13T22:51:32.000Z</time>
   </trkpt>
   <trkpt lat="-8.037632" lon="-34.891714">
    <ele>10.7</ele>
    <time>2020-01-13T22:51:33.000Z</time>
   </trkpt>
   <trkpt lat="-8.037603" lon="-34.891734">
    <ele>10.6</ele>
    <time>2020-01-13T22:51:34.000Z</time>
   </trkpt>
   <trkpt lat="-8.037576" lon="-34.891753">
    <ele>10.5</ele>
    <time>2020-01-13T22:51:35.000Z</time>
   </trkpt>
   <trkpt lat="-8.03756" lon="-34.891774">
    <ele>10.4</ele>
    <time>2020-01-13T22:51:36.000Z</time>
   </trkpt>
   <trkpt lat="-8.037521" lon="-34.891825">
    <ele>10.1</ele>
    <time>2020-01-13T22:51:38.000Z</time>
   </trkpt>
   <trkpt lat="-8.037502" lon="-34.891854">
    <ele>10</ele>
    <time>2020-01-13T22:51:39.000Z</time>
   </trkpt>
   <trkpt lat="-8.037472" lon="-34.891895">
    <ele>9.7</ele>
    <time>2020-01-13T22:51:40.000Z</time>
   </trkpt>
   <trkpt lat="-8.037439" lon="-34.891939">
    <ele>9.4</ele>
    <time>2020-01-13T22:51:41.000Z</time>
   </trkpt>
   <trkpt lat="-8.037416" lon="-34.891984">
    <ele>9.1</ele>
    <time>2020-01-13T22:51:42.000Z</time>
   </trkpt>
   <trkpt lat="-8.037409" lon="-34.89203">
    <ele>8.9</ele>
    <time>2020-01-13T22:51:43.000Z</time>
   </trkpt>
   <trkpt lat="-8.037403" lon="-34.892076">
    <ele>8.6</ele>
    <time>2020-01-13T22:51:44.000Z</time>
   </trkpt>
   <trkpt lat="-8.037403" lon="-34.892113">
    <ele>8.5</ele>
    <time>2020-01-13T22:51:45.000Z</time>
   </trkpt>
   <trkpt lat="-8.037412" lon="-34.892165">
    <ele>8.6</ele>
    <time>2020-01-13T22:51:46.000Z</time>
   </trkpt>
   <trkpt lat="-8.037419" lon="-34.892228">
    <ele>8.7</ele>
    <time>2020-01-13T22:51:47.000Z</time>
   </trkpt>
   <trkpt lat="-8.037424" lon="-34.892286">
    <ele>8.8</ele>
    <time>2020-01-13T22:51:48.000Z</time>
   </trkpt>
   <trkpt lat="-8.03743" lon="-34.892343">
    <ele>8.9</ele>
    <time>2020-01-13T22:51:49.000Z</time>
   </trkpt>
   <trkpt lat="-8.037432" lon="-34.892393">
    <ele>9</ele>
    <time>2020-01-13T22:51:50.000Z</time>
   </trkpt>
   <trkpt lat="-8.037435" lon="-34.89244">
    <ele>9.1</ele>
    <time>2020-01-13T22:51:51.000Z</time>
   </trkpt>
   <trkpt lat="-8.037437" lon="-34.892494">
    <ele>9.2</ele>
    <time>2020-01-13T22:51:52.000Z</time>
   </trkpt>
   <trkpt lat="-8.037423" lon="-34.892547">
    <ele>9.3</ele>
    <time>2020-01-13T22:51:53.000Z</time>
   </trkpt>
   <trkpt lat="-8.037417" lon="-34.892593">
    <ele>9.4</ele>
    <time>2020-01-13T22:51:54.000Z</time>
   </trkpt>
   <trkpt lat="-8.037406" lon="-34.892634">
    <ele>9.5</ele>
    <time>2020-01-13T22:51:55.000Z</time>
   </trkpt>
   <trkpt lat="-8.037407" lon="-34.892679">
    <ele>9.6</ele>
    <time>2020-01-13T22:51:56.000Z</time>
   </trkpt>
   <trkpt lat="-8.037403" lon="-34.892727">
    <ele>9.7</ele>
    <time>2020-01-13T22:51:57.000Z</time>
   </trkpt>
   <trkpt lat="-8.037392" lon="-34.892771">
    <ele>9.8</ele>
    <time>2020-01-13T22:51:58.000Z</time>
   </trkpt>
   <trkpt lat="-8.037371" lon="-34.892806">
    <ele>9.8</ele>
    <time>2020-01-13T22:51:59.000Z</time>
   </trkpt>
   <trkpt lat="-8.037338" lon="-34.892818">
    <ele>9.8</ele>
    <time>2020-01-13T22:52:00.000Z</time>
   </trkpt>
   <trkpt lat="-8.037307" lon="-34.892819">
    <ele>9.7</ele>
    <time>2020-01-13T22:52:01.000Z</time>
   </trkpt>
   <trkpt lat="-8.037257" lon="-34.8928">
    <ele>9.5</ele>
    <time>2020-01-13T22:52:02.000Z</time>
   </trkpt>
   <trkpt lat="-8.037216" lon="-34.892784">
    <ele>9.3</ele>
    <time>2020-01-13T22:52:03.000Z</time>
   </trkpt>
   <trkpt lat="-8.037181" lon="-34.892766">
    <ele>9.2</ele>
    <time>2020-01-13T22:52:04.000Z</time>
   </trkpt>
   <trkpt lat="-8.037144" lon="-34.89275">
    <ele>9</ele>
    <time>2020-01-13T22:52:05.000Z</time>
   </trkpt>
   <trkpt lat="-8.037105" lon="-34.892741">
    <ele>8.9</ele>
    <time>2020-01-13T22:52:06.000Z</time>
   </trkpt>
   <trkpt lat="-8.037067" lon="-34.892736">
    <ele>8.8</ele>
    <time>2020-01-13T22:52:07.000Z</time>
   </trkpt>
   <trkpt lat="-8.037047" lon="-34.892732">
    <ele>8.7</ele>
    <time>2020-01-13T22:52:08.000Z</time>
   </trkpt>
   <trkpt lat="-8.036991" lon="-34.892729">
    <ele>8.5</ele>
    <time>2020-01-13T22:52:10.000Z</time>
   </trkpt>
   <trkpt lat="-8.036961" lon="-34.892728">
    <ele>8.4</ele>
    <time>2020-01-13T22:52:11.000Z</time>
   </trkpt>
   <trkpt lat="-8.036945" lon="-34.892728">
    <ele>8.4</ele>
    <time>2020-01-13T22:52:12.000Z</time>
   </trkpt>
   <trkpt lat="-8.03691" lon="-34.892748">
    <ele>8.3</ele>
    <time>2020-01-13T22:52:14.000Z</time>
   </trkpt>
   <trkpt lat="-8.036885" lon="-34.892785">
    <ele>8.1</ele>
    <time>2020-01-13T22:52:16.000Z</time>
   </trkpt>
   <trkpt lat="-8.036845" lon="-34.89281">
    <ele>8</ele>
    <time>2020-01-13T22:52:18.000Z</time>
   </trkpt>
   <trkpt lat="-8.03681" lon="-34.892833">
    <ele>7.9</ele>
    <time>2020-01-13T22:52:20.000Z</time>
   </trkpt>
   <trkpt lat="-8.036719" lon="-34.892812">
    <ele>7.6</ele>
    <time>2020-01-13T22:52:22.000Z</time>
   </trkpt>
   <trkpt lat="-8.036656" lon="-34.892796">
    <ele>7.5</ele>
    <time>2020-01-13T22:53:03.000Z</time>
   </trkpt>
   <trkpt lat="-8.036593" lon="-34.892781">
    <ele>7.3</ele>
    <time>2020-01-13T22:53:06.000Z</time>
   </trkpt>
   <trkpt lat="-8.03653" lon="-34.892766">
    <ele>7.2</ele>
    <time>2020-01-13T22:53:07.000Z</time>
   </trkpt>
   <trkpt lat="-8.036597" lon="-34.892756">
    <ele>7.2</ele>
    <time>2020-01-13T22:53:12.000Z</time>
   </trkpt>
   <trkpt lat="-8.036596" lon="-34.89279">
    <ele>7.1</ele>
    <time>2020-01-13T22:53:15.000Z</time>
   </trkpt>
  </trkseg>
 </trk>
</gpx>
