<?xml version="1.0" encoding="UTF-8"?>
<gpx creator="StravaGPX" version="1.1" xmlns="http://www.topografix.com/GPX/1/1">
 <metadata>
  <time>2019-09-18T14:26:48Z</time>
 </metadata>
 <trk>
  <name>Lunch Ride</name>
  <type>1</type>
  <trkseg>
   <trkpt lat="-8.036766" lon="-34.892751">
    <ele>9.4</ele>
    <time>2019-09-18T14:26:48.000Z</time>
   </trkpt>
   <trkpt lat="-8.036897" lon="-34.89272">
    <ele>10</ele>
    <time>2019-09-18T14:27:58.000Z</time>
   </trkpt>
   <trkpt lat="-8.036912" lon="-34.89271">
    <ele>10</ele>
    <time>2019-09-18T14:27:59.000Z</time>
   </trkpt>
   <trkpt lat="-8.03697" lon="-34.892693">
    <ele>10</ele>
    <time>2019-09-18T14:28:02.000Z</time>
   </trkpt>
   <trkpt lat="-8.03701" lon="-34.892711">
    <ele>10</ele>
    <time>2019-09-18T14:28:04.000Z</time>
   </trkpt>
   <trkpt lat="-8.037064" lon="-34.892731">
    <ele>10</ele>
    <time>2019-09-18T14:28:06.000Z</time>
   </trkpt>
   <trkpt lat="-8.037095" lon="-34.892737">
    <ele>10</ele>
    <time>2019-09-18T14:28:07.000Z</time>
   </trkpt>
   <trkpt lat="-8.037126" lon="-34.89275">
    <ele>10</ele>
    <time>2019-09-18T14:28:08.000Z</time>
   </trkpt>
   <trkpt lat="-8.037155" lon="-34.892761">
    <ele>10</ele>
    <time>2019-09-18T14:28:09.000Z</time>
   </trkpt>
   <trkpt lat="-8.037183" lon="-34.892773">
    <ele>10</ele>
    <time>2019-09-18T14:28:10.000Z</time>
   </trkpt>
   <trkpt lat="-8.037215" lon="-34.892783">
    <ele>10</ele>
    <time>2019-09-18T14:28:11.000Z</time>
   </trkpt>
   <trkpt lat="-8.037239" lon="-34.892796">
    <ele>10</ele>
    <time>2019-09-18T14:28:12.000Z</time>
   </trkpt>
   <trkpt lat="-8.037276" lon="-34.892818">
    <ele>10</ele>
    <time>2019-09-18T14:28:13.000Z</time>
   </trkpt>
   <trkpt lat="-8.037309" lon="-34.89284">
    <ele>10</ele>
    <time>2019-09-18T14:28:14.000Z</time>
   </trkpt>
   <trkpt lat="-8.037336" lon="-34.892863">
    <ele>10</ele>
    <time>2019-09-18T14:28:15.000Z</time>
   </trkpt>
   <trkpt lat="-8.037362" lon="-34.892886">
    <ele>10</ele>
    <time>2019-09-18T14:28:16.000Z</time>
   </trkpt>
   <trkpt lat="-8.037381" lon="-34.892916">
    <ele>10</ele>
    <time>2019-09-18T14:28:17.000Z</time>
   </trkpt>
   <trkpt lat="-8.037371" lon="-34.892965">
    <ele>10</ele>
    <time>2019-09-18T14:28:19.000Z</time>
   </trkpt>
   <trkpt lat="-8.037361" lon="-34.892995">
    <ele>10</ele>
    <time>2019-09-18T14:28:20.000Z</time>
   </trkpt>
   <trkpt lat="-8.037348" lon="-34.893029">
    <ele>10</ele>
    <time>2019-09-18T14:28:21.000Z</time>
   </trkpt>
   <trkpt lat="-8.037335" lon="-34.893057">
    <ele>10</ele>
    <time>2019-09-18T14:28:22.000Z</time>
   </trkpt>
   <trkpt lat="-8.03732" lon="-34.893091">
    <ele>10</ele>
    <time>2019-09-18T14:28:23.000Z</time>
   </trkpt>
   <trkpt lat="-8.037305" lon="-34.893124">
    <ele>10</ele>
    <time>2019-09-18T14:28:24.000Z</time>
   </trkpt>
   <trkpt lat="-8.037288" lon="-34.893155">
    <ele>10</ele>
    <time>2019-09-18T14:28:25.000Z</time>
   </trkpt>
   <trkpt lat="-8.037268" lon="-34.893179">
    <ele>10</ele>
    <time>2019-09-18T14:28:26.000Z</time>
   </trkpt>
   <trkpt lat="-8.037247" lon="-34.893201">
    <ele>10</ele>
    <time>2019-09-18T14:28:27.000Z</time>
   </trkpt>
   <trkpt lat="-8.037219" lon="-34.893235">
    <ele>10</ele>
    <time>2019-09-18T14:28:28.000Z</time>
   </trkpt>
   <trkpt lat="-8.037192" lon="-34.89327">
    <ele>9.9</ele>
    <time>2019-09-18T14:28:29.000Z</time>
   </trkpt>
   <trkpt lat="-8.037168" lon="-34.893308">
    <ele>9.8</ele>
    <time>2019-09-18T14:28:30.000Z</time>
   </trkpt>
   <trkpt lat="-8.037165" lon="-34.89336">
    <ele>9.6</ele>
    <time>2019-09-18T14:28:31.000Z</time>
   </trkpt>
   <trkpt lat="-8.037148" lon="-34.893413">
    <ele>9.3</ele>
    <time>2019-09-18T14:28:32.000Z</time>
   </trkpt>
   <trkpt lat="-8.037129" lon="-34.89347">
    <ele>8.8</ele>
    <time>2019-09-18T14:28:33.000Z</time>
   </trkpt>
   <trkpt lat="-8.037113" lon="-34.893521">
    <ele>8.5</ele>
    <time>2019-09-18T14:28:34.000Z</time>
   </trkpt>
   <trkpt lat="-8.0371" lon="-34.893574">
    <ele>8.4</ele>
    <time>2019-09-18T14:28:35.000Z</time>
   </trkpt>
   <trkpt lat="-8.037087" lon="-34.893628">
    <ele>8.2</ele>
    <time>2019-09-18T14:28:36.000Z</time>
   </trkpt>
   <trkpt lat="-8.037087" lon="-34.893684">
    <ele>8.2</ele>
    <time>2019-09-18T14:28:37.000Z</time>
   </trkpt>
   <trkpt lat="-8.037077" lon="-34.893724">
    <ele>8.5</ele>
    <time>2019-09-18T14:28:38.000Z</time>
   </trkpt>
   <trkpt lat="-8.037065" lon="-34.893762">
    <ele>8.7</ele>
    <time>2019-09-18T14:28:39.000Z</time>
   </trkpt>
   <trkpt lat="-8.037055" lon="-34.893787">
    <ele>8.9</ele>
    <time>2019-09-18T14:28:40.000Z</time>
   </trkpt>
   <trkpt lat="-8.037041" lon="-34.893818">
    <ele>9.2</ele>
    <time>2019-09-18T14:28:41.000Z</time>
   </trkpt>
   <trkpt lat="-8.037025" lon="-34.893852">
    <ele>9.4</ele>
    <time>2019-09-18T14:28:42.000Z</time>
   </trkpt>
   <trkpt lat="-8.037013" lon="-34.893895">
    <ele>9.5</ele>
    <time>2019-09-18T14:28:43.000Z</time>
   </trkpt>
   <trkpt lat="-8.036997" lon="-34.893937">
    <ele>9.5</ele>
    <time>2019-09-18T14:28:44.000Z</time>
   </trkpt>
   <trkpt lat="-8.036986" lon="-34.893974">
    <ele>9.6</ele>
    <time>2019-09-18T14:28:45.000Z</time>
   </trkpt>
   <trkpt lat="-8.036972" lon="-34.894009">
    <ele>9.7</ele>
    <time>2019-09-18T14:28:46.000Z</time>
   </trkpt>
   <trkpt lat="-8.036969" lon="-34.894049">
    <ele>9.8</ele>
    <time>2019-09-18T14:28:47.000Z</time>
   </trkpt>
   <trkpt lat="-8.036977" lon="-34.894084">
    <ele>9.8</ele>
    <time>2019-09-18T14:28:48.000Z</time>
   </trkpt>
   <trkpt lat="-8.036997" lon="-34.894129">
    <ele>8.3</ele>
    <time>2019-09-18T14:28:50.000Z</time>
   </trkpt>
   <trkpt lat="-8.037038" lon="-34.894141">
    <ele>8.3</ele>
    <time>2019-09-18T14:28:52.000Z</time>
   </trkpt>
   <trkpt lat="-8.037079" lon="-34.894143">
    <ele>8.3</ele>
    <time>2019-09-18T14:28:54.000Z</time>
   </trkpt>
   <trkpt lat="-8.037132" lon="-34.894137">
    <ele>7.2</ele>
    <time>2019-09-18T14:28:56.000Z</time>
   </trkpt>
   <trkpt lat="-8.037158" lon="-34.894129">
    <ele>7.1</ele>
    <time>2019-09-18T14:28:57.000Z</time>
   </trkpt>
   <trkpt lat="-8.03721" lon="-34.894115">
    <ele>7</ele>
    <time>2019-09-18T14:28:59.000Z</time>
   </trkpt>
   <trkpt lat="-8.037239" lon="-34.894107">
    <ele>6.9</ele>
    <time>2019-09-18T14:29:00.000Z</time>
   </trkpt>
   <trkpt lat="-8.037269" lon="-34.894094">
    <ele>6.9</ele>
    <time>2019-09-18T14:29:01.000Z</time>
   </trkpt>
   <trkpt lat="-8.037297" lon="-34.894074">
    <ele>6.8</ele>
    <time>2019-09-18T14:29:02.000Z</time>
   </trkpt>
   <trkpt lat="-8.037323" lon="-34.894053">
    <ele>6.7</ele>
    <time>2019-09-18T14:29:03.000Z</time>
   </trkpt>
   <trkpt lat="-8.037348" lon="-34.894033">
    <ele>6.6</ele>
    <time>2019-09-18T14:29:04.000Z</time>
   </trkpt>
   <trkpt lat="-8.037377" lon="-34.894009">
    <ele>6.5</ele>
    <time>2019-09-18T14:29:05.000Z</time>
   </trkpt>
   <trkpt lat="-8.03741" lon="-34.893982">
    <ele>6.4</ele>
    <time>2019-09-18T14:29:06.000Z</time>
   </trkpt>
   <trkpt lat="-8.037438" lon="-34.893959">
    <ele>6.3</ele>
    <time>2019-09-18T14:29:07.000Z</time>
   </trkpt>
   <trkpt lat="-8.037466" lon="-34.893945">
    <ele>6.3</ele>
    <time>2019-09-18T14:29:08.000Z</time>
   </trkpt>
   <trkpt lat="-8.037504" lon="-34.893921">
    <ele>6.1</ele>
    <time>2019-09-18T14:29:10.000Z</time>
   </trkpt>
   <trkpt lat="-8.037556" lon="-34.893918">
    <ele>5.9</ele>
    <time>2019-09-18T14:29:12.000Z</time>
   </trkpt>
   <trkpt lat="-8.037598" lon="-34.893933">
    <ele>5.8</ele>
    <time>2019-09-18T14:29:13.000Z</time>
   </trkpt>
   <trkpt lat="-8.037647" lon="-34.893955">
    <ele>5.6</ele>
    <time>2019-09-18T14:29:14.000Z</time>
   </trkpt>
   <trkpt lat="-8.037685" lon="-34.893943">
    <ele>5.4</ele>
    <time>2019-09-18T14:29:15.000Z</time>
   </trkpt>
   <trkpt lat="-8.037725" lon="-34.893951">
    <ele>5.3</ele>
    <time>2019-09-18T14:29:16.000Z</time>
   </trkpt>
   <trkpt lat="-8.037756" lon="-34.893956">
    <ele>5.2</ele>
    <time>2019-09-18T14:29:17.000Z</time>
   </trkpt>
   <trkpt lat="-8.037792" lon="-34.893971">
    <ele>5.4</ele>
    <time>2019-09-18T14:29:18.000Z</time>
   </trkpt>
   <trkpt lat="-8.037834" lon="-34.893991">
    <ele>5.6</ele>
    <time>2019-09-18T14:29:19.000Z</time>
   </trkpt>
   <trkpt lat="-8.037888" lon="-34.894019">
    <ele>5.9</ele>
    <time>2019-09-18T14:29:20.000Z</time>
   </trkpt>
   <trkpt lat="-8.037932" lon="-34.894053">
    <ele>6.2</ele>
    <time>2019-09-18T14:29:21.000Z</time>
   </trkpt>
   <trkpt lat="-8.037973" lon="-34.894085">
    <ele>6.5</ele>
    <time>2019-09-18T14:29:22.000Z</time>
   </trkpt>
   <trkpt lat="-8.038021" lon="-34.894107">
    <ele>6.8</ele>
    <time>2019-09-18T14:29:23.000Z</time>
   </trkpt>
   <trkpt lat="-8.038064" lon="-34.894127">
    <ele>7.1</ele>
    <time>2019-09-18T14:29:24.000Z</time>
   </trkpt>
   <trkpt lat="-8.038108" lon="-34.894143">
    <ele>7.4</ele>
    <time>2019-09-18T14:29:25.000Z</time>
   </trkpt>
   <trkpt lat="-8.038155" lon="-34.89416">
    <ele>7.6</ele>
    <time>2019-09-18T14:29:26.000Z</time>
   </trkpt>
   <trkpt lat="-8.0382" lon="-34.894173">
    <ele>7.9</ele>
    <time>2019-09-18T14:29:27.000Z</time>
   </trkpt>
   <trkpt lat="-8.038239" lon="-34.894176">
    <ele>8.2</ele>
    <time>2019-09-18T14:29:28.000Z</time>
   </trkpt>
   <trkpt lat="-8.038277" lon="-34.894175">
    <ele>8.4</ele>
    <time>2019-09-18T14:29:29.000Z</time>
   </trkpt>
   <trkpt lat="-8.038308" lon="-34.894178">
    <ele>8.6</ele>
    <time>2019-09-18T14:29:30.000Z</time>
   </trkpt>
   <trkpt lat="-8.038337" lon="-34.894188">
    <ele>8.8</ele>
    <time>2019-09-18T14:29:31.000Z</time>
   </trkpt>
   <trkpt lat="-8.038384" lon="-34.894213">
    <ele>8.9</ele>
    <time>2019-09-18T14:29:33.000Z</time>
   </trkpt>
   <trkpt lat="-8.03842" lon="-34.894232">
    <ele>9</ele>
    <time>2019-09-18T14:29:34.000Z</time>
   </trkpt>
   <trkpt lat="-8.03846" lon="-34.89425">
    <ele>9.2</ele>
    <time>2019-09-18T14:29:35.000Z</time>
   </trkpt>
   <trkpt lat="-8.038503" lon="-34.89426">
    <ele>9.3</ele>
    <time>2019-09-18T14:29:36.000Z</time>
   </trkpt>
   <trkpt lat="-8.038543" lon="-34.894274">
    <ele>9.5</ele>
    <time>2019-09-18T14:29:37.000Z</time>
   </trkpt>
   <trkpt lat="-8.038578" lon="-34.894293">
    <ele>9.7</ele>
    <time>2019-09-18T14:29:38.000Z</time>
   </trkpt>
   <trkpt lat="-8.038605" lon="-34.894304">
    <ele>9.7</ele>
    <time>2019-09-18T14:29:39.000Z</time>
   </trkpt>
   <trkpt lat="-8.038641" lon="-34.894317">
    <ele>9.6</ele>
    <time>2019-09-18T14:29:40.000Z</time>
   </trkpt>
   <trkpt lat="-8.038682" lon="-34.894333">
    <ele>9.6</ele>
    <time>2019-09-18T14:29:41.000Z</time>
   </trkpt>
   <trkpt lat="-8.038718" lon="-34.894346">
    <ele>9.6</ele>
    <time>2019-09-18T14:29:42.000Z</time>
   </trkpt>
   <trkpt lat="-8.038757" lon="-34.894363">
    <ele>9.6</ele>
    <time>2019-09-18T14:29:43.000Z</time>
   </trkpt>
   <trkpt lat="-8.038784" lon="-34.894368">
    <ele>9.5</ele>
    <time>2019-09-18T14:29:44.000Z</time>
   </trkpt>
   <trkpt lat="-8.038817" lon="-34.894373">
    <ele>9.5</ele>
    <time>2019-09-18T14:29:45.000Z</time>
   </trkpt>
   <trkpt lat="-8.038847" lon="-34.89439">
    <ele>9.5</ele>
    <time>2019-09-18T14:29:46.000Z</time>
   </trkpt>
   <trkpt lat="-8.038878" lon="-34.894405">
    <ele>9.5</ele>
    <time>2019-09-18T14:29:47.000Z</time>
   </trkpt>
   <trkpt lat="-8.03893" lon="-34.894429">
    <ele>9.7</ele>
    <time>2019-09-18T14:29:49.000Z</time>
   </trkpt>
   <trkpt lat="-8.038965" lon="-34.894436">
    <ele>10</ele>
    <time>2019-09-18T14:29:50.000Z</time>
   </trkpt>
   <trkpt lat="-8.038998" lon="-34.894441">
    <ele>10.2</ele>
    <time>2019-09-18T14:29:51.000Z</time>
   </trkpt>
   <trkpt lat="-8.039034" lon="-34.894445">
    <ele>10.3</ele>
    <time>2019-09-18T14:29:52.000Z</time>
   </trkpt>
   <trkpt lat="-8.039066" lon="-34.894465">
    <ele>10.5</ele>
    <time>2019-09-18T14:29:53.000Z</time>
   </trkpt>
   <trkpt lat="-8.039103" lon="-34.894471">
    <ele>10.4</ele>
    <time>2019-09-18T14:29:54.000Z</time>
   </trkpt>
   <trkpt lat="-8.03914" lon="-34.894475">
    <ele>10.1</ele>
    <time>2019-09-18T14:29:55.000Z</time>
   </trkpt>
   <trkpt lat="-8.039178" lon="-34.894477">
    <ele>9.8</ele>
    <time>2019-09-18T14:29:56.000Z</time>
   </trkpt>
   <trkpt lat="-8.039211" lon="-34.894484">
    <ele>9.6</ele>
    <time>2019-09-18T14:29:57.000Z</time>
   </trkpt>
   <trkpt lat="-8.039244" lon="-34.894487">
    <ele>9.4</ele>
    <time>2019-09-18T14:29:58.000Z</time>
   </trkpt>
   <trkpt lat="-8.039275" lon="-34.894488">
    <ele>9.3</ele>
    <time>2019-09-18T14:29:59.000Z</time>
   </trkpt>
   <trkpt lat="-8.039305" lon="-34.894491">
    <ele>9.3</ele>
    <time>2019-09-18T14:30:00.000Z</time>
   </trkpt>
   <trkpt lat="-8.039333" lon="-34.894488">
    <ele>9.3</ele>
    <time>2019-09-18T14:30:01.000Z</time>
   </trkpt>
   <trkpt lat="-8.039389" lon="-34.894514">
    <ele>10</ele>
    <time>2019-09-18T14:30:03.000Z</time>
   </trkpt>
   <trkpt lat="-8.039418" lon="-34.894522">
    <ele>10.3</ele>
    <time>2019-09-18T14:30:04.000Z</time>
   </trkpt>
   <trkpt lat="-8.039452" lon="-34.894531">
    <ele>10.7</ele>
    <time>2019-09-18T14:30:05.000Z</time>
   </trkpt>
   <trkpt lat="-8.039489" lon="-34.894546">
    <ele>11.1</ele>
    <time>2019-09-18T14:30:06.000Z</time>
   </trkpt>
   <trkpt lat="-8.039529" lon="-34.894559">
    <ele>11.6</ele>
    <time>2019-09-18T14:30:07.000Z</time>
   </trkpt>
   <trkpt lat="-8.039565" lon="-34.894584">
    <ele>12.1</ele>
    <time>2019-09-18T14:30:08.000Z</time>
   </trkpt>
   <trkpt lat="-8.039601" lon="-34.894614">
    <ele>12.6</ele>
    <time>2019-09-18T14:30:09.000Z</time>
   </trkpt>
   <trkpt lat="-8.039637" lon="-34.894635">
    <ele>13</ele>
    <time>2019-09-18T14:30:10.000Z</time>
   </trkpt>
   <trkpt lat="-8.039674" lon="-34.89465">
    <ele>13.4</ele>
    <time>2019-09-18T14:30:11.000Z</time>
   </trkpt>
   <trkpt lat="-8.039718" lon="-34.894665">
    <ele>13.9</ele>
    <time>2019-09-18T14:30:12.000Z</time>
   </trkpt>
   <trkpt lat="-8.039763" lon="-34.894679">
    <ele>14.4</ele>
    <time>2019-09-18T14:30:13.000Z</time>
   </trkpt>
   <trkpt lat="-8.039808" lon="-34.894696">
    <ele>14.9</ele>
    <time>2019-09-18T14:30:14.000Z</time>
   </trkpt>
   <trkpt lat="-8.039849" lon="-34.894717">
    <ele>15.4</ele>
    <time>2019-09-18T14:30:15.000Z</time>
   </trkpt>
   <trkpt lat="-8.039886" lon="-34.894728">
    <ele>15.8</ele>
    <time>2019-09-18T14:30:16.000Z</time>
   </trkpt>
   <trkpt lat="-8.03992" lon="-34.894741">
    <ele>16.2</ele>
    <time>2019-09-18T14:30:17.000Z</time>
   </trkpt>
   <trkpt lat="-8.03996" lon="-34.894758">
    <ele>16.7</ele>
    <time>2019-09-18T14:30:18.000Z</time>
   </trkpt>
   <trkpt lat="-8.039991" lon="-34.894769">
    <ele>17.1</ele>
    <time>2019-09-18T14:30:19.000Z</time>
   </trkpt>
   <trkpt lat="-8.040021" lon="-34.894777">
    <ele>17.4</ele>
    <time>2019-09-18T14:30:20.000Z</time>
   </trkpt>
   <trkpt lat="-8.040085" lon="-34.894763">
    <ele>18.2</ele>
    <time>2019-09-18T14:30:22.000Z</time>
   </trkpt>
   <trkpt lat="-8.040124" lon="-34.894751">
    <ele>18.4</ele>
    <time>2019-09-18T14:30:23.000Z</time>
   </trkpt>
   <trkpt lat="-8.040152" lon="-34.894735">
    <ele>18.5</ele>
    <time>2019-09-18T14:30:24.000Z</time>
   </trkpt>
   <trkpt lat="-8.040182" lon="-34.894723">
    <ele>18.7</ele>
    <time>2019-09-18T14:30:25.000Z</time>
   </trkpt>
   <trkpt lat="-8.040218" lon="-34.894725">
    <ele>18.8</ele>
    <time>2019-09-18T14:30:26.000Z</time>
   </trkpt>
   <trkpt lat="-8.040246" lon="-34.894714">
    <ele>19</ele>
    <time>2019-09-18T14:30:27.000Z</time>
   </trkpt>
   <trkpt lat="-8.040278" lon="-34.894705">
    <ele>19.1</ele>
    <time>2019-09-18T14:30:28.000Z</time>
   </trkpt>
   <trkpt lat="-8.040312" lon="-34.894698">
    <ele>19.3</ele>
    <time>2019-09-18T14:30:29.000Z</time>
   </trkpt>
   <trkpt lat="-8.040352" lon="-34.894696">
    <ele>19.4</ele>
    <time>2019-09-18T14:30:30.000Z</time>
   </trkpt>
   <trkpt lat="-8.040387" lon="-34.894694">
    <ele>19.2</ele>
    <time>2019-09-18T14:30:31.000Z</time>
   </trkpt>
   <trkpt lat="-8.040442" lon="-34.894667">
    <ele>19</ele>
    <time>2019-09-18T14:30:33.000Z</time>
   </trkpt>
   <trkpt lat="-8.040477" lon="-34.894662">
    <ele>18.9</ele>
    <time>2019-09-18T14:30:34.000Z</time>
   </trkpt>
   <trkpt lat="-8.040516" lon="-34.894643">
    <ele>18.8</ele>
    <time>2019-09-18T14:30:35.000Z</time>
   </trkpt>
   <trkpt lat="-8.040555" lon="-34.894636">
    <ele>18.7</ele>
    <time>2019-09-18T14:30:36.000Z</time>
   </trkpt>
   <trkpt lat="-8.040583" lon="-34.894625">
    <ele>18.6</ele>
    <time>2019-09-18T14:30:37.000Z</time>
   </trkpt>
   <trkpt lat="-8.040615" lon="-34.894621">
    <ele>18.5</ele>
    <time>2019-09-18T14:30:38.000Z</time>
   </trkpt>
   <trkpt lat="-8.040641" lon="-34.894611">
    <ele>18.5</ele>
    <time>2019-09-18T14:30:39.000Z</time>
   </trkpt>
   <trkpt lat="-8.040667" lon="-34.894595">
    <ele>18.4</ele>
    <time>2019-09-18T14:30:40.000Z</time>
   </trkpt>
   <trkpt lat="-8.040705" lon="-34.894594">
    <ele>18.3</ele>
    <time>2019-09-18T14:30:41.000Z</time>
   </trkpt>
   <trkpt lat="-8.040749" lon="-34.894583">
    <ele>18.2</ele>
    <time>2019-09-18T14:30:42.000Z</time>
   </trkpt>
   <trkpt lat="-8.040794" lon="-34.894573">
    <ele>18</ele>
    <time>2019-09-18T14:30:43.000Z</time>
   </trkpt>
   <trkpt lat="-8.04083" lon="-34.894553">
    <ele>17.9</ele>
    <time>2019-09-18T14:30:44.000Z</time>
   </trkpt>
   <trkpt lat="-8.040868" lon="-34.894542">
    <ele>17.8</ele>
    <time>2019-09-18T14:30:45.000Z</time>
   </trkpt>
   <trkpt lat="-8.040903" lon="-34.894522">
    <ele>17.7</ele>
    <time>2019-09-18T14:30:46.000Z</time>
   </trkpt>
   <trkpt lat="-8.040937" lon="-34.894506">
    <ele>17.6</ele>
    <time>2019-09-18T14:30:47.000Z</time>
   </trkpt>
   <trkpt lat="-8.040969" lon="-34.894493">
    <ele>17.5</ele>
    <time>2019-09-18T14:30:48.000Z</time>
   </trkpt>
   <trkpt lat="-8.041005" lon="-34.894464">
    <ele>17.4</ele>
    <time>2019-09-18T14:30:49.000Z</time>
   </trkpt>
   <trkpt lat="-8.041034" lon="-34.894437">
    <ele>17.3</ele>
    <time>2019-09-18T14:30:50.000Z</time>
   </trkpt>
   <trkpt lat="-8.041061" lon="-34.894409">
    <ele>17.9</ele>
    <time>2019-09-18T14:30:51.000Z</time>
   </trkpt>
   <trkpt lat="-8.041086" lon="-34.894378">
    <ele>18.1</ele>
    <time>2019-09-18T14:30:52.000Z</time>
   </trkpt>
   <trkpt lat="-8.041102" lon="-34.894355">
    <ele>18.2</ele>
    <time>2019-09-18T14:30:53.000Z</time>
   </trkpt>
   <trkpt lat="-8.041111" lon="-34.894328">
    <ele>18.3</ele>
    <time>2019-09-18T14:30:54.000Z</time>
   </trkpt>
   <trkpt lat="-8.04112" lon="-34.894301">
    <ele>18.5</ele>
    <time>2019-09-18T14:30:55.000Z</time>
   </trkpt>
   <trkpt lat="-8.041141" lon="-34.894271">
    <ele>18.6</ele>
    <time>2019-09-18T14:30:56.000Z</time>
   </trkpt>
   <trkpt lat="-8.041164" lon="-34.894228">
    <ele>18.9</ele>
    <time>2019-09-18T14:30:57.000Z</time>
   </trkpt>
   <trkpt lat="-8.041189" lon="-34.894174">
    <ele>19.1</ele>
    <time>2019-09-18T14:30:58.000Z</time>
   </trkpt>
   <trkpt lat="-8.04122" lon="-34.894132">
    <ele>19.1</ele>
    <time>2019-09-18T14:30:59.000Z</time>
   </trkpt>
   <trkpt lat="-8.041253" lon="-34.8941">
    <ele>19</ele>
    <time>2019-09-18T14:31:00.000Z</time>
   </trkpt>
   <trkpt lat="-8.041285" lon="-34.894068">
    <ele>18.9</ele>
    <time>2019-09-18T14:31:01.000Z</time>
   </trkpt>
   <trkpt lat="-8.041322" lon="-34.894036">
    <ele>18.8</ele>
    <time>2019-09-18T14:31:02.000Z</time>
   </trkpt>
   <trkpt lat="-8.041358" lon="-34.89401">
    <ele>18.7</ele>
    <time>2019-09-18T14:31:03.000Z</time>
   </trkpt>
   <trkpt lat="-8.041385" lon="-34.893988">
    <ele>18.7</ele>
    <time>2019-09-18T14:31:04.000Z</time>
   </trkpt>
   <trkpt lat="-8.0414" lon="-34.893963">
    <ele>18.6</ele>
    <time>2019-09-18T14:31:05.000Z</time>
   </trkpt>
   <trkpt lat="-8.041408" lon="-34.893933">
    <ele>18.5</ele>
    <time>2019-09-18T14:31:06.000Z</time>
   </trkpt>
   <trkpt lat="-8.041431" lon="-34.893907">
    <ele>18.4</ele>
    <time>2019-09-18T14:31:08.000Z</time>
   </trkpt>
   <trkpt lat="-8.041503" lon="-34.893877">
    <ele>17.6</ele>
    <time>2019-09-18T14:31:22.000Z</time>
   </trkpt>
   <trkpt lat="-8.04153" lon="-34.893892">
    <ele>17.4</ele>
    <time>2019-09-18T14:31:23.000Z</time>
   </trkpt>
   <trkpt lat="-8.041558" lon="-34.89391">
    <ele>17.2</ele>
    <time>2019-09-18T14:31:24.000Z</time>
   </trkpt>
   <trkpt lat="-8.041584" lon="-34.893925">
    <ele>16.9</ele>
    <time>2019-09-18T14:31:25.000Z</time>
   </trkpt>
   <trkpt lat="-8.041617" lon="-34.893941">
    <ele>16.6</ele>
    <time>2019-09-18T14:31:26.000Z</time>
   </trkpt>
   <trkpt lat="-8.041655" lon="-34.893965">
    <ele>16.3</ele>
    <time>2019-09-18T14:31:27.000Z</time>
   </trkpt>
   <trkpt lat="-8.04169" lon="-34.893988">
    <ele>16</ele>
    <time>2019-09-18T14:31:28.000Z</time>
   </trkpt>
   <trkpt lat="-8.041722" lon="-34.894006">
    <ele>15.8</ele>
    <time>2019-09-18T14:31:29.000Z</time>
   </trkpt>
   <trkpt lat="-8.041757" lon="-34.894023">
    <ele>15.6</ele>
    <time>2019-09-18T14:31:30.000Z</time>
   </trkpt>
   <trkpt lat="-8.041788" lon="-34.894038">
    <ele>15.4</ele>
    <time>2019-09-18T14:31:31.000Z</time>
   </trkpt>
   <trkpt lat="-8.041825" lon="-34.894061">
    <ele>15.2</ele>
    <time>2019-09-18T14:31:32.000Z</time>
   </trkpt>
   <trkpt lat="-8.041867" lon="-34.894088">
    <ele>15</ele>
    <time>2019-09-18T14:31:33.000Z</time>
   </trkpt>
   <trkpt lat="-8.0419" lon="-34.894106">
    <ele>14.9</ele>
    <time>2019-09-18T14:31:34.000Z</time>
   </trkpt>
   <trkpt lat="-8.04193" lon="-34.894128">
    <ele>14.8</ele>
    <time>2019-09-18T14:31:35.000Z</time>
   </trkpt>
   <trkpt lat="-8.041957" lon="-34.894145">
    <ele>14.7</ele>
    <time>2019-09-18T14:31:36.000Z</time>
   </trkpt>
   <trkpt lat="-8.041989" lon="-34.894171">
    <ele>14.5</ele>
    <time>2019-09-18T14:31:37.000Z</time>
   </trkpt>
   <trkpt lat="-8.042023" lon="-34.894189">
    <ele>14.4</ele>
    <time>2019-09-18T14:31:38.000Z</time>
   </trkpt>
   <trkpt lat="-8.042044" lon="-34.894206">
    <ele>14.3</ele>
    <time>2019-09-18T14:31:39.000Z</time>
   </trkpt>
   <trkpt lat="-8.042069" lon="-34.894224">
    <ele>14.2</ele>
    <time>2019-09-18T14:31:40.000Z</time>
   </trkpt>
   <trkpt lat="-8.042104" lon="-34.894256">
    <ele>14.1</ele>
    <time>2019-09-18T14:31:41.000Z</time>
   </trkpt>
   <trkpt lat="-8.042143" lon="-34.894283">
    <ele>14</ele>
    <time>2019-09-18T14:31:42.000Z</time>
   </trkpt>
   <trkpt lat="-8.042178" lon="-34.894302">
    <ele>13.9</ele>
    <time>2019-09-18T14:31:43.000Z</time>
   </trkpt>
   <trkpt lat="-8.042213" lon="-34.894326">
    <ele>13.8</ele>
    <time>2019-09-18T14:31:44.000Z</time>
   </trkpt>
   <trkpt lat="-8.042248" lon="-34.89435">
    <ele>13.7</ele>
    <time>2019-09-18T14:31:45.000Z</time>
   </trkpt>
   <trkpt lat="-8.042277" lon="-34.89438">
    <ele>13.6</ele>
    <time>2019-09-18T14:31:46.000Z</time>
   </trkpt>
   <trkpt lat="-8.042305" lon="-34.894402">
    <ele>13.9</ele>
    <time>2019-09-18T14:31:47.000Z</time>
   </trkpt>
   <trkpt lat="-8.042341" lon="-34.894432">
    <ele>14.2</ele>
    <time>2019-09-18T14:31:48.000Z</time>
   </trkpt>
   <trkpt lat="-8.042378" lon="-34.894456">
    <ele>14.5</ele>
    <time>2019-09-18T14:31:49.000Z</time>
   </trkpt>
   <trkpt lat="-8.042419" lon="-34.894488">
    <ele>14.8</ele>
    <time>2019-09-18T14:31:50.000Z</time>
   </trkpt>
   <trkpt lat="-8.042472" lon="-34.894526">
    <ele>15.2</ele>
    <time>2019-09-18T14:31:51.000Z</time>
   </trkpt>
   <trkpt lat="-8.042514" lon="-34.894571">
    <ele>15.6</ele>
    <time>2019-09-18T14:31:52.000Z</time>
   </trkpt>
   <trkpt lat="-8.042554" lon="-34.894603">
    <ele>15.9</ele>
    <time>2019-09-18T14:31:53.000Z</time>
   </trkpt>
   <trkpt lat="-8.042584" lon="-34.894648">
    <ele>16.3</ele>
    <time>2019-09-18T14:31:54.000Z</time>
   </trkpt>
   <trkpt lat="-8.042618" lon="-34.894678">
    <ele>16.5</ele>
    <time>2019-09-18T14:31:55.000Z</time>
   </trkpt>
   <trkpt lat="-8.042638" lon="-34.894722">
    <ele>16.9</ele>
    <time>2019-09-18T14:31:56.000Z</time>
   </trkpt>
   <trkpt lat="-8.042664" lon="-34.894762">
    <ele>17.3</ele>
    <time>2019-09-18T14:31:57.000Z</time>
   </trkpt>
   <trkpt lat="-8.042688" lon="-34.894798">
    <ele>17.5</ele>
    <time>2019-09-18T14:31:58.000Z</time>
   </trkpt>
   <trkpt lat="-8.042707" lon="-34.894846">
    <ele>17.9</ele>
    <time>2019-09-18T14:31:59.000Z</time>
   </trkpt>
   <trkpt lat="-8.04273" lon="-34.894897">
    <ele>18.2</ele>
    <time>2019-09-18T14:32:00.000Z</time>
   </trkpt>
   <trkpt lat="-8.042749" lon="-34.894944">
    <ele>18.6</ele>
    <time>2019-09-18T14:32:01.000Z</time>
   </trkpt>
   <trkpt lat="-8.042771" lon="-34.894989">
    <ele>19</ele>
    <time>2019-09-18T14:32:02.000Z</time>
   </trkpt>
   <trkpt lat="-8.04279" lon="-34.895037">
    <ele>19.4</ele>
    <time>2019-09-18T14:32:03.000Z</time>
   </trkpt>
   <trkpt lat="-8.042816" lon="-34.895078">
    <ele>19.6</ele>
    <time>2019-09-18T14:32:04.000Z</time>
   </trkpt>
   <trkpt lat="-8.042842" lon="-34.895123">
    <ele>19.9</ele>
    <time>2019-09-18T14:32:05.000Z</time>
   </trkpt>
   <trkpt lat="-8.042867" lon="-34.895179">
    <ele>20.1</ele>
    <time>2019-09-18T14:32:06.000Z</time>
   </trkpt>
   <trkpt lat="-8.042899" lon="-34.895233">
    <ele>20.2</ele>
    <time>2019-09-18T14:32:07.000Z</time>
   </trkpt>
   <trkpt lat="-8.042916" lon="-34.895282">
    <ele>20.4</ele>
    <time>2019-09-18T14:32:08.000Z</time>
   </trkpt>
   <trkpt lat="-8.042936" lon="-34.89533">
    <ele>20.5</ele>
    <time>2019-09-18T14:32:09.000Z</time>
   </trkpt>
   <trkpt lat="-8.042957" lon="-34.895371">
    <ele>20.6</ele>
    <time>2019-09-18T14:32:10.000Z</time>
   </trkpt>
   <trkpt lat="-8.042977" lon="-34.89541">
    <ele>20.6</ele>
    <time>2019-09-18T14:32:11.000Z</time>
   </trkpt>
   <trkpt lat="-8.043005" lon="-34.89544">
    <ele>20.7</ele>
    <time>2019-09-18T14:32:12.000Z</time>
   </trkpt>
   <trkpt lat="-8.043017" lon="-34.895493">
    <ele>20.7</ele>
    <time>2019-09-18T14:32:13.000Z</time>
   </trkpt>
   <trkpt lat="-8.043042" lon="-34.895545">
    <ele>20.8</ele>
    <time>2019-09-18T14:32:14.000Z</time>
   </trkpt>
   <trkpt lat="-8.04307" lon="-34.895596">
    <ele>20.9</ele>
    <time>2019-09-18T14:32:15.000Z</time>
   </trkpt>
   <trkpt lat="-8.043099" lon="-34.895639">
    <ele>20.9</ele>
    <time>2019-09-18T14:32:16.000Z</time>
   </trkpt>
   <trkpt lat="-8.04313" lon="-34.895667">
    <ele>21</ele>
    <time>2019-09-18T14:32:17.000Z</time>
   </trkpt>
   <trkpt lat="-8.043155" lon="-34.895705">
    <ele>21</ele>
    <time>2019-09-18T14:32:18.000Z</time>
   </trkpt>
   <trkpt lat="-8.04318" lon="-34.895733">
    <ele>21.1</ele>
    <time>2019-09-18T14:32:19.000Z</time>
   </trkpt>
   <trkpt lat="-8.043203" lon="-34.895765">
    <ele>21.1</ele>
    <time>2019-09-18T14:32:20.000Z</time>
   </trkpt>
   <trkpt lat="-8.043214" lon="-34.895804">
    <ele>21.2</ele>
    <time>2019-09-18T14:32:21.000Z</time>
   </trkpt>
   <trkpt lat="-8.043229" lon="-34.895843">
    <ele>21.1</ele>
    <time>2019-09-18T14:32:22.000Z</time>
   </trkpt>
   <trkpt lat="-8.043247" lon="-34.895884">
    <ele>21.1</ele>
    <time>2019-09-18T14:32:23.000Z</time>
   </trkpt>
   <trkpt lat="-8.043263" lon="-34.895928">
    <ele>21</ele>
    <time>2019-09-18T14:32:24.000Z</time>
   </trkpt>
   <trkpt lat="-8.043265" lon="-34.895982">
    <ele>20.9</ele>
    <time>2019-09-18T14:32:25.000Z</time>
   </trkpt>
   <trkpt lat="-8.043286" lon="-34.896034">
    <ele>20.9</ele>
    <time>2019-09-18T14:32:26.000Z</time>
   </trkpt>
   <trkpt lat="-8.043305" lon="-34.896084">
    <ele>20.8</ele>
    <time>2019-09-18T14:32:27.000Z</time>
   </trkpt>
   <trkpt lat="-8.043325" lon="-34.896136">
    <ele>20.8</ele>
    <time>2019-09-18T14:32:28.000Z</time>
   </trkpt>
   <trkpt lat="-8.043348" lon="-34.896191">
    <ele>20.7</ele>
    <time>2019-09-18T14:32:29.000Z</time>
   </trkpt>
   <trkpt lat="-8.043389" lon="-34.896269">
    <ele>20.6</ele>
    <time>2019-09-18T14:32:30.000Z</time>
   </trkpt>
   <trkpt lat="-8.043407" lon="-34.89635">
    <ele>20.5</ele>
    <time>2019-09-18T14:32:31.000Z</time>
   </trkpt>
   <trkpt lat="-8.043441" lon="-34.896415">
    <ele>20.3</ele>
    <time>2019-09-18T14:32:32.000Z</time>
   </trkpt>
   <trkpt lat="-8.043452" lon="-34.896475">
    <ele>20.2</ele>
    <time>2019-09-18T14:32:33.000Z</time>
   </trkpt>
   <trkpt lat="-8.043473" lon="-34.896519">
    <ele>20.1</ele>
    <time>2019-09-18T14:32:34.000Z</time>
   </trkpt>
   <trkpt lat="-8.043502" lon="-34.896546">
    <ele>20</ele>
    <time>2019-09-18T14:32:35.000Z</time>
   </trkpt>
   <trkpt lat="-8.043542" lon="-34.896571">
    <ele>19.7</ele>
    <time>2019-09-18T14:32:36.000Z</time>
   </trkpt>
   <trkpt lat="-8.043564" lon="-34.896595">
    <ele>19.5</ele>
    <time>2019-09-18T14:32:37.000Z</time>
   </trkpt>
   <trkpt lat="-8.043572" lon="-34.896627">
    <ele>19.2</ele>
    <time>2019-09-18T14:32:38.000Z</time>
   </trkpt>
   <trkpt lat="-8.043562" lon="-34.896671">
    <ele>18.9</ele>
    <time>2019-09-18T14:32:39.000Z</time>
   </trkpt>
   <trkpt lat="-8.043559" lon="-34.896716">
    <ele>18.7</ele>
    <time>2019-09-18T14:32:40.000Z</time>
   </trkpt>
   <trkpt lat="-8.043561" lon="-34.896743">
    <ele>18.5</ele>
    <time>2019-09-18T14:32:41.000Z</time>
   </trkpt>
   <trkpt lat="-8.043549" lon="-34.8968">
    <ele>18.1</ele>
    <time>2019-09-18T14:32:43.000Z</time>
   </trkpt>
   <trkpt lat="-8.043538" lon="-34.896827">
    <ele>17.9</ele>
    <time>2019-09-18T14:32:44.000Z</time>
   </trkpt>
   <trkpt lat="-8.043516" lon="-34.896848">
    <ele>17.7</ele>
    <time>2019-09-18T14:32:45.000Z</time>
   </trkpt>
   <trkpt lat="-8.043497" lon="-34.896891">
    <ele>17.4</ele>
    <time>2019-09-18T14:32:47.000Z</time>
   </trkpt>
   <trkpt lat="-8.043516" lon="-34.896927">
    <ele>17</ele>
    <time>2019-09-18T14:32:48.000Z</time>
   </trkpt>
   <trkpt lat="-8.043524" lon="-34.896958">
    <ele>16.7</ele>
    <time>2019-09-18T14:32:49.000Z</time>
   </trkpt>
   <trkpt lat="-8.043526" lon="-34.89701">
    <ele>16.2</ele>
    <time>2019-09-18T14:32:50.000Z</time>
   </trkpt>
   <trkpt lat="-8.043564" lon="-34.897041">
    <ele>15.8</ele>
    <time>2019-09-18T14:32:51.000Z</time>
   </trkpt>
   <trkpt lat="-8.043602" lon="-34.897089">
    <ele>15.4</ele>
    <time>2019-09-18T14:32:53.000Z</time>
   </trkpt>
   <trkpt lat="-8.043625" lon="-34.897111">
    <ele>15.2</ele>
    <time>2019-09-18T14:32:54.000Z</time>
   </trkpt>
   <trkpt lat="-8.043662" lon="-34.897148">
    <ele>14.8</ele>
    <time>2019-09-18T14:32:56.000Z</time>
   </trkpt>
   <trkpt lat="-8.043686" lon="-34.897174">
    <ele>14.6</ele>
    <time>2019-09-18T14:32:58.000Z</time>
   </trkpt>
   <trkpt lat="-8.043714" lon="-34.897158">
    <ele>14.4</ele>
    <time>2019-09-18T14:33:02.000Z</time>
   </trkpt>
   <trkpt lat="-8.043718" lon="-34.897258">
    <ele>13.4</ele>
    <time>2019-09-18T14:33:49.000Z</time>
   </trkpt>
   <trkpt lat="-8.043717" lon="-34.897314">
    <ele>12.7</ele>
    <time>2019-09-18T14:33:51.000Z</time>
   </trkpt>
   <trkpt lat="-8.043714" lon="-34.897343">
    <ele>12.3</ele>
    <time>2019-09-18T14:33:52.000Z</time>
   </trkpt>
   <trkpt lat="-8.043719" lon="-34.897377">
    <ele>12.4</ele>
    <time>2019-09-18T14:33:53.000Z</time>
   </trkpt>
   <trkpt lat="-8.043728" lon="-34.897412">
    <ele>12.7</ele>
    <time>2019-09-18T14:33:54.000Z</time>
   </trkpt>
   <trkpt lat="-8.04374" lon="-34.897452">
    <ele>13</ele>
    <time>2019-09-18T14:33:55.000Z</time>
   </trkpt>
   <trkpt lat="-8.043757" lon="-34.897489">
    <ele>13.2</ele>
    <time>2019-09-18T14:33:56.000Z</time>
   </trkpt>
   <trkpt lat="-8.043777" lon="-34.897539">
    <ele>13.5</ele>
    <time>2019-09-18T14:33:57.000Z</time>
   </trkpt>
   <trkpt lat="-8.043806" lon="-34.897595">
    <ele>13.8</ele>
    <time>2019-09-18T14:33:58.000Z</time>
   </trkpt>
   <trkpt lat="-8.043822" lon="-34.897644">
    <ele>13.9</ele>
    <time>2019-09-18T14:33:59.000Z</time>
   </trkpt>
   <trkpt lat="-8.043829" lon="-34.897699">
    <ele>14</ele>
    <time>2019-09-18T14:34:00.000Z</time>
   </trkpt>
   <trkpt lat="-8.043835" lon="-34.897742">
    <ele>14.1</ele>
    <time>2019-09-18T14:34:01.000Z</time>
   </trkpt>
   <trkpt lat="-8.04385" lon="-34.897774">
    <ele>14.1</ele>
    <time>2019-09-18T14:34:02.000Z</time>
   </trkpt>
   <trkpt lat="-8.043858" lon="-34.897812">
    <ele>14.2</ele>
    <time>2019-09-18T14:34:03.000Z</time>
   </trkpt>
   <trkpt lat="-8.043859" lon="-34.897861">
    <ele>14.2</ele>
    <time>2019-09-18T14:34:05.000Z</time>
   </trkpt>
   <trkpt lat="-8.043868" lon="-34.897913">
    <ele>14.2</ele>
    <time>2019-09-18T14:34:07.000Z</time>
   </trkpt>
   <trkpt lat="-8.043879" lon="-34.897945">
    <ele>14.3</ele>
    <time>2019-09-18T14:34:08.000Z</time>
   </trkpt>
   <trkpt lat="-8.043894" lon="-34.897974">
    <ele>14.3</ele>
    <time>2019-09-18T14:34:09.000Z</time>
   </trkpt>
   <trkpt lat="-8.043898" lon="-34.898008">
    <ele>14.3</ele>
    <time>2019-09-18T14:34:10.000Z</time>
   </trkpt>
   <trkpt lat="-8.043902" lon="-34.898053">
    <ele>14.3</ele>
    <time>2019-09-18T14:34:11.000Z</time>
   </trkpt>
   <trkpt lat="-8.043906" lon="-34.898102">
    <ele>14.4</ele>
    <time>2019-09-18T14:34:12.000Z</time>
   </trkpt>
   <trkpt lat="-8.043922" lon="-34.898138">
    <ele>14.4</ele>
    <time>2019-09-18T14:34:13.000Z</time>
   </trkpt>
   <trkpt lat="-8.043943" lon="-34.898182">
    <ele>14.4</ele>
    <time>2019-09-18T14:34:14.000Z</time>
   </trkpt>
   <trkpt lat="-8.043969" lon="-34.898207">
    <ele>14.4</ele>
    <time>2019-09-18T14:34:15.000Z</time>
   </trkpt>
   <trkpt lat="-8.044013" lon="-34.898204">
    <ele>14.4</ele>
    <time>2019-09-18T14:34:16.000Z</time>
   </trkpt>
   <trkpt lat="-8.044059" lon="-34.898201">
    <ele>14.4</ele>
    <time>2019-09-18T14:34:17.000Z</time>
   </trkpt>
   <trkpt lat="-8.044104" lon="-34.898198">
    <ele>14.3</ele>
    <time>2019-09-18T14:34:18.000Z</time>
   </trkpt>
   <trkpt lat="-8.044152" lon="-34.898192">
    <ele>14.2</ele>
    <time>2019-09-18T14:34:19.000Z</time>
   </trkpt>
   <trkpt lat="-8.04419" lon="-34.898192">
    <ele>14</ele>
    <time>2019-09-18T14:34:20.000Z</time>
   </trkpt>
   <trkpt lat="-8.044225" lon="-34.89819">
    <ele>13.9</ele>
    <time>2019-09-18T14:34:21.000Z</time>
   </trkpt>
   <trkpt lat="-8.044263" lon="-34.898184">
    <ele>13.7</ele>
    <time>2019-09-18T14:34:22.000Z</time>
   </trkpt>
   <trkpt lat="-8.0443" lon="-34.898179">
    <ele>13.6</ele>
    <time>2019-09-18T14:34:23.000Z</time>
   </trkpt>
   <trkpt lat="-8.044333" lon="-34.898177">
    <ele>13.5</ele>
    <time>2019-09-18T14:34:24.000Z</time>
   </trkpt>
   <trkpt lat="-8.044386" lon="-34.898176">
    <ele>13.4</ele>
    <time>2019-09-18T14:34:25.000Z</time>
   </trkpt>
   <trkpt lat="-8.044445" lon="-34.898158">
    <ele>13.4</ele>
    <time>2019-09-18T14:34:26.000Z</time>
   </trkpt>
   <trkpt lat="-8.044497" lon="-34.898152">
    <ele>13.5</ele>
    <time>2019-09-18T14:34:27.000Z</time>
   </trkpt>
   <trkpt lat="-8.044539" lon="-34.898165">
    <ele>13.6</ele>
    <time>2019-09-18T14:34:28.000Z</time>
   </trkpt>
   <trkpt lat="-8.044578" lon="-34.898172">
    <ele>13.8</ele>
    <time>2019-09-18T14:34:29.000Z</time>
   </trkpt>
   <trkpt lat="-8.044612" lon="-34.898172">
    <ele>13.9</ele>
    <time>2019-09-18T14:34:30.000Z</time>
   </trkpt>
   <trkpt lat="-8.044651" lon="-34.898177">
    <ele>14</ele>
    <time>2019-09-18T14:34:31.000Z</time>
   </trkpt>
   <trkpt lat="-8.044689" lon="-34.898186">
    <ele>14.1</ele>
    <time>2019-09-18T14:34:32.000Z</time>
   </trkpt>
   <trkpt lat="-8.044757" lon="-34.898208">
    <ele>14.6</ele>
    <time>2019-09-18T14:34:34.000Z</time>
   </trkpt>
   <trkpt lat="-8.044797" lon="-34.898219">
    <ele>14.9</ele>
    <time>2019-09-18T14:34:35.000Z</time>
   </trkpt>
   <trkpt lat="-8.044837" lon="-34.898238">
    <ele>15.2</ele>
    <time>2019-09-18T14:34:36.000Z</time>
   </trkpt>
   <trkpt lat="-8.044872" lon="-34.898262">
    <ele>15.6</ele>
    <time>2019-09-18T14:34:37.000Z</time>
   </trkpt>
   <trkpt lat="-8.044915" lon="-34.898277">
    <ele>16</ele>
    <time>2019-09-18T14:34:38.000Z</time>
   </trkpt>
   <trkpt lat="-8.044963" lon="-34.898283">
    <ele>16.3</ele>
    <time>2019-09-18T14:34:39.000Z</time>
   </trkpt>
   <trkpt lat="-8.045009" lon="-34.898288">
    <ele>16.6</ele>
    <time>2019-09-18T14:34:40.000Z</time>
   </trkpt>
   <trkpt lat="-8.045061" lon="-34.8983">
    <ele>16.8</ele>
    <time>2019-09-18T14:34:41.000Z</time>
   </trkpt>
   <trkpt lat="-8.045113" lon="-34.898296">
    <ele>17</ele>
    <time>2019-09-18T14:34:42.000Z</time>
   </trkpt>
   <trkpt lat="-8.045169" lon="-34.898271">
    <ele>17.3</ele>
    <time>2019-09-18T14:34:43.000Z</time>
   </trkpt>
   <trkpt lat="-8.045197" lon="-34.898229">
    <ele>17.3</ele>
    <time>2019-09-18T14:34:44.000Z</time>
   </trkpt>
   <trkpt lat="-8.045224" lon="-34.898191">
    <ele>17.3</ele>
    <time>2019-09-18T14:34:45.000Z</time>
   </trkpt>
   <trkpt lat="-8.045247" lon="-34.898151">
    <ele>17.3</ele>
    <time>2019-09-18T14:34:46.000Z</time>
   </trkpt>
   <trkpt lat="-8.045227" lon="-34.898103">
    <ele>17.3</ele>
    <time>2019-09-18T14:34:47.000Z</time>
   </trkpt>
   <trkpt lat="-8.045225" lon="-34.898065">
    <ele>17.3</ele>
    <time>2019-09-18T14:34:48.000Z</time>
   </trkpt>
   <trkpt lat="-8.045233" lon="-34.898027">
    <ele>17.2</ele>
    <time>2019-09-18T14:34:49.000Z</time>
   </trkpt>
   <trkpt lat="-8.045239" lon="-34.897996">
    <ele>17.2</ele>
    <time>2019-09-18T14:34:50.000Z</time>
   </trkpt>
   <trkpt lat="-8.045254" lon="-34.897963">
    <ele>17.2</ele>
    <time>2019-09-18T14:34:51.000Z</time>
   </trkpt>
   <trkpt lat="-8.045271" lon="-34.897925">
    <ele>17.2</ele>
    <time>2019-09-18T14:34:52.000Z</time>
   </trkpt>
   <trkpt lat="-8.04528" lon="-34.897885">
    <ele>17.2</ele>
    <time>2019-09-18T14:34:53.000Z</time>
   </trkpt>
   <trkpt lat="-8.045298" lon="-34.897848">
    <ele>17.2</ele>
    <time>2019-09-18T14:34:54.000Z</time>
   </trkpt>
   <trkpt lat="-8.045324" lon="-34.897807">
    <ele>17.2</ele>
    <time>2019-09-18T14:34:55.000Z</time>
   </trkpt>
   <trkpt lat="-8.045348" lon="-34.897766">
    <ele>17.2</ele>
    <time>2019-09-18T14:34:56.000Z</time>
   </trkpt>
   <trkpt lat="-8.04537" lon="-34.897747">
    <ele>17.1</ele>
    <time>2019-09-18T14:34:57.000Z</time>
   </trkpt>
   <trkpt lat="-8.045399" lon="-34.897741">
    <ele>17</ele>
    <time>2019-09-18T14:34:58.000Z</time>
   </trkpt>
   <trkpt lat="-8.045439" lon="-34.897727">
    <ele>16.9</ele>
    <time>2019-09-18T14:34:59.000Z</time>
   </trkpt>
   <trkpt lat="-8.045478" lon="-34.897714">
    <ele>16.9</ele>
    <time>2019-09-18T14:35:00.000Z</time>
   </trkpt>
   <trkpt lat="-8.045516" lon="-34.897708">
    <ele>16.8</ele>
    <time>2019-09-18T14:35:01.000Z</time>
   </trkpt>
   <trkpt lat="-8.045548" lon="-34.89771">
    <ele>16.7</ele>
    <time>2019-09-18T14:35:02.000Z</time>
   </trkpt>
   <trkpt lat="-8.045571" lon="-34.897726">
    <ele>16.7</ele>
    <time>2019-09-18T14:35:03.000Z</time>
   </trkpt>
   <trkpt lat="-8.045605" lon="-34.897747">
    <ele>16.6</ele>
    <time>2019-09-18T14:35:04.000Z</time>
   </trkpt>
   <trkpt lat="-8.04567" lon="-34.897743">
    <ele>16.4</ele>
    <time>2019-09-18T14:35:06.000Z</time>
   </trkpt>
   <trkpt lat="-8.045704" lon="-34.897748">
    <ele>16.3</ele>
    <time>2019-09-18T14:35:07.000Z</time>
   </trkpt>
   <trkpt lat="-8.045739" lon="-34.897766">
    <ele>16.2</ele>
    <time>2019-09-18T14:35:08.000Z</time>
   </trkpt>
   <trkpt lat="-8.045771" lon="-34.897774">
    <ele>16.1</ele>
    <time>2019-09-18T14:35:09.000Z</time>
   </trkpt>
   <trkpt lat="-8.045806" lon="-34.89778">
    <ele>16</ele>
    <time>2019-09-18T14:35:10.000Z</time>
   </trkpt>
   <trkpt lat="-8.045857" lon="-34.897775">
    <ele>15.9</ele>
    <time>2019-09-18T14:35:12.000Z</time>
   </trkpt>
   <trkpt lat="-8.045887" lon="-34.897772">
    <ele>15.8</ele>
    <time>2019-09-18T14:35:15.000Z</time>
   </trkpt>
   <trkpt lat="-8.045919" lon="-34.897781">
    <ele>15.6</ele>
    <time>2019-09-18T14:35:19.000Z</time>
   </trkpt>
   <trkpt lat="-8.045977" lon="-34.89777">
    <ele>15.4</ele>
    <time>2019-09-18T14:35:21.000Z</time>
   </trkpt>
   <trkpt lat="-8.04601" lon="-34.897763">
    <ele>15.3</ele>
    <time>2019-09-18T14:35:22.000Z</time>
   </trkpt>
   <trkpt lat="-8.046051" lon="-34.897764">
    <ele>15.1</ele>
    <time>2019-09-18T14:35:23.000Z</time>
   </trkpt>
   <trkpt lat="-8.046084" lon="-34.897781">
    <ele>15</ele>
    <time>2019-09-18T14:35:24.000Z</time>
   </trkpt>
   <trkpt lat="-8.046112" lon="-34.897798">
    <ele>14.9</ele>
    <time>2019-09-18T14:35:25.000Z</time>
   </trkpt>
   <trkpt lat="-8.046149" lon="-34.897811">
    <ele>14.7</ele>
    <time>2019-09-18T14:35:26.000Z</time>
   </trkpt>
   <trkpt lat="-8.046192" lon="-34.897821">
    <ele>14.7</ele>
    <time>2019-09-18T14:35:27.000Z</time>
   </trkpt>
   <trkpt lat="-8.046232" lon="-34.897833">
    <ele>14.7</ele>
    <time>2019-09-18T14:35:28.000Z</time>
   </trkpt>
   <trkpt lat="-8.046274" lon="-34.897846">
    <ele>14.7</ele>
    <time>2019-09-18T14:35:29.000Z</time>
   </trkpt>
   <trkpt lat="-8.046316" lon="-34.897855">
    <ele>14.7</ele>
    <time>2019-09-18T14:35:30.000Z</time>
   </trkpt>
   <trkpt lat="-8.046352" lon="-34.897868">
    <ele>14.7</ele>
    <time>2019-09-18T14:35:31.000Z</time>
   </trkpt>
   <trkpt lat="-8.046384" lon="-34.897881">
    <ele>14.7</ele>
    <time>2019-09-18T14:35:32.000Z</time>
   </trkpt>
   <trkpt lat="-8.046421" lon="-34.89788">
    <ele>14.8</ele>
    <time>2019-09-18T14:35:33.000Z</time>
   </trkpt>
   <trkpt lat="-8.046457" lon="-34.897889">
    <ele>14.8</ele>
    <time>2019-09-18T14:35:34.000Z</time>
   </trkpt>
   <trkpt lat="-8.046505" lon="-34.897886">
    <ele>14.8</ele>
    <time>2019-09-18T14:35:35.000Z</time>
   </trkpt>
   <trkpt lat="-8.046551" lon="-34.897887">
    <ele>14.8</ele>
    <time>2019-09-18T14:35:36.000Z</time>
   </trkpt>
   <trkpt lat="-8.046581" lon="-34.897892">
    <ele>14.8</ele>
    <time>2019-09-18T14:35:37.000Z</time>
   </trkpt>
   <trkpt lat="-8.046609" lon="-34.897893">
    <ele>14.8</ele>
    <time>2019-09-18T14:35:38.000Z</time>
   </trkpt>
   <trkpt lat="-8.046646" lon="-34.897896">
    <ele>14.8</ele>
    <time>2019-09-18T14:35:39.000Z</time>
   </trkpt>
   <trkpt lat="-8.046678" lon="-34.897903">
    <ele>14.8</ele>
    <time>2019-09-18T14:35:40.000Z</time>
   </trkpt>
   <trkpt lat="-8.046716" lon="-34.897904">
    <ele>14.8</ele>
    <time>2019-09-18T14:35:41.000Z</time>
   </trkpt>
   <trkpt lat="-8.046757" lon="-34.897928">
    <ele>14.7</ele>
    <time>2019-09-18T14:35:42.000Z</time>
   </trkpt>
   <trkpt lat="-8.046789" lon="-34.897944">
    <ele>14.7</ele>
    <time>2019-09-18T14:35:43.000Z</time>
   </trkpt>
   <trkpt lat="-8.046837" lon="-34.897943">
    <ele>14.6</ele>
    <time>2019-09-18T14:35:44.000Z</time>
   </trkpt>
   <trkpt lat="-8.046871" lon="-34.897944">
    <ele>14.6</ele>
    <time>2019-09-18T14:35:45.000Z</time>
   </trkpt>
   <trkpt lat="-8.046899" lon="-34.897961">
    <ele>14.6</ele>
    <time>2019-09-18T14:35:46.000Z</time>
   </trkpt>
   <trkpt lat="-8.046937" lon="-34.897967">
    <ele>14.5</ele>
    <time>2019-09-18T14:35:47.000Z</time>
   </trkpt>
   <trkpt lat="-8.046971" lon="-34.897972">
    <ele>14.4</ele>
    <time>2019-09-18T14:35:48.000Z</time>
   </trkpt>
   <trkpt lat="-8.046997" lon="-34.897983">
    <ele>14.4</ele>
    <time>2019-09-18T14:35:49.000Z</time>
   </trkpt>
   <trkpt lat="-8.047022" lon="-34.897993">
    <ele>14.3</ele>
    <time>2019-09-18T14:35:50.000Z</time>
   </trkpt>
   <trkpt lat="-8.047053" lon="-34.898002">
    <ele>14.3</ele>
    <time>2019-09-18T14:35:52.000Z</time>
   </trkpt>
   <trkpt lat="-8.04709" lon="-34.898013">
    <ele>14.2</ele>
    <time>2019-09-18T14:35:55.000Z</time>
   </trkpt>
   <trkpt lat="-8.047103" lon="-34.898044">
    <ele>14.2</ele>
    <time>2019-09-18T14:36:01.000Z</time>
   </trkpt>
   <trkpt lat="-8.047101" lon="-34.898084">
    <ele>14.1</ele>
    <time>2019-09-18T14:36:03.000Z</time>
   </trkpt>
   <trkpt lat="-8.04711" lon="-34.898124">
    <ele>14</ele>
    <time>2019-09-18T14:36:05.000Z</time>
   </trkpt>
   <trkpt lat="-8.047145" lon="-34.898166">
    <ele>14.3</ele>
    <time>2019-09-18T14:36:07.000Z</time>
   </trkpt>
   <trkpt lat="-8.047163" lon="-34.898203">
    <ele>14.7</ele>
    <time>2019-09-18T14:36:09.000Z</time>
   </trkpt>
   <trkpt lat="-8.047159" lon="-34.898237">
    <ele>14.9</ele>
    <time>2019-09-18T14:36:11.000Z</time>
   </trkpt>
   <trkpt lat="-8.047168" lon="-34.898284">
    <ele>15.3</ele>
    <time>2019-09-18T14:36:13.000Z</time>
   </trkpt>
   <trkpt lat="-8.047173" lon="-34.898316">
    <ele>15.5</ele>
    <time>2019-09-18T14:36:15.000Z</time>
   </trkpt>
   <trkpt lat="-8.047171" lon="-34.89835">
    <ele>15.6</ele>
    <time>2019-09-18T14:36:17.000Z</time>
   </trkpt>
   <trkpt lat="-8.047187" lon="-34.898394">
    <ele>15.8</ele>
    <time>2019-09-18T14:36:19.000Z</time>
   </trkpt>
   <trkpt lat="-8.047161" lon="-34.898411">
    <ele>15.9</ele>
    <time>2019-09-18T14:36:21.000Z</time>
   </trkpt>
   <trkpt lat="-8.047119" lon="-34.898472">
    <ele>16</ele>
    <time>2019-09-18T14:36:23.000Z</time>
   </trkpt>
   <trkpt lat="-8.047106" lon="-34.898522">
    <ele>16</ele>
    <time>2019-09-18T14:36:24.000Z</time>
   </trkpt>
   <trkpt lat="-8.0471" lon="-34.898558">
    <ele>16</ele>
    <time>2019-09-18T14:36:25.000Z</time>
   </trkpt>
   <trkpt lat="-8.047107" lon="-34.898615">
    <ele>15.9</ele>
    <time>2019-09-18T14:36:27.000Z</time>
   </trkpt>
   <trkpt lat="-8.047131" lon="-34.898652">
    <ele>15.8</ele>
    <time>2019-09-18T14:36:28.000Z</time>
   </trkpt>
   <trkpt lat="-8.04715" lon="-34.898686">
    <ele>15.8</ele>
    <time>2019-09-18T14:36:29.000Z</time>
   </trkpt>
   <trkpt lat="-8.047181" lon="-34.898726">
    <ele>15.8</ele>
    <time>2019-09-18T14:36:31.000Z</time>
   </trkpt>
   <trkpt lat="-8.047186" lon="-34.898774">
    <ele>15.8</ele>
    <time>2019-09-18T14:36:36.000Z</time>
   </trkpt>
   <trkpt lat="-8.047202" lon="-34.898817">
    <ele>15.7</ele>
    <time>2019-09-18T14:36:38.000Z</time>
   </trkpt>
   <trkpt lat="-8.047196" lon="-34.898858">
    <ele>15.7</ele>
    <time>2019-09-18T14:36:40.000Z</time>
   </trkpt>
   <trkpt lat="-8.0472" lon="-34.898899">
    <ele>15.6</ele>
    <time>2019-09-18T14:36:42.000Z</time>
   </trkpt>
   <trkpt lat="-8.047201" lon="-34.898933">
    <ele>15.5</ele>
    <time>2019-09-18T14:36:44.000Z</time>
   </trkpt>
   <trkpt lat="-8.047222" lon="-34.89897">
    <ele>15.4</ele>
    <time>2019-09-18T14:36:45.000Z</time>
   </trkpt>
   <trkpt lat="-8.047241" lon="-34.899004">
    <ele>15.4</ele>
    <time>2019-09-18T14:36:46.000Z</time>
   </trkpt>
   <trkpt lat="-8.047254" lon="-34.899032">
    <ele>15.3</ele>
    <time>2019-09-18T14:36:47.000Z</time>
   </trkpt>
   <trkpt lat="-8.047266" lon="-34.899079">
    <ele>15.2</ele>
    <time>2019-09-18T14:36:49.000Z</time>
   </trkpt>
   <trkpt lat="-8.047275" lon="-34.899132">
    <ele>15.1</ele>
    <time>2019-09-18T14:36:51.000Z</time>
   </trkpt>
   <trkpt lat="-8.047268" lon="-34.899185">
    <ele>15</ele>
    <time>2019-09-18T14:36:53.000Z</time>
   </trkpt>
   <trkpt lat="-8.047253" lon="-34.899214">
    <ele>14.9</ele>
    <time>2019-09-18T14:36:54.000Z</time>
   </trkpt>
   <trkpt lat="-8.04724" lon="-34.89924">
    <ele>14.9</ele>
    <time>2019-09-18T14:36:55.000Z</time>
   </trkpt>
   <trkpt lat="-8.047229" lon="-34.899272">
    <ele>14.8</ele>
    <time>2019-09-18T14:36:56.000Z</time>
   </trkpt>
   <trkpt lat="-8.047219" lon="-34.899302">
    <ele>14.7</ele>
    <time>2019-09-18T14:36:57.000Z</time>
   </trkpt>
   <trkpt lat="-8.047208" lon="-34.899327">
    <ele>14.7</ele>
    <time>2019-09-18T14:36:58.000Z</time>
   </trkpt>
   <trkpt lat="-8.047201" lon="-34.899359">
    <ele>14.6</ele>
    <time>2019-09-18T14:37:01.000Z</time>
   </trkpt>
   <trkpt lat="-8.047205" lon="-34.899393">
    <ele>14.6</ele>
    <time>2019-09-18T14:37:03.000Z</time>
   </trkpt>
   <trkpt lat="-8.047207" lon="-34.899435">
    <ele>14.5</ele>
    <time>2019-09-18T14:37:05.000Z</time>
   </trkpt>
   <trkpt lat="-8.047212" lon="-34.899477">
    <ele>14.4</ele>
    <time>2019-09-18T14:37:07.000Z</time>
   </trkpt>
   <trkpt lat="-8.047222" lon="-34.899507">
    <ele>14.4</ele>
    <time>2019-09-18T14:37:09.000Z</time>
   </trkpt>
   <trkpt lat="-8.047212" lon="-34.899552">
    <ele>14.3</ele>
    <time>2019-09-18T14:37:11.000Z</time>
   </trkpt>
   <trkpt lat="-8.047206" lon="-34.899582">
    <ele>14.2</ele>
    <time>2019-09-18T14:37:14.000Z</time>
   </trkpt>
   <trkpt lat="-8.047218" lon="-34.89961">
    <ele>14.2</ele>
    <time>2019-09-18T14:37:17.000Z</time>
   </trkpt>
   <trkpt lat="-8.047233" lon="-34.899642">
    <ele>14.1</ele>
    <time>2019-09-18T14:37:21.000Z</time>
   </trkpt>
   <trkpt lat="-8.047233" lon="-34.899675">
    <ele>14.1</ele>
    <time>2019-09-18T14:37:25.000Z</time>
   </trkpt>
   <trkpt lat="-8.047256" lon="-34.89969">
    <ele>14</ele>
    <time>2019-09-18T14:37:28.000Z</time>
   </trkpt>
   <trkpt lat="-8.047258" lon="-34.899721">
    <ele>13.9</ele>
    <time>2019-09-18T14:37:38.000Z</time>
   </trkpt>
   <trkpt lat="-8.047296" lon="-34.899743">
    <ele>13.8</ele>
    <time>2019-09-18T14:37:40.000Z</time>
   </trkpt>
   <trkpt lat="-8.047322" lon="-34.899755">
    <ele>13.7</ele>
    <time>2019-09-18T14:37:41.000Z</time>
   </trkpt>
   <trkpt lat="-8.047374" lon="-34.899776">
    <ele>13.6</ele>
    <time>2019-09-18T14:37:43.000Z</time>
   </trkpt>
   <trkpt lat="-8.047405" lon="-34.89979">
    <ele>13.5</ele>
    <time>2019-09-18T14:37:44.000Z</time>
   </trkpt>
   <trkpt lat="-8.047438" lon="-34.899809">
    <ele>13.5</ele>
    <time>2019-09-18T14:37:45.000Z</time>
   </trkpt>
   <trkpt lat="-8.047471" lon="-34.899826">
    <ele>13.4</ele>
    <time>2019-09-18T14:37:46.000Z</time>
   </trkpt>
   <trkpt lat="-8.04751" lon="-34.899861">
    <ele>13.3</ele>
    <time>2019-09-18T14:37:48.000Z</time>
   </trkpt>
   <trkpt lat="-8.047532" lon="-34.899899">
    <ele>13.2</ele>
    <time>2019-09-18T14:37:50.000Z</time>
   </trkpt>
   <trkpt lat="-8.047582" lon="-34.899885">
    <ele>13.1</ele>
    <time>2019-09-18T14:37:52.000Z</time>
   </trkpt>
   <trkpt lat="-8.04761" lon="-34.899885">
    <ele>13.1</ele>
    <time>2019-09-18T14:37:53.000Z</time>
   </trkpt>
   <trkpt lat="-8.047644" lon="-34.899894">
    <ele>13.2</ele>
    <time>2019-09-18T14:37:54.000Z</time>
   </trkpt>
   <trkpt lat="-8.047683" lon="-34.899914">
    <ele>13.2</ele>
    <time>2019-09-18T14:37:55.000Z</time>
   </trkpt>
   <trkpt lat="-8.047709" lon="-34.89994">
    <ele>13.3</ele>
    <time>2019-09-18T14:37:56.000Z</time>
   </trkpt>
   <trkpt lat="-8.047752" lon="-34.899959">
    <ele>13.3</ele>
    <time>2019-09-18T14:37:57.000Z</time>
   </trkpt>
   <trkpt lat="-8.047794" lon="-34.899982">
    <ele>13.4</ele>
    <time>2019-09-18T14:37:58.000Z</time>
   </trkpt>
   <trkpt lat="-8.047834" lon="-34.900013">
    <ele>13.5</ele>
    <time>2019-09-18T14:37:59.000Z</time>
   </trkpt>
   <trkpt lat="-8.047877" lon="-34.900026">
    <ele>13.5</ele>
    <time>2019-09-18T14:38:00.000Z</time>
   </trkpt>
   <trkpt lat="-8.047902" lon="-34.900053">
    <ele>13.6</ele>
    <time>2019-09-18T14:38:01.000Z</time>
   </trkpt>
   <trkpt lat="-8.047929" lon="-34.900079">
    <ele>13.6</ele>
    <time>2019-09-18T14:38:02.000Z</time>
   </trkpt>
   <trkpt lat="-8.047963" lon="-34.900112">
    <ele>13.7</ele>
    <time>2019-09-18T14:38:03.000Z</time>
   </trkpt>
   <trkpt lat="-8.048001" lon="-34.900142">
    <ele>13.7</ele>
    <time>2019-09-18T14:38:04.000Z</time>
   </trkpt>
   <trkpt lat="-8.048059" lon="-34.90016">
    <ele>13.8</ele>
    <time>2019-09-18T14:38:06.000Z</time>
   </trkpt>
   <trkpt lat="-8.048106" lon="-34.900192">
    <ele>13.9</ele>
    <time>2019-09-18T14:38:07.000Z</time>
   </trkpt>
   <trkpt lat="-8.048153" lon="-34.90022">
    <ele>13.9</ele>
    <time>2019-09-18T14:38:08.000Z</time>
   </trkpt>
   <trkpt lat="-8.048204" lon="-34.900244">
    <ele>14</ele>
    <time>2019-09-18T14:38:09.000Z</time>
   </trkpt>
   <trkpt lat="-8.048244" lon="-34.900276">
    <ele>14.1</ele>
    <time>2019-09-18T14:38:10.000Z</time>
   </trkpt>
   <trkpt lat="-8.048302" lon="-34.90028">
    <ele>14.1</ele>
    <time>2019-09-18T14:38:11.000Z</time>
   </trkpt>
   <trkpt lat="-8.048346" lon="-34.900306">
    <ele>14.2</ele>
    <time>2019-09-18T14:38:12.000Z</time>
   </trkpt>
   <trkpt lat="-8.048391" lon="-34.900331">
    <ele>14.3</ele>
    <time>2019-09-18T14:38:13.000Z</time>
   </trkpt>
   <trkpt lat="-8.048428" lon="-34.900355">
    <ele>14.3</ele>
    <time>2019-09-18T14:38:14.000Z</time>
   </trkpt>
   <trkpt lat="-8.048463" lon="-34.900382">
    <ele>14.4</ele>
    <time>2019-09-18T14:38:15.000Z</time>
   </trkpt>
   <trkpt lat="-8.048507" lon="-34.900398">
    <ele>14.4</ele>
    <time>2019-09-18T14:38:16.000Z</time>
   </trkpt>
   <trkpt lat="-8.04855" lon="-34.900419">
    <ele>14.5</ele>
    <time>2019-09-18T14:38:17.000Z</time>
   </trkpt>
   <trkpt lat="-8.048596" lon="-34.900433">
    <ele>14.5</ele>
    <time>2019-09-18T14:38:18.000Z</time>
   </trkpt>
   <trkpt lat="-8.048639" lon="-34.900457">
    <ele>14.6</ele>
    <time>2019-09-18T14:38:19.000Z</time>
   </trkpt>
   <trkpt lat="-8.048679" lon="-34.900473">
    <ele>14.7</ele>
    <time>2019-09-18T14:38:20.000Z</time>
   </trkpt>
   <trkpt lat="-8.048721" lon="-34.900493">
    <ele>14.7</ele>
    <time>2019-09-18T14:38:21.000Z</time>
   </trkpt>
   <trkpt lat="-8.048755" lon="-34.900522">
    <ele>14.8</ele>
    <time>2019-09-18T14:38:22.000Z</time>
   </trkpt>
   <trkpt lat="-8.048794" lon="-34.900534">
    <ele>14.8</ele>
    <time>2019-09-18T14:38:23.000Z</time>
   </trkpt>
   <trkpt lat="-8.048831" lon="-34.900545">
    <ele>14.9</ele>
    <time>2019-09-18T14:38:24.000Z</time>
   </trkpt>
   <trkpt lat="-8.048868" lon="-34.900554">
    <ele>14.9</ele>
    <time>2019-09-18T14:38:25.000Z</time>
   </trkpt>
   <trkpt lat="-8.048906" lon="-34.900566">
    <ele>15</ele>
    <time>2019-09-18T14:38:26.000Z</time>
   </trkpt>
   <trkpt lat="-8.048933" lon="-34.900582">
    <ele>15</ele>
    <time>2019-09-18T14:38:27.000Z</time>
   </trkpt>
   <trkpt lat="-8.048966" lon="-34.900597">
    <ele>15</ele>
    <time>2019-09-18T14:38:28.000Z</time>
   </trkpt>
   <trkpt lat="-8.048997" lon="-34.900617">
    <ele>15</ele>
    <time>2019-09-18T14:38:29.000Z</time>
   </trkpt>
   <trkpt lat="-8.049033" lon="-34.900644">
    <ele>14.9</ele>
    <time>2019-09-18T14:38:30.000Z</time>
   </trkpt>
   <trkpt lat="-8.049065" lon="-34.900661">
    <ele>14.9</ele>
    <time>2019-09-18T14:38:31.000Z</time>
   </trkpt>
   <trkpt lat="-8.0491" lon="-34.900688">
    <ele>14.9</ele>
    <time>2019-09-18T14:38:32.000Z</time>
   </trkpt>
   <trkpt lat="-8.04914" lon="-34.90071">
    <ele>14.8</ele>
    <time>2019-09-18T14:38:33.000Z</time>
   </trkpt>
   <trkpt lat="-8.04918" lon="-34.900742">
    <ele>14.8</ele>
    <time>2019-09-18T14:38:34.000Z</time>
   </trkpt>
   <trkpt lat="-8.049215" lon="-34.900769">
    <ele>14.7</ele>
    <time>2019-09-18T14:38:35.000Z</time>
   </trkpt>
   <trkpt lat="-8.049254" lon="-34.900788">
    <ele>14.5</ele>
    <time>2019-09-18T14:38:36.000Z</time>
   </trkpt>
   <trkpt lat="-8.049289" lon="-34.900803">
    <ele>14.4</ele>
    <time>2019-09-18T14:38:37.000Z</time>
   </trkpt>
   <trkpt lat="-8.049332" lon="-34.900825">
    <ele>14.2</ele>
    <time>2019-09-18T14:38:38.000Z</time>
   </trkpt>
   <trkpt lat="-8.049372" lon="-34.900845">
    <ele>13.9</ele>
    <time>2019-09-18T14:38:39.000Z</time>
   </trkpt>
   <trkpt lat="-8.049414" lon="-34.900867">
    <ele>13.7</ele>
    <time>2019-09-18T14:38:40.000Z</time>
   </trkpt>
   <trkpt lat="-8.049464" lon="-34.900884">
    <ele>13.5</ele>
    <time>2019-09-18T14:38:41.000Z</time>
   </trkpt>
   <trkpt lat="-8.049509" lon="-34.900906">
    <ele>13.3</ele>
    <time>2019-09-18T14:38:42.000Z</time>
   </trkpt>
   <trkpt lat="-8.049556" lon="-34.900932">
    <ele>13.2</ele>
    <time>2019-09-18T14:38:43.000Z</time>
   </trkpt>
   <trkpt lat="-8.049596" lon="-34.900961">
    <ele>13.1</ele>
    <time>2019-09-18T14:38:44.000Z</time>
   </trkpt>
   <trkpt lat="-8.049633" lon="-34.90099">
    <ele>13</ele>
    <time>2019-09-18T14:38:45.000Z</time>
   </trkpt>
   <trkpt lat="-8.049668" lon="-34.901008">
    <ele>13</ele>
    <time>2019-09-18T14:38:46.000Z</time>
   </trkpt>
   <trkpt lat="-8.049705" lon="-34.901015">
    <ele>13</ele>
    <time>2019-09-18T14:38:47.000Z</time>
   </trkpt>
   <trkpt lat="-8.049758" lon="-34.901032">
    <ele>12.9</ele>
    <time>2019-09-18T14:38:49.000Z</time>
   </trkpt>
   <trkpt lat="-8.049799" lon="-34.901047">
    <ele>12.9</ele>
    <time>2019-09-18T14:38:50.000Z</time>
   </trkpt>
   <trkpt lat="-8.049848" lon="-34.901042">
    <ele>12.9</ele>
    <time>2019-09-18T14:38:51.000Z</time>
   </trkpt>
   <trkpt lat="-8.049891" lon="-34.901037">
    <ele>12.9</ele>
    <time>2019-09-18T14:38:52.000Z</time>
   </trkpt>
   <trkpt lat="-8.049935" lon="-34.90103">
    <ele>12.8</ele>
    <time>2019-09-18T14:38:53.000Z</time>
   </trkpt>
   <trkpt lat="-8.04997" lon="-34.901039">
    <ele>12.8</ele>
    <time>2019-09-18T14:38:54.000Z</time>
   </trkpt>
   <trkpt lat="-8.050005" lon="-34.901041">
    <ele>12.8</ele>
    <time>2019-09-18T14:38:55.000Z</time>
   </trkpt>
   <trkpt lat="-8.050044" lon="-34.901042">
    <ele>12.8</ele>
    <time>2019-09-18T14:38:56.000Z</time>
   </trkpt>
   <trkpt lat="-8.050085" lon="-34.901046">
    <ele>12.8</ele>
    <time>2019-09-18T14:38:57.000Z</time>
   </trkpt>
   <trkpt lat="-8.05013" lon="-34.901056">
    <ele>12.7</ele>
    <time>2019-09-18T14:38:58.000Z</time>
   </trkpt>
   <trkpt lat="-8.050187" lon="-34.90104">
    <ele>12.7</ele>
    <time>2019-09-18T14:38:59.000Z</time>
   </trkpt>
   <trkpt lat="-8.050219" lon="-34.901052">
    <ele>12.7</ele>
    <time>2019-09-18T14:39:00.000Z</time>
   </trkpt>
   <trkpt lat="-8.050254" lon="-34.901052">
    <ele>12.7</ele>
    <time>2019-09-18T14:39:01.000Z</time>
   </trkpt>
   <trkpt lat="-8.050292" lon="-34.901048">
    <ele>12.7</ele>
    <time>2019-09-18T14:39:02.000Z</time>
   </trkpt>
   <trkpt lat="-8.050329" lon="-34.90105">
    <ele>12.6</ele>
    <time>2019-09-18T14:39:03.000Z</time>
   </trkpt>
   <trkpt lat="-8.050363" lon="-34.90106">
    <ele>12.6</ele>
    <time>2019-09-18T14:39:04.000Z</time>
   </trkpt>
   <trkpt lat="-8.050398" lon="-34.901067">
    <ele>12.6</ele>
    <time>2019-09-18T14:39:05.000Z</time>
   </trkpt>
   <trkpt lat="-8.050442" lon="-34.901057">
    <ele>12.6</ele>
    <time>2019-09-18T14:39:06.000Z</time>
   </trkpt>
   <trkpt lat="-8.050479" lon="-34.901051">
    <ele>12.6</ele>
    <time>2019-09-18T14:39:07.000Z</time>
   </trkpt>
   <trkpt lat="-8.050509" lon="-34.901046">
    <ele>12.6</ele>
    <time>2019-09-18T14:39:08.000Z</time>
   </trkpt>
   <trkpt lat="-8.050541" lon="-34.901046">
    <ele>12.5</ele>
    <time>2019-09-18T14:39:09.000Z</time>
   </trkpt>
   <trkpt lat="-8.050571" lon="-34.901047">
    <ele>12.5</ele>
    <time>2019-09-18T14:39:10.000Z</time>
   </trkpt>
   <trkpt lat="-8.050602" lon="-34.901047">
    <ele>12.5</ele>
    <time>2019-09-18T14:39:11.000Z</time>
   </trkpt>
   <trkpt lat="-8.050631" lon="-34.901048">
    <ele>12.5</ele>
    <time>2019-09-18T14:39:12.000Z</time>
   </trkpt>
   <trkpt lat="-8.050658" lon="-34.901046">
    <ele>12.5</ele>
    <time>2019-09-18T14:39:13.000Z</time>
   </trkpt>
   <trkpt lat="-8.050694" lon="-34.901044">
    <ele>12.5</ele>
    <time>2019-09-18T14:39:14.000Z</time>
   </trkpt>
   <trkpt lat="-8.050735" lon="-34.901032">
    <ele>12.4</ele>
    <time>2019-09-18T14:39:15.000Z</time>
   </trkpt>
   <trkpt lat="-8.050766" lon="-34.901027">
    <ele>12.4</ele>
    <time>2019-09-18T14:39:16.000Z</time>
   </trkpt>
   <trkpt lat="-8.050796" lon="-34.901035">
    <ele>12.4</ele>
    <time>2019-09-18T14:39:17.000Z</time>
   </trkpt>
   <trkpt lat="-8.05082" lon="-34.901062">
    <ele>12.4</ele>
    <time>2019-09-18T14:39:18.000Z</time>
   </trkpt>
   <trkpt lat="-8.050846" lon="-34.901086">
    <ele>12.4</ele>
    <time>2019-09-18T14:39:19.000Z</time>
   </trkpt>
   <trkpt lat="-8.050876" lon="-34.901118">
    <ele>12.4</ele>
    <time>2019-09-18T14:39:21.000Z</time>
   </trkpt>
   <trkpt lat="-8.050885" lon="-34.901147">
    <ele>12.5</ele>
    <time>2019-09-18T14:39:22.000Z</time>
   </trkpt>
   <trkpt lat="-8.050886" lon="-34.901185">
    <ele>12.5</ele>
    <time>2019-09-18T14:39:23.000Z</time>
   </trkpt>
   <trkpt lat="-8.050902" lon="-34.901228">
    <ele>12.6</ele>
    <time>2019-09-18T14:39:24.000Z</time>
   </trkpt>
   <trkpt lat="-8.050901" lon="-34.901275">
    <ele>12.6</ele>
    <time>2019-09-18T14:39:25.000Z</time>
   </trkpt>
   <trkpt lat="-8.050899" lon="-34.90132">
    <ele>12.6</ele>
    <time>2019-09-18T14:39:26.000Z</time>
   </trkpt>
   <trkpt lat="-8.050891" lon="-34.901364">
    <ele>12.7</ele>
    <time>2019-09-18T14:39:27.000Z</time>
   </trkpt>
   <trkpt lat="-8.050886" lon="-34.901407">
    <ele>12.7</ele>
    <time>2019-09-18T14:39:28.000Z</time>
   </trkpt>
   <trkpt lat="-8.050875" lon="-34.901451">
    <ele>12.7</ele>
    <time>2019-09-18T14:39:29.000Z</time>
   </trkpt>
   <trkpt lat="-8.050855" lon="-34.901493">
    <ele>12.8</ele>
    <time>2019-09-18T14:39:30.000Z</time>
   </trkpt>
   <trkpt lat="-8.050842" lon="-34.901539">
    <ele>12.8</ele>
    <time>2019-09-18T14:39:31.000Z</time>
   </trkpt>
   <trkpt lat="-8.050837" lon="-34.901585">
    <ele>12.9</ele>
    <time>2019-09-18T14:39:32.000Z</time>
   </trkpt>
   <trkpt lat="-8.05082" lon="-34.901616">
    <ele>12.9</ele>
    <time>2019-09-18T14:39:33.000Z</time>
   </trkpt>
   <trkpt lat="-8.050812" lon="-34.901665">
    <ele>13</ele>
    <time>2019-09-18T14:39:34.000Z</time>
   </trkpt>
   <trkpt lat="-8.050809" lon="-34.901709">
    <ele>13</ele>
    <time>2019-09-18T14:39:35.000Z</time>
   </trkpt>
   <trkpt lat="-8.050804" lon="-34.901747">
    <ele>13.1</ele>
    <time>2019-09-18T14:39:36.000Z</time>
   </trkpt>
   <trkpt lat="-8.050804" lon="-34.901795">
    <ele>13.4</ele>
    <time>2019-09-18T14:39:37.000Z</time>
   </trkpt>
   <trkpt lat="-8.050783" lon="-34.901813">
    <ele>13.6</ele>
    <time>2019-09-18T14:39:38.000Z</time>
   </trkpt>
   <trkpt lat="-8.050779" lon="-34.90184">
    <ele>13.7</ele>
    <time>2019-09-18T14:39:39.000Z</time>
   </trkpt>
   <trkpt lat="-8.0508" lon="-34.90187">
    <ele>13.9</ele>
    <time>2019-09-18T14:39:40.000Z</time>
   </trkpt>
   <trkpt lat="-8.050829" lon="-34.901879">
    <ele>14.1</ele>
    <time>2019-09-18T14:39:41.000Z</time>
   </trkpt>
   <trkpt lat="-8.050855" lon="-34.901885">
    <ele>15</ele>
    <time>2019-09-18T14:39:42.000Z</time>
   </trkpt>
   <trkpt lat="-8.050894" lon="-34.901898">
    <ele>14.9</ele>
    <time>2019-09-18T14:39:43.000Z</time>
   </trkpt>
   <trkpt lat="-8.05094" lon="-34.901909">
    <ele>14.8</ele>
    <time>2019-09-18T14:39:44.000Z</time>
   </trkpt>
   <trkpt lat="-8.050986" lon="-34.901915">
    <ele>14.8</ele>
    <time>2019-09-18T14:39:45.000Z</time>
   </trkpt>
   <trkpt lat="-8.051028" lon="-34.901925">
    <ele>14.7</ele>
    <time>2019-09-18T14:39:46.000Z</time>
   </trkpt>
   <trkpt lat="-8.05107" lon="-34.901932">
    <ele>14.6</ele>
    <time>2019-09-18T14:39:47.000Z</time>
   </trkpt>
   <trkpt lat="-8.051127" lon="-34.901925">
    <ele>14.6</ele>
    <time>2019-09-18T14:39:48.000Z</time>
   </trkpt>
   <trkpt lat="-8.051181" lon="-34.901933">
    <ele>14.5</ele>
    <time>2019-09-18T14:39:49.000Z</time>
   </trkpt>
   <trkpt lat="-8.05121" lon="-34.901933">
    <ele>14.4</ele>
    <time>2019-09-18T14:39:50.000Z</time>
   </trkpt>
   <trkpt lat="-8.051251" lon="-34.901929">
    <ele>14.4</ele>
    <time>2019-09-18T14:39:51.000Z</time>
   </trkpt>
   <trkpt lat="-8.051293" lon="-34.90193">
    <ele>14.3</ele>
    <time>2019-09-18T14:39:52.000Z</time>
   </trkpt>
   <trkpt lat="-8.05133" lon="-34.901938">
    <ele>14.3</ele>
    <time>2019-09-18T14:39:53.000Z</time>
   </trkpt>
   <trkpt lat="-8.051362" lon="-34.901952">
    <ele>14.2</ele>
    <time>2019-09-18T14:39:54.000Z</time>
   </trkpt>
   <trkpt lat="-8.051388" lon="-34.901961">
    <ele>14.2</ele>
    <time>2019-09-18T14:39:55.000Z</time>
   </trkpt>
   <trkpt lat="-8.051414" lon="-34.901975">
    <ele>14.1</ele>
    <time>2019-09-18T14:39:56.000Z</time>
   </trkpt>
   <trkpt lat="-8.051446" lon="-34.901985">
    <ele>14.1</ele>
    <time>2019-09-18T14:39:57.000Z</time>
   </trkpt>
   <trkpt lat="-8.051466" lon="-34.902009">
    <ele>14</ele>
    <time>2019-09-18T14:39:58.000Z</time>
   </trkpt>
   <trkpt lat="-8.051486" lon="-34.902034">
    <ele>14</ele>
    <time>2019-09-18T14:39:59.000Z</time>
   </trkpt>
   <trkpt lat="-8.051525" lon="-34.902041">
    <ele>13.9</ele>
    <time>2019-09-18T14:40:00.000Z</time>
   </trkpt>
   <trkpt lat="-8.051589" lon="-34.902015">
    <ele>13.7</ele>
    <time>2019-09-18T14:40:01.000Z</time>
   </trkpt>
   <trkpt lat="-8.051608" lon="-34.902041">
    <ele>13.6</ele>
    <time>2019-09-18T14:40:02.000Z</time>
   </trkpt>
   <trkpt lat="-8.051663" lon="-34.902063">
    <ele>13.4</ele>
    <time>2019-09-18T14:40:04.000Z</time>
   </trkpt>
   <trkpt lat="-8.051699" lon="-34.902064">
    <ele>13.2</ele>
    <time>2019-09-18T14:40:05.000Z</time>
   </trkpt>
   <trkpt lat="-8.051737" lon="-34.902066">
    <ele>13</ele>
    <time>2019-09-18T14:40:06.000Z</time>
   </trkpt>
   <trkpt lat="-8.051796" lon="-34.902036">
    <ele>12.6</ele>
    <time>2019-09-18T14:40:07.000Z</time>
   </trkpt>
   <trkpt lat="-8.051843" lon="-34.902032">
    <ele>12.4</ele>
    <time>2019-09-18T14:40:08.000Z</time>
   </trkpt>
   <trkpt lat="-8.051888" lon="-34.902033">
    <ele>12.2</ele>
    <time>2019-09-18T14:40:09.000Z</time>
   </trkpt>
   <trkpt lat="-8.051928" lon="-34.902031">
    <ele>12</ele>
    <time>2019-09-18T14:40:10.000Z</time>
   </trkpt>
   <trkpt lat="-8.051975" lon="-34.902068">
    <ele>11.8</ele>
    <time>2019-09-18T14:40:11.000Z</time>
   </trkpt>
   <trkpt lat="-8.05202" lon="-34.902101">
    <ele>11.7</ele>
    <time>2019-09-18T14:40:12.000Z</time>
   </trkpt>
   <trkpt lat="-8.052081" lon="-34.902109">
    <ele>11.5</ele>
    <time>2019-09-18T14:40:13.000Z</time>
   </trkpt>
   <trkpt lat="-8.052128" lon="-34.902134">
    <ele>11.4</ele>
    <time>2019-09-18T14:40:14.000Z</time>
   </trkpt>
   <trkpt lat="-8.05217" lon="-34.902136">
    <ele>11.4</ele>
    <time>2019-09-18T14:40:15.000Z</time>
   </trkpt>
   <trkpt lat="-8.05221" lon="-34.902134">
    <ele>11.3</ele>
    <time>2019-09-18T14:40:16.000Z</time>
   </trkpt>
   <trkpt lat="-8.05224" lon="-34.902131">
    <ele>11.3</ele>
    <time>2019-09-18T14:40:17.000Z</time>
   </trkpt>
   <trkpt lat="-8.052273" lon="-34.902131">
    <ele>11.2</ele>
    <time>2019-09-18T14:40:18.000Z</time>
   </trkpt>
   <trkpt lat="-8.052311" lon="-34.902131">
    <ele>11.2</ele>
    <time>2019-09-18T14:40:19.000Z</time>
   </trkpt>
   <trkpt lat="-8.052346" lon="-34.902141">
    <ele>11.1</ele>
    <time>2019-09-18T14:40:20.000Z</time>
   </trkpt>
   <trkpt lat="-8.052379" lon="-34.902138">
    <ele>11.1</ele>
    <time>2019-09-18T14:40:21.000Z</time>
   </trkpt>
   <trkpt lat="-8.052434" lon="-34.902128">
    <ele>11</ele>
    <time>2019-09-18T14:40:23.000Z</time>
   </trkpt>
   <trkpt lat="-8.052464" lon="-34.90212">
    <ele>11</ele>
    <time>2019-09-18T14:40:24.000Z</time>
   </trkpt>
   <trkpt lat="-8.052519" lon="-34.902119">
    <ele>11</ele>
    <time>2019-09-18T14:40:26.000Z</time>
   </trkpt>
   <trkpt lat="-8.052553" lon="-34.90212">
    <ele>11</ele>
    <time>2019-09-18T14:40:27.000Z</time>
   </trkpt>
   <trkpt lat="-8.05258" lon="-34.902137">
    <ele>11</ele>
    <time>2019-09-18T14:40:28.000Z</time>
   </trkpt>
   <trkpt lat="-8.052614" lon="-34.902147">
    <ele>11</ele>
    <time>2019-09-18T14:40:30.000Z</time>
   </trkpt>
   <trkpt lat="-8.052637" lon="-34.90213">
    <ele>11</ele>
    <time>2019-09-18T14:40:31.000Z</time>
   </trkpt>
   <trkpt lat="-8.052666" lon="-34.902129">
    <ele>11</ele>
    <time>2019-09-18T14:40:32.000Z</time>
   </trkpt>
   <trkpt lat="-8.052697" lon="-34.902131">
    <ele>11</ele>
    <time>2019-09-18T14:40:35.000Z</time>
   </trkpt>
   <trkpt lat="-8.052738" lon="-34.902129">
    <ele>11</ele>
    <time>2019-09-18T14:40:44.000Z</time>
   </trkpt>
   <trkpt lat="-8.052796" lon="-34.902158">
    <ele>11</ele>
    <time>2019-09-18T14:40:46.000Z</time>
   </trkpt>
   <trkpt lat="-8.052832" lon="-34.902178">
    <ele>11.1</ele>
    <time>2019-09-18T14:40:47.000Z</time>
   </trkpt>
   <trkpt lat="-8.05287" lon="-34.902186">
    <ele>11.6</ele>
    <time>2019-09-18T14:40:48.000Z</time>
   </trkpt>
   <trkpt lat="-8.05291" lon="-34.902184">
    <ele>12.1</ele>
    <time>2019-09-18T14:40:49.000Z</time>
   </trkpt>
   <trkpt lat="-8.052957" lon="-34.902183">
    <ele>12.7</ele>
    <time>2019-09-18T14:40:50.000Z</time>
   </trkpt>
   <trkpt lat="-8.053001" lon="-34.902184">
    <ele>13.4</ele>
    <time>2019-09-18T14:40:51.000Z</time>
   </trkpt>
   <trkpt lat="-8.053047" lon="-34.902192">
    <ele>13.9</ele>
    <time>2019-09-18T14:40:52.000Z</time>
   </trkpt>
   <trkpt lat="-8.053095" lon="-34.902191">
    <ele>14.1</ele>
    <time>2019-09-18T14:40:53.000Z</time>
   </trkpt>
   <trkpt lat="-8.05314" lon="-34.902182">
    <ele>14.6</ele>
    <time>2019-09-18T14:40:54.000Z</time>
   </trkpt>
   <trkpt lat="-8.053181" lon="-34.902172">
    <ele>14.9</ele>
    <time>2019-09-18T14:40:55.000Z</time>
   </trkpt>
   <trkpt lat="-8.053212" lon="-34.902175">
    <ele>14.9</ele>
    <time>2019-09-18T14:40:56.000Z</time>
   </trkpt>
   <trkpt lat="-8.053255" lon="-34.902166">
    <ele>15.1</ele>
    <time>2019-09-18T14:40:57.000Z</time>
   </trkpt>
   <trkpt lat="-8.053299" lon="-34.902146">
    <ele>15.3</ele>
    <time>2019-09-18T14:40:58.000Z</time>
   </trkpt>
   <trkpt lat="-8.053354" lon="-34.902127">
    <ele>15.5</ele>
    <time>2019-09-18T14:40:59.000Z</time>
   </trkpt>
   <trkpt lat="-8.053405" lon="-34.902109">
    <ele>15.7</ele>
    <time>2019-09-18T14:41:00.000Z</time>
   </trkpt>
   <trkpt lat="-8.053447" lon="-34.902093">
    <ele>15.9</ele>
    <time>2019-09-18T14:41:01.000Z</time>
   </trkpt>
   <trkpt lat="-8.053488" lon="-34.902071">
    <ele>16</ele>
    <time>2019-09-18T14:41:02.000Z</time>
   </trkpt>
   <trkpt lat="-8.053535" lon="-34.902057">
    <ele>16.2</ele>
    <time>2019-09-18T14:41:03.000Z</time>
   </trkpt>
   <trkpt lat="-8.053594" lon="-34.90205">
    <ele>16.4</ele>
    <time>2019-09-18T14:41:04.000Z</time>
   </trkpt>
   <trkpt lat="-8.053646" lon="-34.902039">
    <ele>16.6</ele>
    <time>2019-09-18T14:41:05.000Z</time>
   </trkpt>
   <trkpt lat="-8.053699" lon="-34.902028">
    <ele>16.9</ele>
    <time>2019-09-18T14:41:06.000Z</time>
   </trkpt>
   <trkpt lat="-8.05375" lon="-34.902024">
    <ele>16</ele>
    <time>2019-09-18T14:41:07.000Z</time>
   </trkpt>
   <trkpt lat="-8.053787" lon="-34.902011">
    <ele>15.3</ele>
    <time>2019-09-18T14:41:08.000Z</time>
   </trkpt>
   <trkpt lat="-8.053834" lon="-34.901995">
    <ele>14.5</ele>
    <time>2019-09-18T14:41:09.000Z</time>
   </trkpt>
   <trkpt lat="-8.053887" lon="-34.901969">
    <ele>13.5</ele>
    <time>2019-09-18T14:41:10.000Z</time>
   </trkpt>
   <trkpt lat="-8.053943" lon="-34.901945">
    <ele>12.5</ele>
    <time>2019-09-18T14:41:11.000Z</time>
   </trkpt>
   <trkpt lat="-8.053994" lon="-34.901923">
    <ele>11.6</ele>
    <time>2019-09-18T14:41:12.000Z</time>
   </trkpt>
   <trkpt lat="-8.05405" lon="-34.901906">
    <ele>9.9</ele>
    <time>2019-09-18T14:41:13.000Z</time>
   </trkpt>
   <trkpt lat="-8.054099" lon="-34.901894">
    <ele>9.7</ele>
    <time>2019-09-18T14:41:14.000Z</time>
   </trkpt>
   <trkpt lat="-8.054166" lon="-34.9019">
    <ele>9.4</ele>
    <time>2019-09-18T14:41:15.000Z</time>
   </trkpt>
   <trkpt lat="-8.054217" lon="-34.901894">
    <ele>9.1</ele>
    <time>2019-09-18T14:41:16.000Z</time>
   </trkpt>
   <trkpt lat="-8.054263" lon="-34.90188">
    <ele>9.2</ele>
    <time>2019-09-18T14:41:17.000Z</time>
   </trkpt>
   <trkpt lat="-8.054298" lon="-34.901863">
    <ele>9.4</ele>
    <time>2019-09-18T14:41:18.000Z</time>
   </trkpt>
   <trkpt lat="-8.05433" lon="-34.901846">
    <ele>9.6</ele>
    <time>2019-09-18T14:41:19.000Z</time>
   </trkpt>
   <trkpt lat="-8.054377" lon="-34.901833">
    <ele>9.8</ele>
    <time>2019-09-18T14:41:20.000Z</time>
   </trkpt>
   <trkpt lat="-8.054419" lon="-34.901822">
    <ele>9.9</ele>
    <time>2019-09-18T14:41:21.000Z</time>
   </trkpt>
   <trkpt lat="-8.054462" lon="-34.901811">
    <ele>10</ele>
    <time>2019-09-18T14:41:22.000Z</time>
   </trkpt>
   <trkpt lat="-8.054508" lon="-34.901796">
    <ele>10</ele>
    <time>2019-09-18T14:41:23.000Z</time>
   </trkpt>
   <trkpt lat="-8.05456" lon="-34.901777">
    <ele>9.8</ele>
    <time>2019-09-18T14:41:24.000Z</time>
   </trkpt>
   <trkpt lat="-8.054591" lon="-34.901744">
    <ele>9.8</ele>
    <time>2019-09-18T14:41:25.000Z</time>
   </trkpt>
   <trkpt lat="-8.054593" lon="-34.901703">
    <ele>9.7</ele>
    <time>2019-09-18T14:41:26.000Z</time>
   </trkpt>
   <trkpt lat="-8.054559" lon="-34.901666">
    <ele>9.7</ele>
    <time>2019-09-18T14:41:27.000Z</time>
   </trkpt>
   <trkpt lat="-8.054551" lon="-34.901631">
    <ele>9.6</ele>
    <time>2019-09-18T14:41:28.000Z</time>
   </trkpt>
   <trkpt lat="-8.05454" lon="-34.901593">
    <ele>9.6</ele>
    <time>2019-09-18T14:41:29.000Z</time>
   </trkpt>
   <trkpt lat="-8.054529" lon="-34.901547">
    <ele>9.8</ele>
    <time>2019-09-18T14:41:30.000Z</time>
   </trkpt>
   <trkpt lat="-8.054523" lon="-34.901513">
    <ele>10.1</ele>
    <time>2019-09-18T14:41:31.000Z</time>
   </trkpt>
   <trkpt lat="-8.054532" lon="-34.901485">
    <ele>10.4</ele>
    <time>2019-09-18T14:41:32.000Z</time>
   </trkpt>
   <trkpt lat="-8.054575" lon="-34.901446">
    <ele>11</ele>
    <time>2019-09-18T14:41:34.000Z</time>
   </trkpt>
   <trkpt lat="-8.054606" lon="-34.901426">
    <ele>11.3</ele>
    <time>2019-09-18T14:41:35.000Z</time>
   </trkpt>
   <trkpt lat="-8.05464" lon="-34.901407">
    <ele>11.5</ele>
    <time>2019-09-18T14:41:36.000Z</time>
   </trkpt>
   <trkpt lat="-8.054663" lon="-34.901383">
    <ele>11.7</ele>
    <time>2019-09-18T14:41:37.000Z</time>
   </trkpt>
   <trkpt lat="-8.054687" lon="-34.901331">
    <ele>12.1</ele>
    <time>2019-09-18T14:41:39.000Z</time>
   </trkpt>
   <trkpt lat="-8.054706" lon="-34.901301">
    <ele>12.2</ele>
    <time>2019-09-18T14:41:40.000Z</time>
   </trkpt>
   <trkpt lat="-8.054739" lon="-34.901256">
    <ele>12.6</ele>
    <time>2019-09-18T14:41:41.000Z</time>
   </trkpt>
   <trkpt lat="-8.054771" lon="-34.901217">
    <ele>12.9</ele>
    <time>2019-09-18T14:41:42.000Z</time>
   </trkpt>
   <trkpt lat="-8.054804" lon="-34.901181">
    <ele>13.3</ele>
    <time>2019-09-18T14:41:43.000Z</time>
   </trkpt>
   <trkpt lat="-8.054834" lon="-34.901142">
    <ele>13.6</ele>
    <time>2019-09-18T14:41:44.000Z</time>
   </trkpt>
   <trkpt lat="-8.054869" lon="-34.901111">
    <ele>13.9</ele>
    <time>2019-09-18T14:41:45.000Z</time>
   </trkpt>
   <trkpt lat="-8.054902" lon="-34.901083">
    <ele>14.2</ele>
    <time>2019-09-18T14:41:46.000Z</time>
   </trkpt>
   <trkpt lat="-8.054926" lon="-34.901054">
    <ele>14.4</ele>
    <time>2019-09-18T14:41:47.000Z</time>
   </trkpt>
   <trkpt lat="-8.05495" lon="-34.901022">
    <ele>14.5</ele>
    <time>2019-09-18T14:41:48.000Z</time>
   </trkpt>
   <trkpt lat="-8.054968" lon="-34.901001">
    <ele>14.6</ele>
    <time>2019-09-18T14:41:49.000Z</time>
   </trkpt>
   <trkpt lat="-8.054991" lon="-34.900978">
    <ele>14.7</ele>
    <time>2019-09-18T14:41:50.000Z</time>
   </trkpt>
   <trkpt lat="-8.055012" lon="-34.900958">
    <ele>14.8</ele>
    <time>2019-09-18T14:41:51.000Z</time>
   </trkpt>
   <trkpt lat="-8.055038" lon="-34.900928">
    <ele>14.8</ele>
    <time>2019-09-18T14:41:52.000Z</time>
   </trkpt>
   <trkpt lat="-8.055063" lon="-34.900889">
    <ele>14.8</ele>
    <time>2019-09-18T14:41:53.000Z</time>
   </trkpt>
   <trkpt lat="-8.055099" lon="-34.900858">
    <ele>14.7</ele>
    <time>2019-09-18T14:41:54.000Z</time>
   </trkpt>
   <trkpt lat="-8.055133" lon="-34.900819">
    <ele>14.5</ele>
    <time>2019-09-18T14:41:55.000Z</time>
   </trkpt>
   <trkpt lat="-8.055168" lon="-34.900788">
    <ele>14.4</ele>
    <time>2019-09-18T14:41:56.000Z</time>
   </trkpt>
   <trkpt lat="-8.055176" lon="-34.900747">
    <ele>14.3</ele>
    <time>2019-09-18T14:41:57.000Z</time>
   </trkpt>
   <trkpt lat="-8.055208" lon="-34.90071">
    <ele>14.2</ele>
    <time>2019-09-18T14:41:58.000Z</time>
   </trkpt>
   <trkpt lat="-8.055242" lon="-34.900671">
    <ele>14.2</ele>
    <time>2019-09-18T14:41:59.000Z</time>
   </trkpt>
   <trkpt lat="-8.055281" lon="-34.90064">
    <ele>13.9</ele>
    <time>2019-09-18T14:42:00.000Z</time>
   </trkpt>
   <trkpt lat="-8.055291" lon="-34.900611">
    <ele>13.8</ele>
    <time>2019-09-18T14:42:01.000Z</time>
   </trkpt>
   <trkpt lat="-8.055313" lon="-34.900629">
    <ele>13.7</ele>
    <time>2019-09-18T14:42:03.000Z</time>
   </trkpt>
   <trkpt lat="-8.055315" lon="-34.900592">
    <ele>13.6</ele>
    <time>2019-09-18T14:42:04.000Z</time>
   </trkpt>
   <trkpt lat="-8.055319" lon="-34.900561">
    <ele>13.5</ele>
    <time>2019-09-18T14:42:05.000Z</time>
   </trkpt>
   <trkpt lat="-8.055316" lon="-34.900527">
    <ele>13.4</ele>
    <time>2019-09-18T14:42:06.000Z</time>
   </trkpt>
   <trkpt lat="-8.055315" lon="-34.900485">
    <ele>13.3</ele>
    <time>2019-09-18T14:42:07.000Z</time>
   </trkpt>
   <trkpt lat="-8.055302" lon="-34.900442">
    <ele>13.1</ele>
    <time>2019-09-18T14:42:08.000Z</time>
   </trkpt>
   <trkpt lat="-8.055305" lon="-34.900405">
    <ele>13</ele>
    <time>2019-09-18T14:42:09.000Z</time>
   </trkpt>
   <trkpt lat="-8.055309" lon="-34.900372">
    <ele>12.9</ele>
    <time>2019-09-18T14:42:10.000Z</time>
   </trkpt>
   <trkpt lat="-8.055318" lon="-34.900337">
    <ele>12.8</ele>
    <time>2019-09-18T14:42:11.000Z</time>
   </trkpt>
   <trkpt lat="-8.05532" lon="-34.900298">
    <ele>12.7</ele>
    <time>2019-09-18T14:42:12.000Z</time>
   </trkpt>
   <trkpt lat="-8.055318" lon="-34.900262">
    <ele>12.6</ele>
    <time>2019-09-18T14:42:13.000Z</time>
   </trkpt>
   <trkpt lat="-8.055313" lon="-34.900225">
    <ele>12.5</ele>
    <time>2019-09-18T14:42:14.000Z</time>
   </trkpt>
   <trkpt lat="-8.055321" lon="-34.900172">
    <ele>12.2</ele>
    <time>2019-09-18T14:42:15.000Z</time>
   </trkpt>
   <trkpt lat="-8.055334" lon="-34.900137">
    <ele>12.4</ele>
    <time>2019-09-18T14:42:16.000Z</time>
   </trkpt>
   <trkpt lat="-8.055372" lon="-34.900137">
    <ele>12.5</ele>
    <time>2019-09-18T14:42:19.000Z</time>
   </trkpt>
   <trkpt lat="-8.055403" lon="-34.900141">
    <ele>12.6</ele>
    <time>2019-09-18T14:42:20.000Z</time>
   </trkpt>
   <trkpt lat="-8.05544" lon="-34.900135">
    <ele>12.7</ele>
    <time>2019-09-18T14:42:21.000Z</time>
   </trkpt>
   <trkpt lat="-8.055483" lon="-34.900128">
    <ele>12.8</ele>
    <time>2019-09-18T14:42:22.000Z</time>
   </trkpt>
   <trkpt lat="-8.055531" lon="-34.900118">
    <ele>12.9</ele>
    <time>2019-09-18T14:42:23.000Z</time>
   </trkpt>
   <trkpt lat="-8.055584" lon="-34.900125">
    <ele>13.1</ele>
    <time>2019-09-18T14:42:24.000Z</time>
   </trkpt>
   <trkpt lat="-8.055635" lon="-34.900112">
    <ele>13.2</ele>
    <time>2019-09-18T14:42:25.000Z</time>
   </trkpt>
   <trkpt lat="-8.055676" lon="-34.900113">
    <ele>13.3</ele>
    <time>2019-09-18T14:42:26.000Z</time>
   </trkpt>
   <trkpt lat="-8.055718" lon="-34.900108">
    <ele>13.5</ele>
    <time>2019-09-18T14:42:27.000Z</time>
   </trkpt>
   <trkpt lat="-8.05576" lon="-34.900106">
    <ele>13.6</ele>
    <time>2019-09-18T14:42:28.000Z</time>
   </trkpt>
   <trkpt lat="-8.055802" lon="-34.900101">
    <ele>13.7</ele>
    <time>2019-09-18T14:42:29.000Z</time>
   </trkpt>
   <trkpt lat="-8.055841" lon="-34.900101">
    <ele>13.8</ele>
    <time>2019-09-18T14:42:30.000Z</time>
   </trkpt>
   <trkpt lat="-8.055878" lon="-34.900098">
    <ele>13.9</ele>
    <time>2019-09-18T14:42:31.000Z</time>
   </trkpt>
   <trkpt lat="-8.05592" lon="-34.900095">
    <ele>14</ele>
    <time>2019-09-18T14:42:32.000Z</time>
   </trkpt>
   <trkpt lat="-8.055956" lon="-34.900088">
    <ele>13</ele>
    <time>2019-09-18T14:42:33.000Z</time>
   </trkpt>
   <trkpt lat="-8.055999" lon="-34.900089">
    <ele>12.9</ele>
    <time>2019-09-18T14:42:34.000Z</time>
   </trkpt>
   <trkpt lat="-8.056031" lon="-34.900091">
    <ele>12.7</ele>
    <time>2019-09-18T14:42:35.000Z</time>
   </trkpt>
   <trkpt lat="-8.05606" lon="-34.900095">
    <ele>12.6</ele>
    <time>2019-09-18T14:42:36.000Z</time>
   </trkpt>
   <trkpt lat="-8.05609" lon="-34.900095">
    <ele>12.5</ele>
    <time>2019-09-18T14:42:37.000Z</time>
   </trkpt>
   <trkpt lat="-8.056119" lon="-34.900097">
    <ele>12.4</ele>
    <time>2019-09-18T14:42:38.000Z</time>
   </trkpt>
   <trkpt lat="-8.056151" lon="-34.900095">
    <ele>12.3</ele>
    <time>2019-09-18T14:42:39.000Z</time>
   </trkpt>
   <trkpt lat="-8.056182" lon="-34.900095">
    <ele>12.1</ele>
    <time>2019-09-18T14:42:40.000Z</time>
   </trkpt>
   <trkpt lat="-8.05621" lon="-34.900099">
    <ele>12</ele>
    <time>2019-09-18T14:42:41.000Z</time>
   </trkpt>
   <trkpt lat="-8.056241" lon="-34.900098">
    <ele>11.9</ele>
    <time>2019-09-18T14:42:42.000Z</time>
   </trkpt>
   <trkpt lat="-8.056294" lon="-34.900107">
    <ele>11.7</ele>
    <time>2019-09-18T14:42:44.000Z</time>
   </trkpt>
   <trkpt lat="-8.056327" lon="-34.900108">
    <ele>11.6</ele>
    <time>2019-09-18T14:42:45.000Z</time>
   </trkpt>
   <trkpt lat="-8.056378" lon="-34.900056">
    <ele>11.3</ele>
    <time>2019-09-18T14:42:47.000Z</time>
   </trkpt>
   <trkpt lat="-8.056417" lon="-34.900055">
    <ele>11.2</ele>
    <time>2019-09-18T14:42:48.000Z</time>
   </trkpt>
   <trkpt lat="-8.056452" lon="-34.900051">
    <ele>11.1</ele>
    <time>2019-09-18T14:42:49.000Z</time>
   </trkpt>
   <trkpt lat="-8.05648" lon="-34.900045">
    <ele>11.1</ele>
    <time>2019-09-18T14:42:50.000Z</time>
   </trkpt>
   <trkpt lat="-8.056509" lon="-34.90004">
    <ele>11</ele>
    <time>2019-09-18T14:42:51.000Z</time>
   </trkpt>
   <trkpt lat="-8.056557" lon="-34.900045">
    <ele>10.8</ele>
    <time>2019-09-18T14:42:53.000Z</time>
   </trkpt>
   <trkpt lat="-8.056612" lon="-34.900061">
    <ele>10.5</ele>
    <time>2019-09-18T14:42:55.000Z</time>
   </trkpt>
   <trkpt lat="-8.056646" lon="-34.900055">
    <ele>10.3</ele>
    <time>2019-09-18T14:43:00.000Z</time>
   </trkpt>
   <trkpt lat="-8.056681" lon="-34.900049">
    <ele>10.2</ele>
    <time>2019-09-18T14:43:32.000Z</time>
   </trkpt>
   <trkpt lat="-8.056715" lon="-34.900043">
    <ele>10</ele>
    <time>2019-09-18T14:43:33.000Z</time>
   </trkpt>
   <trkpt lat="-8.056759" lon="-34.900041">
    <ele>9.8</ele>
    <time>2019-09-18T14:43:34.000Z</time>
   </trkpt>
   <trkpt lat="-8.056805" lon="-34.900038">
    <ele>9.6</ele>
    <time>2019-09-18T14:43:35.000Z</time>
   </trkpt>
   <trkpt lat="-8.05685" lon="-34.900038">
    <ele>9.3</ele>
    <time>2019-09-18T14:43:36.000Z</time>
   </trkpt>
   <trkpt lat="-8.056899" lon="-34.900032">
    <ele>9.1</ele>
    <time>2019-09-18T14:43:37.000Z</time>
   </trkpt>
   <trkpt lat="-8.056942" lon="-34.900026">
    <ele>8.9</ele>
    <time>2019-09-18T14:43:38.000Z</time>
   </trkpt>
   <trkpt lat="-8.056986" lon="-34.900019">
    <ele>8.8</ele>
    <time>2019-09-18T14:43:39.000Z</time>
   </trkpt>
   <trkpt lat="-8.05703" lon="-34.900017">
    <ele>8.8</ele>
    <time>2019-09-18T14:43:40.000Z</time>
   </trkpt>
   <trkpt lat="-8.057075" lon="-34.900015">
    <ele>8.8</ele>
    <time>2019-09-18T14:43:41.000Z</time>
   </trkpt>
   <trkpt lat="-8.057121" lon="-34.900022">
    <ele>8.9</ele>
    <time>2019-09-18T14:43:42.000Z</time>
   </trkpt>
   <trkpt lat="-8.057167" lon="-34.90003">
    <ele>9.1</ele>
    <time>2019-09-18T14:43:43.000Z</time>
   </trkpt>
   <trkpt lat="-8.057209" lon="-34.900036">
    <ele>9.2</ele>
    <time>2019-09-18T14:43:44.000Z</time>
   </trkpt>
   <trkpt lat="-8.057254" lon="-34.900037">
    <ele>9.3</ele>
    <time>2019-09-18T14:43:45.000Z</time>
   </trkpt>
   <trkpt lat="-8.057293" lon="-34.900033">
    <ele>9.4</ele>
    <time>2019-09-18T14:43:46.000Z</time>
   </trkpt>
   <trkpt lat="-8.057328" lon="-34.90003">
    <ele>9.5</ele>
    <time>2019-09-18T14:43:47.000Z</time>
   </trkpt>
   <trkpt lat="-8.057369" lon="-34.900039">
    <ele>9.6</ele>
    <time>2019-09-18T14:43:48.000Z</time>
   </trkpt>
   <trkpt lat="-8.057401" lon="-34.900043">
    <ele>9.7</ele>
    <time>2019-09-18T14:43:49.000Z</time>
   </trkpt>
   <trkpt lat="-8.057434" lon="-34.900041">
    <ele>9.8</ele>
    <time>2019-09-18T14:43:50.000Z</time>
   </trkpt>
   <trkpt lat="-8.057472" lon="-34.900031">
    <ele>9.8</ele>
    <time>2019-09-18T14:43:52.000Z</time>
   </trkpt>
   <trkpt lat="-8.057481" lon="-34.899998">
    <ele>9.8</ele>
    <time>2019-09-18T14:43:54.000Z</time>
   </trkpt>
   <trkpt lat="-8.057481" lon="-34.899953">
    <ele>9.3</ele>
    <time>2019-09-18T14:43:56.000Z</time>
   </trkpt>
   <trkpt lat="-8.057478" lon="-34.899899">
    <ele>9</ele>
    <time>2019-09-18T14:43:58.000Z</time>
   </trkpt>
   <trkpt lat="-8.05748" lon="-34.899867">
    <ele>8.8</ele>
    <time>2019-09-18T14:43:59.000Z</time>
   </trkpt>
   <trkpt lat="-8.057473" lon="-34.899819">
    <ele>8.5</ele>
    <time>2019-09-18T14:44:00.000Z</time>
   </trkpt>
   <trkpt lat="-8.057466" lon="-34.899777">
    <ele>8.3</ele>
    <time>2019-09-18T14:44:01.000Z</time>
   </trkpt>
   <trkpt lat="-8.057472" lon="-34.899735">
    <ele>8.1</ele>
    <time>2019-09-18T14:44:02.000Z</time>
   </trkpt>
   <trkpt lat="-8.057466" lon="-34.899702">
    <ele>7.9</ele>
    <time>2019-09-18T14:44:03.000Z</time>
   </trkpt>
   <trkpt lat="-8.057461" lon="-34.899672">
    <ele>7.7</ele>
    <time>2019-09-18T14:44:04.000Z</time>
   </trkpt>
   <trkpt lat="-8.057459" lon="-34.899622">
    <ele>7.3</ele>
    <time>2019-09-18T14:44:05.000Z</time>
   </trkpt>
   <trkpt lat="-8.057468" lon="-34.899571">
    <ele>7.2</ele>
    <time>2019-09-18T14:44:06.000Z</time>
   </trkpt>
   <trkpt lat="-8.05747" lon="-34.899534">
    <ele>7.2</ele>
    <time>2019-09-18T14:44:07.000Z</time>
   </trkpt>
   <trkpt lat="-8.057485" lon="-34.899496">
    <ele>7.1</ele>
    <time>2019-09-18T14:44:08.000Z</time>
   </trkpt>
   <trkpt lat="-8.057492" lon="-34.899465">
    <ele>7.1</ele>
    <time>2019-09-18T14:44:09.000Z</time>
   </trkpt>
   <trkpt lat="-8.057498" lon="-34.899432">
    <ele>7</ele>
    <time>2019-09-18T14:44:10.000Z</time>
   </trkpt>
   <trkpt lat="-8.057498" lon="-34.899383">
    <ele>6.9</ele>
    <time>2019-09-18T14:44:11.000Z</time>
   </trkpt>
   <trkpt lat="-8.057495" lon="-34.89932">
    <ele>6.7</ele>
    <time>2019-09-18T14:44:13.000Z</time>
   </trkpt>
   <trkpt lat="-8.057505" lon="-34.899287">
    <ele>6.6</ele>
    <time>2019-09-18T14:44:14.000Z</time>
   </trkpt>
   <trkpt lat="-8.057516" lon="-34.899246">
    <ele>6.5</ele>
    <time>2019-09-18T14:44:16.000Z</time>
   </trkpt>
   <trkpt lat="-8.057524" lon="-34.89922">
    <ele>6.5</ele>
    <time>2019-09-18T14:44:17.000Z</time>
   </trkpt>
   <trkpt lat="-8.057549" lon="-34.899187">
    <ele>6.4</ele>
    <time>2019-09-18T14:44:21.000Z</time>
   </trkpt>
   <trkpt lat="-8.057567" lon="-34.899164">
    <ele>6.3</ele>
    <time>2019-09-18T14:44:22.000Z</time>
   </trkpt>
   <trkpt lat="-8.057595" lon="-34.899142">
    <ele>6.3</ele>
    <time>2019-09-18T14:44:23.000Z</time>
   </trkpt>
   <trkpt lat="-8.057616" lon="-34.899119">
    <ele>6.3</ele>
    <time>2019-09-18T14:44:25.000Z</time>
   </trkpt>
   <trkpt lat="-8.057641" lon="-34.899109">
    <ele>6.3</ele>
    <time>2019-09-18T14:44:27.000Z</time>
   </trkpt>
   <trkpt lat="-8.05767" lon="-34.89911">
    <ele>6.3</ele>
    <time>2019-09-18T14:44:30.000Z</time>
   </trkpt>
   <trkpt lat="-8.0577" lon="-34.899118">
    <ele>6.3</ele>
    <time>2019-09-18T14:44:37.000Z</time>
   </trkpt>
   <trkpt lat="-8.057736" lon="-34.899128">
    <ele>6.4</ele>
    <time>2019-09-18T14:44:40.000Z</time>
   </trkpt>
   <trkpt lat="-8.057769" lon="-34.899133">
    <ele>6.4</ele>
    <time>2019-09-18T14:44:43.000Z</time>
   </trkpt>
   <trkpt lat="-8.0578" lon="-34.899125">
    <ele>6.4</ele>
    <time>2019-09-18T14:44:49.000Z</time>
   </trkpt>
   <trkpt lat="-8.057917" lon="-34.899077">
    <ele>6.4</ele>
    <time>2019-09-18T14:45:05.000Z</time>
   </trkpt>
   <trkpt lat="-8.057959" lon="-34.899024">
    <ele>6.4</ele>
    <time>2019-09-18T14:45:15.000Z</time>
   </trkpt>
   <trkpt lat="-8.057936" lon="-34.899068">
    <ele>6.4</ele>
    <time>2019-09-18T14:45:24.000Z</time>
   </trkpt>
   <trkpt lat="-8.057911" lon="-34.899051">
    <ele>6.5</ele>
    <time>2019-09-18T14:45:37.000Z</time>
   </trkpt>
  </trkseg>
 </trk>
</gpx>
